{
  "id": 1729357037,
  "type": "Feature",
  "properties": {
    "date:cessation_lower": "2019-01-27",
    "date:cessation_upper": "2019-01-27",
    "date:inception_lower": "2019-01-27",
    "date:inception_upper": "2019-01-27",
    "edtf:cessation": "2019-01-27T05:33:00-08:00",
    "edtf:inception": "2019-01-27T05:33:00-08:00",
    "geom:area": 0,
    "geom:bbox": "-122.386166,37.616356,-122.386166,37.616356",
    "geom:latitude": 37.616356,
    "geom:longitude": -122.386166,
    "instagram:post": {
      "caption": {
        "body": "In his series, \"This World and Others Like It\", artist Drew Nikonowicz draws upon the language of nineteenth-century survey images to investigate the role of the explorer in present times. Seamlessly merging computer-generated images with large format analog photographs, Nikonowicz explores the contemporary landscape without discriminating between images born in virtual reality and those made in a more traditional fashion. Nikonowicz renders each image in a consistently straightforward aesthetic regardless of how it came to be—some are extracted as screen shots from online video games, others are modeled in CAD, and others were shot on film in mountainous regions across the United States.  See \"This World and Others Like It\" by Drew Nikonowicz on display, pre-security, in Terminal 3. http://ow.ly/SGyA50kjZrZ . . .",
        "excerpt": "In his series, \"This World and Others Like It\", artist Drew Nikonowicz draws upon the language of nineteenth-century survey images to investigate the role of the explorer in present times.",
        "hashtags": [
          "photography",
          "DrewNikonowicz",
          "photographer",
          "photograph",
          "CGI",
          "CAD",
          "videogames",
          "moonlanding",
          "analog",
          "landscape",
          "explorer",
          "virtualreality",
          "reality",
          "aesthetics",
          "film",
          "35mm"
        ],
        "users": [
          "drew_nikonowicz"
        ]
      },
      "media_id": "51910e5aa111958a4adbb3bc13b21bc5",
      "path": "media/other/49907060_116017026136744_2257511582439345835_n_18018935560075060.jpg",
      "perceptual_hash": "p:920b1b5b4e59c15f",
      "taken": 1548595980,
      "taken_at": "Jan 27, 2019 1:33 pm"
    },
    "millsfield:similar": {
      "google/siglip2-so400m-patch16-naflex": [
        {
          "distance": 0.22289711236953735,
          "id": 1729356985
        },
        {
          "distance": 0.23685353994369507,
          "id": 1729356985
        },
        {
          "distance": 0.27898621559143066,
          "id": 1729356871
        },
        {
          "distance": 0.295213520526886,
          "id": 1729361573
        },
        {
          "distance": 0.2980368137359619,
          "id": 1729356259
        },
        {
          "distance": 0.30112314224243164,
          "id": 1729357751
        },
        {
          "distance": 0.3027406930923462,
          "id": 1729357001
        },
        {
          "distance": 0.30780285596847534,
          "id": 1729360597
        },
        {
          "distance": 0.3086715340614319,
          "id": 1763559539
        },
        {
          "distance": 0.3104116916656494,
          "id": 1729360919
        }
      ]
    },
    "sfomuseum:placetype": "instagram",
    "src:geom": "sfomuseum",
    "wof:belongsto": [
      1159160869,
      102527513,
      102191575,
      85633793,
      102087579,
      85922583,
      85688637
    ],
    "wof:country": "US",
    "wof:created": 1548595980,
    "wof:geomhash": "b6e33f47475d56bc8da457bc31afadc8",
    "wof:hierarchy": [
      {
        "building_id": 1159160869,
        "campus_id": 102527513,
        "continent_id": 102191575,
        "country_id": 85633793,
        "county_id": 102087579,
        "custom_id": 1729357037,
        "instagram_id": 1729357037,
        "locality_id": 85922583,
        "neighbourhood_id": -1,
        "region_id": 85688637
      }
    ],
    "wof:id": 1729357037,
    "wof:lastmodified": 1787777629,
    "wof:name": "In his series, \"This World and Others Like It\", artist Drew Nikonowicz draws upon the language of nineteenth-century survey images to investigate the role of the explorer in present times...",
    "wof:parent_id": 1159160869,
    "wof:placetype": "custom",
    "wof:placetype_alt": [
      "instagram"
    ],
    "wof:repo": "sfomuseum-data-socialmedia-instagram",
    "wof:superseded_by": [],
    "wof:supersedes": []
  },
  "bbox": [
    -122.386166,
    37.616356,
    -122.386166,
    37.616356
  ],
  "geometry": {"type":"Point","coordinates":[-122.386166,37.616356]}
}
