{
  "id": 1729360913,
  "type": "Feature",
  "properties": {
    "date:cessation_lower": "2016-03-22",
    "date:cessation_upper": "2016-03-22",
    "date:inception_lower": "2016-03-22",
    "date:inception_upper": "2016-03-22",
    "edtf:cessation": "2016-03-22T08:15:00-07:00",
    "edtf:inception": "2016-03-22T08:15:00-07:00",
    "geom:area": 0,
    "geom:bbox": "-122.386166,37.616356,-122.386166,37.616356",
    "geom:latitude": 37.616356,
    "geom:longitude": -122.386166,
    "instagram:post": {
      "caption": {
        "body": "In 1970, PSA (Pacific Southwest Airlines) introduced eye-catching pink and apricot flight attendant uniforms and showcased them on their ticket jackets. Most airlines have phased out ticket jackets, and they have become collectors’ items. Do you remember ticket jackets? “Catch Our Style” is on display, pre-security, in the Aviation Museum and Library in the International Terminal. The Aviation Museum and Library is open from Sunday through Friday, 10am to 4:30pm or check out our online exhibition at: http://www.flysfo.com/museum/exhibitions/catch-our-style-california-regional-airlines-1950s%E2%80%931980s",
        "excerpt": "In 1970, PSA (Pacific Southwest Airlines) introduced eye-catching pink and apricot flight attendant uniforms and showcased them on their ticket jackets.",
        "hashtags": [],
        "users": []
      },
      "media_id": "94da2721217ba3e1dbd7308e80c43637",
      "path": "media/other/10369382_980989015318169_2124209706_n_17845928023120075.jpg",
      "perceptual_hash": "p:af88e0774e1b99a4",
      "taken": 1458659700,
      "taken_at": "Mar 22, 2016 3:15 pm"
    },
    "millsfield:similar": {
      "google/siglip2-so400m-patch16-naflex": [
        {
          "distance": 0.2939101457595825,
          "id": 1729358977
        },
        {
          "distance": 0.33344751596450806,
          "id": 1729358977
        },
        {
          "distance": 0.34409064054489136,
          "id": 1729358923
        },
        {
          "distance": 0.35082370042800903,
          "id": 1729358923
        },
        {
          "distance": 0.3587861657142639,
          "id": 1729361795
        },
        {
          "distance": 0.3629525303840637,
          "id": 1729360733
        },
        {
          "distance": 0.36360496282577515,
          "id": 1729358461
        },
        {
          "distance": 0.3641135096549988,
          "id": 1729355691
        },
        {
          "distance": 0.3666055202484131,
          "id": 1947424989
        },
        {
          "distance": 0.37033212184906006,
          "id": 1729359935
        }
      ]
    },
    "sfomuseum:placetype": "instagram",
    "src:geom": "sfomuseum",
    "wof:belongsto": [
      1159160869,
      102527513,
      102191575,
      85633793,
      102087579,
      85922583,
      85688637
    ],
    "wof:country": "US",
    "wof:created": 1458659700,
    "wof:geomhash": "b6e33f47475d56bc8da457bc31afadc8",
    "wof:hierarchy": [
      {
        "building_id": 1159160869,
        "campus_id": 102527513,
        "continent_id": 102191575,
        "country_id": 85633793,
        "county_id": 102087579,
        "custom_id": 1729360913,
        "instagram_id": 1729360913,
        "locality_id": 85922583,
        "neighbourhood_id": -1,
        "region_id": 85688637
      }
    ],
    "wof:id": 1729360913,
    "wof:lastmodified": 1787777640,
    "wof:name": "In 1970, PSA (Pacific Southwest Airlines) introduced eye-catching pink and apricot flight attendant uniforms and showcased them on their ticket jackets...",
    "wof:parent_id": 1159160869,
    "wof:placetype": "custom",
    "wof:placetype_alt": [
      "instagram"
    ],
    "wof:repo": "sfomuseum-data-socialmedia-instagram",
    "wof:superseded_by": [],
    "wof:supersedes": []
  },
  "bbox": [
    -122.386166,
    37.616356,
    -122.386166,
    37.616356
  ],
  "geometry": {"type":"Point","coordinates":[-122.386166,37.616356]}
}
