{
  "id": 1763559101,
  "type": "Feature",
  "properties": {
    "date:cessation_lower": "2021-06-16",
    "date:cessation_upper": "2021-06-16",
    "date:inception_lower": "2021-06-16",
    "date:inception_upper": "2021-06-16",
    "edtf:cessation": "2021-06-16T08:50:00-07:00",
    "edtf:inception": "2021-06-16T08:50:00-07:00",
    "geom:area": 0,
    "geom:bbox": "-122.386166,37.616356,-122.386166,37.616356",
    "geom:latitude": 37.616356,
    "geom:longitude": -122.386166,
    "instagram:post": {
      "caption": {
        "body": "Introduced in 1952, the de Havilland D.H. 106 Comet was the first commercial passenger jetliner to enter service, years before the introduction of other jetliners. Initially seen as a major landmark in aeronautical engineering, after intermittent operation and several disastrous structural failures, service and production were canceled until airframe engineering deficiencies could be corrected. As a result, after many years of redesigning, the much-improved, lengthened, Comet Mk. 4 was finally delivered to BOAC (British Overseas Airways Corporation) in 1958. Shortly after, the airline inaugurated regular transatlantic jet service from London to New York with one refueling stop in Newfoundland. BEA (British European Airways) inaugurated shorter-range Comet Mk. 4B service on its Tel Aviv to London route in April 1960. The Comet Mk. 4 had a cruising speed of just over five hundred miles an hour and comfortably accommodated up to eighty-one passengers, but ultimately could not compete with the Boeing 707 or the Douglas DC-8.",
        "excerpt": "Introduced in 1952, the de Havilland D.H. 106 Comet was the first commercial passenger jetliner to enter service, years before the introduction of other jetliners.",
        "hashtags": [
          "WingWednesday",
          "avgeek",
          "airplane",
          "dehavilland",
          "dehavillandcomet",
          "jet"
        ],
        "users": []
      },
      "media_id": "e3ad94b29f59274b6bdf47c5726f52bbdcc024a6",
      "path": "media/posts/202106/201858907_243212554273912_1239778344467014615_n_17970215140406757.jpg",
      "perceptual_hash": "p:af40c13be08f78f1",
      "taken": 1623858600,
      "taken_at": "Jun 16, 2021 3:50 pm"
    },
    "millsfield:similar": {
      "google/siglip2-so400m-patch16-naflex": [
        {
          "distance": 0.03834819793701172,
          "id": 1729357619
        },
        {
          "distance": 0.06648868322372437,
          "id": 1763559587
        },
        {
          "distance": 0.0942506194114685,
          "id": 1763559587
        },
        {
          "distance": 0.09963154792785645,
          "id": 1729357619
        },
        {
          "distance": 0.13960862159729004,
          "id": 1729357837
        },
        {
          "distance": 0.1491352915763855,
          "id": 1729357673
        },
        {
          "distance": 0.1543319821357727,
          "id": 1729357123
        },
        {
          "distance": 0.1557578444480896,
          "id": 1729356909
        },
        {
          "distance": 0.15841364860534668,
          "id": 1729358643
        },
        {
          "distance": 0.16301202774047852,
          "id": 1729358529
        }
      ]
    },
    "sfomuseum:placetype": "instagram",
    "src:geom": "sfomuseum",
    "wof:belongsto": [
      1159160869,
      102527513,
      102191575,
      85633793,
      102087579,
      85922583,
      85688637
    ],
    "wof:country": "US",
    "wof:created": 1623858600,
    "wof:geomhash": "b6e33f47475d56bc8da457bc31afadc8",
    "wof:hierarchy": [
      {
        "building_id": 1159160869,
        "campus_id": 102527513,
        "continent_id": 102191575,
        "country_id": 85633793,
        "county_id": 102087579,
        "custom_id": 1763559101,
        "instagram_id": 1763559101,
        "locality_id": 85922583,
        "neighbourhood_id": -1,
        "region_id": 85688637
      }
    ],
    "wof:id": 1763559101,
    "wof:lastmodified": 1787777660,
    "wof:name": "Introduced in 1952, the de Havilland D.H. 106 Comet was the first commercial passenger jetliner to enter service, years before the introduction of other jetliners...",
    "wof:parent_id": 1159160869,
    "wof:placetype": "custom",
    "wof:placetype_alt": [
      "instagram"
    ],
    "wof:repo": "sfomuseum-data-socialmedia-instagram",
    "wof:superseded_by": [],
    "wof:supersedes": []
  },
  "bbox": [
    -122.386166,
    37.616356,
    -122.386166,
    37.616356
  ],
  "geometry": {"type":"Point","coordinates":[-122.386166,37.616356]}
}
