{
  "id": 1729362601,
  "type": "Feature",
  "properties": {
    "date:cessation_lower": "2013-08-02",
    "date:cessation_upper": "2013-08-02",
    "date:inception_lower": "2013-08-02",
    "date:inception_upper": "2013-08-02",
    "edtf:cessation": "2013-08-02T02:47:00-07:00",
    "edtf:inception": "2013-08-02T02:47:00-07:00",
    "geom:area": 0,
    "geom:bbox": "-122.386166,37.616356,-122.386166,37.616356",
    "geom:latitude": 37.616356,
    "geom:longitude": -122.386166,
    "instagram:post": {
      "caption": {
        "body": "",
        "excerpt": "",
        "hashtags": [
          "AmericasCup."
        ],
        "users": []
      },
      "media_id": "8c0b24536f970ab5a02ffac469bc2ed5",
      "path": "media/other/11374752_862490987164785_1203393837_n_17842346770062499.jpg",
      "perceptual_hash": "p:cdb45261a3de9487",
      "taken": 1375436820,
      "taken_at": "Aug 02, 2013 9:47 am"
    },
    "millsfield:similar": {
      "google/siglip2-so400m-patch16-naflex": [
        {
          "distance": 0.22511965036392212,
          "id": 1729362515
        },
        {
          "distance": 0.26656901836395264,
          "id": 1729362649
        },
        {
          "distance": 0.27084439992904663,
          "id": 1729362515
        },
        {
          "distance": 0.28603243827819824,
          "id": 1729359211
        },
        {
          "distance": 0.2965487837791443,
          "id": 1729362473
        },
        {
          "distance": 0.29680633544921875,
          "id": 1729362473
        },
        {
          "distance": 0.3023114800453186,
          "id": 1729362649
        },
        {
          "distance": 0.3042733073234558,
          "id": 1729362245
        },
        {
          "distance": 0.3090624213218689,
          "id": 1729362327
        },
        {
          "distance": 0.31330984830856323,
          "id": 1729362327
        }
      ]
    },
    "sfomuseum:placetype": "instagram",
    "src:geom": "sfomuseum",
    "wof:belongsto": [
      1159160869,
      102527513,
      102191575,
      85633793,
      102087579,
      85922583,
      85688637
    ],
    "wof:country": "US",
    "wof:created": 1375436820,
    "wof:geomhash": "b6e33f47475d56bc8da457bc31afadc8",
    "wof:hierarchy": [
      {
        "building_id": 1159160869,
        "campus_id": 102527513,
        "continent_id": 102191575,
        "country_id": 85633793,
        "county_id": 102087579,
        "custom_id": 1729362601,
        "instagram_id": 1729362601,
        "locality_id": 85922583,
        "neighbourhood_id": -1,
        "region_id": 85688637
      }
    ],
    "wof:id": 1729362601,
    "wof:lastmodified": 1787777647,
    "wof:name": "..",
    "wof:parent_id": 1159160869,
    "wof:placetype": "custom",
    "wof:placetype_alt": [
      "instagram"
    ],
    "wof:repo": "sfomuseum-data-socialmedia-instagram",
    "wof:superseded_by": [],
    "wof:supersedes": []
  },
  "bbox": [
    -122.386166,
    37.616356,
    -122.386166,
    37.616356
  ],
  "geometry": {"type":"Point","coordinates":[-122.386166,37.616356]}
}
