{
  "id": 1729360619,
  "type": "Feature",
  "properties": {
    "date:cessation_lower": "2016-06-12",
    "date:cessation_upper": "2016-06-12",
    "date:inception_lower": "2016-06-12",
    "date:inception_upper": "2016-06-12",
    "edtf:cessation": "2016-06-12T04:38:00-07:00",
    "edtf:inception": "2016-06-12T04:38:00-07:00",
    "geom:area": 0,
    "geom:bbox": "-122.386166,37.616356,-122.386166,37.616356",
    "geom:latitude": 37.616356,
    "geom:longitude": -122.386166,
    "instagram:post": {
      "caption": {
        "body": "In June of 1948, San Francisco International Airport exceeded one million annual passengers. The once spacious airport lobby quickly became outdated as more airline ticket counters competed for space. #SFOHistory  San Francisco International Airport (SFO), passenger waiting room 1954 SFO Museum Collection 2011.032.0406",
        "excerpt": "In June of 1948, San Francisco International Airport exceeded one million annual passengers.",
        "hashtags": [],
        "users": []
      },
      "media_id": "2dda2bdc93fac456d6925ca97f5b6ef0",
      "path": "media/other/13380868_1030471747032174_789036513_n_17848415380103205.jpg",
      "perceptual_hash": "p:c07fd9340f78270d",
      "taken": 1465731480,
      "taken_at": "Jun 12, 2016 11:38 am"
    },
    "millsfield:similar": {
      "google/siglip2-so400m-patch16-naflex": [
        {
          "distance": 0.16014385223388672,
          "id": 1729361593
        },
        {
          "distance": 0.16137558221817017,
          "id": 1729360637
        },
        {
          "distance": 0.17994272708892822,
          "id": 1729359719
        },
        {
          "distance": 0.18467682600021362,
          "id": 1729359497
        },
        {
          "distance": 0.18558067083358765,
          "id": 1880151449
        },
        {
          "distance": 0.19830352067947388,
          "id": 1947425253
        },
        {
          "distance": 0.2021309733390808,
          "id": 1729361525
        },
        {
          "distance": 0.20689016580581665,
          "id": 1729360121
        },
        {
          "distance": 0.21188771724700928,
          "id": 1729361615
        },
        {
          "distance": 0.22412574291229248,
          "id": 1763559425
        }
      ]
    },
    "sfomuseum:placetype": "instagram",
    "src:geom": "sfomuseum",
    "wof:belongsto": [
      1159160869,
      102527513,
      102191575,
      85633793,
      102087579,
      85922583,
      85688637
    ],
    "wof:country": "US",
    "wof:created": 1465731480,
    "wof:geomhash": "b6e33f47475d56bc8da457bc31afadc8",
    "wof:hierarchy": [
      {
        "building_id": 1159160869,
        "campus_id": 102527513,
        "continent_id": 102191575,
        "country_id": 85633793,
        "county_id": 102087579,
        "custom_id": 1729360619,
        "instagram_id": 1729360619,
        "locality_id": 85922583,
        "neighbourhood_id": -1,
        "region_id": 85688637
      }
    ],
    "wof:id": 1729360619,
    "wof:lastmodified": 1787777640,
    "wof:name": "In June of 1948, San Francisco International Airport exceeded one million annual passengers...",
    "wof:parent_id": 1159160869,
    "wof:placetype": "custom",
    "wof:placetype_alt": [
      "instagram"
    ],
    "wof:repo": "sfomuseum-data-socialmedia-instagram",
    "wof:superseded_by": [],
    "wof:supersedes": []
  },
  "bbox": [
    -122.386166,
    37.616356,
    -122.386166,
    37.616356
  ],
  "geometry": {"type":"Point","coordinates":[-122.386166,37.616356]}
}
