{
  "id": 1763559593,
  "type": "Feature",
  "properties": {
    "date:cessation_lower": "2022-02-23",
    "date:cessation_upper": "2022-02-23",
    "date:inception_lower": "2022-02-23",
    "date:inception_upper": "2022-02-23",
    "edtf:cessation": "2022-02-23T04:52:00-08:00",
    "edtf:inception": "2022-02-23T04:52:00-08:00",
    "geom:area": 0,
    "geom:bbox": "-122.386166,37.616356,-122.386166,37.616356",
    "geom:latitude": 37.616356,
    "geom:longitude": -122.386166,
    "instagram:post": {
      "caption": {
        "body": "Fred Eversley worked as an aerospace engineer until 1967 when he turned to making sculpture. As a medium, he uses transparent polyester resin to create rich optical experiences. To make these discs, the liquid plastic is spun around a vertical axis. The resulting centrifugal and gravitational accelerations form the concave surfaces.  See “Untitled” by Fred Eversley on display in the post-security connector between Terminal 1 and Terminal 2 or online at: http://bit.ly/2H9uX0I",
        "excerpt": "Fred Eversley worked as an aerospace engineer until 1967 when he turned to making sculpture.",
        "hashtags": [
          "BlackHistoryMonth",
          "PublicArt",
          "FredEversley"
        ],
        "users": [
          "sfac_public_art_collection"
        ]
      },
      "media_id": "888817f9e34cea69a8d396cf3f9eaffb4b1e2d93",
      "path": "media/posts/202202/274599437_687822019217918_8030628124938143203_n_18188839012090658.jpg",
      "perceptual_hash": "p:d5a5586a96da2533",
      "taken": 1645620720,
      "taken_at": "Feb 23, 2022 12:52 pm"
    },
    "millsfield:similar": {
      "google/siglip2-so400m-patch16-naflex": [
        {
          "distance": 0.1771349310874939,
          "id": 1729358827
        },
        {
          "distance": 0.20275187492370605,
          "id": 1729358827
        },
        {
          "distance": 0.22624027729034424,
          "id": 1763559521
        },
        {
          "distance": 0.24662327766418457,
          "id": 1763559355
        },
        {
          "distance": 0.2627158761024475,
          "id": 1763559579
        },
        {
          "distance": 0.26456040143966675,
          "id": 1763559641
        },
        {
          "distance": 0.26715296506881714,
          "id": 1763559685
        },
        {
          "distance": 0.26945823431015015,
          "id": 1947425295
        },
        {
          "distance": 0.27187198400497437,
          "id": 1729355435
        },
        {
          "distance": 0.27466994524002075,
          "id": 1729357999
        }
      ]
    },
    "sfomuseum:placetype": "instagram",
    "src:geom": "sfomuseum",
    "wof:belongsto": [
      1159160869,
      102527513,
      102191575,
      85633793,
      102087579,
      85922583,
      85688637
    ],
    "wof:country": "US",
    "wof:created": 1645620720,
    "wof:geomhash": "b6e33f47475d56bc8da457bc31afadc8",
    "wof:hierarchy": [
      {
        "building_id": 1159160869,
        "campus_id": 102527513,
        "continent_id": 102191575,
        "country_id": 85633793,
        "county_id": 102087579,
        "custom_id": 1763559593,
        "instagram_id": 1763559593,
        "locality_id": 85922583,
        "neighbourhood_id": -1,
        "region_id": 85688637
      }
    ],
    "wof:id": 1763559593,
    "wof:lastmodified": 1787777660,
    "wof:name": "Fred Eversley worked as an aerospace engineer until 1967 when he turned to making sculpture...",
    "wof:parent_id": 1159160869,
    "wof:placetype": "custom",
    "wof:placetype_alt": [
      "instagram"
    ],
    "wof:repo": "sfomuseum-data-socialmedia-instagram",
    "wof:superseded_by": [],
    "wof:supersedes": []
  },
  "bbox": [
    -122.386166,
    37.616356,
    -122.386166,
    37.616356
  ],
  "geometry": {"type":"Point","coordinates":[-122.386166,37.616356]}
}
