{
  "id": 1729360653,
  "type": "Feature",
  "properties": {
    "date:cessation_lower": "2016-06-03",
    "date:cessation_upper": "2016-06-03",
    "date:inception_lower": "2016-06-03",
    "date:inception_upper": "2016-06-03",
    "edtf:cessation": "2016-06-03T11:31:00-07:00",
    "edtf:inception": "2016-06-03T11:31:00-07:00",
    "geom:area": 0,
    "geom:bbox": "-122.386166,37.616356,-122.386166,37.616356",
    "geom:latitude": 37.616356,
    "geom:longitude": -122.386166,
    "instagram:post": {
      "caption": {
        "body": "",
        "excerpt": "",
        "hashtags": [
          "FashionInFlight"
        ],
        "users": []
      },
      "media_id": "5979a714f50002f82ba0f0e0e4f18bad",
      "path": "media/other/13320195_1120810477977326_1615293053_n_17857328167027938.jpg",
      "perceptual_hash": "p:b2fc42a93f612792",
      "taken": 1464978660,
      "taken_at": "Jun 03, 2016 6:31 pm"
    },
    "millsfield:similar": {
      "google/siglip2-so400m-patch16-naflex": [
        {
          "distance": 0.20325422286987305,
          "id": 1729360547
        },
        {
          "distance": 0.22958213090896606,
          "id": 1729359757
        },
        {
          "distance": 0.2332887053489685,
          "id": 1729360547
        },
        {
          "distance": 0.24289333820343018,
          "id": 1729355689
        },
        {
          "distance": 0.2550472617149353,
          "id": 1947425287
        },
        {
          "distance": 0.2553554177284241,
          "id": 1947425287
        },
        {
          "distance": 0.2648766040802002,
          "id": 1729356031
        },
        {
          "distance": 0.26574844121932983,
          "id": 1729356275
        },
        {
          "distance": 0.26933830976486206,
          "id": 1880151179
        },
        {
          "distance": 0.2703821659088135,
          "id": 1880151337
        }
      ]
    },
    "sfomuseum:placetype": "instagram",
    "src:geom": "sfomuseum",
    "wof:belongsto": [
      1159160869,
      102527513,
      102191575,
      85633793,
      102087579,
      85922583,
      85688637
    ],
    "wof:country": "US",
    "wof:created": 1464978660,
    "wof:geomhash": "b6e33f47475d56bc8da457bc31afadc8",
    "wof:hierarchy": [
      {
        "building_id": 1159160869,
        "campus_id": 102527513,
        "continent_id": 102191575,
        "country_id": 85633793,
        "county_id": 102087579,
        "custom_id": 1729360653,
        "instagram_id": 1729360653,
        "locality_id": 85922583,
        "neighbourhood_id": -1,
        "region_id": 85688637
      }
    ],
    "wof:id": 1729360653,
    "wof:lastmodified": 1787777640,
    "wof:name": "..",
    "wof:parent_id": 1159160869,
    "wof:placetype": "custom",
    "wof:placetype_alt": [
      "instagram"
    ],
    "wof:repo": "sfomuseum-data-socialmedia-instagram",
    "wof:superseded_by": [],
    "wof:supersedes": []
  },
  "bbox": [
    -122.386166,
    37.616356,
    -122.386166,
    37.616356
  ],
  "geometry": {"type":"Point","coordinates":[-122.386166,37.616356]}
}
