{
  "id": 1729361217,
  "type": "Feature",
  "properties": {
    "date:cessation_lower": "2016-01-01",
    "date:cessation_upper": "2016-01-01",
    "date:inception_lower": "2016-01-01",
    "date:inception_upper": "2016-01-01",
    "edtf:cessation": "2016-01-01T07:36:00-08:00",
    "edtf:inception": "2016-01-01T07:36:00-08:00",
    "geom:area": 0,
    "geom:bbox": "-122.386166,37.616356,-122.386166,37.616356",
    "geom:latitude": 37.616356,
    "geom:longitude": -122.386166,
    "instagram:post": {
      "caption": {
        "body": "The Aviation Museum \u0026 Library is closed today but all other exhibitions in the airport are open.",
        "excerpt": "The Aviation Museum \u0026 Library is closed today but all other exhibitions in the airport are open.",
        "hashtags": [],
        "users": []
      },
      "media_id": "8ed4daa7282db0c0e0b5c2150729f947",
      "path": "media/other/10412960_543996462442719_474266027_n_17852760202045319.jpg",
      "perceptual_hash": "p:b06b4f308acb663e",
      "taken": 1451662560,
      "taken_at": "Jan 01, 2016 3:36 pm"
    },
    "millsfield:similar": {
      "google/siglip2-so400m-patch16-naflex": [
        {
          "distance": 0.2372719645500183,
          "id": 1729359973
        },
        {
          "distance": 0.26520538330078125,
          "id": 1729359973
        },
        {
          "distance": 0.40969187021255493,
          "id": 1729361197
        },
        {
          "distance": 0.41596245765686035,
          "id": 1729359011
        },
        {
          "distance": 0.4162595868110657,
          "id": 1729361197
        },
        {
          "distance": 0.4168444275856018,
          "id": 1729359011
        },
        {
          "distance": 0.4252309799194336,
          "id": 1947425197
        },
        {
          "distance": 0.4262698292732239,
          "id": 1729357789
        },
        {
          "distance": 0.4285620450973511,
          "id": 1729361577
        },
        {
          "distance": 0.4351719617843628,
          "id": 1729357593
        }
      ]
    },
    "sfomuseum:placetype": "instagram",
    "src:geom": "sfomuseum",
    "wof:belongsto": [
      1159160869,
      102527513,
      102191575,
      85633793,
      102087579,
      85922583,
      85688637
    ],
    "wof:country": "US",
    "wof:created": 1451662560,
    "wof:geomhash": "b6e33f47475d56bc8da457bc31afadc8",
    "wof:hierarchy": [
      {
        "building_id": 1159160869,
        "campus_id": 102527513,
        "continent_id": 102191575,
        "country_id": 85633793,
        "county_id": 102087579,
        "custom_id": 1729361217,
        "instagram_id": 1729361217,
        "locality_id": 85922583,
        "neighbourhood_id": -1,
        "region_id": 85688637
      }
    ],
    "wof:id": 1729361217,
    "wof:lastmodified": 1787777645,
    "wof:name": "The Aviation Museum \u0026 Library is closed today but all other exhibitions in the airport are open...",
    "wof:parent_id": 1159160869,
    "wof:placetype": "custom",
    "wof:placetype_alt": [
      "instagram"
    ],
    "wof:repo": "sfomuseum-data-socialmedia-instagram",
    "wof:superseded_by": [],
    "wof:supersedes": []
  },
  "bbox": [
    -122.386166,
    37.616356,
    -122.386166,
    37.616356
  ],
  "geometry": {"type":"Point","coordinates":[-122.386166,37.616356]}
}
