{
  "id": 1729355199,
  "type": "Feature",
  "properties": {
    "date:cessation_lower": "2020-07-09",
    "date:cessation_upper": "2020-07-09",
    "date:inception_lower": "2020-07-09",
    "date:inception_upper": "2020-07-09",
    "edtf:cessation": "2020-07-09T09:25:00-07:00",
    "edtf:inception": "2020-07-09T09:25:00-07:00",
    "geom:area": 0,
    "geom:bbox": "-122.386166,37.616356,-122.386166,37.616356",
    "geom:latitude": 37.616356,
    "geom:longitude": -122.386166,
    "instagram:post": {
      "caption": {
        "body": "In honor of our 40th anniversary, every week this year we are highlighting one of our past exhibitions. In 2018, we presented “A Legacy of Pride: Gilbert Baker and the 40th Anniversary of the Rainbow Flag” featuring a rainbow flag sewn by Gilbert Baker, the original designer of what has now become the universal symbol of queer pride. He assigned symbolic meaning to each of the flag’s original eight colors—pink for sexuality, red for life, orange for healing, yellow for sunlight, green for nature, turquoise for art, indigo for peace and harmony, and purple for spirit. Do you remember this exhibition? https://bit.ly/3eiTsa4",
        "excerpt": "In honor of our 40th anniversary, every week this year we are highlighting one of our past exhibitions.",
        "hashtags": [
          "SFOMTBT",
          "SFOat40"
        ],
        "users": []
      },
      "media_id": "a59a44f1e482c94072cccb1de3b24a94",
      "path": "media/other/106720614_1582019201978426_7386627601856978007_n_17865250756901421.jpg",
      "perceptual_hash": "p:bdc3c214d3ede821",
      "taken": 1594311900,
      "taken_at": "Jul 09, 2020 4:25 pm"
    },
    "millsfield:similar": {
      "google/siglip2-so400m-patch16-naflex": [
        {
          "distance": 0.04785871505737305,
          "id": 1880151635
        },
        {
          "distance": 0.11524474620819092,
          "id": 1880151635
        },
        {
          "distance": 0.3022715449333191,
          "id": 1729359757
        },
        {
          "distance": 0.3134081959724426,
          "id": 1729360653
        },
        {
          "distance": 0.314606249332428,
          "id": 1729356031
        },
        {
          "distance": 0.31462812423706055,
          "id": 1729360547
        },
        {
          "distance": 0.31598275899887085,
          "id": 1729360653
        },
        {
          "distance": 0.3246145248413086,
          "id": 1763559035
        },
        {
          "distance": 0.32750755548477173,
          "id": 1880151287
        },
        {
          "distance": 0.3284749388694763,
          "id": 1729357801
        }
      ]
    },
    "sfomuseum:placetype": "instagram",
    "src:geom": "sfomuseum",
    "wof:belongsto": [
      1159160869,
      102527513,
      102191575,
      85633793,
      102087579,
      85922583,
      85688637
    ],
    "wof:country": "US",
    "wof:created": 1594311900,
    "wof:geomhash": "b6e33f47475d56bc8da457bc31afadc8",
    "wof:hierarchy": [
      {
        "building_id": 1159160869,
        "campus_id": 102527513,
        "continent_id": 102191575,
        "country_id": 85633793,
        "county_id": 102087579,
        "custom_id": 1729355199,
        "instagram_id": 1729355199,
        "locality_id": 85922583,
        "neighbourhood_id": -1,
        "region_id": 85688637
      }
    ],
    "wof:id": 1729355199,
    "wof:lastmodified": 1787777619,
    "wof:name": "In honor of our 40th anniversary, every week this year we are highlighting one of our past exhibitions...",
    "wof:parent_id": 1159160869,
    "wof:placetype": "custom",
    "wof:placetype_alt": [
      "instagram"
    ],
    "wof:repo": "sfomuseum-data-socialmedia-instagram",
    "wof:superseded_by": [],
    "wof:supersedes": []
  },
  "bbox": [
    -122.386166,
    37.616356,
    -122.386166,
    37.616356
  ],
  "geometry": {"type":"Point","coordinates":[-122.386166,37.616356]}
}
