{
  "id": 1729362985,
  "type": "Feature",
  "properties": {
    "date:cessation_lower": "2012-06-12",
    "date:cessation_upper": "2012-06-12",
    "date:inception_lower": "2012-06-12",
    "date:inception_upper": "2012-06-12",
    "edtf:cessation": "2012-06-12T07:05:00-07:00",
    "edtf:inception": "2012-06-12T07:05:00-07:00",
    "geom:area": 0,
    "geom:bbox": "-122.386166,37.616356,-122.386166,37.616356",
    "geom:latitude": 37.616356,
    "geom:longitude": -122.386166,
    "instagram:post": {
      "caption": {
        "body": "1880s English sewing kit, perfectly suited for display when not in use",
        "excerpt": "1880s English sewing kit, perfectly suited for display when not in use",
        "hashtags": [],
        "users": []
      },
      "media_id": "895c0a6398077c1ba1c91c91cc114247",
      "path": "media/other/11176413_363672790498045_537607545_n_17842253311062499.jpg",
      "perceptual_hash": "p:e19517684b6a36b3",
      "taken": 1339509900,
      "taken_at": "Jun 12, 2012 2:05 pm"
    },
    "millsfield:similar": {
      "google/siglip2-so400m-patch16-naflex": [
        {
          "distance": 0.2591029405593872,
          "id": 1729362623
        },
        {
          "distance": 0.2798171639442444,
          "id": 1729362999
        },
        {
          "distance": 0.28366178274154663,
          "id": 1729362623
        },
        {
          "distance": 0.2975045442581177,
          "id": 1729362999
        },
        {
          "distance": 0.31581586599349976,
          "id": 1729363015
        },
        {
          "distance": 0.3211854100227356,
          "id": 1729362983
        },
        {
          "distance": 0.3216552734375,
          "id": 1729363001
        },
        {
          "distance": 0.3295929431915283,
          "id": 1729362387
        },
        {
          "distance": 0.32963114976882935,
          "id": 1729362747
        },
        {
          "distance": 0.3362877368927002,
          "id": 1729362877
        }
      ]
    },
    "sfomuseum:placetype": "instagram",
    "src:geom": "sfomuseum",
    "wof:belongsto": [
      1159160869,
      102527513,
      102191575,
      85633793,
      102087579,
      85922583,
      85688637
    ],
    "wof:country": "US",
    "wof:created": 1339509900,
    "wof:geomhash": "b6e33f47475d56bc8da457bc31afadc8",
    "wof:hierarchy": [
      {
        "building_id": 1159160869,
        "campus_id": 102527513,
        "continent_id": 102191575,
        "country_id": 85633793,
        "county_id": 102087579,
        "custom_id": 1729362985,
        "instagram_id": 1729362985,
        "locality_id": 85922583,
        "neighbourhood_id": -1,
        "region_id": 85688637
      }
    ],
    "wof:id": 1729362985,
    "wof:lastmodified": 1787777657,
    "wof:name": "1880s English sewing kit, perfectly suited for display when not in use..",
    "wof:parent_id": 1159160869,
    "wof:placetype": "custom",
    "wof:placetype_alt": [
      "instagram"
    ],
    "wof:repo": "sfomuseum-data-socialmedia-instagram",
    "wof:superseded_by": [],
    "wof:supersedes": []
  },
  "bbox": [
    -122.386166,
    37.616356,
    -122.386166,
    37.616356
  ],
  "geometry": {"type":"Point","coordinates":[-122.386166,37.616356]}
}
