{
  "id": 1729358859,
  "type": "Feature",
  "properties": {
    "date:cessation_lower": "2017-12-01",
    "date:cessation_upper": "2017-12-01",
    "date:inception_lower": "2017-12-01",
    "date:inception_upper": "2017-12-01",
    "edtf:cessation": "2017-12-01T08:07:00-08:00",
    "edtf:inception": "2017-12-01T08:07:00-08:00",
    "geom:area": 0,
    "geom:bbox": "-122.386166,37.616356,-122.386166,37.616356",
    "geom:latitude": 37.616356,
    "geom:longitude": -122.386166,
    "instagram:post": {
      "caption": {
        "body": "In 1896, Franz Xaver Wagner (1837–1907) introduced a machine that provided the blueprint for modern typewriters used in offices throughout the world. Manufactured first as the Underwood No. 1, it featured a four-row keyboard with single-shift, and most importantly, an ingenious front-strike type-bar mechanism that wrote quickly and visibly with ease. The Underwood was such a success that by 1939, over five million examples had been produced with only minimal improvement to the original design. Almost every manual typewriter made after 1920 incorporated its slotted-segment, front-strike type-bar layout.  Learn more about typewriters in \"The Typewriter: An Innovation in Writing\" on display, post-security, in Terminal 2. http://bit.ly/Thetypewriter",
        "excerpt": "In 1896, Franz Xaver Wagner (1837–1907) introduced a machine that provided the blueprint for modern typewriters used in offices throughout the world.",
        "hashtags": [
          "thetypewriter",
          "typewriter",
          "typewriters",
          "industrialdesign",
          "QWERTY",
          "keyboard",
          "keyboards",
          "design",
          "innovation",
          "type",
          "typer",
          "typing",
          "typist",
          "oldschool",
          "instagood",
          "writer",
          "writing",
          "vintagetypewriter",
          "vintage",
          "analog",
          "antique",
          "typewritten",
          "typed",
          "typewriting",
          "oldtypewriters",
          "typewritersofinstagram"
        ],
        "users": []
      },
      "media_id": "9771b56c132f183233404842c694136e",
      "path": "media/other/24327516_383121315450940_2267430586949828608_n_17896369300126692.jpg",
      "perceptual_hash": "p:ed50c331963e924f",
      "taken": 1512144420,
      "taken_at": "Dec 01, 2017 4:07 pm"
    },
    "millsfield:similar": {
      "google/siglip2-so400m-patch16-naflex": [
        {
          "distance": 0.04641711711883545,
          "id": 1729358939
        },
        {
          "distance": 0.10567867755889893,
          "id": 1729359001
        },
        {
          "distance": 0.10637706518173218,
          "id": 1729356347
        },
        {
          "distance": 0.11199575662612915,
          "id": 1729356339
        },
        {
          "distance": 0.11536645889282227,
          "id": 1729359485
        },
        {
          "distance": 0.11861932277679443,
          "id": 1729358989
        },
        {
          "distance": 0.1228952407836914,
          "id": 1729359233
        },
        {
          "distance": 0.13678884506225586,
          "id": 1729359435
        },
        {
          "distance": 0.13811349868774414,
          "id": 1729359179
        },
        {
          "distance": 0.1417890191078186,
          "id": 1729358773
        }
      ]
    },
    "sfomuseum:placetype": "instagram",
    "src:geom": "sfomuseum",
    "wof:belongsto": [
      1159160869,
      102527513,
      102191575,
      85633793,
      102087579,
      85922583,
      85688637
    ],
    "wof:country": "US",
    "wof:created": 1512144420,
    "wof:geomhash": "b6e33f47475d56bc8da457bc31afadc8",
    "wof:hierarchy": [
      {
        "building_id": 1159160869,
        "campus_id": 102527513,
        "continent_id": 102191575,
        "country_id": 85633793,
        "county_id": 102087579,
        "custom_id": 1729358859,
        "instagram_id": 1729358859,
        "locality_id": 85922583,
        "neighbourhood_id": -1,
        "region_id": 85688637
      }
    ],
    "wof:id": 1729358859,
    "wof:lastmodified": 1787777634,
    "wof:name": "In 1896, Franz Xaver Wagner (1837–1907) introduced a machine that provided the blueprint for modern typewriters used in offices throughout the world...",
    "wof:parent_id": 1159160869,
    "wof:placetype": "custom",
    "wof:placetype_alt": [
      "instagram"
    ],
    "wof:repo": "sfomuseum-data-socialmedia-instagram",
    "wof:superseded_by": [],
    "wof:supersedes": []
  },
  "bbox": [
    -122.386166,
    37.616356,
    -122.386166,
    37.616356
  ],
  "geometry": {"type":"Point","coordinates":[-122.386166,37.616356]}
}
