{
  "id": 1880151249,
  "type": "Feature",
  "properties": {
    "date:cessation_lower": "2022-12-23",
    "date:cessation_upper": "2022-12-23",
    "date:inception_lower": "2022-12-23",
    "date:inception_upper": "2022-12-23",
    "edtf:cessation": "2022-12-23T02:28:00-08:00",
    "edtf:inception": "2022-12-23T02:28:00-08:00",
    "geom:area": 0,
    "geom:bbox": "-122.386166,37.616356,-122.386166,37.616356",
    "geom:latitude": 37.616356,
    "geom:longitude": -122.386166,
    "instagram:post": {
      "caption": {
        "body": "#Onthisday in 1984, the first Pan American World Airways Airbus A300B4, registered N202PA, departed from New York to Bridgetown, Barbados. The new twin engine jet was part of Airbus' A300 series which were built to fill airlines' need for wide-body jets to use on short-haul routes. Acquisition of the efficient A300B4 was seen as a way to reduce the number of different aircraft types in Pan American's fleet. Eventually operating twelve of them, in addition to the seven of the smaller A310 models, the airline employed the new Airbus on their Latin American, Atlantic, and European routes. Have you ever flown on an Airbus 300?",
        "excerpt": "#Onthisday in 1984, the first Pan American World Airways Airbus A300B4, registered N202PA, departed from New York to Bridgetown, Barbados.",
        "hashtags": [
          "panam",
          "PAA",
          "avgeek",
          "Airbus",
          "airbus300",
          "Barbados",
          "watercolors"
        ],
        "users": []
      },
      "media_id": "ac2c889167c5a661482d1143c2931eb384323dbd",
      "path": "media/other/321833579_531560672359520_1674171936503627568_n_17948487572265055.jpg",
      "perceptual_hash": "p:91aedc38468da2d7",
      "taken": 1671791280,
      "taken_at": "Dec 23, 2022 10:28 am"
    },
    "millsfield:similar": {
      "google/siglip2-so400m-patch16-naflex": [
        {
          "distance": 0.007429301738739014,
          "id": 1729355747
        },
        {
          "distance": 0.09979277849197388,
          "id": 1729355747
        },
        {
          "distance": 0.22216427326202393,
          "id": 1729358785
        },
        {
          "distance": 0.2451319694519043,
          "id": 1729359893
        },
        {
          "distance": 0.25212931632995605,
          "id": 1729358785
        },
        {
          "distance": 0.2658325433731079,
          "id": 1729360949
        },
        {
          "distance": 0.2659086585044861,
          "id": 1729358833
        },
        {
          "distance": 0.2724186182022095,
          "id": 1880151013
        },
        {
          "distance": 0.2780216336250305,
          "id": 1729359893
        },
        {
          "distance": 0.27854830026626587,
          "id": 1729357345
        }
      ]
    },
    "sfomuseum:placetype": "instagram",
    "src:geom": "sfomuseum",
    "wof:belongsto": [
      1159160869,
      102527513,
      102191575,
      85633793,
      102087579,
      85922583,
      85688637
    ],
    "wof:country": "US",
    "wof:created": 1671791280,
    "wof:geomhash": "b6e33f47475d56bc8da457bc31afadc8",
    "wof:hierarchy": [
      {
        "building_id": 1159160869,
        "campus_id": 102527513,
        "continent_id": 102191575,
        "country_id": 85633793,
        "county_id": 102087579,
        "custom_id": 1880151249,
        "instagram_id": 1880151249,
        "locality_id": 85922583,
        "neighbourhood_id": -1,
        "region_id": 85688637
      }
    ],
    "wof:id": 1880151249,
    "wof:lastmodified": 1787777662,
    "wof:name": "#Onthisday in 1984, the first Pan American World Airways Airbus A300B4, registered N202PA, departed from New York to Bridgetown, Barbados...",
    "wof:parent_id": 1159160869,
    "wof:placetype": "custom",
    "wof:placetype_alt": [
      "instagram"
    ],
    "wof:repo": "sfomuseum-data-socialmedia-instagram",
    "wof:superseded_by": [],
    "wof:supersedes": []
  },
  "bbox": [
    -122.386166,
    37.616356,
    -122.386166,
    37.616356
  ],
  "geometry": {"type":"Point","coordinates":[-122.386166,37.616356]}
}
