{
  "id": 1729362043,
  "type": "Feature",
  "properties": {
    "date:cessation_lower": "2014-11-14",
    "date:cessation_upper": "2014-11-14",
    "date:inception_lower": "2014-11-14",
    "date:inception_upper": "2014-11-14",
    "edtf:cessation": "2014-11-14T06:04:00-08:00",
    "edtf:inception": "2014-11-14T06:04:00-08:00",
    "geom:area": 0,
    "geom:bbox": "-122.386166,37.616356,-122.386166,37.616356",
    "geom:latitude": 37.616356,
    "geom:longitude": -122.386166,
    "instagram:post": {
      "caption": {
        "body": "",
        "excerpt": "",
        "hashtags": [
          "SneakPeek",
          "JoseffOfHollywood"
        ],
        "users": []
      },
      "media_id": "3103963c4fa7fc89858d4c3f1dc00fbc",
      "path": "media/other/10747878_1499059693705720_381101874_n_17841762157062499.jpg",
      "perceptual_hash": "p:c5661a99790f7943",
      "taken": 1415973840,
      "taken_at": "Nov 14, 2014 2:04 pm"
    },
    "millsfield:similar": {
      "google/siglip2-so400m-patch16-naflex": [
        {
          "distance": 0.2581906318664551,
          "id": 1729361819
        },
        {
          "distance": 0.2706024646759033,
          "id": 1729361733
        },
        {
          "distance": 0.2708025574684143,
          "id": 1729361733
        },
        {
          "distance": 0.32125169038772583,
          "id": 1729362005
        },
        {
          "distance": 0.33116286993026733,
          "id": 1729362005
        },
        {
          "distance": 0.337443470954895,
          "id": 1729362635
        },
        {
          "distance": 0.33921879529953003,
          "id": 1729362635
        },
        {
          "distance": 0.35724937915802,
          "id": 1729361815
        },
        {
          "distance": 0.37880975008010864,
          "id": 1729361775
        },
        {
          "distance": 0.3834623098373413,
          "id": 1729363021
        }
      ]
    },
    "sfomuseum:placetype": "instagram",
    "src:geom": "sfomuseum",
    "wof:belongsto": [
      1159160869,
      102527513,
      102191575,
      85633793,
      102087579,
      85922583,
      85688637
    ],
    "wof:country": "US",
    "wof:created": 1415973840,
    "wof:geomhash": "b6e33f47475d56bc8da457bc31afadc8",
    "wof:hierarchy": [
      {
        "building_id": 1159160869,
        "campus_id": 102527513,
        "continent_id": 102191575,
        "country_id": 85633793,
        "county_id": 102087579,
        "custom_id": 1729362043,
        "instagram_id": 1729362043,
        "locality_id": 85922583,
        "neighbourhood_id": -1,
        "region_id": 85688637
      }
    ],
    "wof:id": 1729362043,
    "wof:lastmodified": 1787777646,
    "wof:name": "..",
    "wof:parent_id": 1159160869,
    "wof:placetype": "custom",
    "wof:placetype_alt": [
      "instagram"
    ],
    "wof:repo": "sfomuseum-data-socialmedia-instagram",
    "wof:superseded_by": [],
    "wof:supersedes": []
  },
  "bbox": [
    -122.386166,
    37.616356,
    -122.386166,
    37.616356
  ],
  "geometry": {"type":"Point","coordinates":[-122.386166,37.616356]}
}
