{
  "id": 1729362121,
  "type": "Feature",
  "properties": {
    "date:cessation_lower": "2014-09-19",
    "date:cessation_upper": "2014-09-19",
    "date:inception_lower": "2014-09-19",
    "date:inception_upper": "2014-09-19",
    "edtf:cessation": "2014-09-19T07:01:00-07:00",
    "edtf:inception": "2014-09-19T07:01:00-07:00",
    "geom:area": 0,
    "geom:bbox": "-122.386166,37.616356,-122.386166,37.616356",
    "geom:latitude": 37.616356,
    "geom:longitude": -122.386166,
    "instagram:post": {
      "caption": {
        "body": "",
        "excerpt": "",
        "hashtags": [
          "AdIcons",
          "octopus",
          "tgif"
        ],
        "users": []
      },
      "media_id": "2728072362ef08f2210f7c5e824c73bb",
      "path": "media/other/10707118_507202702716389_2001886183_n_17842475605062499.jpg",
      "perceptual_hash": "p:b44f57e50ad04cad",
      "taken": 1411135260,
      "taken_at": "Sep 19, 2014 2:01 pm"
    },
    "millsfield:similar": {
      "google/siglip2-so400m-patch16-naflex": [
        {
          "distance": 0.3891764283180237,
          "id": 1729361987
        },
        {
          "distance": 0.3928647041320801,
          "id": 1729362247
        },
        {
          "distance": 0.3997678756713867,
          "id": 1729362045
        },
        {
          "distance": 0.40204334259033203,
          "id": 1729362505
        },
        {
          "distance": 0.4021146893501282,
          "id": 1729362269
        },
        {
          "distance": 0.4050341248512268,
          "id": 1729362671
        },
        {
          "distance": 0.40777766704559326,
          "id": 1729362265
        },
        {
          "distance": 0.4086691737174988,
          "id": 1729362009
        },
        {
          "distance": 0.41050297021865845,
          "id": 1729362671
        },
        {
          "distance": 0.4110744595527649,
          "id": 1729362531
        }
      ]
    },
    "sfomuseum:placetype": "instagram",
    "src:geom": "sfomuseum",
    "wof:belongsto": [
      1159160869,
      102527513,
      102191575,
      85633793,
      102087579,
      85922583,
      85688637
    ],
    "wof:country": "US",
    "wof:created": 1411135260,
    "wof:geomhash": "b6e33f47475d56bc8da457bc31afadc8",
    "wof:hierarchy": [
      {
        "building_id": 1159160869,
        "campus_id": 102527513,
        "continent_id": 102191575,
        "country_id": 85633793,
        "county_id": 102087579,
        "custom_id": 1729362121,
        "instagram_id": 1729362121,
        "locality_id": 85922583,
        "neighbourhood_id": -1,
        "region_id": 85688637
      }
    ],
    "wof:id": 1729362121,
    "wof:lastmodified": 1787777646,
    "wof:name": "..",
    "wof:parent_id": 1159160869,
    "wof:placetype": "custom",
    "wof:placetype_alt": [
      "instagram"
    ],
    "wof:repo": "sfomuseum-data-socialmedia-instagram",
    "wof:superseded_by": [],
    "wof:supersedes": []
  },
  "bbox": [
    -122.386166,
    37.616356,
    -122.386166,
    37.616356
  ],
  "geometry": {"type":"Point","coordinates":[-122.386166,37.616356]}
}
