{
  "id": 1729360875,
  "type": "Feature",
  "properties": {
    "date:cessation_lower": "2016-03-29",
    "date:cessation_upper": "2016-03-29",
    "date:inception_lower": "2016-03-29",
    "date:inception_upper": "2016-03-29",
    "edtf:cessation": "2016-03-29T10:11:00-07:00",
    "edtf:inception": "2016-03-29T10:11:00-07:00",
    "geom:area": 0,
    "geom:bbox": "-122.386166,37.616356,-122.386166,37.616356",
    "geom:latitude": 37.616356,
    "geom:longitude": -122.386166,
    "instagram:post": {
      "caption": {
        "body": "United Airlines will start nonstop service from SFO to Tel Aviv this week. During the 1970s, United Air Lines offered service from San Francisco to Tel Aviv in concert with El Al Israel National Airlines. In 1951, El Al inaugurated regularly scheduled Lockheed Constellation service between New York and Tel Aviv. Have you ever been to Israel? #TravelTuesday  El Al Israel Airlines Lockheed Constellation postcard 1950s SFO Museum Collection Gift of Thomas G. Dragges 2014.095.064",
        "excerpt": "United Airlines will start nonstop service from SFO to Tel Aviv this week.",
        "hashtags": [],
        "users": []
      },
      "media_id": "ce615a4d89cdb7cfef41c353e7cf5dd8",
      "path": "media/other/12905167_928924957222261_529182902_n_17854747783027780.jpg",
      "perceptual_hash": "p:c163ceccb63338e4",
      "taken": 1459271460,
      "taken_at": "Mar 29, 2016 5:11 pm"
    },
    "millsfield:similar": {
      "google/siglip2-so400m-patch16-naflex": [
        {
          "distance": 0.3226016163825989,
          "id": 1729355943
        },
        {
          "distance": 0.33785301446914673,
          "id": 1729359007
        },
        {
          "distance": 0.3474823236465454,
          "id": 1729357179
        },
        {
          "distance": 0.3474823236465454,
          "id": 1763558807
        },
        {
          "distance": 0.3491281270980835,
          "id": 1729359443
        },
        {
          "distance": 0.35196834802627563,
          "id": 1880151221
        },
        {
          "distance": 0.35340988636016846,
          "id": 1729361603
        },
        {
          "distance": 0.35632866621017456,
          "id": 1729358743
        },
        {
          "distance": 0.35902905464172363,
          "id": 1729360779
        },
        {
          "distance": 0.3606552481651306,
          "id": 1729359143
        }
      ]
    },
    "sfomuseum:placetype": "instagram",
    "src:geom": "sfomuseum",
    "wof:belongsto": [
      1159160869,
      102527513,
      102191575,
      85633793,
      102087579,
      85922583,
      85688637
    ],
    "wof:country": "US",
    "wof:created": 1459271460,
    "wof:geomhash": "b6e33f47475d56bc8da457bc31afadc8",
    "wof:hierarchy": [
      {
        "building_id": 1159160869,
        "campus_id": 102527513,
        "continent_id": 102191575,
        "country_id": 85633793,
        "county_id": 102087579,
        "custom_id": 1729360875,
        "instagram_id": 1729360875,
        "locality_id": 85922583,
        "neighbourhood_id": -1,
        "region_id": 85688637
      }
    ],
    "wof:id": 1729360875,
    "wof:lastmodified": 1787777640,
    "wof:name": "United Airlines will start nonstop service from SFO to Tel Aviv this week...",
    "wof:parent_id": 1159160869,
    "wof:placetype": "custom",
    "wof:placetype_alt": [
      "instagram"
    ],
    "wof:repo": "sfomuseum-data-socialmedia-instagram",
    "wof:superseded_by": [],
    "wof:supersedes": []
  },
  "bbox": [
    -122.386166,
    37.616356,
    -122.386166,
    37.616356
  ],
  "geometry": {"type":"Point","coordinates":[-122.386166,37.616356]}
}
