{
  "id": 1729363047,
  "type": "Feature",
  "properties": {
    "date:cessation_lower": "2012-03-26",
    "date:cessation_upper": "2012-03-26",
    "date:inception_lower": "2012-03-26",
    "date:inception_upper": "2012-03-26",
    "edtf:cessation": "2012-03-26T05:57:00-07:00",
    "edtf:inception": "2012-03-26T05:57:00-07:00",
    "geom:area": 0,
    "geom:bbox": "-122.386166,37.616356,-122.386166,37.616356",
    "geom:latitude": 37.616356,
    "geom:longitude": -122.386166,
    "instagram:post": {
      "caption": {
        "body": "",
        "excerpt": "",
        "hashtags": [
          "QFO..."
        ],
        "users": [
          "DJQbert's"
        ]
      },
      "media_id": "cc27c26f6b53fd42323a28ec191b233f",
      "path": "media/other/11189594_1057701987590859_284868470_n_17842246186062499.jpg",
      "perceptual_hash": "p:972c79d635986525",
      "taken": 1332766620,
      "taken_at": "Mar 26, 2012 12:57 pm"
    },
    "millsfield:similar": {
      "google/siglip2-so400m-patch16-naflex": [
        {
          "distance": 0.38432782888412476,
          "id": 1729360055
        },
        {
          "distance": 0.4117158055305481,
          "id": 1729362743
        },
        {
          "distance": 0.43240290880203247,
          "id": 1729362349
        },
        {
          "distance": 0.4337620735168457,
          "id": 1729360355
        },
        {
          "distance": 0.4348941445350647,
          "id": 1729362327
        },
        {
          "distance": 0.4354110360145569,
          "id": 1729362819
        },
        {
          "distance": 0.43828922510147095,
          "id": 1729362641
        },
        {
          "distance": 0.439625084400177,
          "id": 1729362785
        },
        {
          "distance": 0.4425906538963318,
          "id": 1729362685
        },
        {
          "distance": 0.44934433698654175,
          "id": 1729359075
        }
      ]
    },
    "sfomuseum:placetype": "instagram",
    "src:geom": "sfomuseum",
    "wof:belongsto": [
      1159160869,
      102527513,
      102191575,
      85633793,
      102087579,
      85922583,
      85688637
    ],
    "wof:country": "US",
    "wof:created": 1332766620,
    "wof:geomhash": "b6e33f47475d56bc8da457bc31afadc8",
    "wof:hierarchy": [
      {
        "building_id": 1159160869,
        "campus_id": 102527513,
        "continent_id": 102191575,
        "country_id": 85633793,
        "county_id": 102087579,
        "custom_id": 1729363047,
        "instagram_id": 1729363047,
        "locality_id": 85922583,
        "neighbourhood_id": -1,
        "region_id": 85688637
      }
    ],
    "wof:id": 1729363047,
    "wof:lastmodified": 1787777658,
    "wof:name": "..",
    "wof:parent_id": 1159160869,
    "wof:placetype": "custom",
    "wof:placetype_alt": [
      "instagram"
    ],
    "wof:repo": "sfomuseum-data-socialmedia-instagram",
    "wof:superseded_by": [],
    "wof:supersedes": []
  },
  "bbox": [
    -122.386166,
    37.616356,
    -122.386166,
    37.616356
  ],
  "geometry": {"type":"Point","coordinates":[-122.386166,37.616356]}
}
