{
  "id": 1729362525,
  "type": "Feature",
  "properties": {
    "date:cessation_lower": "2013-10-02",
    "date:cessation_upper": "2013-10-02",
    "date:inception_lower": "2013-10-02",
    "date:inception_upper": "2013-10-02",
    "edtf:cessation": "2013-10-02T07:00:00-07:00",
    "edtf:inception": "2013-10-02T07:00:00-07:00",
    "geom:area": 0,
    "geom:bbox": "-122.386166,37.616356,-122.386166,37.616356",
    "geom:latitude": 37.616356,
    "geom:longitude": -122.386166,
    "instagram:post": {
      "caption": {
        "body": "Creating scrimshaw could keep an imaginative whaler busy during down time, especially when the end product was a cribbage board!",
        "excerpt": "Creating scrimshaw could keep an imaginative whaler busy during down time, especially when the end product was a cribbage board!",
        "hashtags": [],
        "users": []
      },
      "media_id": "234edf487873470ebc37c6e0eb152ed7",
      "path": "media/other/11348125_904504012926193_809637596_n_17842364128062499.jpg",
      "perceptual_hash": "p:948e46e43b93b42f",
      "taken": 1380722400,
      "taken_at": "Oct 02, 2013 2:00 pm"
    },
    "millsfield:similar": {
      "google/siglip2-so400m-patch16-naflex": [
        {
          "distance": 0.2505320906639099,
          "id": 1729362677
        },
        {
          "distance": 0.25241488218307495,
          "id": 1729362557
        },
        {
          "distance": 0.272428035736084,
          "id": 1729362163
        },
        {
          "distance": 0.2790486812591553,
          "id": 1729362557
        },
        {
          "distance": 0.2909165620803833,
          "id": 1729362677
        },
        {
          "distance": 0.3031877875328064,
          "id": 1729362235
        },
        {
          "distance": 0.30420953035354614,
          "id": 1729362381
        },
        {
          "distance": 0.3139181137084961,
          "id": 1729362381
        },
        {
          "distance": 0.3159417510032654,
          "id": 1729362163
        },
        {
          "distance": 0.3159853219985962,
          "id": 1729363007
        }
      ]
    },
    "sfomuseum:placetype": "instagram",
    "src:geom": "sfomuseum",
    "wof:belongsto": [
      1159160869,
      102527513,
      102191575,
      85633793,
      102087579,
      85922583,
      85688637
    ],
    "wof:country": "US",
    "wof:created": 1380722400,
    "wof:geomhash": "b6e33f47475d56bc8da457bc31afadc8",
    "wof:hierarchy": [
      {
        "building_id": 1159160869,
        "campus_id": 102527513,
        "continent_id": 102191575,
        "country_id": 85633793,
        "county_id": 102087579,
        "custom_id": 1729362525,
        "instagram_id": 1729362525,
        "locality_id": 85922583,
        "neighbourhood_id": -1,
        "region_id": 85688637
      }
    ],
    "wof:id": 1729362525,
    "wof:lastmodified": 1787777647,
    "wof:name": "Creating scrimshaw could keep an imaginative whaler busy during down time, especially when the end product was a cribbage board!..",
    "wof:parent_id": 1159160869,
    "wof:placetype": "custom",
    "wof:placetype_alt": [
      "instagram"
    ],
    "wof:repo": "sfomuseum-data-socialmedia-instagram",
    "wof:superseded_by": [],
    "wof:supersedes": []
  },
  "bbox": [
    -122.386166,
    37.616356,
    -122.386166,
    37.616356
  ],
  "geometry": {"type":"Point","coordinates":[-122.386166,37.616356]}
}
