{
  "id": 1729356181,
  "type": "Feature",
  "properties": {
    "date:cessation_lower": "2019-08-21",
    "date:cessation_upper": "2019-08-21",
    "date:inception_lower": "2019-08-21",
    "date:inception_upper": "2019-08-21",
    "edtf:cessation": "2019-08-21T00:33:00-07:00",
    "edtf:inception": "2019-08-21T00:33:00-07:00",
    "geom:area": 0,
    "geom:bbox": "-122.386166,37.616356,-122.386166,37.616356",
    "geom:latitude": 37.616356,
    "geom:longitude": -122.386166,
    "instagram:post": {
      "caption": {
        "body": "Lists of endangered and extinct insects are always dominated by butterflies. Butterflies are charismatic daytime flyers that visit flowers on sunny afternoons. So, it is easy to understand why people notice when they disappear. No doubt, countless species of insects are on the brink of extinction, or already gone, which we will never know about because they are small, dull, or hide from view. Small gossamer-wing butterflies (blues, coppers, and hairstreaks) in particular are often limited to open habitats in small geographic ranges with very specific food plant requirements. A new housing development or golf course can easily erase a population. For instance, the Xerces blue butterfly, first described in 1852, once graced the sand dunes of San Francisco’s shoreline, but went extinct in the 1940s as a result of urban development. Extinction is forever, and awareness is our best weapon to combat it.  See “The Intriguing World of Insects” on display, pre-security, in the International Terminal. http://bit.ly/IntriguingInsects . . .",
        "excerpt": "Lists of endangered and extinct insects are always dominated by butterflies.",
        "hashtags": [
          "IntriguingInsects",
          "WorldofInsects",
          "insects",
          "Entomology",
          "sbutterflies",
          "butterfly",
          "museum",
          "endangeredspecies",
          "extinct"
        ],
        "users": []
      },
      "media_id": "c76e4881f7b24a6520419df65ca493b2",
      "path": "media/posts/201908/67936367_137035324211100_7333385526235991848_n_17846029762582497.jpg",
      "perceptual_hash": "p:bc953d8c8ef8c861",
      "taken": 1566372780,
      "taken_at": "Aug 21, 2019 7:33 am"
    },
    "millsfield:similar": {
      "google/siglip2-so400m-patch16-naflex": [
        {
          "distance": 0.1188783049583435,
          "id": 1729356241
        },
        {
          "distance": 0.15464115142822266,
          "id": 1729356063
        },
        {
          "distance": 0.1562144160270691,
          "id": 1729356179
        },
        {
          "distance": 0.16012775897979736,
          "id": 1729356307
        },
        {
          "distance": 0.16094833612442017,
          "id": 1729355929
        },
        {
          "distance": 0.16804951429367065,
          "id": 1729356171
        },
        {
          "distance": 0.17732501029968262,
          "id": 1729356241
        },
        {
          "distance": 0.1812165379524231,
          "id": 1729356307
        },
        {
          "distance": 0.18124526739120483,
          "id": 1729356461
        },
        {
          "distance": 0.18324053287506104,
          "id": 1729356433
        }
      ]
    },
    "sfomuseum:placetype": "instagram",
    "src:geom": "sfomuseum",
    "wof:belongsto": [
      1159160869,
      102527513,
      102191575,
      85633793,
      102087579,
      85922583,
      85688637
    ],
    "wof:country": "US",
    "wof:created": 1566372780,
    "wof:geomhash": "b6e33f47475d56bc8da457bc31afadc8",
    "wof:hierarchy": [
      {
        "building_id": 1159160869,
        "campus_id": 102527513,
        "continent_id": 102191575,
        "country_id": 85633793,
        "county_id": 102087579,
        "custom_id": 1729356181,
        "instagram_id": 1729356181,
        "locality_id": 85922583,
        "neighbourhood_id": -1,
        "region_id": 85688637
      }
    ],
    "wof:id": 1729356181,
    "wof:lastmodified": 1787777628,
    "wof:name": "Lists of endangered and extinct insects are always dominated by butterflies...",
    "wof:parent_id": 1159160869,
    "wof:placetype": "custom",
    "wof:placetype_alt": [
      "instagram"
    ],
    "wof:repo": "sfomuseum-data-socialmedia-instagram",
    "wof:superseded_by": [],
    "wof:supersedes": []
  },
  "bbox": [
    -122.386166,
    37.616356,
    -122.386166,
    37.616356
  ],
  "geometry": {"type":"Point","coordinates":[-122.386166,37.616356]}
}
