{
  "id": 1729356571,
  "type": "Feature",
  "properties": {
    "date:cessation_lower": "2019-05-14",
    "date:cessation_upper": "2019-05-14",
    "date:inception_lower": "2019-05-14",
    "date:inception_upper": "2019-05-14",
    "edtf:cessation": "2019-05-14T04:04:00-07:00",
    "edtf:inception": "2019-05-14T04:04:00-07:00",
    "geom:area": 0,
    "geom:bbox": "-122.386166,37.616356,-122.386166,37.616356",
    "geom:latitude": 37.616356,
    "geom:longitude": -122.386166,
    "instagram:post": {
      "caption": {
        "body": "Ladybird beetles, also known as ladybugs, all belong to the beetle family Coccinellidae. Ladybugs come in a variety of colors and sizes. Brightly colored species (like orange and black) are toxic—they exude a small, yellow drop of hemolymph (insect blood) from their leg joints that tastes bad to predators, such as birds and lizards, who can see color.  See “The Intriguing World of Insects” on display, pre-security, in the International Terminal. http://bit.ly/IntriguingInsects",
        "excerpt": "Ladybird beetles, also known as ladybugs, all belong to the beetle family Coccinellidae.",
        "hashtags": [
          "IntriguingInsects",
          "WorldofInsects",
          "insects",
          "Entomology",
          "Berkeley",
          "UCBerkeley",
          "Coccinellidae",
          "Ladybugs",
          "ladybug",
          "ladybird"
        ],
        "users": [
          "essig_museum"
        ]
      },
      "media_id": "978e1454efd4d1807f403e459a63b5fb",
      "path": "media/posts/201905/60165000_2313745605508702_3231732257419491854_n_18049324405115130.jpg",
      "perceptual_hash": "p:849b603d1a61df2f",
      "taken": 1557831840,
      "taken_at": "May 14, 2019 11:04 am"
    },
    "millsfield:similar": {
      "google/siglip2-so400m-patch16-naflex": [
        {
          "distance": 0.0063040852546691895,
          "id": 1729356609
        },
        {
          "distance": 0.08204007148742676,
          "id": 1729355889
        },
        {
          "distance": 0.12368839979171753,
          "id": 1729356609
        },
        {
          "distance": 0.12429827451705933,
          "id": 1729355889
        },
        {
          "distance": 0.2307162880897522,
          "id": 1729356307
        },
        {
          "distance": 0.23368459939956665,
          "id": 1729356209
        },
        {
          "distance": 0.2395491600036621,
          "id": 1729356295
        },
        {
          "distance": 0.2401021122932434,
          "id": 1729356371
        },
        {
          "distance": 0.24326211214065552,
          "id": 1729356297
        },
        {
          "distance": 0.2534094452857971,
          "id": 1729356197
        }
      ]
    },
    "sfomuseum:placetype": "instagram",
    "src:geom": "sfomuseum",
    "wof:belongsto": [
      1159160869,
      102527513,
      102191575,
      85633793,
      102087579,
      85922583,
      85688637
    ],
    "wof:country": "US",
    "wof:created": 1557831840,
    "wof:geomhash": "b6e33f47475d56bc8da457bc31afadc8",
    "wof:hierarchy": [
      {
        "building_id": 1159160869,
        "campus_id": 102527513,
        "continent_id": 102191575,
        "country_id": 85633793,
        "county_id": 102087579,
        "custom_id": 1729356571,
        "instagram_id": 1729356571,
        "locality_id": 85922583,
        "neighbourhood_id": -1,
        "region_id": 85688637
      }
    ],
    "wof:id": 1729356571,
    "wof:lastmodified": 1787777629,
    "wof:name": "Ladybird beetles, also known as ladybugs, all belong to the beetle family Coccinellidae...",
    "wof:parent_id": 1159160869,
    "wof:placetype": "custom",
    "wof:placetype_alt": [
      "instagram"
    ],
    "wof:repo": "sfomuseum-data-socialmedia-instagram",
    "wof:superseded_by": [],
    "wof:supersedes": []
  },
  "bbox": [
    -122.386166,
    37.616356,
    -122.386166,
    37.616356
  ],
  "geometry": {"type":"Point","coordinates":[-122.386166,37.616356]}
}
