{
  "id": 1763559345,
  "type": "Feature",
  "properties": {
    "date:cessation_lower": "2021-11-04",
    "date:cessation_upper": "2021-11-04",
    "date:inception_lower": "2021-11-04",
    "date:inception_upper": "2021-11-04",
    "edtf:cessation": "2021-11-04T08:25:00-07:00",
    "edtf:inception": "2021-11-04T08:25:00-07:00",
    "geom:area": 0,
    "geom:bbox": "-122.386166,37.616356,-122.386166,37.616356",
    "geom:latitude": 37.616356,
    "geom:longitude": -122.386166,
    "instagram:post": {
      "caption": {
        "body": "Why, yes. @flySFO has always looked great at night, too.",
        "excerpt": "Why, yes.",
        "hashtags": [
          "avgeek",
          "SFOHistory",
          "ThrowbackThursday",
          "TBT"
        ],
        "users": []
      },
      "media_id": "5980f453fbaf133dd353cdaa75b0d484e3819fdb",
      "path": "media/posts/202111/252561408_1059504081514244_3229948290554970410_n_18176183116083023.jpg",
      "perceptual_hash": "p:ea0605d8fa3145fe",
      "taken": 1636039500,
      "taken_at": "Nov 04, 2021 3:25 pm"
    },
    "millsfield:similar": {
      "google/siglip2-so400m-patch16-naflex": [
        {
          "distance": 0.18532806634902954,
          "id": 1729361227
        },
        {
          "distance": 0.1944282054901123,
          "id": 1729359523
        },
        {
          "distance": 0.21661680936813354,
          "id": 1729360877
        },
        {
          "distance": 0.22734153270721436,
          "id": 1729359987
        },
        {
          "distance": 0.23257172107696533,
          "id": 1729361697
        },
        {
          "distance": 0.24218374490737915,
          "id": 1729361113
        },
        {
          "distance": 0.24481290578842163,
          "id": 1729360199
        },
        {
          "distance": 0.26013660430908203,
          "id": 1763559449
        },
        {
          "distance": 0.260351300239563,
          "id": 1729359805
        },
        {
          "distance": 0.2605462074279785,
          "id": 1880151449
        }
      ]
    },
    "sfomuseum:placetype": "instagram",
    "src:geom": "sfomuseum",
    "wof:belongsto": [
      1159160869,
      102527513,
      102191575,
      85633793,
      102087579,
      85922583,
      85688637
    ],
    "wof:country": "US",
    "wof:created": 1636039500,
    "wof:geomhash": "b6e33f47475d56bc8da457bc31afadc8",
    "wof:hierarchy": [
      {
        "building_id": 1159160869,
        "campus_id": 102527513,
        "continent_id": 102191575,
        "country_id": 85633793,
        "county_id": 102087579,
        "custom_id": 1763559345,
        "instagram_id": 1763559345,
        "locality_id": 85922583,
        "neighbourhood_id": -1,
        "region_id": 85688637
      }
    ],
    "wof:id": 1763559345,
    "wof:lastmodified": 1787777660,
    "wof:name": "Why, yes...",
    "wof:parent_id": 1159160869,
    "wof:placetype": "custom",
    "wof:placetype_alt": [
      "instagram"
    ],
    "wof:repo": "sfomuseum-data-socialmedia-instagram",
    "wof:superseded_by": [],
    "wof:supersedes": []
  },
  "bbox": [
    -122.386166,
    37.616356,
    -122.386166,
    37.616356
  ],
  "geometry": {"type":"Point","coordinates":[-122.386166,37.616356]}
}
