{
  "id": 1729357953,
  "type": "Feature",
  "properties": {
    "date:cessation_lower": "2018-07-17",
    "date:cessation_upper": "2018-07-17",
    "date:inception_lower": "2018-07-17",
    "date:inception_upper": "2018-07-17",
    "edtf:cessation": "2018-07-17T02:08:00-07:00",
    "edtf:inception": "2018-07-17T02:08:00-07:00",
    "geom:area": 0,
    "geom:bbox": "-122.386166,37.616356,-122.386166,37.616356",
    "geom:latitude": 37.616356,
    "geom:longitude": -122.386166,
    "instagram:post": {
      "caption": {
        "body": "Have you ever seen this Boeing logo? Around 1929, Boeing Air Transport (BAT) introduced a logo that featured a vertical wordmark with wings. Nicknamed the Boeing Bug, this pin, a reproduction of Boeing Air Transport’s uniform insignia from the early 1930s, was worn by BAT’s first stewardess Ellen Church and the seven other women who join her in 1930. They were the earliest stewardesses to fly in the airline industry. In 1931, Boeing Air Transport was consolidated into United Air Lines",
        "excerpt": "Have you ever seen this Boeing logo?",
        "hashtags": [
          "boeing",
          "avgeek",
          "avationgeek",
          "aviation",
          "aviationhistory",
          "vintageaviation",
          "history",
          "avhistory",
          "aviationgeeks",
          "avgeeks",
          "fashion",
          "logo",
          "crewlife"
        ],
        "users": []
      },
      "media_id": "d17a73fe92cce7c3f51c1d511fd14c04",
      "path": "media/posts/201807/36889650_964042413768156_5542103443730071552_n_17932275382180581.jpg",
      "perceptual_hash": "p:bb318546c6ee3f10",
      "taken": 1531818480,
      "taken_at": "Jul 17, 2018 9:08 am"
    },
    "millsfield:similar": {
      "google/siglip2-so400m-patch16-naflex": [
        {
          "distance": 0.07844913005828857,
          "id": 1729356563
        },
        {
          "distance": 0.09234672784805298,
          "id": 1947425081
        },
        {
          "distance": 0.1321081519126892,
          "id": 1947425081
        },
        {
          "distance": 0.13496840000152588,
          "id": 1729356563
        },
        {
          "distance": 0.139243483543396,
          "id": 1729359251
        },
        {
          "distance": 0.15068316459655762,
          "id": 1729359047
        },
        {
          "distance": 0.16745758056640625,
          "id": 1729355113
        },
        {
          "distance": 0.16762971878051758,
          "id": 1729359823
        },
        {
          "distance": 0.16822004318237305,
          "id": 1729355587
        },
        {
          "distance": 0.17306047677993774,
          "id": 1729359251
        }
      ]
    },
    "sfomuseum:placetype": "instagram",
    "src:geom": "sfomuseum",
    "wof:belongsto": [
      1159160869,
      102527513,
      102191575,
      85633793,
      102087579,
      85922583,
      85688637
    ],
    "wof:country": "US",
    "wof:created": 1531818480,
    "wof:geomhash": "b6e33f47475d56bc8da457bc31afadc8",
    "wof:hierarchy": [
      {
        "building_id": 1159160869,
        "campus_id": 102527513,
        "continent_id": 102191575,
        "country_id": 85633793,
        "county_id": 102087579,
        "custom_id": 1729357953,
        "instagram_id": 1729357953,
        "locality_id": 85922583,
        "neighbourhood_id": -1,
        "region_id": 85688637
      }
    ],
    "wof:id": 1729357953,
    "wof:lastmodified": 1787777632,
    "wof:name": "Have you ever seen this Boeing logo?..",
    "wof:parent_id": 1159160869,
    "wof:placetype": "custom",
    "wof:placetype_alt": [
      "instagram"
    ],
    "wof:repo": "sfomuseum-data-socialmedia-instagram",
    "wof:superseded_by": [],
    "wof:supersedes": []
  },
  "bbox": [
    -122.386166,
    37.616356,
    -122.386166,
    37.616356
  ],
  "geometry": {"type":"Point","coordinates":[-122.386166,37.616356]}
}
