{
  "id": 1729357163,
  "type": "Feature",
  "properties": {
    "date:cessation_lower": "2019-01-01",
    "date:cessation_upper": "2019-01-01",
    "date:inception_lower": "2019-01-01",
    "date:inception_upper": "2019-01-01",
    "edtf:cessation": "2018-12-31T22:23:33-08:00",
    "edtf:inception": "2018-12-31T22:23:33-08:00",
    "geom:area": 0,
    "geom:bbox": "-122.386166,37.616356,-122.386166,37.616356",
    "geom:latitude": 37.616356,
    "geom:longitude": -122.386166,
    "instagram:post": {
      "caption": {
        "body": "Happy New Year! The Aviation Museum and Library will be closed on January 1st to celebrate the New Year. Our other exhibitions around the airport are available to view. http://bit.ly/SFOExhibitions  Image: Holiday greeting card, LAMSA (Lineas Aereas Mexicanas), 1949 SFO Museum, Gift of the Elizabeth Clancy Beamish Trust 2013.060.032",
        "excerpt": "Happy New Year!",
        "hashtags": [
          "happynewyear"
        ],
        "users": []
      },
      "location": "",
      "media_id": "c898849f41cac592aa860ccc0190e0e9",
      "path": "photos/201812/c898849f41cac592aa860ccc0190e0e9.jpg",
      "perceptual_hash": "p:afc4d0378733c25a",
      "taken": 1546294980,
      "taken_at": "Dec 31, 2018, 10:23 PM"
    },
    "millsfield:similar": {
      "google/siglip2-so400m-patch16-naflex": [
        {
          "distance": 0.3476693034172058,
          "id": 1729359589
        },
        {
          "distance": 0.34901732206344604,
          "id": 1729362151
        },
        {
          "distance": 0.39721131324768066,
          "id": 1729358819
        },
        {
          "distance": 0.39891111850738525,
          "id": 1729358545
        },
        {
          "distance": 0.41359269618988037,
          "id": 1729358619
        },
        {
          "distance": 0.4138018488883972,
          "id": 1729355713
        },
        {
          "distance": 0.41579270362854004,
          "id": 1729360239
        },
        {
          "distance": 0.41762304306030273,
          "id": 1729358521
        },
        {
          "distance": 0.41944724321365356,
          "id": 1729355727
        },
        {
          "distance": 0.43153488636016846,
          "id": 1729355741
        }
      ]
    },
    "sfomuseum:placetype": "instagram",
    "src:geom": "sfomuseum",
    "wof:belongsto": [
      1159160869,
      102527513,
      102191575,
      85633793,
      102087579,
      85922583,
      85688637
    ],
    "wof:country": "US",
    "wof:created": 1546323813,
    "wof:geomhash": "b6e33f47475d56bc8da457bc31afadc8",
    "wof:hierarchy": [
      {
        "building_id": 1159160869,
        "campus_id": 102527513,
        "continent_id": 102191575,
        "country_id": 85633793,
        "county_id": 102087579,
        "custom_id": 1729357163,
        "instagram_id": 1729357163,
        "locality_id": 85922583,
        "neighbourhood_id": -1,
        "region_id": 85688637
      }
    ],
    "wof:id": 1729357163,
    "wof:lastmodified": 1787777630,
    "wof:name": "Happy New Year!..",
    "wof:parent_id": 1159160869,
    "wof:placetype": "custom",
    "wof:placetype_alt": [
      "instagram"
    ],
    "wof:repo": "sfomuseum-data-socialmedia-instagram",
    "wof:superseded_by": [],
    "wof:supersedes": []
  },
  "bbox": [
    -122.386166,
    37.616356,
    -122.386166,
    37.616356
  ],
  "geometry": {"type":"Point","coordinates":[-122.386166,37.616356]}
}
