{
  "id": 1729359845,
  "type": "Feature",
  "properties": {
    "date:cessation_lower": "2017-02-06",
    "date:cessation_upper": "2017-02-06",
    "date:inception_lower": "2017-02-06",
    "date:inception_upper": "2017-02-06",
    "edtf:cessation": "2017-02-06T11:49:00-08:00",
    "edtf:inception": "2017-02-06T11:49:00-08:00",
    "geom:area": 0,
    "geom:bbox": "-122.386166,37.616356,-122.386166,37.616356",
    "geom:latitude": 37.616356,
    "geom:longitude": -122.386166,
    "instagram:post": {
      "caption": {
        "body": "Author Roger Kislingbury pursues early saloon photographs, sharing his passion for the subject in the hardbound publications Saloons, Bars \u0026 Cigar Stores: Historical Interior Photographs (1999) and American Saloons: Pre-Prohibition Photographs (2015). These selections from the author’s collection offer a glimpse into environments made largely extinct by the enactment of Prohibition in 1920 and provide historic context for that nearly ubiquitous feature in saloons and cigar stands during the earliest years of the twentieth century—the mechanical gambling device.  See \"#GamesofChance: Gambling Devices of the Mechanical Age\" and the accompanying photography show, \"The American Saloon: Historical Photographs from the Collection of Roger E. Kislingbury\", on display, post-security, in Terminal 3. http://bit.ly/AmericanSaloon",
        "excerpt": "Author Roger Kislingbury pursues early saloon photographs, sharing his passion for the subject in the hardbound publications Saloons, Bars \u0026 Cigar Stores: Historical Interior Photographs (1999) and American Saloons: Pre-Prohibition Photographs (2015).",
        "hashtags": [],
        "users": []
      },
      "media_id": "22542bb627178cc64ed6b03a50dded92",
      "path": "media/posts/201702/16464479_375932126097719_2303917377806401536_n_17865307327067191.jpg",
      "perceptual_hash": "p:ebb6dc2847d72c20",
      "taken": 1486410540,
      "taken_at": "Feb 06, 2017 7:49 pm"
    },
    "millsfield:similar": {
      "google/siglip2-so400m-patch16-naflex": [
        {
          "distance": 0.06401944160461426,
          "id": 1729359421
        },
        {
          "distance": 0.07398778200149536,
          "id": 1729359983
        },
        {
          "distance": 0.0838732123374939,
          "id": 1729359421
        },
        {
          "distance": 0.09674012660980225,
          "id": 1729359615
        },
        {
          "distance": 0.12012660503387451,
          "id": 1729359615
        },
        {
          "distance": 0.1236385703086853,
          "id": 1729359587
        },
        {
          "distance": 0.12455159425735474,
          "id": 1729359983
        },
        {
          "distance": 0.14511442184448242,
          "id": 1729359587
        },
        {
          "distance": 0.16329091787338257,
          "id": 1729361055
        },
        {
          "distance": 0.17800253629684448,
          "id": 1729356987
        }
      ]
    },
    "sfomuseum:placetype": "instagram",
    "src:geom": "sfomuseum",
    "wof:belongsto": [
      1159160869,
      102527513,
      102191575,
      85633793,
      102087579,
      85922583,
      85688637
    ],
    "wof:country": "US",
    "wof:created": 1486410540,
    "wof:geomhash": "b6e33f47475d56bc8da457bc31afadc8",
    "wof:hierarchy": [
      {
        "building_id": 1159160869,
        "campus_id": 102527513,
        "continent_id": 102191575,
        "country_id": 85633793,
        "county_id": 102087579,
        "custom_id": 1729359845,
        "instagram_id": 1729359845,
        "locality_id": 85922583,
        "neighbourhood_id": -1,
        "region_id": 85688637
      }
    ],
    "wof:id": 1729359845,
    "wof:lastmodified": 1787777637,
    "wof:name": "Author Roger Kislingbury pursues early saloon photographs, sharing his passion for the subject in the hardbound publications Saloons, Bars \u0026 Cigar Stores: Historical Interior Photographs (1999) and American Saloons: Pre-Prohibition Photographs (2015)...",
    "wof:parent_id": 1159160869,
    "wof:placetype": "custom",
    "wof:placetype_alt": [
      "instagram"
    ],
    "wof:repo": "sfomuseum-data-socialmedia-instagram",
    "wof:superseded_by": [],
    "wof:supersedes": []
  },
  "bbox": [
    -122.386166,
    37.616356,
    -122.386166,
    37.616356
  ],
  "geometry": {"type":"Point","coordinates":[-122.386166,37.616356]}
}
