{
  "id": 1729362607,
  "type": "Feature",
  "properties": {
    "date:cessation_lower": "2013-07-16",
    "date:cessation_upper": "2013-07-16",
    "date:inception_lower": "2013-07-16",
    "date:inception_upper": "2013-07-16",
    "edtf:cessation": "2013-07-16T03:12:00-07:00",
    "edtf:inception": "2013-07-16T03:12:00-07:00",
    "geom:area": 0,
    "geom:bbox": "-122.386166,37.616356,-122.386166,37.616356",
    "geom:latitude": 37.616356,
    "geom:longitude": -122.386166,
    "instagram:post": {
      "caption": {
        "body": "",
        "excerpt": "",
        "hashtags": [
          "Recology,",
          "SFAI."
        ],
        "users": []
      },
      "media_id": "07300d543029fd2733a46578ad3bc098",
      "path": "media/other/11374621_507674469397933_756850152_n_17842341835062499.jpg",
      "perceptual_hash": "p:c21be490ecd43bad",
      "taken": 1373969520,
      "taken_at": "Jul 16, 2013 10:12 am"
    },
    "millsfield:similar": {
      "google/siglip2-so400m-patch16-naflex": [
        {
          "distance": 0.31124347448349,
          "id": 1880151115
        },
        {
          "distance": 0.31362634897232056,
          "id": 1729362959
        },
        {
          "distance": 0.31681376695632935,
          "id": 1947424975
        },
        {
          "distance": 0.3218235969543457,
          "id": 1880151137
        },
        {
          "distance": 0.332311749458313,
          "id": 1880151091
        },
        {
          "distance": 0.33316516876220703,
          "id": 1880151131
        },
        {
          "distance": 0.3354107141494751,
          "id": 1729357895
        },
        {
          "distance": 0.338994562625885,
          "id": 1729357871
        },
        {
          "distance": 0.33944427967071533,
          "id": 1729359425
        },
        {
          "distance": 0.34035515785217285,
          "id": 1729358159
        }
      ]
    },
    "sfomuseum:placetype": "instagram",
    "src:geom": "sfomuseum",
    "wof:belongsto": [
      1159160869,
      102527513,
      102191575,
      85633793,
      102087579,
      85922583,
      85688637
    ],
    "wof:country": "US",
    "wof:created": 1373969520,
    "wof:geomhash": "b6e33f47475d56bc8da457bc31afadc8",
    "wof:hierarchy": [
      {
        "building_id": 1159160869,
        "campus_id": 102527513,
        "continent_id": 102191575,
        "country_id": 85633793,
        "county_id": 102087579,
        "custom_id": 1729362607,
        "instagram_id": 1729362607,
        "locality_id": 85922583,
        "neighbourhood_id": -1,
        "region_id": 85688637
      }
    ],
    "wof:id": 1729362607,
    "wof:lastmodified": 1787777647,
    "wof:name": "..",
    "wof:parent_id": 1159160869,
    "wof:placetype": "custom",
    "wof:placetype_alt": [
      "instagram"
    ],
    "wof:repo": "sfomuseum-data-socialmedia-instagram",
    "wof:superseded_by": [],
    "wof:supersedes": []
  },
  "bbox": [
    -122.386166,
    37.616356,
    -122.386166,
    37.616356
  ],
  "geometry": {"type":"Point","coordinates":[-122.386166,37.616356]}
}
