{
  "id": 1947425029,
  "type": "Feature",
  "properties": {
    "date:cessation_lower": "2024-05-10",
    "date:cessation_upper": "2024-05-10",
    "date:inception_lower": "2024-05-10",
    "date:inception_upper": "2024-05-10",
    "edtf:cessation": "2024-05-10T08:23:00-07:00",
    "edtf:inception": "2024-05-10T08:23:00-07:00",
    "geom:area": 0,
    "geom:bbox": "-122.386166,37.616356,-122.386166,37.616356",
    "geom:latitude": 37.616356,
    "geom:longitude": -122.386166,
    "instagram:post": {
      "caption": {
        "body": "Composed of over 3,500 individual kite-like ellipses, “This Infinite Gateway of Time and Circumstance” by Jacob Hashimoto is an immersive sculpture that floats between two floors of the Grand Hyatt at SFO as an undulating, interwoven canopy. The work transforms as images of earth, sea and various graphics give way to a gradient of translucent whites, revealing what the artist envisioned as “a cloud of kites, and a landscape of air and earth, painted at the edge of the sky.” The work creates the impression of a landscape drifting in and out of visibility through clouds, or slowly becoming subsumed by a descending marine layer. Other references include video games, virtual environments, cosmology, systems and languages of representation, nature, art, technology and architecture.  See “This Infinite Gateway of Time and Circumstance” by Jacob Hashimoto, pre-security, above the Quail + Crane restaurant in the Grand Hyatt at SFO and online at: https://qr.sfomuseum.org/44EQd8t",
        "excerpt": "Composed of over 3,500 individual kite-like ellipses, “This Infinite Gateway of Time and Circumstance” by Jacob Hashimoto is an immersive sculpture that floats between two floors of the Grand Hyatt at SFO as an undulating, interwoven canopy.",
        "hashtags": [
          "SFAC",
          "PublicArt",
          "AAPIHM"
        ],
        "users": []
      },
      "media_id": "44400bce9cb3d773a4fd4b5bcc22a1002c0fe8c8",
      "path": "media/posts/202405/442386891_936359605167636_913570197726109162_n_17939565305820314.jpg",
      "perceptual_hash": "p:9c0e355b6aca398d",
      "taken": 1715354580,
      "taken_at": "May 10, 2024 3:23 pm"
    },
    "millsfield:similar": {
      "google/siglip2-so400m-patch16-naflex": [
        {
          "distance": 0.0019041895866394043,
          "id": 1880151753
        },
        {
          "distance": 0.10381066799163818,
          "id": 1880151753
        },
        {
          "distance": 0.24230951070785522,
          "id": 1947425295
        },
        {
          "distance": 0.2610310912132263,
          "id": 1947424913
        },
        {
          "distance": 0.26811671257019043,
          "id": 1763559579
        },
        {
          "distance": 0.27245843410491943,
          "id": 1729355633
        },
        {
          "distance": 0.29238563776016235,
          "id": 1947425295
        },
        {
          "distance": 0.2925572395324707,
          "id": 1947424913
        },
        {
          "distance": 0.299080491065979,
          "id": 1880150879
        },
        {
          "distance": 0.29931992292404175,
          "id": 1729355635
        }
      ]
    },
    "sfomuseum:placetype": "instagram",
    "src:geom": "sfomuseum",
    "wof:belongsto": [
      1159160869,
      102527513,
      102191575,
      85633793,
      102087579,
      85922583,
      85688637
    ],
    "wof:country": "US",
    "wof:created": 1715354580,
    "wof:geomhash": "b6e33f47475d56bc8da457bc31afadc8",
    "wof:hierarchy": [
      {
        "building_id": 1159160869,
        "campus_id": 102527513,
        "continent_id": 102191575,
        "country_id": 85633793,
        "county_id": 102087579,
        "custom_id": 1947425029,
        "locality_id": 85922583,
        "neighbourhood_id": -1,
        "region_id": 85688637
      }
    ],
    "wof:id": 1947425029,
    "wof:lastmodified": 1787777664,
    "wof:name": "Composed of over 3,500 individual kite-like ellipses, “This Infinite Gateway of Time and Circumstance” by Jacob Hashimoto is an immersive sculpture that floats between two floors of the Grand Hyatt at SFO as an undulating, interwoven canopy...",
    "wof:parent_id": 1159160869,
    "wof:placetype": "custom",
    "wof:repo": "sfomuseum-data-socialmedia-instagram",
    "wof:superseded_by": [],
    "wof:supersedes": []
  },
  "bbox": [
    -122.386166,
    37.616356,
    -122.386166,
    37.616356
  ],
  "geometry": {"type":"Point","coordinates":[-122.386166,37.616356]}
}
