{
  "id": 1880150911,
  "type": "Feature",
  "properties": {
    "date:cessation_lower": "2023-05-17",
    "date:cessation_upper": "2023-05-17",
    "date:inception_lower": "2023-05-17",
    "date:inception_upper": "2023-05-17",
    "edtf:cessation": "2023-05-17T03:59:00-07:00",
    "edtf:inception": "2023-05-17T03:59:00-07:00",
    "geom:area": 0,
    "geom:bbox": "-122.386166,37.616356,-122.386166,37.616356",
    "geom:latitude": 37.616356,
    "geom:longitude": -122.386166,
    "instagram:post": {
      "caption": {
        "body": "Choreographer Arthur Pita’s 𝘉𝘫ö𝘳𝘬 𝘉𝘢𝘭𝘭𝘦𝘵 celebrates the theatricality of Icelandic singer-songwriter Björk. Björk’s music provides a framework for fragmented stories. A lone fisherman provides a ghost of a narrative and, because Björk’s music often references nature, a link to the natural world. Woven around the fisherman’s tale are snippets of love stories. Ultimately, Pita explains, Björk Ballet is about “birth, life, sex, and death.”  Throughout 𝘉𝘫ö𝘳𝘬 𝘉𝘢𝘭𝘭𝘦𝘵, Pita’s choreography for its twenty-two dancers mixes kicks, lunges, and squats with classically inspired technique. In trying to capture Björk’s essence, Pita goes to extremes with his movement. There are cantilevered duets with an underwater quality and a classically based octet, set to 𝘍𝘳𝘰𝘴𝘵𝘪, that Pita says, “should look like a ballerina music box on acid.” 𝘏𝘺𝘱𝘦𝘳𝘣𝘢𝘭𝘭𝘢𝘥, Pita’s ballet rave, entails a long jumping sequence set to a pumping, driving rhythm. “It’s a metaphor—jumping for joy, jumping for love,” says Pita.   Special thank you to San Francisco Ballet for making this exhibition possible. See “San Francisco Ballet at 90” on display, pre-security, in the International Terminal and online at: https://bit.ly/SFBalletAt90",
        "excerpt": "Choreographer Arthur Pita’s 𝘉𝘫ö𝘳𝘬 𝘉𝘢𝘭𝘭𝘦𝘵 celebrates the theatricality of Icelandic singer-songwriter Björk.",
        "hashtags": [
          "SFBalletAt90",
          "Ballet"
        ],
        "users": [
          "sfballet"
        ]
      },
      "media_id": "863b419f3d0760186892a2c4e8613a0bdcc3f48d",
      "path": "media/posts/202305/346942391_1018222099559618_2573102728687244444_n_17986719047045519.jpg",
      "perceptual_hash": "p:ccf561c3c34c8f0e",
      "taken": 1684321140,
      "taken_at": "May 17, 2023 10:59 am"
    },
    "millsfield:similar": {
      "google/siglip2-so400m-patch16-naflex": [
        {
          "distance": 0.147760808467865,
          "id": 1947425261
        },
        {
          "distance": 0.17901718616485596,
          "id": 1880150907
        },
        {
          "distance": 0.18508589267730713,
          "id": 1880150937
        },
        {
          "distance": 0.20546305179595947,
          "id": 1880150997
        },
        {
          "distance": 0.21624845266342163,
          "id": 1947425261
        },
        {
          "distance": 0.2347230315208435,
          "id": 1947425307
        },
        {
          "distance": 0.23696273565292358,
          "id": 1880150937
        },
        {
          "distance": 0.24388569593429565,
          "id": 1880150907
        },
        {
          "distance": 0.24957042932510376,
          "id": 1880151011
        },
        {
          "distance": 0.25367647409439087,
          "id": 1880151155
        }
      ]
    },
    "sfomuseum:placetype": "instagram",
    "src:geom": "sfomuseum",
    "wof:belongsto": [
      1159160869,
      102527513,
      102191575,
      85633793,
      102087579,
      85922583,
      85688637
    ],
    "wof:country": "US",
    "wof:created": 1684321140,
    "wof:geomhash": "b6e33f47475d56bc8da457bc31afadc8",
    "wof:hierarchy": [
      {
        "building_id": 1159160869,
        "campus_id": 102527513,
        "continent_id": 102191575,
        "country_id": 85633793,
        "county_id": 102087579,
        "custom_id": 1880150911,
        "instagram_id": 1880150911,
        "locality_id": 85922583,
        "neighbourhood_id": -1,
        "region_id": 85688637
      }
    ],
    "wof:id": 1880150911,
    "wof:lastmodified": 1787777661,
    "wof:name": "Choreographer Arthur Pita’s 𝘉𝘫ö𝘳𝘬 𝘉𝘢𝘭𝘭𝘦𝘵 celebrates the theatricality of Icelandic singer-songwriter Björk...",
    "wof:parent_id": 1159160869,
    "wof:placetype": "custom",
    "wof:placetype_alt": [
      "instagram"
    ],
    "wof:repo": "sfomuseum-data-socialmedia-instagram",
    "wof:superseded_by": [],
    "wof:supersedes": []
  },
  "bbox": [
    -122.386166,
    37.616356,
    -122.386166,
    37.616356
  ],
  "geometry": {"type":"Point","coordinates":[-122.386166,37.616356]}
}
