{
  "id": 1729356265,
  "type": "Feature",
  "properties": {
    "date:cessation_lower": "2019-07-31",
    "date:cessation_upper": "2019-07-31",
    "date:inception_lower": "2019-07-31",
    "date:inception_upper": "2019-07-31",
    "edtf:cessation": "2019-07-31T05:40:00-07:00",
    "edtf:inception": "2019-07-31T05:40:00-07:00",
    "geom:area": 0,
    "geom:bbox": "-122.386166,37.616356,-122.386166,37.616356",
    "geom:latitude": 37.616356,
    "geom:longitude": -122.386166,
    "instagram:post": {
      "caption": {
        "body": "Northeast Airlines’ last day of operation occurred #onthisday in 1972. The airline began as Boston-Maine Airways in 1931 and was absorbed by Delta Air Lines. Did you ever fly on Northeast Airlines?  Image: Northeast Airlines postcard, Douglas DC-9-31, c. 1970. Gift of the William Hough Collection. 2008.055.494 ",
        "excerpt": "Northeast Airlines’ last day of operation occurred #onthisday in 1972.",
        "hashtags": [
          "avgeek",
          "northeast",
          "delta",
          "deltaairlines",
          "postcard"
        ],
        "users": []
      },
      "media_id": "0145b1cf4724293eff6e2ca295c8a13e",
      "path": "media/other/66050299_236383134003702_3062420830390735259_n_18053341924183043.jpg",
      "perceptual_hash": "p:927a4ef1954e6a91",
      "taken": 1564576800,
      "taken_at": "Jul 31, 2019 12:40 pm"
    },
    "millsfield:similar": {
      "google/siglip2-so400m-patch16-naflex": [
        {
          "distance": 0.06079232692718506,
          "id": 1880151639
        },
        {
          "distance": 0.13085269927978516,
          "id": 1880151639
        },
        {
          "distance": 0.21102112531661987,
          "id": 1729356049
        },
        {
          "distance": 0.2160125970840454,
          "id": 1729355509
        },
        {
          "distance": 0.23059386014938354,
          "id": 1729358503
        },
        {
          "distance": 0.23458361625671387,
          "id": 1729355509
        },
        {
          "distance": 0.23740482330322266,
          "id": 1880151413
        },
        {
          "distance": 0.24620479345321655,
          "id": 1880151413
        },
        {
          "distance": 0.24661004543304443,
          "id": 1729358503
        },
        {
          "distance": 0.24998217821121216,
          "id": 1729356049
        }
      ]
    },
    "sfomuseum:placetype": "instagram",
    "src:geom": "sfomuseum",
    "wof:belongsto": [
      1159160869,
      102527513,
      102191575,
      85633793,
      102087579,
      85922583,
      85688637
    ],
    "wof:country": "US",
    "wof:created": 1564576800,
    "wof:geomhash": "b6e33f47475d56bc8da457bc31afadc8",
    "wof:hierarchy": [
      {
        "building_id": 1159160869,
        "campus_id": 102527513,
        "continent_id": 102191575,
        "country_id": 85633793,
        "county_id": 102087579,
        "custom_id": 1729356265,
        "instagram_id": 1729356265,
        "locality_id": 85922583,
        "neighbourhood_id": -1,
        "region_id": 85688637
      }
    ],
    "wof:id": 1729356265,
    "wof:lastmodified": 1787777629,
    "wof:name": "Northeast Airlines’ last day of operation occurred #onthisday in 1972...",
    "wof:parent_id": 1159160869,
    "wof:placetype": "custom",
    "wof:placetype_alt": [
      "instagram"
    ],
    "wof:repo": "sfomuseum-data-socialmedia-instagram",
    "wof:superseded_by": [],
    "wof:supersedes": []
  },
  "bbox": [
    -122.386166,
    37.616356,
    -122.386166,
    37.616356
  ],
  "geometry": {"type":"Point","coordinates":[-122.386166,37.616356]}
}
