{
  "id": 1729358499,
  "type": "Feature",
  "properties": {
    "date:cessation_lower": "2018-02-28",
    "date:cessation_upper": "2018-02-28",
    "date:inception_lower": "2018-02-28",
    "date:inception_upper": "2018-02-28",
    "edtf:cessation": "2018-02-28T09:05:00-08:00",
    "edtf:inception": "2018-02-28T09:05:00-08:00",
    "geom:area": 0,
    "geom:bbox": "-122.386166,37.616356,-122.386166,37.616356",
    "geom:latitude": 37.616356,
    "geom:longitude": -122.386166,
    "instagram:post": {
      "caption": {
        "body": "",
        "excerpt": "",
        "hashtags": [
          "SneakPeek",
          "behindthescenes"
        ],
        "users": []
      },
      "media_id": "62cb278ffa33acbd241b5b6283279d49",
      "path": "media/other/28155832_153559781979891_4546720235733909504_n_17914391176096821.jpg",
      "perceptual_hash": "p:b8e1d0ce918e5ea6",
      "taken": 1519837500,
      "taken_at": "Feb 28, 2018 5:05 pm"
    },
    "millsfield:similar": {
      "google/siglip2-so400m-patch16-naflex": [
        {
          "distance": 0.18552947044372559,
          "id": 1729357477
        },
        {
          "distance": 0.19753527641296387,
          "id": 1729357753
        },
        {
          "distance": 0.2150287628173828,
          "id": 1729357477
        },
        {
          "distance": 0.2331678867340088,
          "id": 1729357753
        },
        {
          "distance": 0.3026043772697449,
          "id": 1729362361
        },
        {
          "distance": 0.30475056171417236,
          "id": 1947425071
        },
        {
          "distance": 0.31889206171035767,
          "id": 1729362819
        },
        {
          "distance": 0.32860875129699707,
          "id": 1947425071
        },
        {
          "distance": 0.3298736810684204,
          "id": 1729362617
        },
        {
          "distance": 0.330689013004303,
          "id": 1729362617
        }
      ]
    },
    "sfomuseum:placetype": "instagram",
    "src:geom": "sfomuseum",
    "wof:belongsto": [
      1159160869,
      102527513,
      102191575,
      85633793,
      102087579,
      85922583,
      85688637
    ],
    "wof:country": "US",
    "wof:created": 1519837500,
    "wof:geomhash": "b6e33f47475d56bc8da457bc31afadc8",
    "wof:hierarchy": [
      {
        "building_id": 1159160869,
        "campus_id": 102527513,
        "continent_id": 102191575,
        "country_id": 85633793,
        "county_id": 102087579,
        "custom_id": 1729358499,
        "instagram_id": 1729358499,
        "locality_id": 85922583,
        "neighbourhood_id": -1,
        "region_id": 85688637
      }
    ],
    "wof:id": 1729358499,
    "wof:lastmodified": 1787777633,
    "wof:name": "..",
    "wof:parent_id": 1159160869,
    "wof:placetype": "custom",
    "wof:placetype_alt": [
      "instagram"
    ],
    "wof:repo": "sfomuseum-data-socialmedia-instagram",
    "wof:superseded_by": [],
    "wof:supersedes": []
  },
  "bbox": [
    -122.386166,
    37.616356,
    -122.386166,
    37.616356
  ],
  "geometry": {"type":"Point","coordinates":[-122.386166,37.616356]}
}
