{
  "id": 1729361141,
  "type": "Feature",
  "properties": {
    "date:cessation_lower": "2016-01-19",
    "date:cessation_upper": "2016-01-19",
    "date:inception_lower": "2016-01-19",
    "date:inception_upper": "2016-01-19",
    "edtf:cessation": "2016-01-19T12:29:00-08:00",
    "edtf:inception": "2016-01-19T12:29:00-08:00",
    "geom:area": 0,
    "geom:bbox": "-122.386166,37.616356,-122.386166,37.616356",
    "geom:latitude": 37.616356,
    "geom:longitude": -122.386166,
    "instagram:post": {
      "caption": {
        "body": "",
        "excerpt": "",
        "hashtags": [
          "TravelTuesday"
        ],
        "users": []
      },
      "media_id": "76de962314a9d38b7aebc4ec03757ba5",
      "path": "media/other/12552217_179460425742968_590294532_n_17844775618073725.jpg",
      "perceptual_hash": "p:ee78e0c09535e9d2",
      "taken": 1453235340,
      "taken_at": "Jan 19, 2016 8:29 pm"
    },
    "millsfield:similar": {
      "google/siglip2-so400m-patch16-naflex": [
        {
          "distance": 0.1783563494682312,
          "id": 1729355429
        },
        {
          "distance": 0.2005055546760559,
          "id": 1763558807
        },
        {
          "distance": 0.2005055546760559,
          "id": 1729357179
        },
        {
          "distance": 0.22091174125671387,
          "id": 1729358537
        },
        {
          "distance": 0.2212863564491272,
          "id": 1729355429
        },
        {
          "distance": 0.2224004864692688,
          "id": 1729356623
        },
        {
          "distance": 0.22795408964157104,
          "id": 1763558807
        },
        {
          "distance": 0.22795408964157104,
          "id": 1729357179
        },
        {
          "distance": 0.23801922798156738,
          "id": 1729355245
        },
        {
          "distance": 0.24090313911437988,
          "id": 1729360779
        }
      ]
    },
    "sfomuseum:placetype": "instagram",
    "src:geom": "sfomuseum",
    "wof:belongsto": [
      1159160869,
      102527513,
      102191575,
      85633793,
      102087579,
      85922583,
      85688637
    ],
    "wof:country": "US",
    "wof:created": 1453235340,
    "wof:geomhash": "b6e33f47475d56bc8da457bc31afadc8",
    "wof:hierarchy": [
      {
        "building_id": 1159160869,
        "campus_id": 102527513,
        "continent_id": 102191575,
        "country_id": 85633793,
        "county_id": 102087579,
        "custom_id": 1729361141,
        "instagram_id": 1729361141,
        "locality_id": 85922583,
        "neighbourhood_id": -1,
        "region_id": 85688637
      }
    ],
    "wof:id": 1729361141,
    "wof:lastmodified": 1787777645,
    "wof:name": "..",
    "wof:parent_id": 1159160869,
    "wof:placetype": "custom",
    "wof:placetype_alt": [
      "instagram"
    ],
    "wof:repo": "sfomuseum-data-socialmedia-instagram",
    "wof:superseded_by": [],
    "wof:supersedes": []
  },
  "bbox": [
    -122.386166,
    37.616356,
    -122.386166,
    37.616356
  ],
  "geometry": {"type":"Point","coordinates":[-122.386166,37.616356]}
}
