{
  "id": 1729356141,
  "type": "Feature",
  "properties": {
    "date:cessation_lower": "2019-09-03",
    "date:cessation_upper": "2019-09-03",
    "date:inception_lower": "2019-09-03",
    "date:inception_upper": "2019-09-03",
    "edtf:cessation": "2019-09-03T02:00:00-07:00",
    "edtf:inception": "2019-09-03T02:00:00-07:00",
    "geom:area": 0,
    "geom:bbox": "-122.386166,37.616356,-122.386166,37.616356",
    "geom:latitude": 37.616356,
    "geom:longitude": -122.386166,
    "instagram:post": {
      "caption": {
        "body": "“The Intriguing World of Insects” features over one thousand specimens from the Essig Museum of Entomology at the University of California, Berkeley. The Essig Museum is home to a collection of over 5,000,000 terrestrial arthropods. From 1939 to 1999, the California Insect Survey generated a large number of specimens which represent the terrestrial arthropod fauna of the state, and the collection has served as a repository for the research collections of students of systematics at UC Berkeley as well.  See “The Intriguing World of Insects” on display, pre-security, in the International Terminal. http://bit.ly/IntriguingInsects",
        "excerpt": "“The Intriguing World of Insects” features over one thousand specimens from the Essig Museum of Entomology at the University of California, Berkeley.",
        "hashtags": [
          "IntriguingInsects",
          "WorldofInsects",
          "insects",
          "Entomology",
          "EssigMuseum",
          "Essig"
        ],
        "users": []
      },
      "media_id": "9369d4adb5902de8da310ac20a30d52b",
      "path": "media/other/67506171_2946342772049225_6915667374231915995_n_17849331364572041.jpg",
      "perceptual_hash": "p:ed25d26887d83a1e",
      "taken": 1567501200,
      "taken_at": "Sep 03, 2019 9:00 am"
    },
    "millsfield:similar": {
      "google/siglip2-so400m-patch16-naflex": [
        {
          "distance": 0.059471726417541504,
          "id": 1729356247
        },
        {
          "distance": 0.09438025951385498,
          "id": 1729356247
        },
        {
          "distance": 0.10495209693908691,
          "id": 1729356593
        },
        {
          "distance": 0.17221951484680176,
          "id": 1729356241
        },
        {
          "distance": 0.18641072511672974,
          "id": 1729356213
        },
        {
          "distance": 0.18838614225387573,
          "id": 1729356209
        },
        {
          "distance": 0.18849480152130127,
          "id": 1729356197
        },
        {
          "distance": 0.1987764835357666,
          "id": 1729356371
        },
        {
          "distance": 0.21305161714553833,
          "id": 1729356245
        },
        {
          "distance": 0.2150038480758667,
          "id": 1729356245
        }
      ]
    },
    "sfomuseum:placetype": "instagram",
    "src:geom": "sfomuseum",
    "wof:belongsto": [
      1159160869,
      102527513,
      102191575,
      85633793,
      102087579,
      85922583,
      85688637
    ],
    "wof:country": "US",
    "wof:created": 1567501200,
    "wof:geomhash": "b6e33f47475d56bc8da457bc31afadc8",
    "wof:hierarchy": [
      {
        "building_id": 1159160869,
        "campus_id": 102527513,
        "continent_id": 102191575,
        "country_id": 85633793,
        "county_id": 102087579,
        "custom_id": 1729356141,
        "instagram_id": 1729356141,
        "locality_id": 85922583,
        "neighbourhood_id": -1,
        "region_id": 85688637
      }
    ],
    "wof:id": 1729356141,
    "wof:lastmodified": 1787777628,
    "wof:name": "“The Intriguing World of Insects” features over one thousand specimens from the Essig Museum of Entomology at the University of California, Berkeley...",
    "wof:parent_id": 1159160869,
    "wof:placetype": "custom",
    "wof:placetype_alt": [
      "instagram"
    ],
    "wof:repo": "sfomuseum-data-socialmedia-instagram",
    "wof:superseded_by": [],
    "wof:supersedes": []
  },
  "bbox": [
    -122.386166,
    37.616356,
    -122.386166,
    37.616356
  ],
  "geometry": {"type":"Point","coordinates":[-122.386166,37.616356]}
}
