{
  "id": 1729362057,
  "type": "Feature",
  "properties": {
    "date:cessation_lower": "2014-11-03",
    "date:cessation_upper": "2014-11-03",
    "date:inception_lower": "2014-11-03",
    "date:inception_upper": "2014-11-03",
    "edtf:cessation": "2014-11-03T08:22:00-08:00",
    "edtf:inception": "2014-11-03T08:22:00-08:00",
    "geom:area": 0,
    "geom:bbox": "-122.386166,37.616356,-122.386166,37.616356",
    "geom:latitude": 37.616356,
    "geom:longitude": -122.386166,
    "instagram:post": {
      "caption": {
        "body": "",
        "excerpt": "",
        "hashtags": [
          "AdIcons",
          "astrogirl",
          "sonyboy",
          "pekochan"
        ],
        "users": []
      },
      "media_id": "cc808ad0189366c86ad01b8896217c34",
      "path": "media/other/915686_313568132182283_1100885086_n_17842490728062499.jpg",
      "perceptual_hash": "p:86491d36654a6d9f",
      "taken": 1415031720,
      "taken_at": "Nov 03, 2014 4:22 pm"
    },
    "millsfield:similar": {
      "google/siglip2-so400m-patch16-naflex": [
        {
          "distance": 0.2789018750190735,
          "id": 1729362449
        },
        {
          "distance": 0.30660325288772583,
          "id": 1729362449
        },
        {
          "distance": 0.3128631114959717,
          "id": 1729362407
        },
        {
          "distance": 0.31577426195144653,
          "id": 1729362407
        },
        {
          "distance": 0.32831817865371704,
          "id": 1729362155
        },
        {
          "distance": 0.3343161344528198,
          "id": 1729362155
        },
        {
          "distance": 0.33641475439071655,
          "id": 1729362379
        },
        {
          "distance": 0.33987098932266235,
          "id": 1729361987
        },
        {
          "distance": 0.3411954641342163,
          "id": 1729362227
        },
        {
          "distance": 0.35125428438186646,
          "id": 1729362045
        }
      ]
    },
    "sfomuseum:placetype": "instagram",
    "src:geom": "sfomuseum",
    "wof:belongsto": [
      1159160869,
      102527513,
      102191575,
      85633793,
      102087579,
      85922583,
      85688637
    ],
    "wof:country": "US",
    "wof:created": 1415031720,
    "wof:geomhash": "b6e33f47475d56bc8da457bc31afadc8",
    "wof:hierarchy": [
      {
        "building_id": 1159160869,
        "campus_id": 102527513,
        "continent_id": 102191575,
        "country_id": 85633793,
        "county_id": 102087579,
        "custom_id": 1729362057,
        "instagram_id": 1729362057,
        "locality_id": 85922583,
        "neighbourhood_id": -1,
        "region_id": 85688637
      }
    ],
    "wof:id": 1729362057,
    "wof:lastmodified": 1787777646,
    "wof:name": "..",
    "wof:parent_id": 1159160869,
    "wof:placetype": "custom",
    "wof:placetype_alt": [
      "instagram"
    ],
    "wof:repo": "sfomuseum-data-socialmedia-instagram",
    "wof:superseded_by": [],
    "wof:supersedes": []
  },
  "bbox": [
    -122.386166,
    37.616356,
    -122.386166,
    37.616356
  ],
  "geometry": {"type":"Point","coordinates":[-122.386166,37.616356]}
}
