{
  "id": 1729361089,
  "type": "Feature",
  "properties": {
    "date:cessation_lower": "2016-02-02",
    "date:cessation_upper": "2016-02-02",
    "date:inception_lower": "2016-02-02",
    "date:inception_upper": "2016-02-02",
    "edtf:cessation": "2016-02-02T02:06:00-08:00",
    "edtf:inception": "2016-02-02T02:06:00-08:00",
    "geom:area": 0,
    "geom:bbox": "-122.386166,37.616356,-122.386166,37.616356",
    "geom:latitude": 37.616356,
    "geom:longitude": -122.386166,
    "instagram:post": {
      "caption": {
        "body": "",
        "excerpt": "",
        "hashtags": [
          "TheNationsGame",
          "SuperBowl50",
          "SB50"
        ],
        "users": []
      },
      "media_id": "a19e0b0cfea16981451dca08792cffa5",
      "path": "media/other/12568241_800928913342705_987476457_n_17844177649101407.jpg",
      "perceptual_hash": "p:9992c7c530e57cb8",
      "taken": 1454407560,
      "taken_at": "Feb 02, 2016 10:06 am"
    },
    "millsfield:similar": {
      "google/siglip2-so400m-patch16-naflex": [
        {
          "distance": 0.10835754871368408,
          "id": 1729361417
        },
        {
          "distance": 0.12022006511688232,
          "id": 1729361083
        },
        {
          "distance": 0.12193876504898071,
          "id": 1729361201
        },
        {
          "distance": 0.1400834321975708,
          "id": 1729361077
        },
        {
          "distance": 0.156305193901062,
          "id": 1729361075
        },
        {
          "distance": 0.15689891576766968,
          "id": 1729361417
        },
        {
          "distance": 0.16108578443527222,
          "id": 1729361201
        },
        {
          "distance": 0.1678866147994995,
          "id": 1729361083
        },
        {
          "distance": 0.18174397945404053,
          "id": 1729361323
        },
        {
          "distance": 0.18211954832077026,
          "id": 1729361323
        }
      ]
    },
    "sfomuseum:placetype": "instagram",
    "src:geom": "sfomuseum",
    "wof:belongsto": [
      1159160869,
      102527513,
      102191575,
      85633793,
      102087579,
      85922583,
      85688637
    ],
    "wof:country": "US",
    "wof:created": 1454407560,
    "wof:geomhash": "b6e33f47475d56bc8da457bc31afadc8",
    "wof:hierarchy": [
      {
        "building_id": 1159160869,
        "campus_id": 102527513,
        "continent_id": 102191575,
        "country_id": 85633793,
        "county_id": 102087579,
        "custom_id": 1729361089,
        "instagram_id": 1729361089,
        "locality_id": 85922583,
        "neighbourhood_id": -1,
        "region_id": 85688637
      }
    ],
    "wof:id": 1729361089,
    "wof:lastmodified": 1787777643,
    "wof:name": "..",
    "wof:parent_id": 1159160869,
    "wof:placetype": "custom",
    "wof:placetype_alt": [
      "instagram"
    ],
    "wof:repo": "sfomuseum-data-socialmedia-instagram",
    "wof:superseded_by": [],
    "wof:supersedes": []
  },
  "bbox": [
    -122.386166,
    37.616356,
    -122.386166,
    37.616356
  ],
  "geometry": {"type":"Point","coordinates":[-122.386166,37.616356]}
}
