{
  "id": 1729360995,
  "type": "Feature",
  "properties": {
    "date:cessation_lower": "2016-02-29",
    "date:cessation_upper": "2016-02-29",
    "date:inception_lower": "2016-02-29",
    "date:inception_upper": "2016-02-29",
    "edtf:cessation": "2016-02-29T02:48:00-08:00",
    "edtf:inception": "2016-02-29T02:48:00-08:00",
    "geom:area": 0,
    "geom:bbox": "-122.386166,37.616356,-122.386166,37.616356",
    "geom:latitude": 37.616356,
    "geom:longitude": -122.386166,
    "instagram:post": {
      "caption": {
        "body": "",
        "excerpt": "",
        "hashtags": [
          "TheNationsGame"
        ],
        "users": []
      },
      "media_id": "574bcf4f1c7339703ff5b15a6df67028",
      "path": "media/other/12724774_1568800253436590_1069632272_n_17844880327121349.jpg",
      "perceptual_hash": "p:d1ec90f26b8ce0b9",
      "taken": 1456742880,
      "taken_at": "Feb 29, 2016 10:48 am"
    },
    "millsfield:similar": {
      "google/siglip2-so400m-patch16-naflex": [
        {
          "distance": 0.1863827109336853,
          "id": 1729361517
        },
        {
          "distance": 0.20924067497253418,
          "id": 1729361599
        },
        {
          "distance": 0.21647006273269653,
          "id": 1729361105
        },
        {
          "distance": 0.2228074073791504,
          "id": 1729361599
        },
        {
          "distance": 0.22363215684890747,
          "id": 1729361517
        },
        {
          "distance": 0.22570550441741943,
          "id": 1729361105
        },
        {
          "distance": 0.2855875492095947,
          "id": 1947424919
        },
        {
          "distance": 0.30567818880081177,
          "id": 1729361139
        },
        {
          "distance": 0.3067311644554138,
          "id": 1729361201
        },
        {
          "distance": 0.3075382113456726,
          "id": 1729361089
        }
      ]
    },
    "sfomuseum:placetype": "instagram",
    "src:geom": "sfomuseum",
    "wof:belongsto": [
      1159160869,
      102527513,
      102191575,
      85633793,
      102087579,
      85922583,
      85688637
    ],
    "wof:country": "US",
    "wof:created": 1456742880,
    "wof:geomhash": "b6e33f47475d56bc8da457bc31afadc8",
    "wof:hierarchy": [
      {
        "building_id": 1159160869,
        "campus_id": 102527513,
        "continent_id": 102191575,
        "country_id": 85633793,
        "county_id": 102087579,
        "custom_id": 1729360995,
        "instagram_id": 1729360995,
        "locality_id": 85922583,
        "neighbourhood_id": -1,
        "region_id": 85688637
      }
    ],
    "wof:id": 1729360995,
    "wof:lastmodified": 1787777640,
    "wof:name": "..",
    "wof:parent_id": 1159160869,
    "wof:placetype": "custom",
    "wof:placetype_alt": [
      "instagram"
    ],
    "wof:repo": "sfomuseum-data-socialmedia-instagram",
    "wof:superseded_by": [],
    "wof:supersedes": []
  },
  "bbox": [
    -122.386166,
    37.616356,
    -122.386166,
    37.616356
  ],
  "geometry": {"type":"Point","coordinates":[-122.386166,37.616356]}
}
