{
  "id": 1763559011,
  "type": "Feature",
  "properties": {
    "date:cessation_lower": "2020-11-03",
    "date:cessation_upper": "2020-11-03",
    "date:inception_lower": "2020-11-03",
    "date:inception_upper": "2020-11-03",
    "edtf:cessation": "2020-11-03T05:16:00-08:00",
    "edtf:inception": "2020-11-03T05:16:00-08:00",
    "geom:area": 0,
    "geom:bbox": "-122.386166,37.616356,-122.386166,37.616356",
    "geom:latitude": 37.616356,
    "geom:longitude": -122.386166,
    "instagram:post": {
      "caption": {
        "body": "Vote!!  Image: lever voting machine showing ballot from 1962. On the ballot was Prop A, which issued $9.8 million in bonds to build @flySFO’s central parking garage. SFO Museum Collection. 2011.032.0766",
        "excerpt": "Vote!!",
        "hashtags": [
          "Vote",
          "Election2020",
          "ElectionDay"
        ],
        "users": []
      },
      "media_id": "75e1d2c58f523e28a3a113a021fdff4ec8b530fd",
      "path": "media/other/123366185_3425357700884886_4977175004716804237_n_18126994114081205.jpg",
      "perceptual_hash": "p:df00767f807e8f80",
      "taken": 1604409360,
      "taken_at": "Nov 03, 2020 1:16 pm"
    },
    "millsfield:similar": {
      "google/siglip2-so400m-patch16-naflex": [
        {
          "distance": 0.0031180381774902344,
          "id": 1880151349
        },
        {
          "distance": 0.14172416925430298,
          "id": 1880151349
        },
        {
          "distance": 0.2603551745414734,
          "id": 1729359131
        },
        {
          "distance": 0.2711925506591797,
          "id": 1729359025
        },
        {
          "distance": 0.27919715642929077,
          "id": 1729358675
        },
        {
          "distance": 0.2816154360771179,
          "id": 1729359719
        },
        {
          "distance": 0.29336869716644287,
          "id": 1729359941
        },
        {
          "distance": 0.297497034072876,
          "id": 1729361263
        },
        {
          "distance": 0.2980496287345886,
          "id": 1729359131
        },
        {
          "distance": 0.30447810888290405,
          "id": 1729357097
        }
      ]
    },
    "sfomuseum:placetype": "instagram",
    "src:geom": "sfomuseum",
    "wof:belongsto": [
      1159160869,
      102527513,
      102191575,
      85633793,
      102087579,
      85922583,
      85688637
    ],
    "wof:country": "US",
    "wof:created": 1604409360,
    "wof:geomhash": "b6e33f47475d56bc8da457bc31afadc8",
    "wof:hierarchy": [
      {
        "building_id": 1159160869,
        "campus_id": 102527513,
        "continent_id": 102191575,
        "country_id": 85633793,
        "county_id": 102087579,
        "custom_id": 1763559011,
        "instagram_id": 1763559011,
        "locality_id": 85922583,
        "neighbourhood_id": -1,
        "region_id": 85688637
      }
    ],
    "wof:id": 1763559011,
    "wof:lastmodified": 1787777660,
    "wof:name": "Vote!!..",
    "wof:parent_id": 1159160869,
    "wof:placetype": "custom",
    "wof:placetype_alt": [
      "instagram"
    ],
    "wof:repo": "sfomuseum-data-socialmedia-instagram",
    "wof:superseded_by": [],
    "wof:supersedes": []
  },
  "bbox": [
    -122.386166,
    37.616356,
    -122.386166,
    37.616356
  ],
  "geometry": {"type":"Point","coordinates":[-122.386166,37.616356]}
}
