{
  "id": 1729359337,
  "type": "Feature",
  "properties": {
    "date:cessation_lower": "2017-07-08",
    "date:cessation_upper": "2017-07-08",
    "date:inception_lower": "2017-07-08",
    "date:inception_upper": "2017-07-08",
    "edtf:cessation": "2017-07-08T12:11:00-07:00",
    "edtf:inception": "2017-07-08T12:11:00-07:00",
    "geom:area": 0,
    "geom:bbox": "-122.386166,37.616356,-122.386166,37.616356",
    "geom:latitude": 37.616356,
    "geom:longitude": -122.386166,
    "instagram:post": {
      "caption": {
        "body": "United Airlines traces its origin to the mid-1920s, with the establishment of four airmail routes that would later become the backbone of United’s route system. The airmail service pilots flew in open-cockpit biplanes, fully exposed to the wind and weather conditions. They had no radios, no radar, and the only way to navigate was by compass and the pilot’s own knowledge of landmarks on the ground below. The only creature comforts available were what the pilots carried, like the occasional thermos of coffee. It was challenging work, but well-liked by the fliers. These pilots constituted a large group of experienced long-distance aviators who would later become the nation’s first generation of airline pilots.  Learn more about the history of United Airlines in \"Flying the Main Line: A History of United Airlines\" on display, post-security, in Terminal 3. http://bit.ly/TheMainLine  Image:  Pilot Leon Cuddeback with Varney Mail Service Laird Swallow biplane, c. 1926. Gift of United Airlines Archives. 1999.047.184",
        "excerpt": "United Airlines traces its origin to the mid-1920s, with the establishment of four airmail routes that would later become the backbone of United’s route system.",
        "hashtags": [
          "united",
          "UnitedAirlines",
          "themainline",
          "avgeek",
          "aviationhistory",
          "flyingthemainline",
          "airmail"
        ],
        "users": []
      },
      "media_id": "c7741d2861d6ecfd956844aee9b1ee99",
      "path": "media/posts/201707/19931611_120035155278672_6013757497838403584_n_17888247259009320.jpg",
      "perceptual_hash": "p:ae5a95e5893ac21e",
      "taken": 1499541060,
      "taken_at": "Jul 08, 2017 7:11 pm"
    },
    "millsfield:similar": {
      "google/siglip2-so400m-patch16-naflex": [
        {
          "distance": 0.0019221305847167969,
          "id": 1729360857
        },
        {
          "distance": 0.002657473087310791,
          "id": 1729355365
        },
        {
          "distance": 0.12075567245483398,
          "id": 1729355365
        },
        {
          "distance": 0.12120974063873291,
          "id": 1729360857
        },
        {
          "distance": 0.19415658712387085,
          "id": 1729358203
        },
        {
          "distance": 0.198930025100708,
          "id": 1729356643
        },
        {
          "distance": 0.20686817169189453,
          "id": 1729362189
        },
        {
          "distance": 0.21063905954360962,
          "id": 1729356707
        },
        {
          "distance": 0.21127402782440186,
          "id": 1729358371
        },
        {
          "distance": 0.2136533260345459,
          "id": 1729359651
        }
      ]
    },
    "sfomuseum:placetype": "instagram",
    "src:geom": "sfomuseum",
    "wof:belongsto": [
      1159160869,
      102527513,
      102191575,
      85633793,
      102087579,
      85922583,
      85688637
    ],
    "wof:country": "US",
    "wof:created": 1499541060,
    "wof:geomhash": "b6e33f47475d56bc8da457bc31afadc8",
    "wof:hierarchy": [
      {
        "building_id": 1159160869,
        "campus_id": 102527513,
        "continent_id": 102191575,
        "country_id": 85633793,
        "county_id": 102087579,
        "custom_id": 1729359337,
        "instagram_id": 1729359337,
        "locality_id": 85922583,
        "neighbourhood_id": -1,
        "region_id": 85688637
      }
    ],
    "wof:id": 1729359337,
    "wof:lastmodified": 1787777635,
    "wof:name": "United Airlines traces its origin to the mid-1920s, with the establishment of four airmail routes that would later become the backbone of United’s route system...",
    "wof:parent_id": 1159160869,
    "wof:placetype": "custom",
    "wof:placetype_alt": [
      "instagram"
    ],
    "wof:repo": "sfomuseum-data-socialmedia-instagram",
    "wof:superseded_by": [],
    "wof:supersedes": []
  },
  "bbox": [
    -122.386166,
    37.616356,
    -122.386166,
    37.616356
  ],
  "geometry": {"type":"Point","coordinates":[-122.386166,37.616356]}
}
