{
  "id": 1729362819,
  "type": "Feature",
  "properties": {
    "date:cessation_lower": "2012-12-28",
    "date:cessation_upper": "2012-12-28",
    "date:inception_lower": "2012-12-28",
    "date:inception_upper": "2012-12-28",
    "edtf:cessation": "2012-12-28T02:51:00-08:00",
    "edtf:inception": "2012-12-28T02:51:00-08:00",
    "geom:area": 0,
    "geom:bbox": "-122.386166,37.616356,-122.386166,37.616356",
    "geom:latitude": 37.616356,
    "geom:longitude": -122.386166,
    "instagram:post": {
      "caption": {
        "body": "It's quiet around here, but exhibitions are humming along as usual. Up next: Souvenirs.",
        "excerpt": "It's quiet around here, but exhibitions are humming along as usual.",
        "hashtags": [],
        "users": []
      },
      "media_id": "337755dda2db67bcfb936d012f138cc3",
      "path": "media/other/11242300_770463076403205_1109228880_n_17842290670062499.jpg",
      "perceptual_hash": "p:8f97872ba9d0f0c8",
      "taken": 1356691860,
      "taken_at": "Dec 28, 2012 10:51 am"
    },
    "millsfield:similar": {
      "google/siglip2-so400m-patch16-naflex": [
        {
          "distance": 0.2623941898345947,
          "id": 1729362727
        },
        {
          "distance": 0.26891064643859863,
          "id": 1729362571
        },
        {
          "distance": 0.2739298343658447,
          "id": 1729362641
        },
        {
          "distance": 0.27506422996520996,
          "id": 1729362291
        },
        {
          "distance": 0.27585822343826294,
          "id": 1729362419
        },
        {
          "distance": 0.2837778925895691,
          "id": 1729362079
        },
        {
          "distance": 0.28515636920928955,
          "id": 1729360393
        },
        {
          "distance": 0.28680795431137085,
          "id": 1729362327
        },
        {
          "distance": 0.2875770926475525,
          "id": 1729362327
        },
        {
          "distance": 0.2913787364959717,
          "id": 1729359185
        }
      ]
    },
    "sfomuseum:placetype": "instagram",
    "src:geom": "sfomuseum",
    "wof:belongsto": [
      1159160869,
      102527513,
      102191575,
      85633793,
      102087579,
      85922583,
      85688637
    ],
    "wof:country": "US",
    "wof:created": 1356691860,
    "wof:geomhash": "b6e33f47475d56bc8da457bc31afadc8",
    "wof:hierarchy": [
      {
        "building_id": 1159160869,
        "campus_id": 102527513,
        "continent_id": 102191575,
        "country_id": 85633793,
        "county_id": 102087579,
        "custom_id": 1729362819,
        "instagram_id": 1729362819,
        "locality_id": 85922583,
        "neighbourhood_id": -1,
        "region_id": 85688637
      }
    ],
    "wof:id": 1729362819,
    "wof:lastmodified": 1787777648,
    "wof:name": "It's quiet around here, but exhibitions are humming along as usual...",
    "wof:parent_id": 1159160869,
    "wof:placetype": "custom",
    "wof:placetype_alt": [
      "instagram"
    ],
    "wof:repo": "sfomuseum-data-socialmedia-instagram",
    "wof:superseded_by": [],
    "wof:supersedes": []
  },
  "bbox": [
    -122.386166,
    37.616356,
    -122.386166,
    37.616356
  ],
  "geometry": {"type":"Point","coordinates":[-122.386166,37.616356]}
}
