{
  "id": 1729360631,
  "type": "Feature",
  "properties": {
    "date:cessation_lower": "2016-06-10",
    "date:cessation_upper": "2016-06-10",
    "date:inception_lower": "2016-06-10",
    "date:inception_upper": "2016-06-10",
    "edtf:cessation": "2016-06-10T01:47:00-07:00",
    "edtf:inception": "2016-06-10T01:47:00-07:00",
    "geom:area": 0,
    "geom:bbox": "-122.386166,37.616356,-122.386166,37.616356",
    "geom:latitude": 37.616356,
    "geom:longitude": -122.386166,
    "instagram:post": {
      "caption": {
        "body": "Happy Friday! TWA's \"Great Cities of the World\" ticket jacket features two icons of San Francisco. Did you ever fly on TWA (Trans World Airlines)? TWA (Trans World Airlines), San Francisco ticket jacket 1960 SFO Museum Collection Gift of David A. Abercrombie, in memory of Stanley A. Abercrombie  2001.039.525 a b",
        "excerpt": "Happy Friday!",
        "hashtags": [],
        "users": []
      },
      "media_id": "d535ca3102f95a06ef8bed2585f61257",
      "path": "media/other/13398766_1160401483990472_1184273351_n_17848216339124445.jpg",
      "perceptual_hash": "p:e59ac6c639216c9b",
      "taken": 1465548420,
      "taken_at": "Jun 10, 2016 8:47 am"
    },
    "millsfield:similar": {
      "google/siglip2-so400m-patch16-naflex": [
        {
          "distance": 0.21744418144226074,
          "id": 1729357175
        },
        {
          "distance": 0.22082984447479248,
          "id": 1729355169
        },
        {
          "distance": 0.23096448183059692,
          "id": 1729356319
        },
        {
          "distance": 0.24051469564437866,
          "id": 1729356319
        },
        {
          "distance": 0.24576514959335327,
          "id": 1729359455
        },
        {
          "distance": 0.27505552768707275,
          "id": 1729358285
        },
        {
          "distance": 0.2913582921028137,
          "id": 1729360649
        },
        {
          "distance": 0.2917754054069519,
          "id": 1729359455
        },
        {
          "distance": 0.2921765446662903,
          "id": 1729357175
        },
        {
          "distance": 0.3031388521194458,
          "id": 1947424925
        }
      ]
    },
    "sfomuseum:placetype": "instagram",
    "src:geom": "sfomuseum",
    "wof:belongsto": [
      1159160869,
      102527513,
      102191575,
      85633793,
      102087579,
      85922583,
      85688637
    ],
    "wof:country": "US",
    "wof:created": 1465548420,
    "wof:geomhash": "b6e33f47475d56bc8da457bc31afadc8",
    "wof:hierarchy": [
      {
        "building_id": 1159160869,
        "campus_id": 102527513,
        "continent_id": 102191575,
        "country_id": 85633793,
        "county_id": 102087579,
        "custom_id": 1729360631,
        "instagram_id": 1729360631,
        "locality_id": 85922583,
        "neighbourhood_id": -1,
        "region_id": 85688637
      }
    ],
    "wof:id": 1729360631,
    "wof:lastmodified": 1787777640,
    "wof:name": "Happy Friday!..",
    "wof:parent_id": 1159160869,
    "wof:placetype": "custom",
    "wof:placetype_alt": [
      "instagram"
    ],
    "wof:repo": "sfomuseum-data-socialmedia-instagram",
    "wof:superseded_by": [],
    "wof:supersedes": []
  },
  "bbox": [
    -122.386166,
    37.616356,
    -122.386166,
    37.616356
  ],
  "geometry": {"type":"Point","coordinates":[-122.386166,37.616356]}
}
