{
  "id": 1729357807,
  "type": "Feature",
  "properties": {
    "date:cessation_lower": "2018-08-09",
    "date:cessation_upper": "2018-08-09",
    "date:inception_lower": "2018-08-09",
    "date:inception_upper": "2018-08-09",
    "edtf:cessation": "2018-08-08T17:18:31-07:00",
    "edtf:inception": "2018-08-08T17:18:31-07:00",
    "geom:area": 0,
    "geom:bbox": "-122.386166,37.616356,-122.386166,37.616356",
    "geom:latitude": 37.616356,
    "geom:longitude": -122.386166,
    "instagram:post": {
      "caption": {
        "body": "It's International Cat Day and we cannot get enough of cats at SFO Museum! We are presenting not one but TWO cat exhibitions! \"Maneki Neko: Japanese Beckoning Cat\" is on display post-security in Terminal 2 and \"Caticons: The Cat in Art\" is on display, pre-security in the International Terminal. Check out our website for more information. http://bit.ly/SFOExhibitions",
        "excerpt": "It's International Cat Day and we cannot get enough of cats at SFO Museum!",
        "hashtags": [
          "InternationalCatDay",
          "caticons",
          "beckoningcats",
          "manekineko",
          "catsofinstagram",
          "cats",
          "neko",
          "meow",
          "mewseum",
          "japan",
          "mingei",
          "japanese",
          "caticon",
          "cat",
          "catsofinstagram",
          "cats",
          "meow",
          "mewseum",
          "catstagram",
          "catsagram",
          "catscatscats",
          "catlover"
        ],
        "users": []
      },
      "location": "",
      "media_id": "c6bdde8d4aef87939f67833413d4f069",
      "path": "photos/201808/c6bdde8d4aef87939f67833413d4f069.jpg",
      "perceptual_hash": "p:8e4759817d84a5de",
      "taken": 1533745080,
      "taken_at": "Aug 8, 2018, 4:18 PM"
    },
    "millsfield:similar": {
      "google/siglip2-so400m-patch16-naflex": [
        {
          "distance": 0.1488579511642456,
          "id": 1729358025
        },
        {
          "distance": 0.1528981328010559,
          "id": 1729358025
        },
        {
          "distance": 0.17444288730621338,
          "id": 1729358173
        },
        {
          "distance": 0.18806183338165283,
          "id": 1729358591
        },
        {
          "distance": 0.1914408802986145,
          "id": 1729358205
        },
        {
          "distance": 0.19181925058364868,
          "id": 1729358205
        },
        {
          "distance": 0.1984071135520935,
          "id": 1729358399
        },
        {
          "distance": 0.2043730616569519,
          "id": 1729358173
        },
        {
          "distance": 0.21041816473007202,
          "id": 1729357519
        },
        {
          "distance": 0.22257113456726074,
          "id": 1729356889
        }
      ]
    },
    "sfomuseum:placetype": "instagram",
    "src:geom": "sfomuseum",
    "wof:belongsto": [
      1159160869,
      102527513,
      102191575,
      85633793,
      102087579,
      85922583,
      85688637
    ],
    "wof:country": "US",
    "wof:created": 1533773911,
    "wof:geomhash": "b6e33f47475d56bc8da457bc31afadc8",
    "wof:hierarchy": [
      {
        "building_id": 1159160869,
        "campus_id": 102527513,
        "continent_id": 102191575,
        "country_id": 85633793,
        "county_id": 102087579,
        "custom_id": 1729357807,
        "instagram_id": 1729357807,
        "locality_id": 85922583,
        "neighbourhood_id": -1,
        "region_id": 85688637
      }
    ],
    "wof:id": 1729357807,
    "wof:lastmodified": 1787777632,
    "wof:name": "It's International Cat Day and we cannot get enough of cats at SFO Museum!..",
    "wof:parent_id": 1159160869,
    "wof:placetype": "custom",
    "wof:placetype_alt": [
      "instagram"
    ],
    "wof:repo": "sfomuseum-data-socialmedia-instagram",
    "wof:superseded_by": [],
    "wof:supersedes": []
  },
  "bbox": [
    -122.386166,
    37.616356,
    -122.386166,
    37.616356
  ],
  "geometry": {"type":"Point","coordinates":[-122.386166,37.616356]}
}
