{
  "id": 1729359095,
  "type": "Feature",
  "properties": {
    "date:cessation_lower": "2017-09-12",
    "date:cessation_upper": "2017-09-12",
    "date:inception_lower": "2017-09-12",
    "date:inception_upper": "2017-09-12",
    "edtf:cessation": "2017-09-12T03:02:00-07:00",
    "edtf:inception": "2017-09-12T03:02:00-07:00",
    "geom:area": 0,
    "geom:bbox": "-122.386166,37.616356,-122.386166,37.616356",
    "geom:latitude": 37.616356,
    "geom:longitude": -122.386166,
    "instagram:post": {
      "caption": {
        "body": "Aigle Azur is the second largest airline in France. Founded in 1946, Aigle Azur established long haul routes from France to Africa and Asia. Have you ever flown on Aigle Azur?  Image: Aigle-Azur, Mediterranean route map, late 1940s. Gift of Thomas G. Dragges. 2015.160.559",
        "excerpt": "Aigle Azur is the second largest airline in France.",
        "hashtags": [
          "travelTuesday",
          "AigleAzur",
          "france",
          "french",
          "avgeek",
          "avationgeek",
          "aviation",
          "aviationhistory",
          "aviationlovers",
          "vintageaviation",
          "history",
          "avhistory",
          "aviationgeeks",
          "instaplane",
          "flying",
          "plane",
          "flight",
          "airline",
          "avgeeks",
          "aviation4u",
          "aviationdaily"
        ],
        "users": []
      },
      "media_id": "f42cd05a6f944b096b1fe393b84151a5",
      "path": "media/posts/201709/21689874_487889611580540_6167712567658545152_n_17898224692036428.jpg",
      "perceptual_hash": "p:db2cd3b0c19bb0c3",
      "taken": 1505210520,
      "taken_at": "Sep 12, 2017 10:02 am"
    },
    "millsfield:similar": {
      "google/siglip2-so400m-patch16-naflex": [
        {
          "distance": 0.3087809681892395,
          "id": 1729358333
        },
        {
          "distance": 0.3139811158180237,
          "id": 1729358333
        },
        {
          "distance": 0.32662129402160645,
          "id": 1729358783
        },
        {
          "distance": 0.33146196603775024,
          "id": 1763559133
        },
        {
          "distance": 0.3362034559249878,
          "id": 1729360613
        },
        {
          "distance": 0.33765268325805664,
          "id": 1729357307
        },
        {
          "distance": 0.3386722803115845,
          "id": 1729359065
        },
        {
          "distance": 0.34032803773880005,
          "id": 1729359701
        },
        {
          "distance": 0.3499191403388977,
          "id": 1729359015
        },
        {
          "distance": 0.3533831238746643,
          "id": 1763559443
        }
      ]
    },
    "sfomuseum:placetype": "instagram",
    "src:geom": "sfomuseum",
    "wof:belongsto": [
      1159160869,
      102527513,
      102191575,
      85633793,
      102087579,
      85922583,
      85688637
    ],
    "wof:country": "US",
    "wof:created": 1505210520,
    "wof:geomhash": "b6e33f47475d56bc8da457bc31afadc8",
    "wof:hierarchy": [
      {
        "building_id": 1159160869,
        "campus_id": 102527513,
        "continent_id": 102191575,
        "country_id": 85633793,
        "county_id": 102087579,
        "custom_id": 1729359095,
        "instagram_id": 1729359095,
        "locality_id": 85922583,
        "neighbourhood_id": -1,
        "region_id": 85688637
      }
    ],
    "wof:id": 1729359095,
    "wof:lastmodified": 1787777635,
    "wof:name": "Aigle Azur is the second largest airline in France...",
    "wof:parent_id": 1159160869,
    "wof:placetype": "custom",
    "wof:placetype_alt": [
      "instagram"
    ],
    "wof:repo": "sfomuseum-data-socialmedia-instagram",
    "wof:superseded_by": [],
    "wof:supersedes": []
  },
  "bbox": [
    -122.386166,
    37.616356,
    -122.386166,
    37.616356
  ],
  "geometry": {"type":"Point","coordinates":[-122.386166,37.616356]}
}
