{
  "id": 1729360815,
  "type": "Feature",
  "properties": {
    "date:cessation_lower": "2016-04-15",
    "date:cessation_upper": "2016-04-15",
    "date:inception_lower": "2016-04-15",
    "date:inception_upper": "2016-04-15",
    "edtf:cessation": "2016-04-15T11:10:00-07:00",
    "edtf:inception": "2016-04-15T11:10:00-07:00",
    "geom:area": 0,
    "geom:bbox": "-122.386166,37.616356,-122.386166,37.616356",
    "geom:latitude": 37.616356,
    "geom:longitude": -122.386166,
    "instagram:post": {
      "caption": {
        "body": "Pacific Southwest Airlines (PSA) featured San Francisco in this circa 1968 postcard, the back of which reads, “Flying with PSA – The Nation’s Leading Intra-State Airline – Over the Golden Gate Bridge”. Gerald French Pacific Southwest Airlines (PSA) postcard c. 1968 SFO Museum Collection Gift of David Winckoski 2011.195.046",
        "excerpt": "Pacific Southwest Airlines (PSA) featured San Francisco in this circa 1968 postcard, the back of which reads, “Flying with PSA – The Nation’s Leading Intra-State Airline – Over the Golden Gate Bridge”.",
        "hashtags": [],
        "users": []
      },
      "media_id": "cdd59daecae51dbb7b2bf8abb4c3ec2a",
      "path": "media/other/12950456_980534492002020_472595264_n_17856899818047492.jpg",
      "perceptual_hash": "p:97b8c1a6e9b69344",
      "taken": 1460743800,
      "taken_at": "Apr 15, 2016 6:10 pm"
    },
    "millsfield:similar": {
      "google/siglip2-so400m-patch16-naflex": [
        {
          "distance": 0.03275030851364136,
          "id": 1729355843
        },
        {
          "distance": 0.09673017263412476,
          "id": 1729355843
        },
        {
          "distance": 0.12307631969451904,
          "id": 1947425179
        },
        {
          "distance": 0.1431032419204712,
          "id": 1947425179
        },
        {
          "distance": 0.19202208518981934,
          "id": 1880151413
        },
        {
          "distance": 0.19851821660995483,
          "id": 1729358365
        },
        {
          "distance": 0.2046608328819275,
          "id": 1763558657
        },
        {
          "distance": 0.2046608328819275,
          "id": 1729359895
        },
        {
          "distance": 0.20636892318725586,
          "id": 1763558979
        },
        {
          "distance": 0.21341639757156372,
          "id": 1763558997
        }
      ]
    },
    "sfomuseum:placetype": "instagram",
    "src:geom": "sfomuseum",
    "wof:belongsto": [
      1159160869,
      102527513,
      102191575,
      85633793,
      102087579,
      85922583,
      85688637
    ],
    "wof:country": "US",
    "wof:created": 1460743800,
    "wof:geomhash": "b6e33f47475d56bc8da457bc31afadc8",
    "wof:hierarchy": [
      {
        "building_id": 1159160869,
        "campus_id": 102527513,
        "continent_id": 102191575,
        "country_id": 85633793,
        "county_id": 102087579,
        "custom_id": 1729360815,
        "instagram_id": 1729360815,
        "locality_id": 85922583,
        "neighbourhood_id": -1,
        "region_id": 85688637
      }
    ],
    "wof:id": 1729360815,
    "wof:lastmodified": 1787777640,
    "wof:name": "Pacific Southwest Airlines (PSA) featured San Francisco in this circa 1968 postcard, the back of which reads, “Flying with PSA – The Nation’s Leading Intra-State Airline – Over the Golden Gate Bridge”...",
    "wof:parent_id": 1159160869,
    "wof:placetype": "custom",
    "wof:placetype_alt": [
      "instagram"
    ],
    "wof:repo": "sfomuseum-data-socialmedia-instagram",
    "wof:superseded_by": [],
    "wof:supersedes": []
  },
  "bbox": [
    -122.386166,
    37.616356,
    -122.386166,
    37.616356
  ],
  "geometry": {"type":"Point","coordinates":[-122.386166,37.616356]}
}
