{
  "id": 1729356909,
  "type": "Feature",
  "properties": {
    "date:cessation_lower": "2019-02-23",
    "date:cessation_upper": "2019-02-23",
    "date:inception_lower": "2019-02-23",
    "date:inception_upper": "2019-02-23",
    "edtf:cessation": "2019-02-22T23:42:26-08:00",
    "edtf:inception": "2019-02-22T23:42:26-08:00",
    "geom:area": 0,
    "geom:bbox": "-122.386166,37.616356,-122.386166,37.616356",
    "geom:latitude": 37.616356,
    "geom:longitude": -122.386166,
    "instagram:post": {
      "caption": {
        "body": "In 1959, United Air Lines and Delta Airlines introduced the Douglas DC-8. The DC-8-63 series followed nearly a decade later. Promoted as the “Super 63”, it was an updated, stretched, long-range variant. With a capacity of up to 244 passengers, it was the largest commercial jetliner available at the time, until the introduction of the Boeing 747. Powered by Pratt \u0026 Whitney JT3D turbofan engines it was capable of cruising at up to 575 miles-per-hour. The turbofans were more efficient, less noisy, and more economical to operate than the earlier jet engines. KLM Royal Dutch Airlines purchased a large fleet of the DC-8-63 and operated them though the 1980s. The airliner was reliable, comfortable, and ideal for the carrier’s transoceanic, world routes.  See \"Aviation Evolutions: The Jim Lund 1:72 Scale Model Airplane Collection\", which features more than 200 models, on display, pre-security, in the Aviation Museum. http://bit.ly/AviationEvolutions",
        "excerpt": "In 1959, United Air Lines and Delta Airlines introduced the Douglas DC-8.",
        "hashtags": [
          "AviationEvolutions",
          "jimlund",
          "avgeek",
          "aviationgeek",
          "aviation",
          "aviationhistory",
          "vintageaviation",
          "history",
          "aviationgeeks",
          "modelplane",
          "scalemodel",
          "avgeeks",
          "douglasaircraft",
          "KLM"
        ],
        "users": []
      },
      "location": "",
      "media_id": "9eab0a1315ba1de753092176f1a9b07f",
      "path": "photos/201902/9eab0a1315ba1de753092176f1a9b07f.jpg",
      "perceptual_hash": "p:a9019e36e19d78e3",
      "taken": 1550878920,
      "taken_at": "Feb 22, 2019, 11:42 PM"
    },
    "millsfield:similar": {
      "google/siglip2-so400m-patch16-naflex": [
        {
          "distance": 0.09844851493835449,
          "id": 1729358687
        },
        {
          "distance": 0.13305950164794922,
          "id": 1729357123
        },
        {
          "distance": 0.1482885479927063,
          "id": 1729358687
        },
        {
          "distance": 0.15554571151733398,
          "id": 1763559101
        },
        {
          "distance": 0.1578378677368164,
          "id": 1729357123
        },
        {
          "distance": 0.16147863864898682,
          "id": 1729357619
        },
        {
          "distance": 0.17592471837997437,
          "id": 1729356913
        },
        {
          "distance": 0.1788632869720459,
          "id": 1763559587
        },
        {
          "distance": 0.17992788553237915,
          "id": 1729357673
        },
        {
          "distance": 0.1856839656829834,
          "id": 1729357673
        }
      ]
    },
    "sfomuseum:placetype": "instagram",
    "src:geom": "sfomuseum",
    "wof:belongsto": [
      1159160869,
      102527513,
      102191575,
      85633793,
      102087579,
      85922583,
      85688637
    ],
    "wof:country": "US",
    "wof:created": 1550907746,
    "wof:geomhash": "b6e33f47475d56bc8da457bc31afadc8",
    "wof:hierarchy": [
      {
        "building_id": 1159160869,
        "campus_id": 102527513,
        "continent_id": 102191575,
        "country_id": 85633793,
        "county_id": 102087579,
        "custom_id": 1729356909,
        "instagram_id": 1729356909,
        "locality_id": 85922583,
        "neighbourhood_id": -1,
        "region_id": 85688637
      }
    ],
    "wof:id": 1729356909,
    "wof:lastmodified": 1787777629,
    "wof:name": "In 1959, United Air Lines and Delta Airlines introduced the Douglas DC-8...",
    "wof:parent_id": 1159160869,
    "wof:placetype": "custom",
    "wof:placetype_alt": [
      "instagram"
    ],
    "wof:repo": "sfomuseum-data-socialmedia-instagram",
    "wof:superseded_by": [],
    "wof:supersedes": []
  },
  "bbox": [
    -122.386166,
    37.616356,
    -122.386166,
    37.616356
  ],
  "geometry": {"type":"Point","coordinates":[-122.386166,37.616356]}
}
