{
  "id": 1729359907,
  "type": "Feature",
  "properties": {
    "date:cessation_lower": "2017-01-17",
    "date:cessation_upper": "2017-01-17",
    "date:inception_lower": "2017-01-17",
    "date:inception_upper": "2017-01-17",
    "edtf:cessation": "2017-01-17T03:23:00-08:00",
    "edtf:inception": "2017-01-17T03:23:00-08:00",
    "geom:area": 0,
    "geom:bbox": "-122.386166,37.616356,-122.386166,37.616356",
    "geom:latitude": 37.616356,
    "geom:longitude": -122.386166,
    "instagram:post": {
      "caption": {
        "body": "",
        "excerpt": "",
        "hashtags": [
          "Vientiane,",
          "Hanoi",
          "Saigon",
          "Vietnam.",
          "Laos?",
          "TravelTuesday",
          "HoChiMinhCity",
          "DC3"
        ],
        "users": []
      },
      "media_id": "64836defb512d3a668d08592f9c63809",
      "path": "media/posts/201701/15875645_1749805445337426_2963561476150788096_n_17847327436158527.jpg",
      "perceptual_hash": "p:eb8cb472858f8ee0",
      "taken": 1484652180,
      "taken_at": "Jan 17, 2017 11:23 am"
    },
    "millsfield:similar": {
      "google/siglip2-so400m-patch16-naflex": [
        {
          "distance": 0.23475342988967896,
          "id": 1729360193
        },
        {
          "distance": 0.2647932171821594,
          "id": 1729360193
        },
        {
          "distance": 0.27061396837234497,
          "id": 1729361315
        },
        {
          "distance": 0.29573166370391846,
          "id": 1763559557
        },
        {
          "distance": 0.3015519380569458,
          "id": 1729361125
        },
        {
          "distance": 0.3147299885749817,
          "id": 1763559191
        },
        {
          "distance": 0.32698267698287964,
          "id": 1729359433
        },
        {
          "distance": 0.3273400664329529,
          "id": 1763559557
        },
        {
          "distance": 0.3292683959007263,
          "id": 1729359553
        },
        {
          "distance": 0.34071820974349976,
          "id": 1729358625
        }
      ]
    },
    "sfomuseum:placetype": "instagram",
    "src:geom": "sfomuseum",
    "wof:belongsto": [
      1159160869,
      102527513,
      102191575,
      85633793,
      102087579,
      85922583,
      85688637
    ],
    "wof:country": "US",
    "wof:created": 1484652180,
    "wof:geomhash": "b6e33f47475d56bc8da457bc31afadc8",
    "wof:hierarchy": [
      {
        "building_id": 1159160869,
        "campus_id": 102527513,
        "continent_id": 102191575,
        "country_id": 85633793,
        "county_id": 102087579,
        "custom_id": 1729359907,
        "instagram_id": 1729359907,
        "locality_id": 85922583,
        "neighbourhood_id": -1,
        "region_id": 85688637
      }
    ],
    "wof:id": 1729359907,
    "wof:lastmodified": 1787777637,
    "wof:name": "..",
    "wof:parent_id": 1159160869,
    "wof:placetype": "custom",
    "wof:placetype_alt": [
      "instagram"
    ],
    "wof:repo": "sfomuseum-data-socialmedia-instagram",
    "wof:superseded_by": [],
    "wof:supersedes": []
  },
  "bbox": [
    -122.386166,
    37.616356,
    -122.386166,
    37.616356
  ],
  "geometry": {"type":"Point","coordinates":[-122.386166,37.616356]}
}
