{
  "id": 1729362381,
  "type": "Feature",
  "properties": {
    "date:cessation_lower": "2014-03-05",
    "date:cessation_upper": "2014-03-05",
    "date:inception_lower": "2014-03-05",
    "date:inception_upper": "2014-03-05",
    "edtf:cessation": "2014-03-05T05:58:00-08:00",
    "edtf:inception": "2014-03-05T05:58:00-08:00",
    "geom:area": 0,
    "geom:bbox": "-122.386166,37.616356,-122.386166,37.616356",
    "geom:latitude": 37.616356,
    "geom:longitude": -122.386166,
    "instagram:post": {
      "caption": {
        "body": "",
        "excerpt": "",
        "hashtags": [
          "Doors"
        ],
        "users": []
      },
      "media_id": "67baba489ae83ad2181fe6ec1f2e6014",
      "path": "media/other/11356670_824848507633513_1363635647_n_17842407478062499.jpg",
      "perceptual_hash": "p:abe5941e4a9cb5c1",
      "taken": 1394027880,
      "taken_at": "Mar 05, 2014 1:58 pm"
    },
    "millsfield:similar": {
      "google/siglip2-so400m-patch16-naflex": [
        {
          "distance": 0.21382325887680054,
          "id": 1729362369
        },
        {
          "distance": 0.2200537919998169,
          "id": 1729362251
        },
        {
          "distance": 0.227935791015625,
          "id": 1729362251
        },
        {
          "distance": 0.2338169813156128,
          "id": 1729362153
        },
        {
          "distance": 0.24985748529434204,
          "id": 1880151807
        },
        {
          "distance": 0.25094181299209595,
          "id": 1729362959
        },
        {
          "distance": 0.2585983872413635,
          "id": 1947424955
        },
        {
          "distance": 0.26615166664123535,
          "id": 1947425167
        },
        {
          "distance": 0.2708469033241272,
          "id": 1947424955
        },
        {
          "distance": 0.27201032638549805,
          "id": 1729362557
        }
      ]
    },
    "sfomuseum:placetype": "instagram",
    "src:geom": "sfomuseum",
    "wof:belongsto": [
      1159160869,
      102527513,
      102191575,
      85633793,
      102087579,
      85922583,
      85688637
    ],
    "wof:country": "US",
    "wof:created": 1394027880,
    "wof:geomhash": "b6e33f47475d56bc8da457bc31afadc8",
    "wof:hierarchy": [
      {
        "building_id": 1159160869,
        "campus_id": 102527513,
        "continent_id": 102191575,
        "country_id": 85633793,
        "county_id": 102087579,
        "custom_id": 1729362381,
        "instagram_id": 1729362381,
        "locality_id": 85922583,
        "neighbourhood_id": -1,
        "region_id": 85688637
      }
    ],
    "wof:id": 1729362381,
    "wof:lastmodified": 1787777647,
    "wof:name": "..",
    "wof:parent_id": 1159160869,
    "wof:placetype": "custom",
    "wof:placetype_alt": [
      "instagram"
    ],
    "wof:repo": "sfomuseum-data-socialmedia-instagram",
    "wof:superseded_by": [],
    "wof:supersedes": []
  },
  "bbox": [
    -122.386166,
    37.616356,
    -122.386166,
    37.616356
  ],
  "geometry": {"type":"Point","coordinates":[-122.386166,37.616356]}
}
