{
  "id": 1729362441,
  "type": "Feature",
  "properties": {
    "date:cessation_lower": "2014-01-08",
    "date:cessation_upper": "2014-01-08",
    "date:inception_lower": "2014-01-08",
    "date:inception_upper": "2014-01-08",
    "edtf:cessation": "2014-01-08T06:40:00-08:00",
    "edtf:inception": "2014-01-08T06:40:00-08:00",
    "geom:area": 0,
    "geom:bbox": "-122.386166,37.616356,-122.386166,37.616356",
    "geom:latitude": 37.616356,
    "geom:longitude": -122.386166,
    "instagram:post": {
      "caption": {
        "body": "Classic font treatment from this 1869 San Francisco map. More on display at #SFOMuseum #david rumsey",
        "excerpt": "Classic font treatment from this 1869 San Francisco map.",
        "hashtags": [],
        "users": []
      },
      "media_id": "7fbadac8bbf5a785efee02b9e7e8162d",
      "path": "media/other/1515120_1395945963988911_637144282_n_17842391653062499.jpg",
      "perceptual_hash": "p:8dce119597e1726c",
      "taken": 1389192000,
      "taken_at": "Jan 08, 2014 2:40 pm"
    },
    "millsfield:similar": {
      "google/siglip2-so400m-patch16-naflex": [
        {
          "distance": 0.16929692029953003,
          "id": 1729362309
        },
        {
          "distance": 0.1985170841217041,
          "id": 1729362391
        },
        {
          "distance": 0.24898886680603027,
          "id": 1729362287
        },
        {
          "distance": 0.25354623794555664,
          "id": 1729362185
        },
        {
          "distance": 0.254186749458313,
          "id": 1729362309
        },
        {
          "distance": 0.2578464150428772,
          "id": 1729362173
        },
        {
          "distance": 0.26388776302337646,
          "id": 1729362391
        },
        {
          "distance": 0.26439034938812256,
          "id": 1729357737
        },
        {
          "distance": 0.2728158235549927,
          "id": 1729362089
        },
        {
          "distance": 0.28860044479370117,
          "id": 1729357737
        }
      ]
    },
    "sfomuseum:placetype": "instagram",
    "src:geom": "sfomuseum",
    "wof:belongsto": [
      1159160869,
      102527513,
      102191575,
      85633793,
      102087579,
      85922583,
      85688637
    ],
    "wof:country": "US",
    "wof:created": 1389192000,
    "wof:geomhash": "b6e33f47475d56bc8da457bc31afadc8",
    "wof:hierarchy": [
      {
        "building_id": 1159160869,
        "campus_id": 102527513,
        "continent_id": 102191575,
        "country_id": 85633793,
        "county_id": 102087579,
        "custom_id": 1729362441,
        "instagram_id": 1729362441,
        "locality_id": 85922583,
        "neighbourhood_id": -1,
        "region_id": 85688637
      }
    ],
    "wof:id": 1729362441,
    "wof:lastmodified": 1787777647,
    "wof:name": "Classic font treatment from this 1869 San Francisco map...",
    "wof:parent_id": 1159160869,
    "wof:placetype": "custom",
    "wof:placetype_alt": [
      "instagram"
    ],
    "wof:repo": "sfomuseum-data-socialmedia-instagram",
    "wof:superseded_by": [],
    "wof:supersedes": []
  },
  "bbox": [
    -122.386166,
    37.616356,
    -122.386166,
    37.616356
  ],
  "geometry": {"type":"Point","coordinates":[-122.386166,37.616356]}
}
