{
  "id": 1729360313,
  "type": "Feature",
  "properties": {
    "date:cessation_lower": "2016-09-23",
    "date:cessation_upper": "2016-09-23",
    "date:inception_lower": "2016-09-23",
    "date:inception_upper": "2016-09-23",
    "edtf:cessation": "2016-09-23T03:02:00-07:00",
    "edtf:inception": "2016-09-23T03:02:00-07:00",
    "geom:area": 0,
    "geom:bbox": "-122.386166,37.616356,-122.386166,37.616356",
    "geom:latitude": 37.616356,
    "geom:longitude": -122.386166,
    "instagram:post": {
      "caption": {
        "body": "American designer Roy Halston Frowick (1932–1990), who began designing hats in 1953, was a celebrated figure in fashion and four-time Coty American Fashion Critics' Award winner. The minimalist aesthetic of his 1977 uniform launched Braniff’s New Elegance and Ultra-Touch campaign. Drawing on the success of his Ultrasuede ready-to-wear sportswear lines, Halston used earth tones of light brown, beige, and ivory in polyester suit pieces with tie-belt jacket and H-pattern nylon crepe.  See more Braniff Uniforms in \"#FashionInFlight: A History of Airline Uniform Design\", on display, pre-security, in the Aviation Museum and Library and in the Main Hall of the International Terminal. The Aviation Museum and Library is open daily from 10am to 4:30pm. http://bit.ly/fashioninflight",
        "excerpt": "American designer Roy Halston Frowick (1932–1990), who began designing hats in 1953, was a celebrated figure in fashion and four-time Coty American Fashion Critics' Award winner.",
        "hashtags": [
          "Halston",
          "Braniff",
          "Fashion",
          "FashionFriday"
        ],
        "users": []
      },
      "media_id": "3a70ed2c476f49995490f87f2b19104d",
      "path": "media/other/14309911_742655822538909_5060697838174863360_n_17842580245156258.jpg",
      "perceptual_hash": "p:e49e92c716640f79",
      "taken": 1474624920,
      "taken_at": "Sep 23, 2016 10:02 am"
    },
    "millsfield:similar": {
      "google/siglip2-so400m-patch16-naflex": [
        {
          "distance": 0.18238788843154907,
          "id": 1763559147
        },
        {
          "distance": 0.1877148151397705,
          "id": 1763559643
        },
        {
          "distance": 0.1893269419670105,
          "id": 1729360329
        },
        {
          "distance": 0.19527071714401245,
          "id": 1729361509
        },
        {
          "distance": 0.19783860445022583,
          "id": 1729361731
        },
        {
          "distance": 0.19912046194076538,
          "id": 1729357403
        },
        {
          "distance": 0.1991899013519287,
          "id": 1729360205
        },
        {
          "distance": 0.2035260796546936,
          "id": 1729360135
        },
        {
          "distance": 0.2063179612159729,
          "id": 1729361467
        },
        {
          "distance": 0.20666122436523438,
          "id": 1729359139
        }
      ]
    },
    "sfomuseum:placetype": "instagram",
    "src:geom": "sfomuseum",
    "wof:belongsto": [
      1159160869,
      102527513,
      102191575,
      85633793,
      102087579,
      85922583,
      85688637
    ],
    "wof:country": "US",
    "wof:created": 1474624920,
    "wof:geomhash": "b6e33f47475d56bc8da457bc31afadc8",
    "wof:hierarchy": [
      {
        "building_id": 1159160869,
        "campus_id": 102527513,
        "continent_id": 102191575,
        "country_id": 85633793,
        "county_id": 102087579,
        "custom_id": 1729360313,
        "instagram_id": 1729360313,
        "locality_id": 85922583,
        "neighbourhood_id": -1,
        "region_id": 85688637
      }
    ],
    "wof:id": 1729360313,
    "wof:lastmodified": 1787777639,
    "wof:name": "American designer Roy Halston Frowick (1932–1990), who began designing hats in 1953, was a celebrated figure in fashion and four-time Coty American Fashion Critics' Award winner...",
    "wof:parent_id": 1159160869,
    "wof:placetype": "custom",
    "wof:placetype_alt": [
      "instagram"
    ],
    "wof:repo": "sfomuseum-data-socialmedia-instagram",
    "wof:superseded_by": [],
    "wof:supersedes": []
  },
  "bbox": [
    -122.386166,
    37.616356,
    -122.386166,
    37.616356
  ],
  "geometry": {"type":"Point","coordinates":[-122.386166,37.616356]}
}
