{
  "id": 1729357187,
  "type": "Feature",
  "properties": {
    "date:cessation_lower": "2018-12-24",
    "date:cessation_upper": "2018-12-24",
    "date:inception_lower": "2018-12-24",
    "date:inception_upper": "2018-12-24",
    "edtf:cessation": "2018-12-24T08:07:00-08:00",
    "edtf:inception": "2018-12-24T08:07:00-08:00",
    "geom:area": 0,
    "geom:bbox": "-122.386166,37.616356,-122.386166,37.616356",
    "geom:latitude": 37.616356,
    "geom:longitude": -122.386166,
    "instagram:post": {
      "caption": {
        "body": "With deadpan humor, filmmaker James P. Gannon profiles his friend, a decidedly grinchy Jimmy Cochran, whose seasonal job is to turn out the lights along a two-mile stretch of “winter wonderland” in a small suburb of Philadelphia.  See \"The Christmas Light Killer\" by James P. Gannon, now playing in the Video Arts Room located pre-security in the International Terminal",
        "excerpt": "With deadpan humor, filmmaker James P. Gannon profiles his friend, a decidedly grinchy Jimmy Cochran, whose seasonal job is to turn out the lights along a two-mile stretch of “winter wonderland” in a small suburb of Philadelphia.",
        "hashtags": [
          "VideoArtsSFOM",
          "video",
          "merrychristmas",
          "christmas",
          "winterwonderland",
          "christmaslights",
          "christmaslight",
          "holidaylights",
          "holiday"
        ],
        "users": []
      },
      "media_id": "c82e73f884084f2f668da14581a838d9",
      "path": "media/other/46683163_334728970698160_3679869072409679106_n_18000371107102093.jpg",
      "perceptual_hash": "p:b5f443b5c3831e89",
      "taken": 1545667620,
      "taken_at": "Dec 24, 2018 4:07 pm"
    },
    "millsfield:similar": {
      "google/siglip2-so400m-patch16-naflex": [
        {
          "distance": 0.3787883520126343,
          "id": 1729356985
        },
        {
          "distance": 0.3846184015274048,
          "id": 1763559437
        },
        {
          "distance": 0.3857029676437378,
          "id": 1729357469
        },
        {
          "distance": 0.38797491788864136,
          "id": 1729359177
        },
        {
          "distance": 0.3883107304573059,
          "id": 1763559437
        },
        {
          "distance": 0.38918012380599976,
          "id": 1729359427
        },
        {
          "distance": 0.3907032012939453,
          "id": 1729355677
        },
        {
          "distance": 0.3929702639579773,
          "id": 1729356549
        },
        {
          "distance": 0.3937755227088928,
          "id": 1729355677
        },
        {
          "distance": 0.3939315676689148,
          "id": 1729355903
        }
      ]
    },
    "sfomuseum:placetype": "instagram",
    "src:geom": "sfomuseum",
    "wof:belongsto": [
      1159160869,
      102527513,
      102191575,
      85633793,
      102087579,
      85922583,
      85688637
    ],
    "wof:country": "US",
    "wof:created": 1545667620,
    "wof:geomhash": "b6e33f47475d56bc8da457bc31afadc8",
    "wof:hierarchy": [
      {
        "building_id": 1159160869,
        "campus_id": 102527513,
        "continent_id": 102191575,
        "country_id": 85633793,
        "county_id": 102087579,
        "custom_id": 1729357187,
        "instagram_id": 1729357187,
        "locality_id": 85922583,
        "neighbourhood_id": -1,
        "region_id": 85688637
      }
    ],
    "wof:id": 1729357187,
    "wof:lastmodified": 1787777630,
    "wof:name": "With deadpan humor, filmmaker James P. Gannon profiles his friend, a decidedly grinchy Jimmy Cochran, whose seasonal job is to turn out the lights along a two-mile stretch of “winter wonderland” in a small suburb of Philadelphia...",
    "wof:parent_id": 1159160869,
    "wof:placetype": "custom",
    "wof:placetype_alt": [
      "instagram"
    ],
    "wof:repo": "sfomuseum-data-socialmedia-instagram",
    "wof:superseded_by": [],
    "wof:supersedes": []
  },
  "bbox": [
    -122.386166,
    37.616356,
    -122.386166,
    37.616356
  ],
  "geometry": {"type":"Point","coordinates":[-122.386166,37.616356]}
}
