{
  "id": 1729356235,
  "type": "Feature",
  "properties": {
    "date:cessation_lower": "2019-08-08",
    "date:cessation_upper": "2019-08-08",
    "date:inception_lower": "2019-08-08",
    "date:inception_upper": "2019-08-08",
    "edtf:cessation": "2019-08-08T02:11:00-07:00",
    "edtf:inception": "2019-08-08T02:11:00-07:00",
    "geom:area": 0,
    "geom:bbox": "-122.386166,37.616356,-122.386166,37.616356",
    "geom:latitude": 37.616356,
    "geom:longitude": -122.386166,
    "instagram:post": {
      "caption": {
        "body": "Harvey Milk was a human rights leader, a groundbreaking political luminary, and a seminal figure of the LGBTQ rights movement. \"#HarveyMilk: Messenger of Hope,\" will be on view, post-security, in the Harvey Milk Terminal 1 until 2021",
        "excerpt": "Harvey Milk was a human rights leader, a groundbreaking political luminary, and a seminal figure of the LGBTQ rights movement.",
        "hashtags": [
          "HarveyMilkExhibition",
          "HarveyMilk",
          "humanrights",
          "lgbtq",
          "lgbtqrights"
        ],
        "users": []
      },
      "media_id": "2a0aafb2a7932b6e01312ff6edb21316",
      "path": "media/other/66670292_2379398268815987_1720311103734582722_n_17882181928402771.jpg",
      "perceptual_hash": "p:bfc6d03a82e5b40e",
      "taken": 1565255460,
      "taken_at": "Aug 08, 2019 9:11 am"
    },
    "millsfield:similar": {
      "google/siglip2-so400m-patch16-naflex": [
        {
          "distance": 0.16325968503952026,
          "id": 1729355785
        },
        {
          "distance": 0.18272966146469116,
          "id": 1729356537
        },
        {
          "distance": 0.19044214487075806,
          "id": 1729356537
        },
        {
          "distance": 0.1963036060333252,
          "id": 1763559417
        },
        {
          "distance": 0.20482492446899414,
          "id": 1729355785
        },
        {
          "distance": 0.21334075927734375,
          "id": 1880150993
        },
        {
          "distance": 0.21366393566131592,
          "id": 1763558935
        },
        {
          "distance": 0.21972274780273438,
          "id": 1880150869
        },
        {
          "distance": 0.22206318378448486,
          "id": 1947425151
        },
        {
          "distance": 0.22543424367904663,
          "id": 1947425151
        }
      ]
    },
    "sfomuseum:placetype": "instagram",
    "src:geom": "sfomuseum",
    "wof:belongsto": [
      1159160869,
      102527513,
      102191575,
      85633793,
      102087579,
      85922583,
      85688637
    ],
    "wof:country": "US",
    "wof:created": 1565255460,
    "wof:geomhash": "b6e33f47475d56bc8da457bc31afadc8",
    "wof:hierarchy": [
      {
        "building_id": 1159160869,
        "campus_id": 102527513,
        "continent_id": 102191575,
        "country_id": 85633793,
        "county_id": 102087579,
        "custom_id": 1729356235,
        "instagram_id": 1729356235,
        "locality_id": 85922583,
        "neighbourhood_id": -1,
        "region_id": 85688637
      }
    ],
    "wof:id": 1729356235,
    "wof:lastmodified": 1787777628,
    "wof:name": "Harvey Milk was a human rights leader, a groundbreaking political luminary, and a seminal figure of the LGBTQ rights movement...",
    "wof:parent_id": 1159160869,
    "wof:placetype": "custom",
    "wof:placetype_alt": [
      "instagram"
    ],
    "wof:repo": "sfomuseum-data-socialmedia-instagram",
    "wof:superseded_by": [],
    "wof:supersedes": []
  },
  "bbox": [
    -122.386166,
    37.616356,
    -122.386166,
    37.616356
  ],
  "geometry": {"type":"Point","coordinates":[-122.386166,37.616356]}
}
