{
  "id": 1729362935,
  "type": "Feature",
  "properties": {
    "date:cessation_lower": "2012-08-03",
    "date:cessation_upper": "2012-08-03",
    "date:inception_lower": "2012-08-03",
    "date:inception_upper": "2012-08-03",
    "edtf:cessation": "2012-08-03T06:31:00-07:00",
    "edtf:inception": "2012-08-03T06:31:00-07:00",
    "geom:area": 0,
    "geom:bbox": "-122.386166,37.616356,-122.386166,37.616356",
    "geom:latitude": 37.616356,
    "geom:longitude": -122.386166,
    "instagram:post": {
      "caption": {
        "body": "",
        "excerpt": "",
        "hashtags": [
          "MuseumOlympics",
          "MuseumLove"
        ],
        "users": []
      },
      "media_id": "1c80cd1c8358013cffa3e9850df201d7",
      "path": "media/other/11189547_1583410765246102_311887014_n_17842261693062499.jpg",
      "perceptual_hash": "p:8ce7bfab284843ac",
      "taken": 1344000660,
      "taken_at": "Aug 03, 2012 1:31 pm"
    },
    "millsfield:similar": {
      "google/siglip2-so400m-patch16-naflex": [
        {
          "distance": 0.18875950574874878,
          "id": 1729361937
        },
        {
          "distance": 0.2015223503112793,
          "id": 1729361937
        },
        {
          "distance": 0.21036303043365479,
          "id": 1729361585
        },
        {
          "distance": 0.2110128402709961,
          "id": 1729362979
        },
        {
          "distance": 0.21720391511917114,
          "id": 1729361651
        },
        {
          "distance": 0.22120922803878784,
          "id": 1729361651
        },
        {
          "distance": 0.2248864769935608,
          "id": 1729362905
        },
        {
          "distance": 0.22663569450378418,
          "id": 1729360497
        },
        {
          "distance": 0.23684513568878174,
          "id": 1729362905
        },
        {
          "distance": 0.23789966106414795,
          "id": 1729362201
        }
      ]
    },
    "sfomuseum:placetype": "instagram",
    "src:geom": "sfomuseum",
    "wof:belongsto": [
      1159160869,
      102527513,
      102191575,
      85633793,
      102087579,
      85922583,
      85688637
    ],
    "wof:country": "US",
    "wof:created": 1344000660,
    "wof:geomhash": "b6e33f47475d56bc8da457bc31afadc8",
    "wof:hierarchy": [
      {
        "building_id": 1159160869,
        "campus_id": 102527513,
        "continent_id": 102191575,
        "country_id": 85633793,
        "county_id": 102087579,
        "custom_id": 1729362935,
        "instagram_id": 1729362935,
        "locality_id": 85922583,
        "neighbourhood_id": -1,
        "region_id": 85688637
      }
    ],
    "wof:id": 1729362935,
    "wof:lastmodified": 1787777657,
    "wof:name": "..",
    "wof:parent_id": 1159160869,
    "wof:placetype": "custom",
    "wof:placetype_alt": [
      "instagram"
    ],
    "wof:repo": "sfomuseum-data-socialmedia-instagram",
    "wof:superseded_by": [],
    "wof:supersedes": []
  },
  "bbox": [
    -122.386166,
    37.616356,
    -122.386166,
    37.616356
  ],
  "geometry": {"type":"Point","coordinates":[-122.386166,37.616356]}
}
