{
  "id": 1729361383,
  "type": "Feature",
  "properties": {
    "date:cessation_lower": "2015-11-05",
    "date:cessation_upper": "2015-11-05",
    "date:inception_lower": "2015-11-05",
    "date:inception_upper": "2015-11-05",
    "edtf:cessation": "2015-11-05T12:45:00-08:00",
    "edtf:inception": "2015-11-05T12:45:00-08:00",
    "geom:area": 0,
    "geom:bbox": "-122.386166,37.616356,-122.386166,37.616356",
    "geom:latitude": 37.616356,
    "geom:longitude": -122.386166,
    "instagram:post": {
      "caption": {
        "body": "",
        "excerpt": "",
        "hashtags": [
          "ThrowbackThursday"
        ],
        "users": []
      },
      "media_id": "0b6a3f53eabc707bad49f2bd17d3ff8f",
      "path": "media/other/10299820_644607772348125_1742179618_n_17841825646117859.jpg",
      "perceptual_hash": "p:d7c60d5a087968f5",
      "taken": 1446756300,
      "taken_at": "Nov 05, 2015 8:45 pm"
    },
    "millsfield:similar": {
      "google/siglip2-so400m-patch16-naflex": [
        {
          "distance": 0.14393049478530884,
          "id": 1729359759
        },
        {
          "distance": 0.15508508682250977,
          "id": 1729357747
        },
        {
          "distance": 0.16498136520385742,
          "id": 1729358985
        },
        {
          "distance": 0.16732776165008545,
          "id": 1729360259
        },
        {
          "distance": 0.17853128910064697,
          "id": 1947425255
        },
        {
          "distance": 0.18441104888916016,
          "id": 1729361129
        },
        {
          "distance": 0.19293004274368286,
          "id": 1729357667
        },
        {
          "distance": 0.20627212524414062,
          "id": 1729357057
        },
        {
          "distance": 0.20776140689849854,
          "id": 1729360235
        },
        {
          "distance": 0.2078322172164917,
          "id": 1729360213
        }
      ]
    },
    "sfomuseum:placetype": "instagram",
    "src:geom": "sfomuseum",
    "wof:belongsto": [
      1159160869,
      102527513,
      102191575,
      85633793,
      102087579,
      85922583,
      85688637
    ],
    "wof:country": "US",
    "wof:created": 1446756300,
    "wof:geomhash": "b6e33f47475d56bc8da457bc31afadc8",
    "wof:hierarchy": [
      {
        "building_id": 1159160869,
        "campus_id": 102527513,
        "continent_id": 102191575,
        "country_id": 85633793,
        "county_id": 102087579,
        "custom_id": 1729361383,
        "instagram_id": 1729361383,
        "locality_id": 85922583,
        "neighbourhood_id": -1,
        "region_id": 85688637
      }
    ],
    "wof:id": 1729361383,
    "wof:lastmodified": 1787777645,
    "wof:name": "..",
    "wof:parent_id": 1159160869,
    "wof:placetype": "custom",
    "wof:placetype_alt": [
      "instagram"
    ],
    "wof:repo": "sfomuseum-data-socialmedia-instagram",
    "wof:superseded_by": [],
    "wof:supersedes": []
  },
  "bbox": [
    -122.386166,
    37.616356,
    -122.386166,
    37.616356
  ],
  "geometry": {"type":"Point","coordinates":[-122.386166,37.616356]}
}
