{
  "id": 1729361811,
  "type": "Feature",
  "properties": {
    "date:cessation_lower": "2015-04-28",
    "date:cessation_upper": "2015-04-28",
    "date:inception_lower": "2015-04-28",
    "date:inception_upper": "2015-04-28",
    "edtf:cessation": "2015-04-28T08:55:00-07:00",
    "edtf:inception": "2015-04-28T08:55:00-07:00",
    "geom:area": 0,
    "geom:bbox": "-122.386166,37.616356,-122.386166,37.616356",
    "geom:latitude": 37.616356,
    "geom:longitude": -122.386166,
    "instagram:post": {
      "caption": {
        "body": "",
        "excerpt": "",
        "hashtags": [
          "Wurlitzer",
          "jukebox",
          "1930s",
          "ArtDeco",
          "AgeOfDeco"
        ],
        "users": []
      },
      "media_id": "a58250d655a5e9a8b713377b993047e3",
      "path": "media/other/11190114_919311944808305_909695751_n_17841649531062499.jpg",
      "perceptual_hash": "p:ef92d036c14d8e2b",
      "taken": 1430236500,
      "taken_at": "Apr 28, 2015 3:55 pm"
    },
    "millsfield:similar": {
      "google/siglip2-so400m-patch16-naflex": [
        {
          "distance": 0.09143340587615967,
          "id": 1729358489
        },
        {
          "distance": 0.14321666955947876,
          "id": 1729358489
        },
        {
          "distance": 0.2056490182876587,
          "id": 1729360355
        },
        {
          "distance": 0.20694851875305176,
          "id": 1729358223
        },
        {
          "distance": 0.21482956409454346,
          "id": 1729357825
        },
        {
          "distance": 0.2252470850944519,
          "id": 1729357825
        },
        {
          "distance": 0.2263190746307373,
          "id": 1729357987
        },
        {
          "distance": 0.2263190746307373,
          "id": 1729357985
        },
        {
          "distance": 0.22752124071121216,
          "id": 1729358223
        },
        {
          "distance": 0.2340657114982605,
          "id": 1729360355
        }
      ]
    },
    "sfomuseum:placetype": "instagram",
    "src:geom": "sfomuseum",
    "wof:belongsto": [
      1159160869,
      102527513,
      102191575,
      85633793,
      102087579,
      85922583,
      85688637
    ],
    "wof:country": "US",
    "wof:created": 1430236500,
    "wof:geomhash": "b6e33f47475d56bc8da457bc31afadc8",
    "wof:hierarchy": [
      {
        "building_id": 1159160869,
        "campus_id": 102527513,
        "continent_id": 102191575,
        "country_id": 85633793,
        "county_id": 102087579,
        "custom_id": 1729361811,
        "instagram_id": 1729361811,
        "locality_id": 85922583,
        "neighbourhood_id": -1,
        "region_id": 85688637
      }
    ],
    "wof:id": 1729361811,
    "wof:lastmodified": 1787777646,
    "wof:name": "..",
    "wof:parent_id": 1159160869,
    "wof:placetype": "custom",
    "wof:placetype_alt": [
      "instagram"
    ],
    "wof:repo": "sfomuseum-data-socialmedia-instagram",
    "wof:superseded_by": [],
    "wof:supersedes": []
  },
  "bbox": [
    -122.386166,
    37.616356,
    -122.386166,
    37.616356
  ],
  "geometry": {"type":"Point","coordinates":[-122.386166,37.616356]}
}
