{
  "id": 1729362219,
  "type": "Feature",
  "properties": {
    "date:cessation_lower": "2014-07-14",
    "date:cessation_upper": "2014-07-14",
    "date:inception_lower": "2014-07-14",
    "date:inception_upper": "2014-07-14",
    "edtf:cessation": "2014-07-14T07:05:00-07:00",
    "edtf:inception": "2014-07-14T07:05:00-07:00",
    "geom:area": 0,
    "geom:bbox": "-122.386166,37.616356,-122.386166,37.616356",
    "geom:latitude": 37.616356,
    "geom:longitude": -122.386166,
    "instagram:post": {
      "caption": {
        "body": "",
        "excerpt": "",
        "hashtags": [
          "remainovernight",
          "amenitykits"
        ],
        "users": []
      },
      "media_id": "618104bad36a9d9a2c015f99f500b5e1",
      "path": "media/other/10488666_1508641066039524_1104808048_n_17842452844062499.jpg",
      "perceptual_hash": "p:a592dc25abd87646",
      "taken": 1405346700,
      "taken_at": "Jul 14, 2014 2:05 pm"
    },
    "millsfield:similar": {
      "google/siglip2-so400m-patch16-naflex": [
        {
          "distance": 0.22539931535720825,
          "id": 1729361003
        },
        {
          "distance": 0.26371830701828003,
          "id": 1729362165
        },
        {
          "distance": 0.26944977045059204,
          "id": 1880150941
        },
        {
          "distance": 0.2709662914276123,
          "id": 1729357909
        },
        {
          "distance": 0.27427202463150024,
          "id": 1729361003
        },
        {
          "distance": 0.27666687965393066,
          "id": 1729362755
        },
        {
          "distance": 0.2807351350784302,
          "id": 1729362351
        },
        {
          "distance": 0.2834588289260864,
          "id": 1729362351
        },
        {
          "distance": 0.28353989124298096,
          "id": 1729362131
        },
        {
          "distance": 0.28481656312942505,
          "id": 1729362709
        }
      ]
    },
    "sfomuseum:placetype": "instagram",
    "src:geom": "sfomuseum",
    "wof:belongsto": [
      1159160869,
      102527513,
      102191575,
      85633793,
      102087579,
      85922583,
      85688637
    ],
    "wof:country": "US",
    "wof:created": 1405346700,
    "wof:geomhash": "b6e33f47475d56bc8da457bc31afadc8",
    "wof:hierarchy": [
      {
        "building_id": 1159160869,
        "campus_id": 102527513,
        "continent_id": 102191575,
        "country_id": 85633793,
        "county_id": 102087579,
        "custom_id": 1729362219,
        "instagram_id": 1729362219,
        "locality_id": 85922583,
        "neighbourhood_id": -1,
        "region_id": 85688637
      }
    ],
    "wof:id": 1729362219,
    "wof:lastmodified": 1787777646,
    "wof:name": "..",
    "wof:parent_id": 1159160869,
    "wof:placetype": "custom",
    "wof:placetype_alt": [
      "instagram"
    ],
    "wof:repo": "sfomuseum-data-socialmedia-instagram",
    "wof:superseded_by": [],
    "wof:supersedes": []
  },
  "bbox": [
    -122.386166,
    37.616356,
    -122.386166,
    37.616356
  ],
  "geometry": {"type":"Point","coordinates":[-122.386166,37.616356]}
}
