{
  "id": 1729362595,
  "type": "Feature",
  "properties": {
    "date:cessation_lower": "2013-07-30",
    "date:cessation_upper": "2013-07-30",
    "date:inception_lower": "2013-07-30",
    "date:inception_upper": "2013-07-30",
    "edtf:cessation": "2013-07-30T08:20:00-07:00",
    "edtf:inception": "2013-07-30T08:20:00-07:00",
    "geom:area": 0,
    "geom:bbox": "-122.386166,37.616356,-122.386166,37.616356",
    "geom:latitude": 37.616356,
    "geom:longitude": -122.386166,
    "instagram:post": {
      "caption": {
        "body": "",
        "excerpt": "",
        "hashtags": [
          "Recology"
        ],
        "users": []
      },
      "media_id": "a2f6d775ca6ddbb5a6917f531e176589",
      "path": "media/other/11328358_716113885160815_177047418_n_17842345726062499.jpg",
      "perceptual_hash": "p:d0628f302dccaf37",
      "taken": 1375197600,
      "taken_at": "Jul 30, 2013 3:20 pm"
    },
    "millsfield:similar": {
      "google/siglip2-so400m-patch16-naflex": [
        {
          "distance": 0.2586493492126465,
          "id": 1729363021
        },
        {
          "distance": 0.2972108721733093,
          "id": 1729362477
        },
        {
          "distance": 0.3033907413482666,
          "id": 1729362647
        },
        {
          "distance": 0.30521976947784424,
          "id": 1729362743
        },
        {
          "distance": 0.3153947591781616,
          "id": 1729360587
        },
        {
          "distance": 0.32515186071395874,
          "id": 1729362737
        },
        {
          "distance": 0.3288170099258423,
          "id": 1729362515
        },
        {
          "distance": 0.33025890588760376,
          "id": 1729362991
        },
        {
          "distance": 0.332578182220459,
          "id": 1947425257
        },
        {
          "distance": 0.3366885185241699,
          "id": 1729362959
        }
      ]
    },
    "sfomuseum:placetype": "instagram",
    "src:geom": "sfomuseum",
    "wof:belongsto": [
      1159160869,
      102527513,
      102191575,
      85633793,
      102087579,
      85922583,
      85688637
    ],
    "wof:country": "US",
    "wof:created": 1375197600,
    "wof:geomhash": "b6e33f47475d56bc8da457bc31afadc8",
    "wof:hierarchy": [
      {
        "building_id": 1159160869,
        "campus_id": 102527513,
        "continent_id": 102191575,
        "country_id": 85633793,
        "county_id": 102087579,
        "custom_id": 1729362595,
        "instagram_id": 1729362595,
        "locality_id": 85922583,
        "neighbourhood_id": -1,
        "region_id": 85688637
      }
    ],
    "wof:id": 1729362595,
    "wof:lastmodified": 1787777647,
    "wof:name": "..",
    "wof:parent_id": 1159160869,
    "wof:placetype": "custom",
    "wof:placetype_alt": [
      "instagram"
    ],
    "wof:repo": "sfomuseum-data-socialmedia-instagram",
    "wof:superseded_by": [],
    "wof:supersedes": []
  },
  "bbox": [
    -122.386166,
    37.616356,
    -122.386166,
    37.616356
  ],
  "geometry": {"type":"Point","coordinates":[-122.386166,37.616356]}
}
