{
  "id": 1729356747,
  "type": "Feature",
  "properties": {
    "date:cessation_lower": "2019-03-30",
    "date:cessation_upper": "2019-03-30",
    "date:inception_lower": "2019-03-30",
    "date:inception_upper": "2019-03-30",
    "edtf:cessation": "2019-03-29T18:18:51-07:00",
    "edtf:inception": "2019-03-29T18:18:51-07:00",
    "geom:area": 0,
    "geom:bbox": "-122.386166,37.616356,-122.386166,37.616356",
    "geom:latitude": 37.616356,
    "geom:longitude": -122.386166,
    "instagram:post": {
      "caption": {
        "body": "Many lamps from the 1950s represent an eclectic range of taste and design. Companies created lamps that featured novel, multi-purpose functions. Bilt-Rite Manufacturing of Chicago combined an aquarium, planter, and TV lamp into one unit—complete with an illustrated, mountain riverscape as a backdrop for the fish. \"The Modern Consumer: Products and Style\" is on display, post-security, in Terminal 3. http://bit.ly/1950sConsumer",
        "excerpt": "Many lamps from the 1950s represent an eclectic range of taste and design.",
        "hashtags": [
          "1950sConsumer",
          "1950s",
          "vintage",
          "50s",
          "midcentury",
          "classic",
          "retro",
          "lamps",
          "noveltylamp",
          "lamp"
        ],
        "users": []
      },
      "location": "",
      "media_id": "bff9526aa94106921fdbfd6da8bad0c1",
      "path": "photos/201903/bff9526aa94106921fdbfd6da8bad0c1.jpg",
      "perceptual_hash": "p:ba41cd3f916a6a91",
      "taken": 1553879880,
      "taken_at": "Mar 29, 2019, 5:18 PM"
    },
    "millsfield:similar": {
      "google/siglip2-so400m-patch16-naflex": [
        {
          "distance": 0.12939822673797607,
          "id": 1729356757
        },
        {
          "distance": 0.21594452857971191,
          "id": 1729356757
        },
        {
          "distance": 0.2677278518676758,
          "id": 1729358021
        },
        {
          "distance": 0.2730702757835388,
          "id": 1729359075
        },
        {
          "distance": 0.29619574546813965,
          "id": 1729357939
        },
        {
          "distance": 0.303985059261322,
          "id": 1729357825
        },
        {
          "distance": 0.3047614097595215,
          "id": 1729356739
        },
        {
          "distance": 0.30558931827545166,
          "id": 1729360355
        },
        {
          "distance": 0.30893778800964355,
          "id": 1729358223
        },
        {
          "distance": 0.3123135566711426,
          "id": 1729358115
        }
      ]
    },
    "sfomuseum:placetype": "instagram",
    "src:geom": "sfomuseum",
    "wof:belongsto": [
      1159160869,
      102527513,
      102191575,
      85633793,
      102087579,
      85922583,
      85688637
    ],
    "wof:country": "US",
    "wof:created": 1553908731,
    "wof:geomhash": "b6e33f47475d56bc8da457bc31afadc8",
    "wof:hierarchy": [
      {
        "building_id": 1159160869,
        "campus_id": 102527513,
        "continent_id": 102191575,
        "country_id": 85633793,
        "county_id": 102087579,
        "custom_id": 1729356747,
        "instagram_id": 1729356747,
        "locality_id": 85922583,
        "neighbourhood_id": -1,
        "region_id": 85688637
      }
    ],
    "wof:id": 1729356747,
    "wof:lastmodified": 1787777629,
    "wof:name": "Many lamps from the 1950s represent an eclectic range of taste and design...",
    "wof:parent_id": 1159160869,
    "wof:placetype": "custom",
    "wof:placetype_alt": [
      "instagram"
    ],
    "wof:repo": "sfomuseum-data-socialmedia-instagram",
    "wof:superseded_by": [],
    "wof:supersedes": []
  },
  "bbox": [
    -122.386166,
    37.616356,
    -122.386166,
    37.616356
  ],
  "geometry": {"type":"Point","coordinates":[-122.386166,37.616356]}
}
