{
  "id": 1729357379,
  "type": "Feature",
  "properties": {
    "date:cessation_lower": "2018-11-14",
    "date:cessation_upper": "2018-11-14",
    "date:inception_lower": "2018-11-14",
    "date:inception_upper": "2018-11-14",
    "edtf:cessation": "2018-11-14T13:45:25-08:00",
    "edtf:inception": "2018-11-14T13:45:25-08:00",
    "geom:area": 0,
    "geom:bbox": "-122.386166,37.616356,-122.386166,37.616356",
    "geom:latitude": 37.616356,
    "geom:longitude": -122.386166,
    "instagram:post": {
      "caption": {
        "body": "\"I see my work as a continual exploration into the possibilities within the technique of enameling and indulging the wonderful range of colors available to me. In some of the work I am interested in subtle harmonies of color, reflecting observations from nature. At other times the richness and vibrancy of the colors provoke a more personal imagery.\" - Jane Short (b. 1954)  Oil Slick tumbler  2016 Malcolm Appleby (b. 1946) design and finish; raised by Peter Musgrove (b. 1946); enameled by Jane Short (b. 1954) Edinburgh Britannia silver, enamel The Pearson Silver Collection L2018.1801.027  Special thanks to The Pearson Silver Collection. \"A Sterling Renaissance: British Silver Design 1957 to 2018\" is on display, pre-security, in the International Terminal. http://bit.ly/BritishSilver",
        "excerpt": "\"I see my work as a continual exploration into the possibilities within the technique of enameling and indulging the wonderful range of colors available to me.",
        "hashtags": [
          "BritishSilver",
          "JaneShort",
          "silver",
          "sterling",
          "sterlingsilver",
          "silverdesign",
          "tumbler",
          "silversmith",
          "silversmithing",
          "MalcolmAppleby",
          "PeterMusgrove",
          "enamel",
          "Edinburgh"
        ],
        "users": []
      },
      "location": "",
      "media_id": "c366840f3ef5fc702830bab0f5a86edf",
      "path": "photos/201811/c366840f3ef5fc702830bab0f5a86edf.jpg",
      "perceptual_hash": "p:80a46b9ba7ce51da",
      "taken": 1542203100,
      "taken_at": "Nov 14, 2018, 1:45 PM"
    },
    "millsfield:similar": {
      "google/siglip2-so400m-patch16-naflex": [
        {
          "distance": 0.09749031066894531,
          "id": 1729356605
        },
        {
          "distance": 0.116455078125,
          "id": 1729356605
        },
        {
          "distance": 0.27235549688339233,
          "id": 1729356857
        },
        {
          "distance": 0.28118133544921875,
          "id": 1729357393
        },
        {
          "distance": 0.2821388840675354,
          "id": 1729357235
        },
        {
          "distance": 0.28883886337280273,
          "id": 1729357159
        },
        {
          "distance": 0.296301007270813,
          "id": 1729357159
        },
        {
          "distance": 0.30142927169799805,
          "id": 1729357445
        },
        {
          "distance": 0.30230236053466797,
          "id": 1729356727
        },
        {
          "distance": 0.3030032515525818,
          "id": 1729356727
        }
      ]
    },
    "sfomuseum:placetype": "instagram",
    "src:geom": "sfomuseum",
    "wof:belongsto": [
      1159160869,
      102527513,
      102191575,
      85633793,
      102087579,
      85922583,
      85688637
    ],
    "wof:country": "US",
    "wof:created": 1542231925,
    "wof:geomhash": "b6e33f47475d56bc8da457bc31afadc8",
    "wof:hierarchy": [
      {
        "building_id": 1159160869,
        "campus_id": 102527513,
        "continent_id": 102191575,
        "country_id": 85633793,
        "county_id": 102087579,
        "custom_id": 1729357379,
        "instagram_id": 1729357379,
        "locality_id": 85922583,
        "neighbourhood_id": -1,
        "region_id": 85688637
      }
    ],
    "wof:id": 1729357379,
    "wof:lastmodified": 1787777631,
    "wof:name": "\"I see my work as a continual exploration into the possibilities within the technique of enameling and indulging the wonderful range of colors available to me...",
    "wof:parent_id": 1159160869,
    "wof:placetype": "custom",
    "wof:placetype_alt": [
      "instagram"
    ],
    "wof:repo": "sfomuseum-data-socialmedia-instagram",
    "wof:superseded_by": [],
    "wof:supersedes": []
  },
  "bbox": [
    -122.386166,
    37.616356,
    -122.386166,
    37.616356
  ],
  "geometry": {"type":"Point","coordinates":[-122.386166,37.616356]}
}
