{
  "id": 1729362461,
  "type": "Feature",
  "properties": {
    "date:cessation_lower": "2013-12-17",
    "date:cessation_upper": "2013-12-17",
    "date:inception_lower": "2013-12-17",
    "date:inception_upper": "2013-12-17",
    "edtf:cessation": "2013-12-17T08:22:00-08:00",
    "edtf:inception": "2013-12-17T08:22:00-08:00",
    "geom:area": 0,
    "geom:bbox": "-122.386166,37.616356,-122.386166,37.616356",
    "geom:latitude": 37.616356,
    "geom:longitude": -122.386166,
    "instagram:post": {
      "caption": {
        "body": "",
        "excerpt": "",
        "hashtags": [
          "goodyear",
          "blimp",
          "LighterThanAir"
        ],
        "users": []
      },
      "media_id": "638f5355bff486d6cccaa134308a0ff2",
      "path": "media/other/11379299_1006608686017959_259111944_n_17842384672062499.jpg",
      "perceptual_hash": "p:87f0683e178f909b",
      "taken": 1387297320,
      "taken_at": "Dec 17, 2013 4:22 pm"
    },
    "millsfield:similar": {
      "google/siglip2-so400m-patch16-naflex": [
        {
          "distance": 0.17854106426239014,
          "id": 1729363061
        },
        {
          "distance": 0.22652041912078857,
          "id": 1729363061
        },
        {
          "distance": 0.2583191394805908,
          "id": 1729362527
        },
        {
          "distance": 0.26229411363601685,
          "id": 1729362481
        },
        {
          "distance": 0.26307034492492676,
          "id": 1729359253
        },
        {
          "distance": 0.2638623118400574,
          "id": 1729359253
        },
        {
          "distance": 0.2797836661338806,
          "id": 1729361431
        },
        {
          "distance": 0.2913402318954468,
          "id": 1729362795
        },
        {
          "distance": 0.2951819896697998,
          "id": 1729362527
        },
        {
          "distance": 0.297679603099823,
          "id": 1729362919
        }
      ]
    },
    "sfomuseum:placetype": "instagram",
    "src:geom": "sfomuseum",
    "wof:belongsto": [
      1159160869,
      102527513,
      102191575,
      85633793,
      102087579,
      85922583,
      85688637
    ],
    "wof:country": "US",
    "wof:created": 1387297320,
    "wof:geomhash": "b6e33f47475d56bc8da457bc31afadc8",
    "wof:hierarchy": [
      {
        "building_id": 1159160869,
        "campus_id": 102527513,
        "continent_id": 102191575,
        "country_id": 85633793,
        "county_id": 102087579,
        "custom_id": 1729362461,
        "instagram_id": 1729362461,
        "locality_id": 85922583,
        "neighbourhood_id": -1,
        "region_id": 85688637
      }
    ],
    "wof:id": 1729362461,
    "wof:lastmodified": 1787777647,
    "wof:name": "..",
    "wof:parent_id": 1159160869,
    "wof:placetype": "custom",
    "wof:placetype_alt": [
      "instagram"
    ],
    "wof:repo": "sfomuseum-data-socialmedia-instagram",
    "wof:superseded_by": [],
    "wof:supersedes": []
  },
  "bbox": [
    -122.386166,
    37.616356,
    -122.386166,
    37.616356
  ],
  "geometry": {"type":"Point","coordinates":[-122.386166,37.616356]}
}
