{
  "id": 1729360973,
  "type": "Feature",
  "properties": {
    "date:cessation_lower": "2016-03-09",
    "date:cessation_upper": "2016-03-09",
    "date:inception_lower": "2016-03-09",
    "date:inception_upper": "2016-03-09",
    "edtf:cessation": "2016-03-09T12:03:00-08:00",
    "edtf:inception": "2016-03-09T12:03:00-08:00",
    "geom:area": 0,
    "geom:bbox": "-122.386166,37.616356,-122.386166,37.616356",
    "geom:latitude": 37.616356,
    "geom:longitude": -122.386166,
    "instagram:post": {
      "caption": {
        "body": "The Pan American Airways Marine Air Terminal on Dinner Key in the Coconut Grove section of Miami, Florida was considered a milestone of design in commercial aviation history when it opened in 1934. The building served as Pan American’s base for operations throughout the Caribbean, Central, and South America. As landplanes became more widely used, Pan American eventually moved all operations to its 36th Street airfield, now Miami International Airport. In 1954, the City of Miami converted the Dinner Key building into its City Hall, and the Pan American Airways winged-globe logo can still be found on the building’s façade.  Pan American Airways Marine Air Terminal entrance, Miami, Florida 1939 SFO Museum Collection Gift of Frank A. Norick 2013.133.003",
        "excerpt": "The Pan American Airways Marine Air Terminal on Dinner Key in the Coconut Grove section of Miami, Florida was considered a milestone of design in commercial aviation history when it opened in 1934.",
        "hashtags": [],
        "users": []
      },
      "media_id": "c65c9df81b612ad5b35767cbeaf026cd",
      "path": "media/other/12531127_226166444398645_1310235285_n_17857644658036296.jpg",
      "perceptual_hash": "p:92ff8c00fbce62a8",
      "taken": 1457553780,
      "taken_at": "Mar 09, 2016 8:03 pm"
    },
    "millsfield:similar": {
      "google/siglip2-so400m-patch16-naflex": [
        {
          "distance": 0.16336965560913086,
          "id": 1729356783
        },
        {
          "distance": 0.16388177871704102,
          "id": 1729356783
        },
        {
          "distance": 0.22073179483413696,
          "id": 1729361171
        },
        {
          "distance": 0.22724038362503052,
          "id": 1729360851
        },
        {
          "distance": 0.22900605201721191,
          "id": 1729355393
        },
        {
          "distance": 0.22913920879364014,
          "id": 1729360111
        },
        {
          "distance": 0.24006682634353638,
          "id": 1729360851
        },
        {
          "distance": 0.2402392029762268,
          "id": 1729358903
        },
        {
          "distance": 0.24169129133224487,
          "id": 1729359805
        },
        {
          "distance": 0.24494653940200806,
          "id": 1729360877
        }
      ]
    },
    "sfomuseum:placetype": "instagram",
    "src:geom": "sfomuseum",
    "wof:belongsto": [
      1159160869,
      102527513,
      102191575,
      85633793,
      102087579,
      85922583,
      85688637
    ],
    "wof:country": "US",
    "wof:created": 1457553780,
    "wof:geomhash": "b6e33f47475d56bc8da457bc31afadc8",
    "wof:hierarchy": [
      {
        "building_id": 1159160869,
        "campus_id": 102527513,
        "continent_id": 102191575,
        "country_id": 85633793,
        "county_id": 102087579,
        "custom_id": 1729360973,
        "instagram_id": 1729360973,
        "locality_id": 85922583,
        "neighbourhood_id": -1,
        "region_id": 85688637
      }
    ],
    "wof:id": 1729360973,
    "wof:lastmodified": 1787777640,
    "wof:name": "The Pan American Airways Marine Air Terminal on Dinner Key in the Coconut Grove section of Miami, Florida was considered a milestone of design in commercial aviation history when it opened in 1934...",
    "wof:parent_id": 1159160869,
    "wof:placetype": "custom",
    "wof:placetype_alt": [
      "instagram"
    ],
    "wof:repo": "sfomuseum-data-socialmedia-instagram",
    "wof:superseded_by": [],
    "wof:supersedes": []
  },
  "bbox": [
    -122.386166,
    37.616356,
    -122.386166,
    37.616356
  ],
  "geometry": {"type":"Point","coordinates":[-122.386166,37.616356]}
}
