{
  "id": 1729362471,
  "type": "Feature",
  "properties": {
    "date:cessation_lower": "2013-11-07",
    "date:cessation_upper": "2013-11-07",
    "date:inception_lower": "2013-11-07",
    "date:inception_upper": "2013-11-07",
    "edtf:cessation": "2013-11-07T08:17:00-08:00",
    "edtf:inception": "2013-11-07T08:17:00-08:00",
    "geom:area": 0,
    "geom:bbox": "-122.386166,37.616356,-122.386166,37.616356",
    "geom:latitude": 37.616356,
    "geom:longitude": -122.386166,
    "instagram:post": {
      "caption": {
        "body": "",
        "excerpt": "",
        "hashtags": [
          "throwbackthursday",
          "tbt"
        ],
        "users": []
      },
      "media_id": "d996edd1077745bb9c1ebc48fad3e2f4",
      "path": "media/other/1389136_747811451901242_1593378171_n_17842374241062499.jpg",
      "perceptual_hash": "p:beb9c0460fb8b619",
      "taken": 1383841020,
      "taken_at": "Nov 07, 2013 4:17 pm"
    },
    "millsfield:similar": {
      "google/siglip2-so400m-patch16-naflex": [
        {
          "distance": 0.2697684168815613,
          "id": 1729362387
        },
        {
          "distance": 0.2878981828689575,
          "id": 1729362381
        },
        {
          "distance": 0.2889145612716675,
          "id": 1729362667
        },
        {
          "distance": 0.29170656204223633,
          "id": 1729362557
        },
        {
          "distance": 0.29361510276794434,
          "id": 1729362747
        },
        {
          "distance": 0.30353665351867676,
          "id": 1729362767
        },
        {
          "distance": 0.3087385296821594,
          "id": 1729362229
        },
        {
          "distance": 0.3110591173171997,
          "id": 1729361425
        },
        {
          "distance": 0.3120400905609131,
          "id": 1729362387
        },
        {
          "distance": 0.3125869035720825,
          "id": 1729362527
        }
      ]
    },
    "sfomuseum:placetype": "instagram",
    "src:geom": "sfomuseum",
    "wof:belongsto": [
      1159160869,
      102527513,
      102191575,
      85633793,
      102087579,
      85922583,
      85688637
    ],
    "wof:country": "US",
    "wof:created": 1383841020,
    "wof:geomhash": "b6e33f47475d56bc8da457bc31afadc8",
    "wof:hierarchy": [
      {
        "building_id": 1159160869,
        "campus_id": 102527513,
        "continent_id": 102191575,
        "country_id": 85633793,
        "county_id": 102087579,
        "custom_id": 1729362471,
        "instagram_id": 1729362471,
        "locality_id": 85922583,
        "neighbourhood_id": -1,
        "region_id": 85688637
      }
    ],
    "wof:id": 1729362471,
    "wof:lastmodified": 1787777647,
    "wof:name": "..",
    "wof:parent_id": 1159160869,
    "wof:placetype": "custom",
    "wof:placetype_alt": [
      "instagram"
    ],
    "wof:repo": "sfomuseum-data-socialmedia-instagram",
    "wof:superseded_by": [],
    "wof:supersedes": []
  },
  "bbox": [
    -122.386166,
    37.616356,
    -122.386166,
    37.616356
  ],
  "geometry": {"type":"Point","coordinates":[-122.386166,37.616356]}
}
