{
  "id": 1729357057,
  "type": "Feature",
  "properties": {
    "date:cessation_lower": "2019-01-20",
    "date:cessation_upper": "2019-01-20",
    "date:inception_lower": "2019-01-20",
    "date:inception_upper": "2019-01-20",
    "edtf:cessation": "2019-01-20T07:28:00-08:00",
    "edtf:inception": "2019-01-20T07:28:00-08:00",
    "geom:area": 0,
    "geom:bbox": "-122.386166,37.616356,-122.386166,37.616356",
    "geom:latitude": 37.616356,
    "geom:longitude": -122.386166,
    "instagram:post": {
      "caption": {
        "body": "Feeling nostalgic about SFO? Check out our thousands of photos of SFO on our online database! Our photo collection stretches back to the humble beginnings of our airport from a dirt strip on pastureland to the present, as one of the busiest airports in the country. http://ow.ly/XnRsD  Image: San Francisco International Airport (SFO), aerial, 1958. SFO Museum Collection. 2011.032.0456",
        "excerpt": "Feeling nostalgic about SFO?",
        "hashtags": [
          "SFOHistory",
          "avgeek",
          "SFHistory",
          "photography"
        ],
        "users": []
      },
      "media_id": "bd4c357cff703b009449b09518398edc",
      "path": "media/other/49528704_223283595222071_2605387616036187019_n_18005052538126333.jpg",
      "perceptual_hash": "p:da1e35de6a80c0f6",
      "taken": 1547998080,
      "taken_at": "Jan 20, 2019 3:28 pm"
    },
    "millsfield:similar": {
      "google/siglip2-so400m-patch16-naflex": [
        {
          "distance": 0.07355254888534546,
          "id": 1729358985
        },
        {
          "distance": 0.0876849889755249,
          "id": 1729359077
        },
        {
          "distance": 0.0965423583984375,
          "id": 1729360337
        },
        {
          "distance": 0.09716898202896118,
          "id": 1729357667
        },
        {
          "distance": 0.11472970247268677,
          "id": 1729356131
        },
        {
          "distance": 0.11906886100769043,
          "id": 1880151167
        },
        {
          "distance": 0.1342812180519104,
          "id": 1729356281
        },
        {
          "distance": 0.1349698305130005,
          "id": 1729359005
        },
        {
          "distance": 0.13568228483200073,
          "id": 1729360259
        },
        {
          "distance": 0.1361590027809143,
          "id": 1729359051
        }
      ]
    },
    "sfomuseum:placetype": "instagram",
    "src:geom": "sfomuseum",
    "wof:belongsto": [
      1159160869,
      102527513,
      102191575,
      85633793,
      102087579,
      85922583,
      85688637
    ],
    "wof:country": "US",
    "wof:created": 1547998080,
    "wof:geomhash": "b6e33f47475d56bc8da457bc31afadc8",
    "wof:hierarchy": [
      {
        "building_id": 1159160869,
        "campus_id": 102527513,
        "continent_id": 102191575,
        "country_id": 85633793,
        "county_id": 102087579,
        "custom_id": 1729357057,
        "instagram_id": 1729357057,
        "locality_id": 85922583,
        "neighbourhood_id": -1,
        "region_id": 85688637
      }
    ],
    "wof:id": 1729357057,
    "wof:lastmodified": 1787777630,
    "wof:name": "Feeling nostalgic about SFO?..",
    "wof:parent_id": 1159160869,
    "wof:placetype": "custom",
    "wof:placetype_alt": [
      "instagram"
    ],
    "wof:repo": "sfomuseum-data-socialmedia-instagram",
    "wof:superseded_by": [],
    "wof:supersedes": []
  },
  "bbox": [
    -122.386166,
    37.616356,
    -122.386166,
    37.616356
  ],
  "geometry": {"type":"Point","coordinates":[-122.386166,37.616356]}
}
