{
  "id": 1729362259,
  "type": "Feature",
  "properties": {
    "date:cessation_lower": "2014-06-11",
    "date:cessation_upper": "2014-06-11",
    "date:inception_lower": "2014-06-11",
    "date:inception_upper": "2014-06-11",
    "edtf:cessation": "2014-06-11T08:31:00-07:00",
    "edtf:inception": "2014-06-11T08:31:00-07:00",
    "geom:area": 0,
    "geom:bbox": "-122.386166,37.616356,-122.386166,37.616356",
    "geom:latitude": 37.616356,
    "geom:longitude": -122.386166,
    "instagram:post": {
      "caption": {
        "body": "",
        "excerpt": "",
        "hashtags": [
          "aviation"
        ],
        "users": []
      },
      "media_id": "9aab4dad2aafa70ce04f6cb7f6d9e282",
      "path": "media/other/10448930_1406501392971769_343110692_n_17842438447062499.jpg",
      "perceptual_hash": "p:95ce3b15e61563e0",
      "taken": 1402500660,
      "taken_at": "Jun 11, 2014 3:31 pm"
    },
    "millsfield:similar": {
      "google/siglip2-so400m-patch16-naflex": [
        {
          "distance": 0.15203183889389038,
          "id": 1729362203
        },
        {
          "distance": 0.1817035675048828,
          "id": 1729362203
        },
        {
          "distance": 0.2133181095123291,
          "id": 1729362581
        },
        {
          "distance": 0.23345506191253662,
          "id": 1729362957
        },
        {
          "distance": 0.24207329750061035,
          "id": 1729362351
        },
        {
          "distance": 0.24431514739990234,
          "id": 1729362351
        },
        {
          "distance": 0.24739760160446167,
          "id": 1729362655
        },
        {
          "distance": 0.24745291471481323,
          "id": 1729362709
        },
        {
          "distance": 0.24929821491241455,
          "id": 1729362865
        },
        {
          "distance": 0.24946343898773193,
          "id": 1729362541
        }
      ]
    },
    "sfomuseum:placetype": "instagram",
    "src:geom": "sfomuseum",
    "wof:belongsto": [
      1159160869,
      102527513,
      102191575,
      85633793,
      102087579,
      85922583,
      85688637
    ],
    "wof:country": "US",
    "wof:created": 1402500660,
    "wof:geomhash": "b6e33f47475d56bc8da457bc31afadc8",
    "wof:hierarchy": [
      {
        "building_id": 1159160869,
        "campus_id": 102527513,
        "continent_id": 102191575,
        "country_id": 85633793,
        "county_id": 102087579,
        "custom_id": 1729362259,
        "instagram_id": 1729362259,
        "locality_id": 85922583,
        "neighbourhood_id": -1,
        "region_id": 85688637
      }
    ],
    "wof:id": 1729362259,
    "wof:lastmodified": 1787777646,
    "wof:name": "..",
    "wof:parent_id": 1159160869,
    "wof:placetype": "custom",
    "wof:placetype_alt": [
      "instagram"
    ],
    "wof:repo": "sfomuseum-data-socialmedia-instagram",
    "wof:superseded_by": [],
    "wof:supersedes": []
  },
  "bbox": [
    -122.386166,
    37.616356,
    -122.386166,
    37.616356
  ],
  "geometry": {"type":"Point","coordinates":[-122.386166,37.616356]}
}
