{
  "id": 1729360637,
  "type": "Feature",
  "properties": {
    "date:cessation_lower": "2016-06-09",
    "date:cessation_upper": "2016-06-09",
    "date:inception_lower": "2016-06-09",
    "date:inception_upper": "2016-06-09",
    "edtf:cessation": "2016-06-09T02:08:00-07:00",
    "edtf:inception": "2016-06-09T02:08:00-07:00",
    "geom:area": 0,
    "geom:bbox": "-122.386166,37.616356,-122.386166,37.616356",
    "geom:latitude": 37.616356,
    "geom:longitude": -122.386166,
    "instagram:post": {
      "caption": {
        "body": "#ThrowbackThursday to United's vintage reservation system circa 1955.  United Air Lines, reservation agents c. 1955 SFO Museum Collection Gift of United Airlines Archives 1999.047.154",
        "excerpt": "#ThrowbackThursday to United's vintage reservation system circa 1955.",
        "hashtags": [],
        "users": []
      },
      "media_id": "b82a2fd643fe011599f3c5490e56599c",
      "path": "media/other/13395146_1118676984869192_1132915756_n_17857472458058609.jpg",
      "perceptual_hash": "p:9d22ecd5a4d3bc48",
      "taken": 1465463280,
      "taken_at": "Jun 09, 2016 9:08 am"
    },
    "millsfield:similar": {
      "google/siglip2-so400m-patch16-naflex": [
        {
          "distance": 0.1443212628364563,
          "id": 1729359719
        },
        {
          "distance": 0.14865374565124512,
          "id": 1729361615
        },
        {
          "distance": 0.15041279792785645,
          "id": 1729361093
        },
        {
          "distance": 0.16113626956939697,
          "id": 1729360619
        },
        {
          "distance": 0.1616877317428589,
          "id": 1729361593
        },
        {
          "distance": 0.1824933886528015,
          "id": 1729360019
        },
        {
          "distance": 0.1869412064552307,
          "id": 1729355091
        },
        {
          "distance": 0.19759392738342285,
          "id": 1729360529
        },
        {
          "distance": 0.2093375325202942,
          "id": 1729358569
        },
        {
          "distance": 0.21550607681274414,
          "id": 1729358569
        }
      ]
    },
    "sfomuseum:placetype": "instagram",
    "src:geom": "sfomuseum",
    "wof:belongsto": [
      1159160869,
      102527513,
      102191575,
      85633793,
      102087579,
      85922583,
      85688637
    ],
    "wof:country": "US",
    "wof:created": 1465463280,
    "wof:geomhash": "b6e33f47475d56bc8da457bc31afadc8",
    "wof:hierarchy": [
      {
        "building_id": 1159160869,
        "campus_id": 102527513,
        "continent_id": 102191575,
        "country_id": 85633793,
        "county_id": 102087579,
        "custom_id": 1729360637,
        "instagram_id": 1729360637,
        "locality_id": 85922583,
        "neighbourhood_id": -1,
        "region_id": 85688637
      }
    ],
    "wof:id": 1729360637,
    "wof:lastmodified": 1787777640,
    "wof:name": "#ThrowbackThursday to United's vintage reservation system circa 1955...",
    "wof:parent_id": 1159160869,
    "wof:placetype": "custom",
    "wof:placetype_alt": [
      "instagram"
    ],
    "wof:repo": "sfomuseum-data-socialmedia-instagram",
    "wof:superseded_by": [],
    "wof:supersedes": []
  },
  "bbox": [
    -122.386166,
    37.616356,
    -122.386166,
    37.616356
  ],
  "geometry": {"type":"Point","coordinates":[-122.386166,37.616356]}
}
