{
  "id": 1729358075,
  "type": "Feature",
  "properties": {
    "date:cessation_lower": "2018-06-23",
    "date:cessation_upper": "2018-06-23",
    "date:inception_lower": "2018-06-23",
    "date:inception_upper": "2018-06-23",
    "edtf:cessation": "2018-06-23T06:50:00-07:00",
    "edtf:inception": "2018-06-23T06:50:00-07:00",
    "geom:area": 0,
    "geom:bbox": "-122.386166,37.616356,-122.386166,37.616356",
    "geom:latitude": 37.616356,
    "geom:longitude": -122.386166,
    "instagram:post": {
      "caption": {
        "body": "Happy Pride!! In transit? Stop by our Video Arts gallery in the International Terminal and the nearby exhibition on Gilbert Baker and the Pride Flag. Not traveling? Both galleries are located pre-security (and are always free!) so no ticket is needed, and all exhibitions are also viewable on our website: www.sfomuseum.org",
        "excerpt": "Happy Pride!!",
        "hashtags": [
          "Pride2018",
          "SFPride",
          "Prideweekend",
          "LGBT",
          "VideoArtsSFOM",
          "GilbertBaker",
          "happyPride"
        ],
        "users": []
      },
      "media_id": "f1bb68d737285e0ff389a9fcac082dc9",
      "path": "media/other/33535421_453381651754584_3136865158891044864_n_17939501038118543.jpg",
      "perceptual_hash": "p:c1438c668d76bbd4",
      "taken": 1529761800,
      "taken_at": "Jun 23, 2018 1:50 pm"
    },
    "millsfield:similar": {
      "google/siglip2-so400m-patch16-naflex": [
        {
          "distance": 0.17926079034805298,
          "id": 1729357801
        },
        {
          "distance": 0.18071472644805908,
          "id": 1729358349
        },
        {
          "distance": 0.1870729923248291,
          "id": 1729358349
        },
        {
          "distance": 0.20758891105651855,
          "id": 1729357801
        },
        {
          "distance": 0.2733522653579712,
          "id": 1729356811
        },
        {
          "distance": 0.2755909562110901,
          "id": 1729357185
        },
        {
          "distance": 0.28621935844421387,
          "id": 1729357185
        },
        {
          "distance": 0.2940596342086792,
          "id": 1729356805
        },
        {
          "distance": 0.29519039392471313,
          "id": 1729356805
        },
        {
          "distance": 0.29635167121887207,
          "id": 1729356819
        }
      ]
    },
    "sfomuseum:placetype": "instagram",
    "src:geom": "sfomuseum",
    "wof:belongsto": [
      1159160869,
      102527513,
      102191575,
      85633793,
      102087579,
      85922583,
      85688637
    ],
    "wof:country": "US",
    "wof:created": 1529761800,
    "wof:geomhash": "b6e33f47475d56bc8da457bc31afadc8",
    "wof:hierarchy": [
      {
        "building_id": 1159160869,
        "campus_id": 102527513,
        "continent_id": 102191575,
        "country_id": 85633793,
        "county_id": 102087579,
        "custom_id": 1729358075,
        "instagram_id": 1729358075,
        "locality_id": 85922583,
        "neighbourhood_id": -1,
        "region_id": 85688637
      }
    ],
    "wof:id": 1729358075,
    "wof:lastmodified": 1787777632,
    "wof:name": "Happy Pride!!..",
    "wof:parent_id": 1159160869,
    "wof:placetype": "custom",
    "wof:placetype_alt": [
      "instagram"
    ],
    "wof:repo": "sfomuseum-data-socialmedia-instagram",
    "wof:superseded_by": [],
    "wof:supersedes": []
  },
  "bbox": [
    -122.386166,
    37.616356,
    -122.386166,
    37.616356
  ],
  "geometry": {"type":"Point","coordinates":[-122.386166,37.616356]}
}
