{
  "id": 1729362673,
  "type": "Feature",
  "properties": {
    "date:cessation_lower": "2013-05-30",
    "date:cessation_upper": "2013-05-30",
    "date:inception_lower": "2013-05-30",
    "date:inception_upper": "2013-05-30",
    "edtf:cessation": "2013-05-30T06:28:00-07:00",
    "edtf:inception": "2013-05-30T06:28:00-07:00",
    "geom:area": 0,
    "geom:bbox": "-122.386166,37.616356,-122.386166,37.616356",
    "geom:latitude": 37.616356,
    "geom:longitude": -122.386166,
    "instagram:post": {
      "caption": {
        "body": "The Shakers pioneered the industry of selling seeds in packets, and even invented machinery to cut, fold, paste, and print seed bags.",
        "excerpt": "The Shakers pioneered the industry of selling seeds in packets, and even invented machinery to cut, fold, paste, and print seed bags.",
        "hashtags": [],
        "users": []
      },
      "media_id": "340f2676a69ffc65e3b03652695d789f",
      "path": "media/other/11358140_1014143931936578_437667106_n_17842326715062499.jpg",
      "perceptual_hash": "p:c03947c59d9c9d6a",
      "taken": 1369920480,
      "taken_at": "May 30, 2013 1:28 pm"
    },
    "millsfield:similar": {
      "google/siglip2-so400m-patch16-naflex": [
        {
          "distance": 0.2775254249572754,
          "id": 1729362787
        },
        {
          "distance": 0.2959277629852295,
          "id": 1729362787
        },
        {
          "distance": 0.2997167706489563,
          "id": 1729362653
        },
        {
          "distance": 0.3150550127029419,
          "id": 1729362741
        },
        {
          "distance": 0.3233655095100403,
          "id": 1729362981
        },
        {
          "distance": 0.3291945457458496,
          "id": 1729362973
        },
        {
          "distance": 0.33075058460235596,
          "id": 1729362163
        },
        {
          "distance": 0.33178502321243286,
          "id": 1729362653
        },
        {
          "distance": 0.3356446623802185,
          "id": 1729362579
        },
        {
          "distance": 0.33799052238464355,
          "id": 1729359089
        }
      ]
    },
    "sfomuseum:placetype": "instagram",
    "src:geom": "sfomuseum",
    "wof:belongsto": [
      1159160869,
      102527513,
      102191575,
      85633793,
      102087579,
      85922583,
      85688637
    ],
    "wof:country": "US",
    "wof:created": 1369920480,
    "wof:geomhash": "b6e33f47475d56bc8da457bc31afadc8",
    "wof:hierarchy": [
      {
        "building_id": 1159160869,
        "campus_id": 102527513,
        "continent_id": 102191575,
        "country_id": 85633793,
        "county_id": 102087579,
        "custom_id": 1729362673,
        "instagram_id": 1729362673,
        "locality_id": 85922583,
        "neighbourhood_id": -1,
        "region_id": 85688637
      }
    ],
    "wof:id": 1729362673,
    "wof:lastmodified": 1787777647,
    "wof:name": "The Shakers pioneered the industry of selling seeds in packets, and even invented machinery to cut, fold, paste, and print seed bags...",
    "wof:parent_id": 1159160869,
    "wof:placetype": "custom",
    "wof:placetype_alt": [
      "instagram"
    ],
    "wof:repo": "sfomuseum-data-socialmedia-instagram",
    "wof:superseded_by": [],
    "wof:supersedes": []
  },
  "bbox": [
    -122.386166,
    37.616356,
    -122.386166,
    37.616356
  ],
  "geometry": {"type":"Point","coordinates":[-122.386166,37.616356]}
}
