{
  "id": 1729360131,
  "type": "Feature",
  "properties": {
    "date:cessation_lower": "2016-11-12",
    "date:cessation_upper": "2016-11-12",
    "date:inception_lower": "2016-11-12",
    "date:inception_upper": "2016-11-12",
    "edtf:cessation": "2016-11-12T03:36:00-08:00",
    "edtf:inception": "2016-11-12T03:36:00-08:00",
    "geom:area": 0,
    "geom:bbox": "-122.386166,37.616356,-122.386166,37.616356",
    "geom:latitude": 37.616356,
    "geom:longitude": -122.386166,
    "instagram:post": {
      "caption": {
        "body": "As an artist, Raymond Saunders relies on his own keen observations and experiences: “The important thing about doing art is that I also live… and the more I bring into myself, the more I have a desire and need to translate it into something.” This work is representative of the artist’s dramatic use of color, gestural strokes, elegant line, and the collaged remnants of everyday life to provide compositional, textural, and spatial contrasts.  See \"Letter's Missing\" by Raymond Saunders, from @flySFO's public art collection, on display pre-security in Terminal 3.",
        "excerpt": "As an artist, Raymond Saunders relies on his own keen observations and experiences: “The important thing about doing art is that I also live… and the more I bring into myself, the more I have a desire and need to translate it into something.” This work is representative of the artist’s dramatic use of color, gestural strokes, elegant line, and the collaged remnants of everyday life to provide compositional, textural, and spatial contrasts.",
        "hashtags": [],
        "users": []
      },
      "media_id": "efa296308decd78367eb5f0070e6952a",
      "path": "media/posts/201611/14533684_1172054626217303_6171872269254524928_n_17866434877002498.jpg",
      "perceptual_hash": "p:c89e338fc53f7041",
      "taken": 1478950560,
      "taken_at": "Nov 12, 2016 11:36 am"
    },
    "millsfield:similar": {
      "google/siglip2-so400m-patch16-naflex": [
        {
          "distance": 0.196261465549469,
          "id": 1729359425
        },
        {
          "distance": 0.20023822784423828,
          "id": 1763559087
        },
        {
          "distance": 0.22916746139526367,
          "id": 1729357895
        },
        {
          "distance": 0.23055344820022583,
          "id": 1729360993
        },
        {
          "distance": 0.23638522624969482,
          "id": 1729357097
        },
        {
          "distance": 0.24459558725357056,
          "id": 1729360993
        },
        {
          "distance": 0.2627229690551758,
          "id": 1729356263
        },
        {
          "distance": 0.26362717151641846,
          "id": 1880151131
        },
        {
          "distance": 0.265464723110199,
          "id": 1729356263
        },
        {
          "distance": 0.26708316802978516,
          "id": 1880151205
        }
      ]
    },
    "sfomuseum:placetype": "instagram",
    "src:geom": "sfomuseum",
    "wof:belongsto": [
      1159160869,
      102527513,
      102191575,
      85633793,
      102087579,
      85922583,
      85688637
    ],
    "wof:country": "US",
    "wof:created": 1478950560,
    "wof:geomhash": "b6e33f47475d56bc8da457bc31afadc8",
    "wof:hierarchy": [
      {
        "building_id": 1159160869,
        "campus_id": 102527513,
        "continent_id": 102191575,
        "country_id": 85633793,
        "county_id": 102087579,
        "custom_id": 1729360131,
        "instagram_id": 1729360131,
        "locality_id": 85922583,
        "neighbourhood_id": -1,
        "region_id": 85688637
      }
    ],
    "wof:id": 1729360131,
    "wof:lastmodified": 1787777639,
    "wof:name": "As an artist, Raymond Saunders relies on his own keen observations and experiences: “The important thing about doing art is that I also live… and the more I bring into myself, the more I have a desire and need to translate it into something.” This work is representative of the artist’s dramatic use of color, gestural strokes, elegant line, and the collaged remnants of everyday life to provide compositional, textural, and spatial contrasts...",
    "wof:parent_id": 1159160869,
    "wof:placetype": "custom",
    "wof:placetype_alt": [
      "instagram"
    ],
    "wof:repo": "sfomuseum-data-socialmedia-instagram",
    "wof:superseded_by": [],
    "wof:supersedes": []
  },
  "bbox": [
    -122.386166,
    37.616356,
    -122.386166,
    37.616356
  ],
  "geometry": {"type":"Point","coordinates":[-122.386166,37.616356]}
}
