{
  "id": 1729362199,
  "type": "Feature",
  "properties": {
    "date:cessation_lower": "2014-07-25",
    "date:cessation_upper": "2014-07-25",
    "date:inception_lower": "2014-07-25",
    "date:inception_upper": "2014-07-25",
    "edtf:cessation": "2014-07-25T05:37:00-07:00",
    "edtf:inception": "2014-07-25T05:37:00-07:00",
    "geom:area": 0,
    "geom:bbox": "-122.386166,37.616356,-122.386166,37.616356",
    "geom:latitude": 37.616356,
    "geom:longitude": -122.386166,
    "instagram:post": {
      "caption": {
        "body": "",
        "excerpt": "",
        "hashtags": [
          "AdIcons"
        ],
        "users": []
      },
      "media_id": "f5cd1c658280e49b7ee313448748a375",
      "path": "media/other/10584755_1430472183907694_132426214_n_17842456957062499.jpg",
      "perceptual_hash": "p:920c67e72d7c1e52",
      "taken": 1406291820,
      "taken_at": "Jul 25, 2014 12:37 pm"
    },
    "millsfield:similar": {
      "google/siglip2-so400m-patch16-naflex": [
        {
          "distance": 0.3000813126564026,
          "id": 1729362049
        },
        {
          "distance": 0.30529284477233887,
          "id": 1729362171
        },
        {
          "distance": 0.31386512517929077,
          "id": 1729362155
        },
        {
          "distance": 0.3231632113456726,
          "id": 1729362227
        },
        {
          "distance": 0.3233909606933594,
          "id": 1729362155
        },
        {
          "distance": 0.32550185918807983,
          "id": 1729362171
        },
        {
          "distance": 0.3300461173057556,
          "id": 1729362009
        },
        {
          "distance": 0.334108829498291,
          "id": 1729362379
        },
        {
          "distance": 0.3382282257080078,
          "id": 1729362449
        },
        {
          "distance": 0.34374886751174927,
          "id": 1729362049
        }
      ]
    },
    "sfomuseum:placetype": "instagram",
    "src:geom": "sfomuseum",
    "wof:belongsto": [
      1159160869,
      102527513,
      102191575,
      85633793,
      102087579,
      85922583,
      85688637
    ],
    "wof:country": "US",
    "wof:created": 1406291820,
    "wof:geomhash": "b6e33f47475d56bc8da457bc31afadc8",
    "wof:hierarchy": [
      {
        "building_id": 1159160869,
        "campus_id": 102527513,
        "continent_id": 102191575,
        "country_id": 85633793,
        "county_id": 102087579,
        "custom_id": 1729362199,
        "instagram_id": 1729362199,
        "locality_id": 85922583,
        "neighbourhood_id": -1,
        "region_id": 85688637
      }
    ],
    "wof:id": 1729362199,
    "wof:lastmodified": 1787777646,
    "wof:name": "..",
    "wof:parent_id": 1159160869,
    "wof:placetype": "custom",
    "wof:placetype_alt": [
      "instagram"
    ],
    "wof:repo": "sfomuseum-data-socialmedia-instagram",
    "wof:superseded_by": [],
    "wof:supersedes": []
  },
  "bbox": [
    -122.386166,
    37.616356,
    -122.386166,
    37.616356
  ],
  "geometry": {"type":"Point","coordinates":[-122.386166,37.616356]}
}
