{
  "id": 1880151389,
  "type": "Feature",
  "properties": {
    "date:cessation_lower": "2022-10-17",
    "date:cessation_upper": "2022-10-17",
    "date:inception_lower": "2022-10-17",
    "date:inception_upper": "2022-10-17",
    "edtf:cessation": "2022-10-17T06:52:00-07:00",
    "edtf:inception": "2022-10-17T06:52:00-07:00",
    "geom:area": 0,
    "geom:bbox": "-122.386166,37.616356,-122.386166,37.616356",
    "geom:latitude": 37.616356,
    "geom:longitude": -122.386166,
    "instagram:post": {
      "caption": {
        "body": "“What would you take with you if you had to leave home and could only take three things?” This was the question asked of beginning sculpture students at Notre Dame Belmont. The high school students worked with clay for the first time; but rather than a traditional vessel project, sculpture teacher Martha Anne Kuntz created the Luggage Project. Each student designed a piece of luggage with three meaningful objects to place inside. For many, thinking abstractly posed a challenge. How would you show your love for your family without depicting one’s family? From a childhood tree growing up and out of a suitcase, to a row of houses and three teacups—the photographs exhibited represent the work of Notre Dame Belmont students who challenged themselves to think beyond the obvious.  “The Luggage Project” by the students of Notre Dame Belmont is on display, pre-security, on the departures level of Terminal 1. https://bit.ly/3P7AiXA",
        "excerpt": "“What would you take with you if you had to leave home and could only take three things?” This was the question asked of beginning sculpture students at Notre Dame Belmont.",
        "hashtags": [
          "luggage",
          "NotreDameBelmont",
          "studentart"
        ],
        "users": [
          "ndbtigers"
        ]
      },
      "media_id": "27ba8074aa44a4bb1cf273aa1cc40275a82bbbb5",
      "path": "media/posts/202210/311777077_880890613066271_2879727101592008940_n_17958241396949884.jpg",
      "perceptual_hash": "p:85cc3e0e33f8e781",
      "taken": 1666014720,
      "taken_at": "Oct 17, 2022 1:52 pm"
    },
    "millsfield:similar": {
      "google/siglip2-so400m-patch16-naflex": [
        {
          "distance": 0.23132801055908203,
          "id": 1763559473
        },
        {
          "distance": 0.23688817024230957,
          "id": 1763559569
        },
        {
          "distance": 0.24547713994979858,
          "id": 1947424799
        },
        {
          "distance": 0.24946779012680054,
          "id": 1947425039
        },
        {
          "distance": 0.25760942697525024,
          "id": 1763559591
        },
        {
          "distance": 0.2604273557662964,
          "id": 1729357325
        },
        {
          "distance": 0.2606368064880371,
          "id": 1763559281
        },
        {
          "distance": 0.2623445391654968,
          "id": 1763558895
        },
        {
          "distance": 0.26756614446640015,
          "id": 1880151657
        },
        {
          "distance": 0.2731441855430603,
          "id": 1947424929
        }
      ]
    },
    "sfomuseum:placetype": "instagram",
    "src:geom": "sfomuseum",
    "wof:belongsto": [
      1159160869,
      102527513,
      102191575,
      85633793,
      102087579,
      85922583,
      85688637
    ],
    "wof:country": "US",
    "wof:created": 1666014720,
    "wof:geomhash": "b6e33f47475d56bc8da457bc31afadc8",
    "wof:hierarchy": [
      {
        "building_id": 1159160869,
        "campus_id": 102527513,
        "continent_id": 102191575,
        "country_id": 85633793,
        "county_id": 102087579,
        "custom_id": 1880151389,
        "instagram_id": 1880151389,
        "locality_id": 85922583,
        "neighbourhood_id": -1,
        "region_id": 85688637
      }
    ],
    "wof:id": 1880151389,
    "wof:lastmodified": 1787777662,
    "wof:name": "“What would you take with you if you had to leave home and could only take three things?” This was the question asked of beginning sculpture students at Notre Dame Belmont...",
    "wof:parent_id": 1159160869,
    "wof:placetype": "custom",
    "wof:placetype_alt": [
      "instagram"
    ],
    "wof:repo": "sfomuseum-data-socialmedia-instagram",
    "wof:superseded_by": [],
    "wof:supersedes": []
  },
  "bbox": [
    -122.386166,
    37.616356,
    -122.386166,
    37.616356
  ],
  "geometry": {"type":"Point","coordinates":[-122.386166,37.616356]}
}
