{
  "id": 1729361653,
  "type": "Feature",
  "properties": {
    "date:cessation_lower": "2015-07-30",
    "date:cessation_upper": "2015-07-30",
    "date:inception_lower": "2015-07-30",
    "date:inception_upper": "2015-07-30",
    "edtf:cessation": "2015-07-30T11:51:00-07:00",
    "edtf:inception": "2015-07-30T11:51:00-07:00",
    "geom:area": 0,
    "geom:bbox": "-122.386166,37.616356,-122.386166,37.616356",
    "geom:latitude": 37.616356,
    "geom:longitude": -122.386166,
    "instagram:post": {
      "caption": {
        "body": "",
        "excerpt": "",
        "hashtags": [
          "regram",
          "repost",
          "publicart",
          "airportart"
        ],
        "users": [
          "noescapefromyourself",
          "sfacgalleries"
        ]
      },
      "media_id": "1fddce6751b40ef910eba7b29f200a27",
      "path": "media/other/11312269_1610971105827629_1468343065_n_17842062247062499.jpg",
      "perceptual_hash": "p:eebe9891cb01c11f",
      "taken": 1438282260,
      "taken_at": "Jul 30, 2015 6:51 pm"
    },
    "millsfield:similar": {
      "google/siglip2-so400m-patch16-naflex": [
        {
          "distance": 0.20879000425338745,
          "id": 1729359993
        },
        {
          "distance": 0.23468410968780518,
          "id": 1729359993
        },
        {
          "distance": 0.23588323593139648,
          "id": 1763559127
        },
        {
          "distance": 0.26443004608154297,
          "id": 1763559127
        },
        {
          "distance": 0.3333588242530823,
          "id": 1880151609
        },
        {
          "distance": 0.34113752841949463,
          "id": 1729361679
        },
        {
          "distance": 0.34983545541763306,
          "id": 1880151609
        },
        {
          "distance": 0.3533720374107361,
          "id": 1729355629
        },
        {
          "distance": 0.36477577686309814,
          "id": 1729359753
        },
        {
          "distance": 0.37416326999664307,
          "id": 1947424957
        }
      ]
    },
    "sfomuseum:placetype": "instagram",
    "src:geom": "sfomuseum",
    "wof:belongsto": [
      1159160869,
      102527513,
      102191575,
      85633793,
      102087579,
      85922583,
      85688637
    ],
    "wof:country": "US",
    "wof:created": 1438282260,
    "wof:geomhash": "b6e33f47475d56bc8da457bc31afadc8",
    "wof:hierarchy": [
      {
        "building_id": 1159160869,
        "campus_id": 102527513,
        "continent_id": 102191575,
        "country_id": 85633793,
        "county_id": 102087579,
        "custom_id": 1729361653,
        "instagram_id": 1729361653,
        "locality_id": 85922583,
        "neighbourhood_id": -1,
        "region_id": 85688637
      }
    ],
    "wof:id": 1729361653,
    "wof:lastmodified": 1787777646,
    "wof:name": "..",
    "wof:parent_id": 1159160869,
    "wof:placetype": "custom",
    "wof:placetype_alt": [
      "instagram"
    ],
    "wof:repo": "sfomuseum-data-socialmedia-instagram",
    "wof:superseded_by": [],
    "wof:supersedes": []
  },
  "bbox": [
    -122.386166,
    37.616356,
    -122.386166,
    37.616356
  ],
  "geometry": {"type":"Point","coordinates":[-122.386166,37.616356]}
}
