{
  "id": 1729362633,
  "type": "Feature",
  "properties": {
    "date:cessation_lower": "2013-06-28",
    "date:cessation_upper": "2013-06-28",
    "date:inception_lower": "2013-06-28",
    "date:inception_upper": "2013-06-28",
    "edtf:cessation": "2013-06-28T07:28:00-07:00",
    "edtf:inception": "2013-06-28T07:28:00-07:00",
    "geom:area": 0,
    "geom:bbox": "-122.386166,37.616356,-122.386166,37.616356",
    "geom:latitude": 37.616356,
    "geom:longitude": -122.386166,
    "instagram:post": {
      "caption": {
        "body": "1970s Death Valley snow globe: most ironic #souvenir ever?",
        "excerpt": "1970s Death Valley snow globe: most ironic #souvenir ever?",
        "hashtags": [],
        "users": []
      },
      "media_id": "44bb96bbd4ad051a2de18d6bb738fec6",
      "path": "media/other/11326073_1475148399442647_1621296195_n_17842336078062499.jpg",
      "perceptual_hash": "p:fe6195962e9a9238",
      "taken": 1372429680,
      "taken_at": "Jun 28, 2013 2:28 pm"
    },
    "millsfield:similar": {
      "google/siglip2-so400m-patch16-naflex": [
        {
          "distance": 0.3880254626274109,
          "id": 1729362551
        },
        {
          "distance": 0.38973069190979004,
          "id": 1729362797
        },
        {
          "distance": 0.3929181694984436,
          "id": 1729362709
        },
        {
          "distance": 0.39350414276123047,
          "id": 1729362683
        },
        {
          "distance": 0.3992360830307007,
          "id": 1729362613
        },
        {
          "distance": 0.3993038535118103,
          "id": 1729362751
        },
        {
          "distance": 0.4002699851989746,
          "id": 1729363061
        },
        {
          "distance": 0.40341049432754517,
          "id": 1729362617
        },
        {
          "distance": 0.40510791540145874,
          "id": 1729362379
        },
        {
          "distance": 0.4063994288444519,
          "id": 1729363055
        }
      ]
    },
    "sfomuseum:placetype": "instagram",
    "src:geom": "sfomuseum",
    "wof:belongsto": [
      1159160869,
      102527513,
      102191575,
      85633793,
      102087579,
      85922583,
      85688637
    ],
    "wof:country": "US",
    "wof:created": 1372429680,
    "wof:geomhash": "b6e33f47475d56bc8da457bc31afadc8",
    "wof:hierarchy": [
      {
        "building_id": 1159160869,
        "campus_id": 102527513,
        "continent_id": 102191575,
        "country_id": 85633793,
        "county_id": 102087579,
        "custom_id": 1729362633,
        "instagram_id": 1729362633,
        "locality_id": 85922583,
        "neighbourhood_id": -1,
        "region_id": 85688637
      }
    ],
    "wof:id": 1729362633,
    "wof:lastmodified": 1787777647,
    "wof:name": "1970s Death Valley snow globe: most ironic #souvenir ever?..",
    "wof:parent_id": 1159160869,
    "wof:placetype": "custom",
    "wof:placetype_alt": [
      "instagram"
    ],
    "wof:repo": "sfomuseum-data-socialmedia-instagram",
    "wof:superseded_by": [],
    "wof:supersedes": []
  },
  "bbox": [
    -122.386166,
    37.616356,
    -122.386166,
    37.616356
  ],
  "geometry": {"type":"Point","coordinates":[-122.386166,37.616356]}
}
