{
  "id": 1729360055,
  "type": "Feature",
  "properties": {
    "date:cessation_lower": "2016-12-08",
    "date:cessation_upper": "2016-12-08",
    "date:inception_lower": "2016-12-08",
    "date:inception_upper": "2016-12-08",
    "edtf:cessation": "2016-12-08T02:08:00-08:00",
    "edtf:inception": "2016-12-08T02:08:00-08:00",
    "geom:area": 0,
    "geom:bbox": "-122.386166,37.616356,-122.386166,37.616356",
    "geom:latitude": 37.616356,
    "geom:longitude": -122.386166,
    "instagram:post": {
      "caption": {
        "body": "This year marks five years since DJ Qbert performed in Terminal 2 in conjunction with our exhibition Revolutions per Minute: the Evolution of the Record.",
        "excerpt": "This year marks five years since DJ Qbert performed in Terminal 2 in conjunction with our exhibition Revolutions per Minute: the Evolution of the Record.",
        "hashtags": [
          "ThrowbackThursday",
          "TBT",
          "DJQbert",
          "DJ",
          "vinyl"
        ],
        "users": []
      },
      "media_id": "95134e7d5464a87ab538827e08f6a95d",
      "path": "media/posts/201612/15275531_705271309622952_1588787022166753280_n_17856613543100522.jpg",
      "perceptual_hash": "p:a89315d88bcd8d6b",
      "taken": 1481191680,
      "taken_at": "Dec 08, 2016 10:08 am"
    },
    "millsfield:similar": {
      "google/siglip2-so400m-patch16-naflex": [
        {
          "distance": 0.32713139057159424,
          "id": 1729360765
        },
        {
          "distance": 0.3416867256164551,
          "id": 1729357309
        },
        {
          "distance": 0.3451709747314453,
          "id": 1729362119
        },
        {
          "distance": 0.3461301922798157,
          "id": 1729355785
        },
        {
          "distance": 0.3466644883155823,
          "id": 1729355149
        },
        {
          "distance": 0.35189253091812134,
          "id": 1729357325
        },
        {
          "distance": 0.35275721549987793,
          "id": 1763559521
        },
        {
          "distance": 0.35357117652893066,
          "id": 1729362773
        },
        {
          "distance": 0.3542059063911438,
          "id": 1729360795
        },
        {
          "distance": 0.355461061000824,
          "id": 1729355529
        }
      ]
    },
    "sfomuseum:placetype": "instagram",
    "src:geom": "sfomuseum",
    "wof:belongsto": [
      1159160869,
      102527513,
      102191575,
      85633793,
      102087579,
      85922583,
      85688637
    ],
    "wof:country": "US",
    "wof:created": 1481191680,
    "wof:geomhash": "b6e33f47475d56bc8da457bc31afadc8",
    "wof:hierarchy": [
      {
        "building_id": 1159160869,
        "campus_id": 102527513,
        "continent_id": 102191575,
        "country_id": 85633793,
        "county_id": 102087579,
        "custom_id": 1729360055,
        "instagram_id": 1729360055,
        "locality_id": 85922583,
        "neighbourhood_id": -1,
        "region_id": 85688637
      }
    ],
    "wof:id": 1729360055,
    "wof:lastmodified": 1787777639,
    "wof:name": "This year marks five years since DJ Qbert performed in Terminal 2 in conjunction with our exhibition Revolutions per Minute: the Evolution of the Record...",
    "wof:parent_id": 1159160869,
    "wof:placetype": "custom",
    "wof:placetype_alt": [
      "instagram"
    ],
    "wof:repo": "sfomuseum-data-socialmedia-instagram",
    "wof:superseded_by": [],
    "wof:supersedes": []
  },
  "bbox": [
    -122.386166,
    37.616356,
    -122.386166,
    37.616356
  ],
  "geometry": {"type":"Point","coordinates":[-122.386166,37.616356]}
}
