{
  "id": 1729362547,
  "type": "Feature",
  "properties": {
    "date:cessation_lower": "2013-09-24",
    "date:cessation_upper": "2013-09-24",
    "date:inception_lower": "2013-09-24",
    "date:inception_upper": "2013-09-24",
    "edtf:cessation": "2013-09-24T05:10:00-07:00",
    "edtf:inception": "2013-09-24T05:10:00-07:00",
    "geom:area": 0,
    "geom:bbox": "-122.386166,37.616356,-122.386166,37.616356",
    "geom:latitude": 37.616356,
    "geom:longitude": -122.386166,
    "instagram:post": {
      "caption": {
        "body": "Half models of ships in shadowboxes were crafted by sailors both at sea and on shore, and were often kept as mementos of their journeys or given as gifts to family members.",
        "excerpt": "Half models of ships in shadowboxes were crafted by sailors both at sea and on shore, and were often kept as mementos of their journeys or given as gifts to family members.",
        "hashtags": [],
        "users": []
      },
      "media_id": "04e984368d3e310d3e37361ad2d29bf0",
      "path": "media/other/11378753_831736393586610_1017627120_n_17842361830062499.jpg",
      "perceptual_hash": "p:afe5e899c232b858",
      "taken": 1380024600,
      "taken_at": "Sep 24, 2013 12:10 pm"
    },
    "millsfield:similar": {
      "google/siglip2-so400m-patch16-naflex": [
        {
          "distance": 0.21677827835083008,
          "id": 1729362579
        },
        {
          "distance": 0.22279131412506104,
          "id": 1729362621
        },
        {
          "distance": 0.23413437604904175,
          "id": 1729362621
        },
        {
          "distance": 0.25705838203430176,
          "id": 1729362689
        },
        {
          "distance": 0.27224528789520264,
          "id": 1729362689
        },
        {
          "distance": 0.27653318643569946,
          "id": 1729362647
        },
        {
          "distance": 0.2827131152153015,
          "id": 1729362229
        },
        {
          "distance": 0.29207736253738403,
          "id": 1729362579
        },
        {
          "distance": 0.2940310835838318,
          "id": 1729362981
        },
        {
          "distance": 0.29906409978866577,
          "id": 1729362237
        }
      ]
    },
    "sfomuseum:placetype": "instagram",
    "src:geom": "sfomuseum",
    "wof:belongsto": [
      1159160869,
      102527513,
      102191575,
      85633793,
      102087579,
      85922583,
      85688637
    ],
    "wof:country": "US",
    "wof:created": 1380024600,
    "wof:geomhash": "b6e33f47475d56bc8da457bc31afadc8",
    "wof:hierarchy": [
      {
        "building_id": 1159160869,
        "campus_id": 102527513,
        "continent_id": 102191575,
        "country_id": 85633793,
        "county_id": 102087579,
        "custom_id": 1729362547,
        "instagram_id": 1729362547,
        "locality_id": 85922583,
        "neighbourhood_id": -1,
        "region_id": 85688637
      }
    ],
    "wof:id": 1729362547,
    "wof:lastmodified": 1787777647,
    "wof:name": "Half models of ships in shadowboxes were crafted by sailors both at sea and on shore, and were often kept as mementos of their journeys or given as gifts to family members...",
    "wof:parent_id": 1159160869,
    "wof:placetype": "custom",
    "wof:placetype_alt": [
      "instagram"
    ],
    "wof:repo": "sfomuseum-data-socialmedia-instagram",
    "wof:superseded_by": [],
    "wof:supersedes": []
  },
  "bbox": [
    -122.386166,
    37.616356,
    -122.386166,
    37.616356
  ],
  "geometry": {"type":"Point","coordinates":[-122.386166,37.616356]}
}
