{
  "id": 1880151071,
  "type": "Feature",
  "properties": {
    "date:cessation_lower": "2023-03-07",
    "date:cessation_upper": "2023-03-07",
    "date:inception_lower": "2023-03-07",
    "date:inception_upper": "2023-03-07",
    "edtf:cessation": "2023-03-07T02:37:00-08:00",
    "edtf:inception": "2023-03-07T02:37:00-08:00",
    "geom:area": 0,
    "geom:bbox": "-122.386166,37.616356,-122.386166,37.616356",
    "geom:latitude": 37.616356,
    "geom:longitude": -122.386166,
    "instagram:post": {
      "caption": {
        "body": "#Onthisday in 1963, Pan American World Airways opened their 59-story office building in New York City. The largest commercial office space in the world at the time, it even had its own helipad. Now called the MetLife building, it remains an iconic structure within the New York City skyline. Have you ever visited the Pan Am building?",
        "excerpt": "#Onthisday in 1963, Pan American World Airways opened their 59-story office building in New York City.",
        "hashtags": [
          "AvGeek",
          "PanAm",
          "NewYorkCity"
        ],
        "users": []
      },
      "media_id": "acc64da1c7a783df6c3a5b480820525e37d6eb53",
      "path": "media/posts/202303/334960823_518254060483360_3296956153821507851_n_18221053525206597.jpg",
      "perceptual_hash": "p:d3a44a738da51b55",
      "taken": 1678185420,
      "taken_at": "Mar 07, 2023 10:37 am"
    },
    "millsfield:similar": {
      "google/siglip2-so400m-patch16-naflex": [
        {
          "distance": 0.15921032428741455,
          "id": 1729358717
        },
        {
          "distance": 0.18415844440460205,
          "id": 1729358717
        },
        {
          "distance": 0.2213602066040039,
          "id": 1729361153
        },
        {
          "distance": 0.23067206144332886,
          "id": 1729361413
        },
        {
          "distance": 0.25443315505981445,
          "id": 1729361171
        },
        {
          "distance": 0.2626316547393799,
          "id": 1729361067
        },
        {
          "distance": 0.26527392864227295,
          "id": 1729361577
        },
        {
          "distance": 0.26566553115844727,
          "id": 1729357345
        },
        {
          "distance": 0.2657344937324524,
          "id": 1729361347
        },
        {
          "distance": 0.26840466260910034,
          "id": 1729361153
        }
      ]
    },
    "sfomuseum:placetype": "instagram",
    "src:geom": "sfomuseum",
    "wof:belongsto": [
      1159160869,
      102527513,
      102191575,
      85633793,
      102087579,
      85922583,
      85688637
    ],
    "wof:country": "US",
    "wof:created": 1678185420,
    "wof:geomhash": "b6e33f47475d56bc8da457bc31afadc8",
    "wof:hierarchy": [
      {
        "building_id": 1159160869,
        "campus_id": 102527513,
        "continent_id": 102191575,
        "country_id": 85633793,
        "county_id": 102087579,
        "custom_id": 1880151071,
        "instagram_id": 1880151071,
        "locality_id": 85922583,
        "neighbourhood_id": -1,
        "region_id": 85688637
      }
    ],
    "wof:id": 1880151071,
    "wof:lastmodified": 1787777662,
    "wof:name": "#Onthisday in 1963, Pan American World Airways opened their 59-story office building in New York City...",
    "wof:parent_id": 1159160869,
    "wof:placetype": "custom",
    "wof:placetype_alt": [
      "instagram"
    ],
    "wof:repo": "sfomuseum-data-socialmedia-instagram",
    "wof:superseded_by": [],
    "wof:supersedes": []
  },
  "bbox": [
    -122.386166,
    37.616356,
    -122.386166,
    37.616356
  ],
  "geometry": {"type":"Point","coordinates":[-122.386166,37.616356]}
}
