{
  "id": 1729361363,
  "type": "Feature",
  "properties": {
    "date:cessation_lower": "2015-11-12",
    "date:cessation_upper": "2015-11-12",
    "date:inception_lower": "2015-11-12",
    "date:inception_upper": "2015-11-12",
    "edtf:cessation": "2015-11-12T12:51:00-08:00",
    "edtf:inception": "2015-11-12T12:51:00-08:00",
    "geom:area": 0,
    "geom:bbox": "-122.386166,37.616356,-122.386166,37.616356",
    "geom:latitude": 37.616356,
    "geom:longitude": -122.386166,
    "instagram:post": {
      "caption": {
        "body": "",
        "excerpt": "",
        "hashtags": [
          "ThrowbackThursday"
        ],
        "users": []
      },
      "media_id": "2876aecfe2117f0a699e1aedbb3be6e5",
      "path": "media/other/12237483_907892565953988_731525182_n_17842883737078978.jpg",
      "perceptual_hash": "p:d1d3d0302d6dd9e4",
      "taken": 1447361460,
      "taken_at": "Nov 12, 2015 8:51 pm"
    },
    "millsfield:similar": {
      "google/siglip2-so400m-patch16-naflex": [
        {
          "distance": 0.2673088312149048,
          "id": 1729360689
        },
        {
          "distance": 0.27558422088623047,
          "id": 1729359555
        },
        {
          "distance": 0.29002243280410767,
          "id": 1729359145
        },
        {
          "distance": 0.29136353731155396,
          "id": 1729356611
        },
        {
          "distance": 0.29210156202316284,
          "id": 1729355041
        },
        {
          "distance": 0.29314035177230835,
          "id": 1729359713
        },
        {
          "distance": 0.2951394319534302,
          "id": 1729358327
        },
        {
          "distance": 0.29810529947280884,
          "id": 1763559449
        },
        {
          "distance": 0.29839688539505005,
          "id": 1729361261
        },
        {
          "distance": 0.3008766770362854,
          "id": 1729360937
        }
      ]
    },
    "sfomuseum:placetype": "instagram",
    "src:geom": "sfomuseum",
    "wof:belongsto": [
      1159160869,
      102527513,
      102191575,
      85633793,
      102087579,
      85922583,
      85688637
    ],
    "wof:country": "US",
    "wof:created": 1447361460,
    "wof:geomhash": "b6e33f47475d56bc8da457bc31afadc8",
    "wof:hierarchy": [
      {
        "building_id": 1159160869,
        "campus_id": 102527513,
        "continent_id": 102191575,
        "country_id": 85633793,
        "county_id": 102087579,
        "custom_id": 1729361363,
        "instagram_id": 1729361363,
        "locality_id": 85922583,
        "neighbourhood_id": -1,
        "region_id": 85688637
      }
    ],
    "wof:id": 1729361363,
    "wof:lastmodified": 1787777645,
    "wof:name": "..",
    "wof:parent_id": 1159160869,
    "wof:placetype": "custom",
    "wof:placetype_alt": [
      "instagram"
    ],
    "wof:repo": "sfomuseum-data-socialmedia-instagram",
    "wof:superseded_by": [],
    "wof:supersedes": []
  },
  "bbox": [
    -122.386166,
    37.616356,
    -122.386166,
    37.616356
  ],
  "geometry": {"type":"Point","coordinates":[-122.386166,37.616356]}
}
