{
  "id": 1729355999,
  "type": "Feature",
  "properties": {
    "date:cessation_lower": "2019-10-15",
    "date:cessation_upper": "2019-10-15",
    "date:inception_lower": "2019-10-15",
    "date:inception_upper": "2019-10-15",
    "edtf:cessation": "2019-10-15T12:40:03-07:00",
    "edtf:inception": "2019-10-15T12:40:03-07:00",
    "geom:area": 0,
    "geom:bbox": "-122.386166,37.616356,-122.386166,37.616356",
    "geom:latitude": 37.616356,
    "geom:longitude": -122.386166,
    "instagram:post": {
      "caption": {
        "body": "In her series “Surface Tension”, Tabitha Soren (b.1967) examines our complex relationship with technology and draws focus on our increasingly tactile connection to visual information. Using a large-format film camera, Soren photographs tablet screens to reveal the marks left behind—the fingerprints, smudges, and oily residue of our engagement with the images below the surface. Soren collects from a range of source material include web searches, text messages, social media content, and personal pictures. Brought together, Soren’s images serve as a poignant meditation on the role of digital devices in society and offer a reminder of the traces, both physical and digital, that we leave behind when using them.  See “Surface Tension” by #TabithaSoren (@tabithasoren) on display, pre-security, on the departures level of Terminal 3. http://bit.ly/2lNfKLK",
        "excerpt": "In her series “Surface Tension”, Tabitha Soren (b.1967) examines our complex relationship with technology and draws focus on our increasingly tactile connection to visual information.",
        "hashtags": [
          "photography",
          "technology",
          "publicart",
          "TabithaSoren",
          "photographer"
        ],
        "users": []
      },
      "location": "",
      "media_id": "28e53341f4c0c5ca35f4f7f7632b721c",
      "path": "photos/201910/28e53341f4c0c5ca35f4f7f7632b721c.jpg",
      "perceptual_hash": "p:bdb33b69c0e46690",
      "taken": 1571139600,
      "taken_at": "Oct 15, 2019, 11:40 AM"
    },
    "millsfield:similar": {
      "google/siglip2-so400m-patch16-naflex": [
        {
          "distance": 0.2135375738143921,
          "id": 1729355997
        },
        {
          "distance": 0.23819494247436523,
          "id": 1729355997
        },
        {
          "distance": 0.2682163119316101,
          "id": 1729356409
        },
        {
          "distance": 0.2714002728462219,
          "id": 1729358497
        },
        {
          "distance": 0.28297048807144165,
          "id": 1729356409
        },
        {
          "distance": 0.28590625524520874,
          "id": 1763559271
        },
        {
          "distance": 0.30510956048965454,
          "id": 1729360993
        },
        {
          "distance": 0.3068864345550537,
          "id": 1729358497
        },
        {
          "distance": 0.3097977638244629,
          "id": 1729359109
        },
        {
          "distance": 0.3111950755119324,
          "id": 1729360993
        }
      ]
    },
    "sfomuseum:placetype": "instagram",
    "src:geom": "sfomuseum",
    "wof:belongsto": [
      1159160869,
      102527513,
      102191575,
      85633793,
      102087579,
      85922583,
      85688637
    ],
    "wof:country": "US",
    "wof:created": 1571168403,
    "wof:geomhash": "b6e33f47475d56bc8da457bc31afadc8",
    "wof:hierarchy": [
      {
        "building_id": 1159160869,
        "campus_id": 102527513,
        "continent_id": 102191575,
        "country_id": 85633793,
        "county_id": 102087579,
        "custom_id": 1729355999,
        "instagram_id": 1729355999,
        "locality_id": 85922583,
        "neighbourhood_id": -1,
        "region_id": 85688637
      }
    ],
    "wof:id": 1729355999,
    "wof:lastmodified": 1787777627,
    "wof:name": "In her series “Surface Tension”, Tabitha Soren (b.1967) examines our complex relationship with technology and draws focus on our increasingly tactile connection to visual information...",
    "wof:parent_id": 1159160869,
    "wof:placetype": "custom",
    "wof:placetype_alt": [
      "instagram"
    ],
    "wof:repo": "sfomuseum-data-socialmedia-instagram",
    "wof:superseded_by": [],
    "wof:supersedes": []
  },
  "bbox": [
    -122.386166,
    37.616356,
    -122.386166,
    37.616356
  ],
  "geometry": {"type":"Point","coordinates":[-122.386166,37.616356]}
}
