{
  "id": 1729357251,
  "type": "Feature",
  "properties": {
    "date:cessation_lower": "2018-12-12",
    "date:cessation_upper": "2018-12-12",
    "date:inception_lower": "2018-12-12",
    "date:inception_upper": "2018-12-12",
    "edtf:cessation": "2018-12-11T18:07:54-08:00",
    "edtf:inception": "2018-12-11T18:07:54-08:00",
    "geom:area": 0,
    "geom:bbox": "-122.386166,37.616356,-122.386166,37.616356",
    "geom:latitude": 37.616356,
    "geom:longitude": -122.386166,
    "instagram:post": {
      "caption": {
        "body": "The McDonnell Douglas MD-80 was an updated version of the DC-9, which was introduced in 1965. Swissair introduced the airliner in 1980. Like the DC-9, the MD-80 provided a mid-range, medium capacity airliner capable of serving short runways of small regional airports. The design was highly successful with orders from airlines the world over. American Airlines purchased a large fleet of the airliner and eventually became the world’s largest MD-80 operator. (Currently, Delta Air Lines is the largest operator.) The aircraft proved ideal for the carrier’s many mid-range, regional services during the decades of its operation.  See \"Aviation Evolutions: The Jim Lund 1:72 Scale Model Airplane Collection\", which features more than 200 models, on display, pre-security, in the Aviation Museum. http://ow.ly/VsVQ50jV87S",
        "excerpt": "The McDonnell Douglas MD-80 was an updated version of the DC-9, which was introduced in 1965.",
        "hashtags": [
          "AviationEvolutions",
          "JimLund",
          "McDonnellDouglas",
          "MD80",
          "AmericanAir",
          "avgeek",
          "aviationgeek",
          "aviation",
          "aviationhistory",
          "vintageaviation",
          "history",
          "aviationgeeks",
          "modelplane",
          "scalemodel",
          "avgeeks"
        ],
        "users": []
      },
      "location": "",
      "media_id": "01a679a5672f8c492bda8c983c51f832",
      "path": "photos/201812/01a679a5672f8c492bda8c983c51f832.jpg",
      "perceptual_hash": "p:ed41923e61cd1e63",
      "taken": 1544551620,
      "taken_at": "Dec 11, 2018, 6:07 PM"
    },
    "millsfield:similar": {
      "google/siglip2-so400m-patch16-naflex": [
        {
          "distance": 0.17005807161331177,
          "id": 1729357255
        },
        {
          "distance": 0.17463040351867676,
          "id": 1729357123
        },
        {
          "distance": 0.17914819717407227,
          "id": 1729358841
        },
        {
          "distance": 0.17957472801208496,
          "id": 1729357491
        },
        {
          "distance": 0.18034064769744873,
          "id": 1729359003
        },
        {
          "distance": 0.18034064769744873,
          "id": 1763558711
        },
        {
          "distance": 0.19644153118133545,
          "id": 1729357255
        },
        {
          "distance": 0.19806212186813354,
          "id": 1729358869
        },
        {
          "distance": 0.19989585876464844,
          "id": 1729357183
        },
        {
          "distance": 0.20372116565704346,
          "id": 1729357619
        }
      ]
    },
    "sfomuseum:placetype": "instagram",
    "src:geom": "sfomuseum",
    "wof:belongsto": [
      1159160869,
      102527513,
      102191575,
      85633793,
      102087579,
      85922583,
      85688637
    ],
    "wof:country": "US",
    "wof:created": 1544580474,
    "wof:geomhash": "b6e33f47475d56bc8da457bc31afadc8",
    "wof:hierarchy": [
      {
        "building_id": 1159160869,
        "campus_id": 102527513,
        "continent_id": 102191575,
        "country_id": 85633793,
        "county_id": 102087579,
        "custom_id": 1729357251,
        "instagram_id": 1729357251,
        "locality_id": 85922583,
        "neighbourhood_id": -1,
        "region_id": 85688637
      }
    ],
    "wof:id": 1729357251,
    "wof:lastmodified": 1787777630,
    "wof:name": "The McDonnell Douglas MD-80 was an updated version of the DC-9, which was introduced in 1965...",
    "wof:parent_id": 1159160869,
    "wof:placetype": "custom",
    "wof:placetype_alt": [
      "instagram"
    ],
    "wof:repo": "sfomuseum-data-socialmedia-instagram",
    "wof:superseded_by": [],
    "wof:supersedes": []
  },
  "bbox": [
    -122.386166,
    37.616356,
    -122.386166,
    37.616356
  ],
  "geometry": {"type":"Point","coordinates":[-122.386166,37.616356]}
}
