{
  "id": 1729360137,
  "type": "Feature",
  "properties": {
    "date:cessation_lower": "2016-11-08",
    "date:cessation_upper": "2016-11-08",
    "date:inception_lower": "2016-11-08",
    "date:inception_upper": "2016-11-08",
    "edtf:cessation": "2016-11-08T01:55:00-08:00",
    "edtf:inception": "2016-11-08T01:55:00-08:00",
    "geom:area": 0,
    "geom:bbox": "-122.386166,37.616356,-122.386166,37.616356",
    "geom:latitude": 37.616356,
    "geom:longitude": -122.386166,
    "instagram:post": {
      "caption": {
        "body": "#OnThisDay in 1948, the first Pan American World Airways airmail service to Barcelona, Spain departed from New York. Have you ever been to Barcelona?",
        "excerpt": "#OnThisDay in 1948, the first Pan American World Airways airmail service to Barcelona, Spain departed from New York.",
        "hashtags": [
          "TravelTuesday",
          "Barcelona",
          "Airmail",
          "Philately",
          "PanAm",
          "Spain"
        ],
        "users": []
      },
      "media_id": "725823d72ae836169b79381c3dabae81",
      "path": "media/posts/201611/14540554_138955129913658_5076878092375425024_n_17854137781085618.jpg",
      "perceptual_hash": "p:995a42a529a56fba",
      "taken": 1478598900,
      "taken_at": "Nov 08, 2016 9:55 am"
    },
    "millsfield:similar": {
      "google/siglip2-so400m-patch16-naflex": [
        {
          "distance": 0.2121586799621582,
          "id": 1729360693
        },
        {
          "distance": 0.24630796909332275,
          "id": 1729360693
        },
        {
          "distance": 0.24815869331359863,
          "id": 1729358535
        },
        {
          "distance": 0.25148701667785645,
          "id": 1729360783
        },
        {
          "distance": 0.2942412495613098,
          "id": 1729360391
        },
        {
          "distance": 0.3051743507385254,
          "id": 1729358535
        },
        {
          "distance": 0.30721116065979004,
          "id": 1729360783
        },
        {
          "distance": 0.3205867409706116,
          "id": 1880151359
        },
        {
          "distance": 0.3244016170501709,
          "id": 1729360163
        },
        {
          "distance": 0.33170580863952637,
          "id": 1729361397
        }
      ]
    },
    "sfomuseum:placetype": "instagram",
    "src:geom": "sfomuseum",
    "wof:belongsto": [
      1159160869,
      102527513,
      102191575,
      85633793,
      102087579,
      85922583,
      85688637
    ],
    "wof:country": "US",
    "wof:created": 1478598900,
    "wof:geomhash": "b6e33f47475d56bc8da457bc31afadc8",
    "wof:hierarchy": [
      {
        "building_id": 1159160869,
        "campus_id": 102527513,
        "continent_id": 102191575,
        "country_id": 85633793,
        "county_id": 102087579,
        "custom_id": 1729360137,
        "instagram_id": 1729360137,
        "locality_id": 85922583,
        "neighbourhood_id": -1,
        "region_id": 85688637
      }
    ],
    "wof:id": 1729360137,
    "wof:lastmodified": 1787777639,
    "wof:name": "#OnThisDay in 1948, the first Pan American World Airways airmail service to Barcelona, Spain departed from New York...",
    "wof:parent_id": 1159160869,
    "wof:placetype": "custom",
    "wof:placetype_alt": [
      "instagram"
    ],
    "wof:repo": "sfomuseum-data-socialmedia-instagram",
    "wof:superseded_by": [],
    "wof:supersedes": []
  },
  "bbox": [
    -122.386166,
    37.616356,
    -122.386166,
    37.616356
  ],
  "geometry": {"type":"Point","coordinates":[-122.386166,37.616356]}
}
