{
  "id": 1729360663,
  "type": "Feature",
  "properties": {
    "date:cessation_lower": "2016-05-31",
    "date:cessation_upper": "2016-05-31",
    "date:inception_lower": "2016-05-31",
    "date:inception_upper": "2016-05-31",
    "edtf:cessation": "2016-05-31T13:01:00-07:00",
    "edtf:inception": "2016-05-31T13:01:00-07:00",
    "geom:area": 0,
    "geom:bbox": "-122.386166,37.616356,-122.386166,37.616356",
    "geom:latitude": 37.616356,
    "geom:longitude": -122.386166,
    "instagram:post": {
      "caption": {
        "body": "",
        "excerpt": "",
        "hashtags": [
          "TravelTuesday"
        ],
        "users": []
      },
      "media_id": "273e1f40f1cdac6f2191ec4a631ac2a0",
      "path": "media/other/13256618_912217572220077_652489739_n_17848063741090809.jpg",
      "perceptual_hash": "p:be3ed8c493c91b84",
      "taken": 1464724860,
      "taken_at": "May 31, 2016 8:01 pm"
    },
    "millsfield:similar": {
      "google/siglip2-so400m-patch16-naflex": [
        {
          "distance": 0.3282996416091919,
          "id": 1729357961
        },
        {
          "distance": 0.32907795906066895,
          "id": 1729359319
        },
        {
          "distance": 0.33031022548675537,
          "id": 1729360867
        },
        {
          "distance": 0.33169811964035034,
          "id": 1729355197
        },
        {
          "distance": 0.3482164740562439,
          "id": 1729359663
        },
        {
          "distance": 0.35388869047164917,
          "id": 1880151551
        },
        {
          "distance": 0.3634117841720581,
          "id": 1729356313
        },
        {
          "distance": 0.3646067976951599,
          "id": 1763559435
        },
        {
          "distance": 0.36467528343200684,
          "id": 1729355821
        },
        {
          "distance": 0.36725854873657227,
          "id": 1729359015
        }
      ]
    },
    "sfomuseum:placetype": "instagram",
    "src:geom": "sfomuseum",
    "wof:belongsto": [
      1159160869,
      102527513,
      102191575,
      85633793,
      102087579,
      85922583,
      85688637
    ],
    "wof:country": "US",
    "wof:created": 1464724860,
    "wof:geomhash": "b6e33f47475d56bc8da457bc31afadc8",
    "wof:hierarchy": [
      {
        "building_id": 1159160869,
        "campus_id": 102527513,
        "continent_id": 102191575,
        "country_id": 85633793,
        "county_id": 102087579,
        "custom_id": 1729360663,
        "instagram_id": 1729360663,
        "locality_id": 85922583,
        "neighbourhood_id": -1,
        "region_id": 85688637
      }
    ],
    "wof:id": 1729360663,
    "wof:lastmodified": 1787777640,
    "wof:name": "..",
    "wof:parent_id": 1159160869,
    "wof:placetype": "custom",
    "wof:placetype_alt": [
      "instagram"
    ],
    "wof:repo": "sfomuseum-data-socialmedia-instagram",
    "wof:superseded_by": [],
    "wof:supersedes": []
  },
  "bbox": [
    -122.386166,
    37.616356,
    -122.386166,
    37.616356
  ],
  "geometry": {"type":"Point","coordinates":[-122.386166,37.616356]}
}
