{
  "id": 1729360389,
  "type": "Feature",
  "properties": {
    "date:cessation_lower": "2016-08-31",
    "date:cessation_upper": "2016-08-31",
    "date:inception_lower": "2016-08-31",
    "date:inception_upper": "2016-08-31",
    "edtf:cessation": "2016-08-31T11:30:00-07:00",
    "edtf:inception": "2016-08-31T11:30:00-07:00",
    "geom:area": 0,
    "geom:bbox": "-122.386166,37.616356,-122.386166,37.616356",
    "geom:latitude": 37.616356,
    "geom:longitude": -122.386166,
    "instagram:post": {
      "caption": {
        "body": "Airline fashion from the mid-1970s to the present has largely paralleled general trends and popular tastes in women’s daywear and workplace attire. Airlines toned down and refined their looks as air travel became more routine and available to greater numbers in the wide-body jet era. This was a distinct departure from the 1960s and early ‘70s, when flight attendants and fashion were often used for attention-getting promotional purposes and the uniform came to symbolize the liberating feel of the new jet age.  See more uniforms from the 1970s in \"#FashionInFlight: A History of Airline Uniform Design\", on display, pre-security, in the Aviation Museum and Library and in the Main Hall of the International Terminal. The Aviation Museum and Library is open daily from 10am to 4:30pm. #WomenInAviation http://bit.ly/fashioninflight  Union de Transport Aériens flight attendants in uniforms by André Courrèges  1973 photograph Air France Collection.DR/Air France Museum Collection.DR R2016.0306.012",
        "excerpt": "Airline fashion from the mid-1970s to the present has largely paralleled general trends and popular tastes in women’s daywear and workplace attire.",
        "hashtags": [],
        "users": []
      },
      "media_id": "c56e16b6fe129615899ebad53dfb409b",
      "path": "media/other/14031728_637646076403045_1890241823_n_17862406630007692.jpg",
      "perceptual_hash": "p:fe7ae60f89949881",
      "taken": 1472668200,
      "taken_at": "Aug 31, 2016 6:30 pm"
    },
    "millsfield:similar": {
      "google/siglip2-so400m-patch16-naflex": [
        {
          "distance": 0.2524387240409851,
          "id": 1729360325
        },
        {
          "distance": 0.26325124502182007,
          "id": 1729360907
        },
        {
          "distance": 0.2636851668357849,
          "id": 1729360211
        },
        {
          "distance": 0.2640829086303711,
          "id": 1729360473
        },
        {
          "distance": 0.2676583528518677,
          "id": 1729360325
        },
        {
          "distance": 0.26821213960647583,
          "id": 1729355273
        },
        {
          "distance": 0.2690625786781311,
          "id": 1729360907
        },
        {
          "distance": 0.2711157202720642,
          "id": 1729359743
        },
        {
          "distance": 0.2718506455421448,
          "id": 1729360211
        },
        {
          "distance": 0.27320343255996704,
          "id": 1729360981
        }
      ]
    },
    "sfomuseum:placetype": "instagram",
    "src:geom": "sfomuseum",
    "wof:belongsto": [
      1159160869,
      102527513,
      102191575,
      85633793,
      102087579,
      85922583,
      85688637
    ],
    "wof:country": "US",
    "wof:created": 1472668200,
    "wof:geomhash": "b6e33f47475d56bc8da457bc31afadc8",
    "wof:hierarchy": [
      {
        "building_id": 1159160869,
        "campus_id": 102527513,
        "continent_id": 102191575,
        "country_id": 85633793,
        "county_id": 102087579,
        "custom_id": 1729360389,
        "instagram_id": 1729360389,
        "locality_id": 85922583,
        "neighbourhood_id": -1,
        "region_id": 85688637
      }
    ],
    "wof:id": 1729360389,
    "wof:lastmodified": 1787777639,
    "wof:name": "Airline fashion from the mid-1970s to the present has largely paralleled general trends and popular tastes in women’s daywear and workplace attire...",
    "wof:parent_id": 1159160869,
    "wof:placetype": "custom",
    "wof:placetype_alt": [
      "instagram"
    ],
    "wof:repo": "sfomuseum-data-socialmedia-instagram",
    "wof:superseded_by": [],
    "wof:supersedes": []
  },
  "bbox": [
    -122.386166,
    37.616356,
    -122.386166,
    37.616356
  ],
  "geometry": {"type":"Point","coordinates":[-122.386166,37.616356]}
}
