{
  "id": 1763558813,
  "type": "Feature",
  "properties": {
    "date:cessation_lower": "2019-08-07",
    "date:cessation_upper": "2019-08-07",
    "date:inception_lower": "2019-08-07",
    "date:inception_upper": "2019-08-07",
    "edtf:cessation": "2019-08-07T09:02:00-07:00",
    "edtf:inception": "2019-08-07T09:02:00-07:00",
    "geom:area": 0,
    "geom:bbox": "-122.386166,37.616356,-122.386166,37.616356",
    "geom:latitude": 37.616356,
    "geom:longitude": -122.386166,
    "instagram:post": {
      "caption": {
        "body": "In the 1930s, irons were redesigned with clean, curved housings reminiscent of streamlined train cars. Perhaps the most streamlined design to enter the market was the 1941 Petipoint iron, designed by Clifford Brooks Stevens (1911–1995) and Edward P. Schreyer (1886–1980) with a pointed teardrop shape, wing-like projections, and a curved handle with speed lines. \"Streamlines: Air Age Aesthetics for Industrial Design\" is on display, pre-security, in the Aviation Museum and Library in the International Terminal. http://bit.ly/Streamlines",
        "excerpt": "In the 1930s, irons were redesigned with clean, curved housings reminiscent of streamlined train cars.",
        "hashtags": [
          "StreamlinesAesthetics",
          "streamline",
          "design",
          "industrialdesign"
        ],
        "users": []
      },
      "media_id": "db8921d5ca45e31c6dee295d026df0aa525db580",
      "path": "media/other/67748940_2318749571544152_8267729231261286374_n_18051056785167480.jpg",
      "perceptual_hash": "p:f3469c9943ce3839",
      "taken": 1565193720,
      "taken_at": "Aug 07, 2019 4:02 pm"
    },
    "millsfield:similar": {
      "google/siglip2-so400m-patch16-naflex": [
        {
          "distance": 0.005671560764312744,
          "id": 1729356227
        },
        {
          "distance": 0.10216844081878662,
          "id": 1729356227
        },
        {
          "distance": 0.27773261070251465,
          "id": 1729356765
        },
        {
          "distance": 0.2831711173057556,
          "id": 1729358989
        },
        {
          "distance": 0.2887519598007202,
          "id": 1729358359
        },
        {
          "distance": 0.29089421033859253,
          "id": 1729357825
        },
        {
          "distance": 0.29138660430908203,
          "id": 1729360355
        },
        {
          "distance": 0.30225640535354614,
          "id": 1729359187
        },
        {
          "distance": 0.30359601974487305,
          "id": 1729356513
        },
        {
          "distance": 0.30533522367477417,
          "id": 1729358375
        }
      ]
    },
    "sfomuseum:placetype": "instagram",
    "src:geom": "sfomuseum",
    "wof:belongsto": [
      1159160869,
      102527513,
      102191575,
      85633793,
      102087579,
      85922583,
      85688637
    ],
    "wof:country": "US",
    "wof:created": 1565193720,
    "wof:geomhash": "b6e33f47475d56bc8da457bc31afadc8",
    "wof:hierarchy": [
      {
        "building_id": 1159160869,
        "campus_id": 102527513,
        "continent_id": 102191575,
        "country_id": 85633793,
        "county_id": 102087579,
        "custom_id": 1763558813,
        "instagram_id": 1763558813,
        "locality_id": 85922583,
        "neighbourhood_id": -1,
        "region_id": 85688637
      }
    ],
    "wof:id": 1763558813,
    "wof:lastmodified": 1787777659,
    "wof:name": "In the 1930s, irons were redesigned with clean, curved housings reminiscent of streamlined train cars...",
    "wof:parent_id": 1159160869,
    "wof:placetype": "custom",
    "wof:placetype_alt": [
      "instagram"
    ],
    "wof:repo": "sfomuseum-data-socialmedia-instagram",
    "wof:superseded_by": [],
    "wof:supersedes": []
  },
  "bbox": [
    -122.386166,
    37.616356,
    -122.386166,
    37.616356
  ],
  "geometry": {"type":"Point","coordinates":[-122.386166,37.616356]}
}
