{
  "id": 1729362947,
  "type": "Feature",
  "properties": {
    "date:cessation_lower": "2012-07-18",
    "date:cessation_upper": "2012-07-18",
    "date:inception_lower": "2012-07-18",
    "date:inception_upper": "2012-07-18",
    "edtf:cessation": "2012-07-18T02:56:00-07:00",
    "edtf:inception": "2012-07-18T02:56:00-07:00",
    "geom:area": 0,
    "geom:bbox": "-122.386166,37.616356,-122.386166,37.616356",
    "geom:latitude": 37.616356,
    "geom:longitude": -122.386166,
    "instagram:post": {
      "caption": {
        "body": "One half of the mountain bike exhibit is up \u0026 already catching eyes!",
        "excerpt": "One half of the mountain bike exhibit is up \u0026 already catching eyes!",
        "hashtags": [],
        "users": []
      },
      "media_id": "b99f24c441c2d861c5759a6a25e03264",
      "path": "media/other/11189602_814911531910867_1638806683_n_17842258438062499.jpg",
      "perceptual_hash": "p:d5dcca0085dabda5",
      "taken": 1342605360,
      "taken_at": "Jul 18, 2012 9:56 am"
    },
    "millsfield:similar": {
      "google/siglip2-so400m-patch16-naflex": [
        {
          "distance": 0.08976340293884277,
          "id": 1729362953
        },
        {
          "distance": 0.11573249101638794,
          "id": 1729362953
        },
        {
          "distance": 0.1603216528892517,
          "id": 1729362941
        },
        {
          "distance": 0.16127556562423706,
          "id": 1729362801
        },
        {
          "distance": 0.1720704436302185,
          "id": 1729362941
        },
        {
          "distance": 0.18306773900985718,
          "id": 1729362815
        },
        {
          "distance": 0.21257942914962769,
          "id": 1729362815
        },
        {
          "distance": 0.21618670225143433,
          "id": 1729362367
        },
        {
          "distance": 0.22961872816085815,
          "id": 1763559157
        },
        {
          "distance": 0.23018664121627808,
          "id": 1729362801
        }
      ]
    },
    "sfomuseum:placetype": "instagram",
    "src:geom": "sfomuseum",
    "wof:belongsto": [
      1159160869,
      102527513,
      102191575,
      85633793,
      102087579,
      85922583,
      85688637
    ],
    "wof:country": "US",
    "wof:created": 1342605360,
    "wof:geomhash": "b6e33f47475d56bc8da457bc31afadc8",
    "wof:hierarchy": [
      {
        "building_id": 1159160869,
        "campus_id": 102527513,
        "continent_id": 102191575,
        "country_id": 85633793,
        "county_id": 102087579,
        "custom_id": 1729362947,
        "instagram_id": 1729362947,
        "locality_id": 85922583,
        "neighbourhood_id": -1,
        "region_id": 85688637
      }
    ],
    "wof:id": 1729362947,
    "wof:lastmodified": 1787777657,
    "wof:name": "One half of the mountain bike exhibit is up \u0026 already catching eyes!..",
    "wof:parent_id": 1159160869,
    "wof:placetype": "custom",
    "wof:placetype_alt": [
      "instagram"
    ],
    "wof:repo": "sfomuseum-data-socialmedia-instagram",
    "wof:superseded_by": [],
    "wof:supersedes": []
  },
  "bbox": [
    -122.386166,
    37.616356,
    -122.386166,
    37.616356
  ],
  "geometry": {"type":"Point","coordinates":[-122.386166,37.616356]}
}
