{
  "id": 1763559407,
  "type": "Feature",
  "properties": {
    "date:cessation_lower": "2021-09-24",
    "date:cessation_upper": "2021-09-24",
    "date:inception_lower": "2021-09-24",
    "date:inception_upper": "2021-09-24",
    "edtf:cessation": "2021-09-24T09:08:00-07:00",
    "edtf:inception": "2021-09-24T09:08:00-07:00",
    "geom:area": 0,
    "geom:bbox": "-122.386166,37.616356,-122.386166,37.616356",
    "geom:latitude": 37.616356,
    "geom:longitude": -122.386166,
    "instagram:post": {
      "caption": {
        "body": "In 1970, Marvin Lipofsky was invited to Italy by Ludovico Diaz de Santillana, director of the Venini Glass Factory on the island of Murano. Two years later, Lipofsky accepted and began his first Venini Series with master glassmaker Gianni Toso (b. 1942). Using molds and colors available at the Venini factory, Lipofsky and Toso created exciting new forms by blowing glass into the wooden molds as they were rotated by hand. Lipofsky returned to Murano in 1976 and worked with Toso again, this time at the Fratelli-Toso Factory where they experimented with variations on brightly colored cane work, which is a traditional type of Italian striping decoration.   \"Marvin Lipofsky: International Studio Glass\" is on view pre-security in the International Terminal and online at: https://bit.ly/MarvinLipofsky",
        "excerpt": "In 1970, Marvin Lipofsky was invited to Italy by Ludovico Diaz de Santillana, director of the Venini Glass Factory on the island of Murano.",
        "hashtags": [
          "studioglass",
          "glasssculpture",
          "glassblowing",
          "glassart",
          "contemporaryart",
          "MarvinLipofsky"
        ],
        "users": []
      },
      "media_id": "e1203c41aee8ac9de08f05da935e56dd7904ebde",
      "path": "media/posts/202109/243086503_384745299798522_3594053589590558612_n_17849774468645424.jpg",
      "perceptual_hash": "p:fe84c872e668c74c",
      "taken": 1632499680,
      "taken_at": "Sep 24, 2021 4:08 pm"
    },
    "millsfield:similar": {
      "google/siglip2-so400m-patch16-naflex": [
        {
          "distance": 0.16984659433364868,
          "id": 1729357499
        },
        {
          "distance": 0.17203694581985474,
          "id": 1763559129
        },
        {
          "distance": 0.17741012573242188,
          "id": 1880151339
        },
        {
          "distance": 0.20358431339263916,
          "id": 1763558925
        },
        {
          "distance": 0.21155714988708496,
          "id": 1763559129
        },
        {
          "distance": 0.21211159229278564,
          "id": 1947425165
        },
        {
          "distance": 0.2136707901954651,
          "id": 1729355059
        },
        {
          "distance": 0.21466988325119019,
          "id": 1729355529
        },
        {
          "distance": 0.2168216109275818,
          "id": 1947425199
        },
        {
          "distance": 0.21914470195770264,
          "id": 1763559521
        }
      ]
    },
    "sfomuseum:placetype": "instagram",
    "src:geom": "sfomuseum",
    "wof:belongsto": [
      1159160869,
      102527513,
      102191575,
      85633793,
      102087579,
      85922583,
      85688637
    ],
    "wof:country": "US",
    "wof:created": 1632499680,
    "wof:geomhash": "b6e33f47475d56bc8da457bc31afadc8",
    "wof:hierarchy": [
      {
        "building_id": 1159160869,
        "campus_id": 102527513,
        "continent_id": 102191575,
        "country_id": 85633793,
        "county_id": 102087579,
        "custom_id": 1763559407,
        "instagram_id": 1763559407,
        "locality_id": 85922583,
        "neighbourhood_id": -1,
        "region_id": 85688637
      }
    ],
    "wof:id": 1763559407,
    "wof:lastmodified": 1787777660,
    "wof:name": "In 1970, Marvin Lipofsky was invited to Italy by Ludovico Diaz de Santillana, director of the Venini Glass Factory on the island of Murano...",
    "wof:parent_id": 1159160869,
    "wof:placetype": "custom",
    "wof:placetype_alt": [
      "instagram"
    ],
    "wof:repo": "sfomuseum-data-socialmedia-instagram",
    "wof:superseded_by": [],
    "wof:supersedes": []
  },
  "bbox": [
    -122.386166,
    37.616356,
    -122.386166,
    37.616356
  ],
  "geometry": {"type":"Point","coordinates":[-122.386166,37.616356]}
}
