{
  "id": 1729358085,
  "type": "Feature",
  "properties": {
    "date:cessation_lower": "2018-06-21",
    "date:cessation_upper": "2018-06-21",
    "date:inception_lower": "2018-06-21",
    "date:inception_upper": "2018-06-21",
    "edtf:cessation": "2018-06-21T01:51:00-07:00",
    "edtf:inception": "2018-06-21T01:51:00-07:00",
    "geom:area": 0,
    "geom:bbox": "-122.386166,37.616356,-122.386166,37.616356",
    "geom:latitude": 37.616356,
    "geom:longitude": -122.386166,
    "instagram:post": {
      "caption": {
        "body": "The DC-10 was McDonnell Douglas’ answer to Boeing’s wide-body 747 jumbo-jet. The aircraft incorporated a tri-jet engine configuration with two engines mounted under the wings and one incorporated into the vertical stabilizer assembly. The aircraft had a slightly smaller capacity of up to 400 passengers, yet offered similar wide-body spaciousness and comfort to the 747. The DC-10 also featured first-class and coach lounges, a lower deck galley, and acoustic treatment of the fuselage. UTA introduced the aircraft in 1973, and by the mid-1970s, the carrier was operating it on many of its long-haul transatlantic routes to North and South America.  See \"Aviation Evolutions: The Jim Lund 1:72 Scale Model Airplane Collection\", which features more than 200 models, on display, pre-security, in the Aviation Museum. http://bit.ly/AviationEvolutions",
        "excerpt": "The DC-10 was McDonnell Douglas’ answer to Boeing’s wide-body 747 jumbo-jet.",
        "hashtags": [
          "AviationEvolutions",
          "jimlund",
          "avgeek",
          "avationgeek",
          "aviation",
          "aviationhistory",
          "vintageaviation",
          "history",
          "avhistory",
          "aviationgeeks",
          "modelplane",
          "avgeeks",
          "modelaircraft",
          "airplane",
          "aircraft",
          "DC10"
        ],
        "users": []
      },
      "media_id": "77a0df579806c732d3c90143c22e4f8e",
      "path": "media/posts/201806/36113709_247840505794234_4394320828838182912_n_17895555202201604.jpg",
      "perceptual_hash": "p:d8cb84b7332c9a6c",
      "taken": 1529571060,
      "taken_at": "Jun 21, 2018 8:51 am"
    },
    "millsfield:similar": {
      "google/siglip2-so400m-patch16-naflex": [
        {
          "distance": 0.04005622863769531,
          "id": 1729358531
        },
        {
          "distance": 0.05294722318649292,
          "id": 1729357553
        },
        {
          "distance": 0.05826544761657715,
          "id": 1729357069
        },
        {
          "distance": 0.07160472869873047,
          "id": 1729357493
        },
        {
          "distance": 0.07224047183990479,
          "id": 1729358657
        },
        {
          "distance": 0.07670992612838745,
          "id": 1729357851
        },
        {
          "distance": 0.07890951633453369,
          "id": 1729357631
        },
        {
          "distance": 0.07890951633453369,
          "id": 1763558767
        },
        {
          "distance": 0.08062022924423218,
          "id": 1729357669
        },
        {
          "distance": 0.083138108253479,
          "id": 1729358211
        }
      ]
    },
    "sfomuseum:placetype": "instagram",
    "src:geom": "sfomuseum",
    "wof:belongsto": [
      1159160869,
      102527513,
      102191575,
      85633793,
      102087579,
      85922583,
      85688637
    ],
    "wof:country": "US",
    "wof:created": 1529571060,
    "wof:geomhash": "b6e33f47475d56bc8da457bc31afadc8",
    "wof:hierarchy": [
      {
        "building_id": 1159160869,
        "campus_id": 102527513,
        "continent_id": 102191575,
        "country_id": 85633793,
        "county_id": 102087579,
        "custom_id": 1729358085,
        "instagram_id": 1729358085,
        "locality_id": 85922583,
        "neighbourhood_id": -1,
        "region_id": 85688637
      }
    ],
    "wof:id": 1729358085,
    "wof:lastmodified": 1787777632,
    "wof:name": "The DC-10 was McDonnell Douglas’ answer to Boeing’s wide-body 747 jumbo-jet...",
    "wof:parent_id": 1159160869,
    "wof:placetype": "custom",
    "wof:placetype_alt": [
      "instagram"
    ],
    "wof:repo": "sfomuseum-data-socialmedia-instagram",
    "wof:superseded_by": [],
    "wof:supersedes": []
  },
  "bbox": [
    -122.386166,
    37.616356,
    -122.386166,
    37.616356
  ],
  "geometry": {"type":"Point","coordinates":[-122.386166,37.616356]}
}
