{
  "id": 1763558959,
  "type": "Feature",
  "properties": {
    "date:cessation_lower": "2020-12-21",
    "date:cessation_upper": "2020-12-21",
    "date:inception_lower": "2020-12-21",
    "date:inception_upper": "2020-12-21",
    "edtf:cessation": "2020-12-21T04:33:00-08:00",
    "edtf:inception": "2020-12-21T04:33:00-08:00",
    "geom:area": 0,
    "geom:bbox": "-122.386166,37.616356,-122.386166,37.616356",
    "geom:latitude": 37.616356,
    "geom:longitude": -122.386166,
    "instagram:post": {
      "caption": {
        "body": "#OnThisDay in 1969, the first widebody jet landed at San Francisco International Airport. In advance of the regularly scheduled widebody service that would begin in 1970, Pan American World Airways brought its new Boeing 747 “jumbo jet” to SFO to display the new class of airliner for the people of the Bay Area. SFO had reconfigured and equipped its gating areas to handle the new airliner with its top-mounted cockpit and partial upper level passenger deck.   Image: San Francisco International Airport (SFO), Pan American World Airways, Boeing 747, 12/21/1969.  SFO Museum Collection. 1997.52.084.055",
        "excerpt": "#OnThisDay in 1969, the first widebody jet landed at San Francisco International Airport.",
        "hashtags": [
          "MuseumFromHome",
          "SFOHistory",
          "PanAm",
          "avgeek"
        ],
        "users": []
      },
      "media_id": "bcf41eb27a8a9b80f6ca6dca5386e0d1191a6f75",
      "path": "media/other/131917117_177489294108346_7794096504733283268_n_18021906289288707.jpg",
      "perceptual_hash": "p:cb96c9966299d649",
      "taken": 1608553980,
      "taken_at": "Dec 21, 2020 12:33 pm"
    },
    "millsfield:similar": {
      "google/siglip2-so400m-patch16-naflex": [
        {
          "distance": 0.08388811349868774,
          "id": 1729358851
        },
        {
          "distance": 0.13095873594284058,
          "id": 1880151167
        },
        {
          "distance": 0.13402622938156128,
          "id": 1729358851
        },
        {
          "distance": 0.14948898553848267,
          "id": 1729355133
        },
        {
          "distance": 0.1571660041809082,
          "id": 1947424953
        },
        {
          "distance": 0.15760445594787598,
          "id": 1729358863
        },
        {
          "distance": 0.15943926572799683,
          "id": 1729355165
        },
        {
          "distance": 0.16271263360977173,
          "id": 1729361019
        },
        {
          "distance": 0.1665077805519104,
          "id": 1729360247
        },
        {
          "distance": 0.17443537712097168,
          "id": 1729357215
        }
      ]
    },
    "sfomuseum:placetype": "instagram",
    "src:geom": "sfomuseum",
    "wof:belongsto": [
      1159160869,
      102527513,
      102191575,
      85633793,
      102087579,
      85922583,
      85688637
    ],
    "wof:country": "US",
    "wof:created": 1608553980,
    "wof:geomhash": "b6e33f47475d56bc8da457bc31afadc8",
    "wof:hierarchy": [
      {
        "building_id": 1159160869,
        "campus_id": 102527513,
        "continent_id": 102191575,
        "country_id": 85633793,
        "county_id": 102087579,
        "custom_id": 1763558959,
        "instagram_id": 1763558959,
        "locality_id": 85922583,
        "neighbourhood_id": -1,
        "region_id": 85688637
      }
    ],
    "wof:id": 1763558959,
    "wof:lastmodified": 1787777660,
    "wof:name": "#OnThisDay in 1969, the first widebody jet landed at San Francisco International Airport...",
    "wof:parent_id": 1159160869,
    "wof:placetype": "custom",
    "wof:placetype_alt": [
      "instagram"
    ],
    "wof:repo": "sfomuseum-data-socialmedia-instagram",
    "wof:superseded_by": [],
    "wof:supersedes": []
  },
  "bbox": [
    -122.386166,
    37.616356,
    -122.386166,
    37.616356
  ],
  "geometry": {"type":"Point","coordinates":[-122.386166,37.616356]}
}
