{
  "id": 1729362477,
  "type": "Feature",
  "properties": {
    "date:cessation_lower": "2013-11-06",
    "date:cessation_upper": "2013-11-06",
    "date:inception_lower": "2013-11-06",
    "date:inception_upper": "2013-11-06",
    "edtf:cessation": "2013-11-06T04:54:00-08:00",
    "edtf:inception": "2013-11-06T04:54:00-08:00",
    "geom:area": 0,
    "geom:bbox": "-122.386166,37.616356,-122.386166,37.616356",
    "geom:latitude": 37.616356,
    "geom:longitude": -122.386166,
    "instagram:post": {
      "caption": {
        "body": "Super preliminary imagining of an upcoming exhibit went so far as to hang a mock up of a blimp from the ceiling of our design lab. (And how about that franken-mannequin?)",
        "excerpt": "Super preliminary imagining of an upcoming exhibit went so far as to hang a mock up of a blimp from the ceiling of our design lab.",
        "hashtags": [],
        "users": []
      },
      "media_id": "599d397a2b8ee95313ef669060ddb58e",
      "path": "media/other/924782_713195862041035_496798214_n_17842373932062499.jpg",
      "perceptual_hash": "p:ac6a13e13fa4641f",
      "taken": 1383742440,
      "taken_at": "Nov 06, 2013 12:54 pm"
    },
    "millsfield:similar": {
      "google/siglip2-so400m-patch16-naflex": [
        {
          "distance": 0.24155735969543457,
          "id": 1729362515
        },
        {
          "distance": 0.25051772594451904,
          "id": 1729362571
        },
        {
          "distance": 0.25296854972839355,
          "id": 1729362757
        },
        {
          "distance": 0.25731855630874634,
          "id": 1729362571
        },
        {
          "distance": 0.2605708837509155,
          "id": 1729362515
        },
        {
          "distance": 0.2635766267776489,
          "id": 1729362757
        },
        {
          "distance": 0.26779162883758545,
          "id": 1729362743
        },
        {
          "distance": 0.2687883973121643,
          "id": 1729362291
        },
        {
          "distance": 0.27090346813201904,
          "id": 1729361743
        },
        {
          "distance": 0.27635133266448975,
          "id": 1729362719
        }
      ]
    },
    "sfomuseum:placetype": "instagram",
    "src:geom": "sfomuseum",
    "wof:belongsto": [
      1159160869,
      102527513,
      102191575,
      85633793,
      102087579,
      85922583,
      85688637
    ],
    "wof:country": "US",
    "wof:created": 1383742440,
    "wof:geomhash": "b6e33f47475d56bc8da457bc31afadc8",
    "wof:hierarchy": [
      {
        "building_id": 1159160869,
        "campus_id": 102527513,
        "continent_id": 102191575,
        "country_id": 85633793,
        "county_id": 102087579,
        "custom_id": 1729362477,
        "instagram_id": 1729362477,
        "locality_id": 85922583,
        "neighbourhood_id": -1,
        "region_id": 85688637
      }
    ],
    "wof:id": 1729362477,
    "wof:lastmodified": 1787777647,
    "wof:name": "Super preliminary imagining of an upcoming exhibit went so far as to hang a mock up of a blimp from the ceiling of our design lab...",
    "wof:parent_id": 1159160869,
    "wof:placetype": "custom",
    "wof:placetype_alt": [
      "instagram"
    ],
    "wof:repo": "sfomuseum-data-socialmedia-instagram",
    "wof:superseded_by": [],
    "wof:supersedes": []
  },
  "bbox": [
    -122.386166,
    37.616356,
    -122.386166,
    37.616356
  ],
  "geometry": {"type":"Point","coordinates":[-122.386166,37.616356]}
}
