{
  "id": 1729362079,
  "type": "Feature",
  "properties": {
    "date:cessation_lower": "2014-10-24",
    "date:cessation_upper": "2014-10-24",
    "date:inception_lower": "2014-10-24",
    "date:inception_upper": "2014-10-24",
    "edtf:cessation": "2014-10-24T06:05:00-07:00",
    "edtf:inception": "2014-10-24T06:05:00-07:00",
    "geom:area": 0,
    "geom:bbox": "-122.386166,37.616356,-122.386166,37.616356",
    "geom:latitude": 37.616356,
    "geom:longitude": -122.386166,
    "instagram:post": {
      "caption": {
        "body": "",
        "excerpt": "",
        "hashtags": [
          "NewExhibit",
          "StudioGlass"
        ],
        "users": []
      },
      "media_id": "f4248ff968ffa353cb7774d4cfadd409",
      "path": "media/other/10693572_289033551294541_2111071006_n_17841615034062499.jpg",
      "perceptual_hash": "p:de9e05e864c13a2f",
      "taken": 1414155900,
      "taken_at": "Oct 24, 2014 1:05 pm"
    },
    "millsfield:similar": {
      "google/siglip2-so400m-patch16-naflex": [
        {
          "distance": 0.16608911752700806,
          "id": 1729362419
        },
        {
          "distance": 0.21524184942245483,
          "id": 1729361983
        },
        {
          "distance": 0.23030441999435425,
          "id": 1729362419
        },
        {
          "distance": 0.23319321870803833,
          "id": 1729362063
        },
        {
          "distance": 0.23743027448654175,
          "id": 1729362631
        },
        {
          "distance": 0.2401665449142456,
          "id": 1729361983
        },
        {
          "distance": 0.24209439754486084,
          "id": 1729362631
        },
        {
          "distance": 0.24501240253448486,
          "id": 1729362615
        },
        {
          "distance": 0.24869948625564575,
          "id": 1729362815
        },
        {
          "distance": 0.2489495873451233,
          "id": 1763558835
        }
      ]
    },
    "sfomuseum:placetype": "instagram",
    "src:geom": "sfomuseum",
    "wof:belongsto": [
      1159160869,
      102527513,
      102191575,
      85633793,
      102087579,
      85922583,
      85688637
    ],
    "wof:country": "US",
    "wof:created": 1414155900,
    "wof:geomhash": "b6e33f47475d56bc8da457bc31afadc8",
    "wof:hierarchy": [
      {
        "building_id": 1159160869,
        "campus_id": 102527513,
        "continent_id": 102191575,
        "country_id": 85633793,
        "county_id": 102087579,
        "custom_id": 1729362079,
        "instagram_id": 1729362079,
        "locality_id": 85922583,
        "neighbourhood_id": -1,
        "region_id": 85688637
      }
    ],
    "wof:id": 1729362079,
    "wof:lastmodified": 1787777646,
    "wof:name": "..",
    "wof:parent_id": 1159160869,
    "wof:placetype": "custom",
    "wof:placetype_alt": [
      "instagram"
    ],
    "wof:repo": "sfomuseum-data-socialmedia-instagram",
    "wof:superseded_by": [],
    "wof:supersedes": []
  },
  "bbox": [
    -122.386166,
    37.616356,
    -122.386166,
    37.616356
  ],
  "geometry": {"type":"Point","coordinates":[-122.386166,37.616356]}
}
