{
  "id": 1729360905,
  "type": "Feature",
  "properties": {
    "date:cessation_lower": "2016-03-28",
    "date:cessation_upper": "2016-03-28",
    "date:inception_lower": "2016-03-28",
    "date:inception_upper": "2016-03-28",
    "edtf:cessation": "2016-03-28T02:17:00-07:00",
    "edtf:inception": "2016-03-28T02:17:00-07:00",
    "geom:area": 0,
    "geom:bbox": "-122.386166,37.616356,-122.386166,37.616356",
    "geom:latitude": 37.616356,
    "geom:longitude": -122.386166,
    "instagram:post": {
      "caption": {
        "body": "“Pond Farm is not a ‘school;’ it is actually a way of life, and I believe that the attraction of our session is not only that the students really learn their craft, but more than that, they also learn to concentrate and to find themselves.” Marguerite Wildenhain",
        "excerpt": "“Pond Farm is not a ‘school;’ it is actually a way of life, and I believe that the attraction of our session is not only that the students really learn their craft, but more than that, they also learn to concentrate and to find themselves.” Marguerite Wildenhain",
        "hashtags": [
          "WomensHistoryMonth",
          "PondFarm"
        ],
        "users": []
      },
      "media_id": "376a312963feccb1ab5549974cf8344e",
      "path": "media/other/12599183_351901081600464_770450621_n_17856060817051768.jpg",
      "perceptual_hash": "p:da9a1c4c578a4a7e",
      "taken": 1459156620,
      "taken_at": "Mar 28, 2016 9:17 am"
    },
    "millsfield:similar": {
      "google/siglip2-so400m-patch16-naflex": [
        {
          "distance": 0.1585019826889038,
          "id": 1729355809
        },
        {
          "distance": 0.18959861993789673,
          "id": 1729360963
        },
        {
          "distance": 0.20034509897232056,
          "id": 1729361235
        },
        {
          "distance": 0.20758652687072754,
          "id": 1729361235
        },
        {
          "distance": 0.2281970977783203,
          "id": 1947425059
        },
        {
          "distance": 0.24772894382476807,
          "id": 1729356673
        },
        {
          "distance": 0.2650374174118042,
          "id": 1947425059
        },
        {
          "distance": 0.270901620388031,
          "id": 1763558765
        },
        {
          "distance": 0.270901620388031,
          "id": 1729357579
        },
        {
          "distance": 0.2716273069381714,
          "id": 1880151623
        }
      ]
    },
    "sfomuseum:placetype": "instagram",
    "src:geom": "sfomuseum",
    "wof:belongsto": [
      1159160869,
      102527513,
      102191575,
      85633793,
      102087579,
      85922583,
      85688637
    ],
    "wof:country": "US",
    "wof:created": 1459156620,
    "wof:geomhash": "b6e33f47475d56bc8da457bc31afadc8",
    "wof:hierarchy": [
      {
        "building_id": 1159160869,
        "campus_id": 102527513,
        "continent_id": 102191575,
        "country_id": 85633793,
        "county_id": 102087579,
        "custom_id": 1729360905,
        "instagram_id": 1729360905,
        "locality_id": 85922583,
        "neighbourhood_id": -1,
        "region_id": 85688637
      }
    ],
    "wof:id": 1729360905,
    "wof:lastmodified": 1787777640,
    "wof:name": "“Pond Farm is not a ‘school;’ it is actually a way of life, and I believe that the attraction of our session is not only that the students really learn their craft, but more than that, they also learn to concentrate and to find themselves.” Marguerite Wildenhain..",
    "wof:parent_id": 1159160869,
    "wof:placetype": "custom",
    "wof:placetype_alt": [
      "instagram"
    ],
    "wof:repo": "sfomuseum-data-socialmedia-instagram",
    "wof:superseded_by": [],
    "wof:supersedes": []
  },
  "bbox": [
    -122.386166,
    37.616356,
    -122.386166,
    37.616356
  ],
  "geometry": {"type":"Point","coordinates":[-122.386166,37.616356]}
}
