{
  "id": 1729357917,
  "type": "Feature",
  "properties": {
    "date:cessation_lower": "2018-07-21",
    "date:cessation_upper": "2018-07-21",
    "date:inception_lower": "2018-07-21",
    "date:inception_upper": "2018-07-21",
    "edtf:cessation": "2018-07-20T17:51:00-07:00",
    "edtf:inception": "2018-07-20T17:51:00-07:00",
    "geom:area": 0,
    "geom:bbox": "-122.386166,37.616356,-122.386166,37.616356",
    "geom:latitude": 37.616356,
    "geom:longitude": -122.386166,
    "instagram:post": {
      "caption": {
        "body": "Cats have charmed people with their mysterious allure for thousands of years. As adept hunters, many domestic cats are self-sufficient creatures with characteristically nonchalant, independent personalities. Cats were venerated by the ancient Egyptians and celebrated as symbols of good luck throughout Asia. In Europe, cats became associated with magic, witchcraft, and evil spirits and were persecuted for centuries before they gained cultural acceptance. Today, there are an estimated 600 million domesticated cats worldwide, making them the most popular contemporary pets. This exhibition explores the history of the cat and its allure through art, literature, and decorative arts from around the world. \"Caticons: The Cat in Art\" is now on display, pre-security, in the International Terminal. http://bit.ly/Caticons",
        "excerpt": "Cats have charmed people with their mysterious allure for thousands of years.",
        "hashtags": [
          "caticon",
          "caticons",
          "cats",
          "cat",
          "catsofinstagram",
          "cats",
          "meow",
          "mewseum",
          "catstagram",
          "catsagram",
          "catscatscats",
          "catlover"
        ],
        "users": []
      },
      "media_id": "6382abea6ae9a0b4ddf1814bf8df5a62",
      "path": "media/other/36883155_249629122498691_1446199459468804096_n_17845584241304245.jpg",
      "perceptual_hash": "p:e9b5c30a4d31364f",
      "taken": 1532134260,
      "taken_at": "Jul 21, 2018 12:51 am"
    },
    "millsfield:similar": {
      "google/siglip2-so400m-patch16-naflex": [
        {
          "distance": 0.01167750358581543,
          "id": 1729357867
        },
        {
          "distance": 0.10954314470291138,
          "id": 1729357867
        },
        {
          "distance": 0.31790798902511597,
          "id": 1880151529
        },
        {
          "distance": 0.347964882850647,
          "id": 1729358603
        },
        {
          "distance": 0.3524503707885742,
          "id": 1729357583
        },
        {
          "distance": 0.3616918921470642,
          "id": 1729361027
        },
        {
          "distance": 0.36760830879211426,
          "id": 1729357359
        },
        {
          "distance": 0.3722960948944092,
          "id": 1763559427
        },
        {
          "distance": 0.3742240071296692,
          "id": 1729357967
        },
        {
          "distance": 0.3775838613510132,
          "id": 1729356593
        }
      ]
    },
    "sfomuseum:placetype": "instagram",
    "src:geom": "sfomuseum",
    "wof:belongsto": [
      1159160869,
      102527513,
      102191575,
      85633793,
      102087579,
      85922583,
      85688637
    ],
    "wof:country": "US",
    "wof:created": 1532134260,
    "wof:geomhash": "b6e33f47475d56bc8da457bc31afadc8",
    "wof:hierarchy": [
      {
        "building_id": 1159160869,
        "campus_id": 102527513,
        "continent_id": 102191575,
        "country_id": 85633793,
        "county_id": 102087579,
        "custom_id": 1729357917,
        "instagram_id": 1729357917,
        "locality_id": 85922583,
        "neighbourhood_id": -1,
        "region_id": 85688637
      }
    ],
    "wof:id": 1729357917,
    "wof:lastmodified": 1787777632,
    "wof:name": "Cats have charmed people with their mysterious allure for thousands of years...",
    "wof:parent_id": 1159160869,
    "wof:placetype": "custom",
    "wof:placetype_alt": [
      "instagram"
    ],
    "wof:repo": "sfomuseum-data-socialmedia-instagram",
    "wof:superseded_by": [],
    "wof:supersedes": []
  },
  "bbox": [
    -122.386166,
    37.616356,
    -122.386166,
    37.616356
  ],
  "geometry": {"type":"Point","coordinates":[-122.386166,37.616356]}
}
