{
  "id": 1729360675,
  "type": "Feature",
  "properties": {
    "date:cessation_lower": "2016-05-27",
    "date:cessation_upper": "2016-05-27",
    "date:inception_lower": "2016-05-27",
    "date:inception_upper": "2016-05-27",
    "edtf:cessation": "2016-05-27T09:04:00-07:00",
    "edtf:inception": "2016-05-27T09:04:00-07:00",
    "geom:area": 0,
    "geom:bbox": "-122.386166,37.616356,-122.386166,37.616356",
    "geom:latitude": 37.616356,
    "geom:longitude": -122.386166,
    "instagram:post": {
      "caption": {
        "body": "",
        "excerpt": "",
        "hashtags": [
          "FashionInFlight",
          "FashionFriday"
        ],
        "users": []
      },
      "media_id": "11ca3ee3f5bbe13c14d9d8fa012f4942",
      "path": "media/other/13285515_597503107082288_1998062956_n_17857204588022041.jpg",
      "perceptual_hash": "p:b5c9add269949a15",
      "taken": 1464365040,
      "taken_at": "May 27, 2016 4:04 pm"
    },
    "millsfield:similar": {
      "google/siglip2-so400m-patch16-naflex": [
        {
          "distance": 0.20613586902618408,
          "id": 1763559499
        },
        {
          "distance": 0.22505122423171997,
          "id": 1729359467
        },
        {
          "distance": 0.22938692569732666,
          "id": 1763559499
        },
        {
          "distance": 0.2301427125930786,
          "id": 1729359625
        },
        {
          "distance": 0.232610821723938,
          "id": 1729359971
        },
        {
          "distance": 0.23452037572860718,
          "id": 1729359467
        },
        {
          "distance": 0.2469576597213745,
          "id": 1729360135
        },
        {
          "distance": 0.2505462169647217,
          "id": 1729359957
        },
        {
          "distance": 0.2520405054092407,
          "id": 1729359957
        },
        {
          "distance": 0.25797826051712036,
          "id": 1729360547
        }
      ]
    },
    "sfomuseum:placetype": "instagram",
    "src:geom": "sfomuseum",
    "wof:belongsto": [
      1159160869,
      102527513,
      102191575,
      85633793,
      102087579,
      85922583,
      85688637
    ],
    "wof:country": "US",
    "wof:created": 1464365040,
    "wof:geomhash": "b6e33f47475d56bc8da457bc31afadc8",
    "wof:hierarchy": [
      {
        "building_id": 1159160869,
        "campus_id": 102527513,
        "continent_id": 102191575,
        "country_id": 85633793,
        "county_id": 102087579,
        "custom_id": 1729360675,
        "instagram_id": 1729360675,
        "locality_id": 85922583,
        "neighbourhood_id": -1,
        "region_id": 85688637
      }
    ],
    "wof:id": 1729360675,
    "wof:lastmodified": 1787777640,
    "wof:name": "..",
    "wof:parent_id": 1159160869,
    "wof:placetype": "custom",
    "wof:placetype_alt": [
      "instagram"
    ],
    "wof:repo": "sfomuseum-data-socialmedia-instagram",
    "wof:superseded_by": [],
    "wof:supersedes": []
  },
  "bbox": [
    -122.386166,
    37.616356,
    -122.386166,
    37.616356
  ],
  "geometry": {"type":"Point","coordinates":[-122.386166,37.616356]}
}
