{
  "id": 1729360507,
  "type": "Feature",
  "properties": {
    "date:cessation_lower": "2016-07-21",
    "date:cessation_upper": "2016-07-21",
    "date:inception_lower": "2016-07-21",
    "date:inception_upper": "2016-07-21",
    "edtf:cessation": "2016-07-21T06:09:00-07:00",
    "edtf:inception": "2016-07-21T06:09:00-07:00",
    "geom:area": 0,
    "geom:bbox": "-122.386166,37.616356,-122.386166,37.616356",
    "geom:latitude": 37.616356,
    "geom:longitude": -122.386166,
    "instagram:post": {
      "caption": {
        "body": "",
        "excerpt": "",
        "hashtags": [
          "ThrowbackThursday",
          "SFOHistory"
        ],
        "users": []
      },
      "media_id": "55dcdd274951886922ba14ebe013c719",
      "path": "media/other/13694376_1823081147920934_1526679443_n_17859262507013555.jpg",
      "perceptual_hash": "p:c289761b89b7cb54",
      "taken": 1469106540,
      "taken_at": "Jul 21, 2016 1:09 pm"
    },
    "millsfield:similar": {
      "google/siglip2-so400m-patch16-naflex": [
        {
          "distance": 0.2518931031227112,
          "id": 1729359947
        },
        {
          "distance": 0.2558467984199524,
          "id": 1729361577
        },
        {
          "distance": 0.28184765577316284,
          "id": 1729360457
        },
        {
          "distance": 0.2819627523422241,
          "id": 1729361017
        },
        {
          "distance": 0.2833282947540283,
          "id": 1729355115
        },
        {
          "distance": 0.2893054485321045,
          "id": 1729361577
        },
        {
          "distance": 0.28935134410858154,
          "id": 1880151727
        },
        {
          "distance": 0.289611279964447,
          "id": 1729361347
        },
        {
          "distance": 0.290865957736969,
          "id": 1729360429
        },
        {
          "distance": 0.2947317957878113,
          "id": 1729360411
        }
      ]
    },
    "sfomuseum:placetype": "instagram",
    "src:geom": "sfomuseum",
    "wof:belongsto": [
      1159160869,
      102527513,
      102191575,
      85633793,
      102087579,
      85922583,
      85688637
    ],
    "wof:country": "US",
    "wof:created": 1469106540,
    "wof:geomhash": "b6e33f47475d56bc8da457bc31afadc8",
    "wof:hierarchy": [
      {
        "building_id": 1159160869,
        "campus_id": 102527513,
        "continent_id": 102191575,
        "country_id": 85633793,
        "county_id": 102087579,
        "custom_id": 1729360507,
        "instagram_id": 1729360507,
        "locality_id": 85922583,
        "neighbourhood_id": -1,
        "region_id": 85688637
      }
    ],
    "wof:id": 1729360507,
    "wof:lastmodified": 1787777640,
    "wof:name": "..",
    "wof:parent_id": 1159160869,
    "wof:placetype": "custom",
    "wof:placetype_alt": [
      "instagram"
    ],
    "wof:repo": "sfomuseum-data-socialmedia-instagram",
    "wof:superseded_by": [],
    "wof:supersedes": []
  },
  "bbox": [
    -122.386166,
    37.616356,
    -122.386166,
    37.616356
  ],
  "geometry": {"type":"Point","coordinates":[-122.386166,37.616356]}
}
