{
  "id": 1729361991,
  "type": "Feature",
  "properties": {
    "date:cessation_lower": "2014-12-19",
    "date:cessation_upper": "2014-12-19",
    "date:inception_lower": "2014-12-19",
    "date:inception_upper": "2014-12-19",
    "edtf:cessation": "2014-12-19T06:38:00-08:00",
    "edtf:inception": "2014-12-19T06:38:00-08:00",
    "geom:area": 0,
    "geom:bbox": "-122.386166,37.616356,-122.386166,37.616356",
    "geom:latitude": 37.616356,
    "geom:longitude": -122.386166,
    "instagram:post": {
      "caption": {
        "body": "",
        "excerpt": "",
        "hashtags": [
          "aviation",
          "library"
        ],
        "users": []
      },
      "media_id": "fcbc710702696a07fec8b38d9a8f7142",
      "path": "media/other/10881875_769858546433952_177704187_n_17841501502062499.jpg",
      "perceptual_hash": "p:843e4b6a35c37ae1",
      "taken": 1418999880,
      "taken_at": "Dec 19, 2014 2:38 pm"
    },
    "millsfield:similar": {
      "google/siglip2-so400m-patch16-naflex": [
        {
          "distance": 0.14812487363815308,
          "id": 1729362371
        },
        {
          "distance": 0.15871769189834595,
          "id": 1729362799
        },
        {
          "distance": 0.19764989614486694,
          "id": 1729362799
        },
        {
          "distance": 0.21397656202316284,
          "id": 1729362895
        },
        {
          "distance": 0.2146015167236328,
          "id": 1729362371
        },
        {
          "distance": 0.22753024101257324,
          "id": 1729362895
        },
        {
          "distance": 0.24499666690826416,
          "id": 1729362761
        },
        {
          "distance": 0.25920265913009644,
          "id": 1729362761
        },
        {
          "distance": 0.2641471028327942,
          "id": 1729361253
        },
        {
          "distance": 0.2654886245727539,
          "id": 1729362581
        }
      ]
    },
    "sfomuseum:placetype": "instagram",
    "src:geom": "sfomuseum",
    "wof:belongsto": [
      1159160869,
      102527513,
      102191575,
      85633793,
      102087579,
      85922583,
      85688637
    ],
    "wof:country": "US",
    "wof:created": 1418999880,
    "wof:geomhash": "b6e33f47475d56bc8da457bc31afadc8",
    "wof:hierarchy": [
      {
        "building_id": 1159160869,
        "campus_id": 102527513,
        "continent_id": 102191575,
        "country_id": 85633793,
        "county_id": 102087579,
        "custom_id": 1729361991,
        "instagram_id": 1729361991,
        "locality_id": 85922583,
        "neighbourhood_id": -1,
        "region_id": 85688637
      }
    ],
    "wof:id": 1729361991,
    "wof:lastmodified": 1787777646,
    "wof:name": "..",
    "wof:parent_id": 1159160869,
    "wof:placetype": "custom",
    "wof:placetype_alt": [
      "instagram"
    ],
    "wof:repo": "sfomuseum-data-socialmedia-instagram",
    "wof:superseded_by": [],
    "wof:supersedes": []
  },
  "bbox": [
    -122.386166,
    37.616356,
    -122.386166,
    37.616356
  ],
  "geometry": {"type":"Point","coordinates":[-122.386166,37.616356]}
}
