{
  "id": 1729361145,
  "type": "Feature",
  "properties": {
    "date:cessation_lower": "2016-01-18",
    "date:cessation_upper": "2016-01-18",
    "date:inception_lower": "2016-01-18",
    "date:inception_upper": "2016-01-18",
    "edtf:cessation": "2016-01-18T09:18:00-08:00",
    "edtf:inception": "2016-01-18T09:18:00-08:00",
    "geom:area": 0,
    "geom:bbox": "-122.386166,37.616356,-122.386166,37.616356",
    "geom:latitude": 37.616356,
    "geom:longitude": -122.386166,
    "instagram:post": {
      "caption": {
        "body": "The Aviation Museum and Library is closed today to observe Martin Luther King, Jr. Day. All other exhibitions around the airport are still open! For more information on our exhibitions check out our website: http://www.flysfo.com/museum/exhibitions",
        "excerpt": "The Aviation Museum and Library is closed today to observe Martin Luther King, Jr. Day.",
        "hashtags": [],
        "users": []
      },
      "media_id": "becf3e29a7ab9b475b653c907552514f",
      "path": "media/other/12552305_153222465052630_401723844_n_17844048586121610.jpg",
      "perceptual_hash": "p:abb56624495d466b",
      "taken": 1453137480,
      "taken_at": "Jan 18, 2016 5:18 pm"
    },
    "millsfield:similar": {
      "google/siglip2-so400m-patch16-naflex": [
        {
          "distance": 0.18459928035736084,
          "id": 1729355249
        },
        {
          "distance": 0.18550384044647217,
          "id": 1729360095
        },
        {
          "distance": 0.19035035371780396,
          "id": 1763558835
        },
        {
          "distance": 0.19441193342208862,
          "id": 1947424999
        },
        {
          "distance": 0.20058906078338623,
          "id": 1880151187
        },
        {
          "distance": 0.20794278383255005,
          "id": 1947425087
        },
        {
          "distance": 0.21937155723571777,
          "id": 1947425291
        },
        {
          "distance": 0.22471463680267334,
          "id": 1729360667
        },
        {
          "distance": 0.23100078105926514,
          "id": 1729362369
        },
        {
          "distance": 0.234003484249115,
          "id": 1763559119
        }
      ]
    },
    "sfomuseum:placetype": "instagram",
    "src:geom": "sfomuseum",
    "wof:belongsto": [
      1159160869,
      102527513,
      102191575,
      85633793,
      102087579,
      85922583,
      85688637
    ],
    "wof:country": "US",
    "wof:created": 1453137480,
    "wof:geomhash": "b6e33f47475d56bc8da457bc31afadc8",
    "wof:hierarchy": [
      {
        "building_id": 1159160869,
        "campus_id": 102527513,
        "continent_id": 102191575,
        "country_id": 85633793,
        "county_id": 102087579,
        "custom_id": 1729361145,
        "instagram_id": 1729361145,
        "locality_id": 85922583,
        "neighbourhood_id": -1,
        "region_id": 85688637
      }
    ],
    "wof:id": 1729361145,
    "wof:lastmodified": 1787777645,
    "wof:name": "The Aviation Museum and Library is closed today to observe Martin Luther King, Jr. Day...",
    "wof:parent_id": 1159160869,
    "wof:placetype": "custom",
    "wof:placetype_alt": [
      "instagram"
    ],
    "wof:repo": "sfomuseum-data-socialmedia-instagram",
    "wof:superseded_by": [],
    "wof:supersedes": []
  },
  "bbox": [
    -122.386166,
    37.616356,
    -122.386166,
    37.616356
  ],
  "geometry": {"type":"Point","coordinates":[-122.386166,37.616356]}
}
