{
  "id": 1729357235,
  "type": "Feature",
  "properties": {
    "date:cessation_lower": "2018-12-15",
    "date:cessation_upper": "2018-12-15",
    "date:inception_lower": "2018-12-15",
    "date:inception_upper": "2018-12-15",
    "edtf:cessation": "2018-12-14T18:06:29-08:00",
    "edtf:inception": "2018-12-14T18:06:29-08:00",
    "geom:area": 0,
    "geom:bbox": "-122.386166,37.616356,-122.386166,37.616356",
    "geom:latitude": 37.616356,
    "geom:longitude": -122.386166,
    "instagram:post": {
      "caption": {
        "body": "\"Behind the world of the artisan is…that desire to take an inanimate material, and bring it to life in a form or image that will sing out; that desire to pay homage to my surroundings, to my creativity; that thanksgiving to that first bite into the apple of awareness.\" - Michael Lloyd (b. 1950)  Vase made in memory of John Andrew’s mother  2018 Michael Lloyd (b. 1950) Edinburgh Britannia silver, parcel-gilt The Pearson Silver Collection L2018.1801.018  Special thanks to The Pearson Silver Collection. \"A Sterling Renaissance: British Silver Design 1957 to 2018\" is on display, pre-security, in the International Terminal. http://bit.ly/BritishSilver",
        "excerpt": "\"Behind the world of the artisan is…that desire to take an inanimate material, and bring it to life in a form or image that will sing out; that desire to pay homage to my surroundings, to my creativity; that thanksgiving to that first bite into the apple of awareness.\"",
        "hashtags": [
          "BritishSilver",
          "silver",
          "sterling",
          "sterlingsilver",
          "silverdesign",
          "silver",
          "silversmith",
          "silversmithing",
          "MichaelLloyd",
          "Vase"
        ],
        "users": []
      },
      "location": "",
      "media_id": "894e55bb87a6dfe4d59e7c5cfcbeec48",
      "path": "photos/201812/894e55bb87a6dfe4d59e7c5cfcbeec48.jpg",
      "perceptual_hash": "p:c3375c9b8b74a289",
      "taken": 1544810760,
      "taken_at": "Dec 14, 2018, 6:06 PM"
    },
    "millsfield:similar": {
      "google/siglip2-so400m-patch16-naflex": [
        {
          "distance": 0.04790329933166504,
          "id": 1729357393
        },
        {
          "distance": 0.08367419242858887,
          "id": 1729357393
        },
        {
          "distance": 0.12472045421600342,
          "id": 1729357159
        },
        {
          "distance": 0.14308446645736694,
          "id": 1729357025
        },
        {
          "distance": 0.14652884006500244,
          "id": 1729356991
        },
        {
          "distance": 0.14773333072662354,
          "id": 1763558787
        },
        {
          "distance": 0.14773333072662354,
          "id": 1729357483
        },
        {
          "distance": 0.14942443370819092,
          "id": 1729357159
        },
        {
          "distance": 0.15806114673614502,
          "id": 1729357483
        },
        {
          "distance": 0.15806114673614502,
          "id": 1763558787
        }
      ]
    },
    "sfomuseum:placetype": "instagram",
    "src:geom": "sfomuseum",
    "wof:belongsto": [
      1159160869,
      102527513,
      102191575,
      85633793,
      102087579,
      85922583,
      85688637
    ],
    "wof:country": "US",
    "wof:created": 1544839589,
    "wof:geomhash": "b6e33f47475d56bc8da457bc31afadc8",
    "wof:hierarchy": [
      {
        "building_id": 1159160869,
        "campus_id": 102527513,
        "continent_id": 102191575,
        "country_id": 85633793,
        "county_id": 102087579,
        "custom_id": 1729357235,
        "instagram_id": 1729357235,
        "locality_id": 85922583,
        "neighbourhood_id": -1,
        "region_id": 85688637
      }
    ],
    "wof:id": 1729357235,
    "wof:lastmodified": 1787777630,
    "wof:name": "\"Behind the world of the artisan is…that desire to take an inanimate material, and bring it to life in a form or image that will sing out; that desire to pay homage to my surroundings, to my creativity; that thanksgiving to that first bite into the apple of awareness.\"..",
    "wof:parent_id": 1159160869,
    "wof:placetype": "custom",
    "wof:placetype_alt": [
      "instagram"
    ],
    "wof:repo": "sfomuseum-data-socialmedia-instagram",
    "wof:superseded_by": [],
    "wof:supersedes": []
  },
  "bbox": [
    -122.386166,
    37.616356,
    -122.386166,
    37.616356
  ],
  "geometry": {"type":"Point","coordinates":[-122.386166,37.616356]}
}
