{
  "id": 1729362575,
  "type": "Feature",
  "properties": {
    "date:cessation_lower": "2013-08-26",
    "date:cessation_upper": "2013-08-26",
    "date:inception_lower": "2013-08-26",
    "date:inception_upper": "2013-08-26",
    "edtf:cessation": "2013-08-26T06:03:00-07:00",
    "edtf:inception": "2013-08-26T06:03:00-07:00",
    "geom:area": 0,
    "geom:bbox": "-122.386166,37.616356,-122.386166,37.616356",
    "geom:latitude": 37.616356,
    "geom:longitude": -122.386166,
    "instagram:post": {
      "caption": {
        "body": "",
        "excerpt": "",
        "hashtags": [
          "plastics"
        ],
        "users": []
      },
      "media_id": "1001b6fe6dbc5d56c95c571c278e82ea",
      "path": "media/other/11355986_453084798192128_128069647_n_17842142413062499.jpg",
      "perceptual_hash": "p:948e75607e998d5a",
      "taken": 1377522180,
      "taken_at": "Aug 26, 2013 1:03 pm"
    },
    "millsfield:similar": {
      "google/siglip2-so400m-patch16-naflex": [
        {
          "distance": 0.28848564624786377,
          "id": 1729356951
        },
        {
          "distance": 0.30581825971603394,
          "id": 1729362379
        },
        {
          "distance": 0.3223189115524292,
          "id": 1729362387
        },
        {
          "distance": 0.322676420211792,
          "id": 1729361765
        },
        {
          "distance": 0.33115172386169434,
          "id": 1729356641
        },
        {
          "distance": 0.3315045237541199,
          "id": 1729361523
        },
        {
          "distance": 0.3364415168762207,
          "id": 1729356799
        },
        {
          "distance": 0.3420582413673401,
          "id": 1729356645
        },
        {
          "distance": 0.3421369791030884,
          "id": 1729362269
        },
        {
          "distance": 0.34476935863494873,
          "id": 1729361987
        }
      ]
    },
    "sfomuseum:placetype": "instagram",
    "src:geom": "sfomuseum",
    "wof:belongsto": [
      1159160869,
      102527513,
      102191575,
      85633793,
      102087579,
      85922583,
      85688637
    ],
    "wof:country": "US",
    "wof:created": 1377522180,
    "wof:geomhash": "b6e33f47475d56bc8da457bc31afadc8",
    "wof:hierarchy": [
      {
        "building_id": 1159160869,
        "campus_id": 102527513,
        "continent_id": 102191575,
        "country_id": 85633793,
        "county_id": 102087579,
        "custom_id": 1729362575,
        "instagram_id": 1729362575,
        "locality_id": 85922583,
        "neighbourhood_id": -1,
        "region_id": 85688637
      }
    ],
    "wof:id": 1729362575,
    "wof:lastmodified": 1787777647,
    "wof:name": "..",
    "wof:parent_id": 1159160869,
    "wof:placetype": "custom",
    "wof:placetype_alt": [
      "instagram"
    ],
    "wof:repo": "sfomuseum-data-socialmedia-instagram",
    "wof:superseded_by": [],
    "wof:supersedes": []
  },
  "bbox": [
    -122.386166,
    37.616356,
    -122.386166,
    37.616356
  ],
  "geometry": {"type":"Point","coordinates":[-122.386166,37.616356]}
}
