{
  "id": 1729355019,
  "type": "Feature",
  "properties": {
    "date:cessation_lower": "2020-10-02",
    "date:cessation_upper": "2020-10-02",
    "date:inception_lower": "2020-10-02",
    "date:inception_upper": "2020-10-02",
    "edtf:cessation": "2020-10-01T19:31:19-07:00",
    "edtf:inception": "2020-10-01T19:31:19-07:00",
    "geom:area": 0,
    "geom:bbox": "-122.386166,37.616356,-122.386166,37.616356",
    "geom:latitude": 37.616356,
    "geom:longitude": -122.386166,
    "instagram:post": {
      "caption": {
        "body": "In honor of our 40th anniversary, every week this year we are highlighting one of our past exhibitions. In 1993, we presented “Living In Balance” which featured objects of art created from recycled or reused materials. They demonstrate that many objects salvaged from the waste stream can be given new roles to extend their useful lives. Do you remember this exhibition?",
        "excerpt": "In honor of our 40th anniversary, every week this year we are highlighting one of our past exhibitions.",
        "hashtags": [
          "SFOMat40",
          "TBTSFOM",
          "MuseumFromHome"
        ],
        "users": []
      },
      "location": "",
      "media_id": "bcda889377f8943ebc9faf302016c143",
      "path": "photos/202010/bcda889377f8943ebc9faf302016c143.jpg",
      "perceptual_hash": "p:bfc06536c7d2a81c",
      "taken": 1601577060,
      "taken_at": "Oct 1, 2020, 6:31 PM"
    },
    "millsfield:similar": {
      "google/siglip2-so400m-patch16-naflex": [
        {
          "distance": 0.16331827640533447,
          "id": 1729355029
        },
        {
          "distance": 0.18839889764785767,
          "id": 1947425087
        },
        {
          "distance": 0.19789224863052368,
          "id": 1729355029
        },
        {
          "distance": 0.19818520545959473,
          "id": 1763559119
        },
        {
          "distance": 0.20500165224075317,
          "id": 1729360823
        },
        {
          "distance": 0.2186073660850525,
          "id": 1763559119
        },
        {
          "distance": 0.22044938802719116,
          "id": 1947424919
        },
        {
          "distance": 0.2242986559867859,
          "id": 1880151305
        },
        {
          "distance": 0.22597205638885498,
          "id": 1947425291
        },
        {
          "distance": 0.22599029541015625,
          "id": 1947425167
        }
      ]
    },
    "sfomuseum:placetype": "instagram",
    "src:geom": "sfomuseum",
    "wof:belongsto": [
      1159160869,
      102527513,
      102191575,
      85633793,
      102087579,
      85922583,
      85688637
    ],
    "wof:country": "US",
    "wof:created": 1601605879,
    "wof:geomhash": "b6e33f47475d56bc8da457bc31afadc8",
    "wof:hierarchy": [
      {
        "building_id": 1159160869,
        "campus_id": 102527513,
        "continent_id": 102191575,
        "country_id": 85633793,
        "county_id": 102087579,
        "custom_id": 1729355019,
        "instagram_id": 1729355019,
        "locality_id": 85922583,
        "neighbourhood_id": -1,
        "region_id": 85688637
      }
    ],
    "wof:id": 1729355019,
    "wof:lastmodified": 1787777614,
    "wof:name": "In honor of our 40th anniversary, every week this year we are highlighting one of our past exhibitions...",
    "wof:parent_id": 1159160869,
    "wof:placetype": "custom",
    "wof:placetype_alt": [
      "instagram"
    ],
    "wof:repo": "sfomuseum-data-socialmedia-instagram",
    "wof:superseded_by": [],
    "wof:supersedes": []
  },
  "bbox": [
    -122.386166,
    37.616356,
    -122.386166,
    37.616356
  ],
  "geometry": {"type":"Point","coordinates":[-122.386166,37.616356]}
}
