{
  "id": 1729361125,
  "type": "Feature",
  "properties": {
    "date:cessation_lower": "2016-01-25",
    "date:cessation_upper": "2016-01-25",
    "date:inception_lower": "2016-01-25",
    "date:inception_upper": "2016-01-25",
    "edtf:cessation": "2016-01-25T11:21:00-08:00",
    "edtf:inception": "2016-01-25T11:21:00-08:00",
    "geom:area": 0,
    "geom:bbox": "-122.386166,37.616356,-122.386166,37.616356",
    "geom:latitude": 37.616356,
    "geom:longitude": -122.386166,
    "instagram:post": {
      "caption": {
        "body": "",
        "excerpt": "",
        "hashtags": [
          "OnThisDay"
        ],
        "users": []
      },
      "media_id": "bac080390a3239a205c5666c1a46d907",
      "path": "media/other/12543319_140511216329206_1169499035_n_17844762928073555.jpg",
      "perceptual_hash": "p:eb67bcb8e14c9490",
      "taken": 1453749660,
      "taken_at": "Jan 25, 2016 7:21 pm"
    },
    "millsfield:similar": {
      "google/siglip2-so400m-patch16-naflex": [
        {
          "distance": 0.23181885480880737,
          "id": 1729361121
        },
        {
          "distance": 0.2541179656982422,
          "id": 1763559483
        },
        {
          "distance": 0.25447702407836914,
          "id": 1763559557
        },
        {
          "distance": 0.25928282737731934,
          "id": 1729361309
        },
        {
          "distance": 0.2721472978591919,
          "id": 1729361121
        },
        {
          "distance": 0.27372074127197266,
          "id": 1729360237
        },
        {
          "distance": 0.2766832113265991,
          "id": 1880151505
        },
        {
          "distance": 0.28860753774642944,
          "id": 1729361533
        },
        {
          "distance": 0.290444016456604,
          "id": 1880151163
        },
        {
          "distance": 0.2936164140701294,
          "id": 1729360475
        }
      ]
    },
    "sfomuseum:placetype": "instagram",
    "src:geom": "sfomuseum",
    "wof:belongsto": [
      1159160869,
      102527513,
      102191575,
      85633793,
      102087579,
      85922583,
      85688637
    ],
    "wof:country": "US",
    "wof:created": 1453749660,
    "wof:geomhash": "b6e33f47475d56bc8da457bc31afadc8",
    "wof:hierarchy": [
      {
        "building_id": 1159160869,
        "campus_id": 102527513,
        "continent_id": 102191575,
        "country_id": 85633793,
        "county_id": 102087579,
        "custom_id": 1729361125,
        "instagram_id": 1729361125,
        "locality_id": 85922583,
        "neighbourhood_id": -1,
        "region_id": 85688637
      }
    ],
    "wof:id": 1729361125,
    "wof:lastmodified": 1787777644,
    "wof:name": "..",
    "wof:parent_id": 1159160869,
    "wof:placetype": "custom",
    "wof:placetype_alt": [
      "instagram"
    ],
    "wof:repo": "sfomuseum-data-socialmedia-instagram",
    "wof:superseded_by": [],
    "wof:supersedes": []
  },
  "bbox": [
    -122.386166,
    37.616356,
    -122.386166,
    37.616356
  ],
  "geometry": {"type":"Point","coordinates":[-122.386166,37.616356]}
}
