{
  "id": 1763559583,
  "type": "Feature",
  "properties": {
    "date:cessation_lower": "2022-02-28",
    "date:cessation_upper": "2022-02-28",
    "date:inception_lower": "2022-02-28",
    "date:inception_upper": "2022-02-28",
    "edtf:cessation": "2022-02-28T03:11:00-08:00",
    "edtf:inception": "2022-02-28T03:11:00-08:00",
    "geom:area": 0,
    "geom:bbox": "-122.386166,37.616356,-122.386166,37.616356",
    "geom:latitude": 37.616356,
    "geom:longitude": -122.386166,
    "instagram:post": {
      "caption": {
        "body": "In his series “Rail Diwali”, Arko Datto explores how Diwali, a fall festival of the spiritual victory of light over darkness, is celebrated in some of the most underprivileged and heavily populated areas of Kolkata in East India. The Kolkata Suburban Railway is the largest of its kind in India by track length and number of stations. In Kolkata today, nearly a third of the population lives in areas of informal housing, many of which are located on the borders of the suburban railway tracks.   Long interested in these semi-permanent dwellings and their complicated relationship to the railways, Datto makes images that approach histories of colonialism, migration, and poverty through a filter of colorful lights and the celebratory atmosphere of Diwali. Drenched in the saturated colors of the festival, the artist draws focus on a distinct sense of community, belonging, and strength despite the adversities facing many of the celebrants.   See “Rail Diwali” by Arko Datto (@arkodatto) on display post-security in Terminal 3 and online at: https://bit.ly/3jPQ9wl",
        "excerpt": "In his series “Rail Diwali”, Arko Datto explores how Diwali, a fall festival of the spiritual victory of light over darkness, is celebrated in some of the most underprivileged and heavily populated areas of Kolkata in East India.",
        "hashtags": [
          "ArkoDatto",
          "Kolkata",
          "Diwali",
          "Photography",
          "festival",
          "celebration",
          "India"
        ],
        "users": []
      },
      "media_id": "b0d4750df65bd7b0374dbb7f1a266e723c7dc30e",
      "path": "media/posts/202202/274852190_449685150233772_8940173859598306738_n_17961811021527157.jpg",
      "perceptual_hash": "p:fad08587813ed46b",
      "taken": 1646046660,
      "taken_at": "Feb 28, 2022 11:11 am"
    },
    "millsfield:similar": {
      "google/siglip2-so400m-patch16-naflex": [
        {
          "distance": 0.20958846807479858,
          "id": 1763559281
        },
        {
          "distance": 0.22354543209075928,
          "id": 1763559569
        },
        {
          "distance": 0.22359323501586914,
          "id": 1763559473
        },
        {
          "distance": 0.22554105520248413,
          "id": 1763559521
        },
        {
          "distance": 0.22718840837478638,
          "id": 1763559323
        },
        {
          "distance": 0.22888290882110596,
          "id": 1729355435
        },
        {
          "distance": 0.22950756549835205,
          "id": 1880151657
        },
        {
          "distance": 0.23125362396240234,
          "id": 1729355785
        },
        {
          "distance": 0.23187404870986938,
          "id": 1763559379
        },
        {
          "distance": 0.23214876651763916,
          "id": 1763559339
        }
      ]
    },
    "sfomuseum:placetype": "instagram",
    "src:geom": "sfomuseum",
    "wof:belongsto": [
      1159160869,
      102527513,
      102191575,
      85633793,
      102087579,
      85922583,
      85688637
    ],
    "wof:country": "US",
    "wof:created": 1646046660,
    "wof:geomhash": "b6e33f47475d56bc8da457bc31afadc8",
    "wof:hierarchy": [
      {
        "building_id": 1159160869,
        "campus_id": 102527513,
        "continent_id": 102191575,
        "country_id": 85633793,
        "county_id": 102087579,
        "custom_id": 1763559583,
        "instagram_id": 1763559583,
        "locality_id": 85922583,
        "neighbourhood_id": -1,
        "region_id": 85688637
      }
    ],
    "wof:id": 1763559583,
    "wof:lastmodified": 1787777660,
    "wof:name": "In his series “Rail Diwali”, Arko Datto explores how Diwali, a fall festival of the spiritual victory of light over darkness, is celebrated in some of the most underprivileged and heavily populated areas of Kolkata in East India...",
    "wof:parent_id": 1159160869,
    "wof:placetype": "custom",
    "wof:placetype_alt": [
      "instagram"
    ],
    "wof:repo": "sfomuseum-data-socialmedia-instagram",
    "wof:superseded_by": [],
    "wof:supersedes": []
  },
  "bbox": [
    -122.386166,
    37.616356,
    -122.386166,
    37.616356
  ],
  "geometry": {"type":"Point","coordinates":[-122.386166,37.616356]}
}
