{
  "id": 1729359925,
  "type": "Feature",
  "properties": {
    "date:cessation_lower": "2017-01-13",
    "date:cessation_upper": "2017-01-13",
    "date:inception_lower": "2017-01-13",
    "date:inception_upper": "2017-01-13",
    "edtf:cessation": "2017-01-13T10:38:03-08:00",
    "edtf:inception": "2017-01-13T10:38:03-08:00",
    "geom:area": 0,
    "geom:bbox": "-122.386166,37.616356,-122.386166,37.616356",
    "geom:latitude": 37.616356,
    "geom:longitude": -122.386166,
    "instagram:post": {
      "caption": {
        "body": "",
        "excerpt": "",
        "hashtags": [
          "Braniff",
          "onthisday",
          "Concordes",
          "avgeek",
          "aviationhistory",
          "BA"
        ],
        "users": []
      },
      "location": "SFO Museum",
      "media_id": "55137b89f2f0f34b5f59e67903058874",
      "path": "photos/201701/55137b89f2f0f34b5f59e67903058874.jpg",
      "perceptual_hash": "p:bb5f5524c4e0ec38",
      "taken": 1484303880,
      "taken_at": "Jan 13, 2017, 10:38 AM"
    },
    "millsfield:similar": {
      "google/siglip2-so400m-patch16-naflex": [
        {
          "distance": 0.008568882942199707,
          "id": 1763558655
        },
        {
          "distance": 0.10999387502670288,
          "id": 1763558655
        },
        {
          "distance": 0.24704188108444214,
          "id": 1729355349
        },
        {
          "distance": 0.26317042112350464,
          "id": 1729355349
        },
        {
          "distance": 0.2712961435317993,
          "id": 1763559029
        },
        {
          "distance": 0.29152965545654297,
          "id": 1729355687
        },
        {
          "distance": 0.2973736524581909,
          "id": 1729360549
        },
        {
          "distance": 0.3022531270980835,
          "id": 1729355927
        },
        {
          "distance": 0.30235254764556885,
          "id": 1729355185
        },
        {
          "distance": 0.30423998832702637,
          "id": 1729360209
        }
      ]
    },
    "sfomuseum:placetype": "instagram",
    "src:geom": "sfomuseum",
    "wof:belongsto": [
      1159160869,
      102527513,
      102191575,
      85633793,
      102087579,
      85922583,
      85688637
    ],
    "wof:country": "US",
    "wof:created": 1484332683,
    "wof:geomhash": "b6e33f47475d56bc8da457bc31afadc8",
    "wof:hierarchy": [
      {
        "building_id": 1159160869,
        "campus_id": 102527513,
        "continent_id": 102191575,
        "country_id": 85633793,
        "county_id": 102087579,
        "custom_id": 1729359925,
        "instagram_id": 1729359925,
        "locality_id": 85922583,
        "neighbourhood_id": -1,
        "region_id": 85688637
      }
    ],
    "wof:id": 1729359925,
    "wof:lastmodified": 1787777637,
    "wof:name": "..",
    "wof:parent_id": 1159160869,
    "wof:placetype": "custom",
    "wof:placetype_alt": [
      "instagram"
    ],
    "wof:repo": "sfomuseum-data-socialmedia-instagram",
    "wof:superseded_by": [],
    "wof:supersedes": []
  },
  "bbox": [
    -122.386166,
    37.616356,
    -122.386166,
    37.616356
  ],
  "geometry": {"type":"Point","coordinates":[-122.386166,37.616356]}
}
