{
  "id": 1729355187,
  "type": "Feature",
  "properties": {
    "date:cessation_lower": "2020-07-15",
    "date:cessation_upper": "2020-07-15",
    "date:inception_lower": "2020-07-15",
    "date:inception_upper": "2020-07-15",
    "edtf:cessation": "2020-07-15T03:12:00-07:00",
    "edtf:inception": "2020-07-15T03:12:00-07:00",
    "geom:area": 0,
    "geom:bbox": "-122.386166,37.616356,-122.386166,37.616356",
    "geom:latitude": 37.616356,
    "geom:longitude": -122.386166,
    "instagram:post": {
      "caption": {
        "body": "In “Hyper-Natural Bay Area”, artist Robert Minervini considers what defining characteristics make a city distinctive and offers a window onto his version of San Francisco. The City’s familiar skyline includes the iconic Golden Gate Bridge and Transamerica Pyramid. However, they appear alongside newer towers and constructions of an imagined future. Native and exotic plant life, along with vessels and other forms represent the many cultures and people that shape the Bay Area as a unique place.  📸: Ethan Kaplan photography",
        "excerpt": "In “Hyper-Natural Bay Area”, artist Robert Minervini considers what defining characteristics make a city distinctive and offers a window onto his version of San Francisco.",
        "hashtags": [
          "SFAC",
          "publicart",
          "RobertMinervini",
          "SanFrancisco"
        ],
        "users": []
      },
      "media_id": "e6cc8e7d237f0aa2e0dee6a673bef375",
      "path": "media/posts/202007/107845318_601033264107092_4458455630042305503_n_17904928582486983.jpg",
      "perceptual_hash": "p:e2ac157bc21999f8",
      "taken": 1594807920,
      "taken_at": "Jul 15, 2020 10:12 am"
    },
    "millsfield:similar": {
      "google/siglip2-so400m-patch16-naflex": [
        {
          "distance": 0.22637122869491577,
          "id": 1729355195
        },
        {
          "distance": 0.23884999752044678,
          "id": 1729355191
        },
        {
          "distance": 0.24159520864486694,
          "id": 1880150973
        },
        {
          "distance": 0.2741362452507019,
          "id": 1880150973
        },
        {
          "distance": 0.27672791481018066,
          "id": 1729355191
        },
        {
          "distance": 0.29923534393310547,
          "id": 1947425317
        },
        {
          "distance": 0.3275038003921509,
          "id": 1729359177
        },
        {
          "distance": 0.3397611379623413,
          "id": 1729355155
        },
        {
          "distance": 0.34086233377456665,
          "id": 1880150959
        },
        {
          "distance": 0.34261804819107056,
          "id": 1729355597
        }
      ]
    },
    "sfomuseum:placetype": "instagram",
    "src:geom": "sfomuseum",
    "wof:belongsto": [
      1159160869,
      102527513,
      102191575,
      85633793,
      102087579,
      85922583,
      85688637
    ],
    "wof:country": "US",
    "wof:created": 1594807920,
    "wof:geomhash": "b6e33f47475d56bc8da457bc31afadc8",
    "wof:hierarchy": [
      {
        "building_id": 1159160869,
        "campus_id": 102527513,
        "continent_id": 102191575,
        "country_id": 85633793,
        "county_id": 102087579,
        "custom_id": 1729355187,
        "instagram_id": 1729355187,
        "locality_id": 85922583,
        "neighbourhood_id": -1,
        "region_id": 85688637
      }
    ],
    "wof:id": 1729355187,
    "wof:lastmodified": 1787777619,
    "wof:name": "In “Hyper-Natural Bay Area”, artist Robert Minervini considers what defining characteristics make a city distinctive and offers a window onto his version of San Francisco...",
    "wof:parent_id": 1159160869,
    "wof:placetype": "custom",
    "wof:placetype_alt": [
      "instagram"
    ],
    "wof:repo": "sfomuseum-data-socialmedia-instagram",
    "wof:superseded_by": [],
    "wof:supersedes": []
  },
  "bbox": [
    -122.386166,
    37.616356,
    -122.386166,
    37.616356
  ],
  "geometry": {"type":"Point","coordinates":[-122.386166,37.616356]}
}
