{
  "id": 1763559559,
  "type": "Feature",
  "properties": {
    "date:cessation_lower": "2022-03-11",
    "date:cessation_upper": "2022-03-11",
    "date:inception_lower": "2022-03-11",
    "date:inception_upper": "2022-03-11",
    "edtf:cessation": "2022-03-11T09:07:00-08:00",
    "edtf:inception": "2022-03-11T09:07:00-08:00",
    "geom:area": 0,
    "geom:bbox": "-122.386166,37.616356,-122.386166,37.616356",
    "geom:latitude": 37.616356,
    "geom:longitude": -122.386166,
    "instagram:post": {
      "caption": {
        "body": "The Shona comprise the largest Indigenous group in Zimbabwe. Shona sculptors often draw inspiration from dreams in which ancestral spirits speak to them. Carvers then “release the spirit in the stone.” Spirits revealed in the sculpture may also guide the carving process. In addition to ancestral spirits, spirits exist in the form of all matter—from stone to water and trees. Other common themes in stone sculpture include the family, mother and child, animals, and abstract or whimsical forms.   See our newest exhibition \"Stone Sculpture of Zimbabwe\" on display pre-security in the International Terminal and online at: https://bit.ly/ZimbabweSculpture",
        "excerpt": "The Shona comprise the largest Indigenous group in Zimbabwe.",
        "hashtags": [
          "ZimbabweSculpture",
          "Zimbabwe",
          "Sculpture",
          "Harare"
        ],
        "users": []
      },
      "media_id": "375e56ee23aa6b6a8d28de5e82be8528ccb4773c",
      "path": "media/posts/202203/275638866_127431896524191_7110562324872591527_n_17962106161605502.jpg",
      "perceptual_hash": "p:a4f9da3e0d42646d",
      "taken": 1647018420,
      "taken_at": "Mar 11, 2022 5:07 pm"
    },
    "millsfield:similar": {
      "google/siglip2-so400m-patch16-naflex": [
        {
          "distance": 0.1095578670501709,
          "id": 1880151467
        },
        {
          "distance": 0.11363160610198975,
          "id": 1880151467
        },
        {
          "distance": 0.2132117748260498,
          "id": 1880151407
        },
        {
          "distance": 0.24106448888778687,
          "id": 1763559597
        },
        {
          "distance": 0.2638983726501465,
          "id": 1763559407
        },
        {
          "distance": 0.2641823887825012,
          "id": 1947424811
        },
        {
          "distance": 0.26883506774902344,
          "id": 1763559597
        },
        {
          "distance": 0.27023404836654663,
          "id": 1763558931
        },
        {
          "distance": 0.2740374803543091,
          "id": 1947424957
        },
        {
          "distance": 0.27446699142456055,
          "id": 1947424829
        }
      ]
    },
    "sfomuseum:placetype": "instagram",
    "src:geom": "sfomuseum",
    "wof:belongsto": [
      1159160869,
      102527513,
      102191575,
      85633793,
      102087579,
      85922583,
      85688637
    ],
    "wof:country": "US",
    "wof:created": 1647018420,
    "wof:geomhash": "b6e33f47475d56bc8da457bc31afadc8",
    "wof:hierarchy": [
      {
        "building_id": 1159160869,
        "campus_id": 102527513,
        "continent_id": 102191575,
        "country_id": 85633793,
        "county_id": 102087579,
        "custom_id": 1763559559,
        "instagram_id": 1763559559,
        "locality_id": 85922583,
        "neighbourhood_id": -1,
        "region_id": 85688637
      }
    ],
    "wof:id": 1763559559,
    "wof:lastmodified": 1787777660,
    "wof:name": "The Shona comprise the largest Indigenous group in Zimbabwe...",
    "wof:parent_id": 1159160869,
    "wof:placetype": "custom",
    "wof:placetype_alt": [
      "instagram"
    ],
    "wof:repo": "sfomuseum-data-socialmedia-instagram",
    "wof:superseded_by": [],
    "wof:supersedes": []
  },
  "bbox": [
    -122.386166,
    37.616356,
    -122.386166,
    37.616356
  ],
  "geometry": {"type":"Point","coordinates":[-122.386166,37.616356]}
}
