{
  "id": 1729359319,
  "type": "Feature",
  "properties": {
    "date:cessation_lower": "2017-07-14",
    "date:cessation_upper": "2017-07-14",
    "date:inception_lower": "2017-07-14",
    "date:inception_upper": "2017-07-14",
    "edtf:cessation": "2017-07-14T02:25:00-07:00",
    "edtf:inception": "2017-07-14T02:25:00-07:00",
    "geom:area": 0,
    "geom:bbox": "-122.386166,37.616356,-122.386166,37.616356",
    "geom:latitude": 37.616356,
    "geom:longitude": -122.386166,
    "instagram:post": {
      "caption": {
        "body": "Happy Bastille Day! Bastille Day, the national day of France, commemorates the Storming of the Bastille in 1789, the flashpoint of the French Revolution. Have you ever traveled to France?  Image: Air France, Paris poster, 1947 (reproduced 1993). Gift of Air France. 2005.119.006",
        "excerpt": "Happy Bastille Day!",
        "hashtags": [
          "France",
          "french",
          "airfrance",
          "bastilleday",
          "frenchrevolution",
          "avgeek",
          "aviationhistory",
          "vintage",
          "vintagead",
          "vintageadvertisement",
          "frenchhistory",
          "bastille"
        ],
        "users": []
      },
      "media_id": "3b99cc985c4c92f8b0bff596c6f17976",
      "path": "media/posts/201707/20066191_152611051965515_5365974252329631744_n_17863661326186614.jpg",
      "perceptual_hash": "p:b894c73a3cc5933c",
      "taken": 1500024300,
      "taken_at": "Jul 14, 2017 9:25 am"
    },
    "millsfield:similar": {
      "google/siglip2-so400m-patch16-naflex": [
        {
          "distance": 0.0009710192680358887,
          "id": 1729357961
        },
        {
          "distance": 0.002543210983276367,
          "id": 1729360867
        },
        {
          "distance": 0.0061969757080078125,
          "id": 1729355197
        },
        {
          "distance": 0.1146475076675415,
          "id": 1729360867
        },
        {
          "distance": 0.1209455132484436,
          "id": 1729357961
        },
        {
          "distance": 0.12721431255340576,
          "id": 1729355197
        },
        {
          "distance": 0.1457662582397461,
          "id": 1729359015
        },
        {
          "distance": 0.18433243036270142,
          "id": 1729359015
        },
        {
          "distance": 0.1902884840965271,
          "id": 1947425097
        },
        {
          "distance": 0.2137390375137329,
          "id": 1729359715
        }
      ]
    },
    "sfomuseum:placetype": "instagram",
    "src:geom": "sfomuseum",
    "wof:belongsto": [
      1159160869,
      102527513,
      102191575,
      85633793,
      102087579,
      85922583,
      85688637
    ],
    "wof:country": "US",
    "wof:created": 1500024300,
    "wof:geomhash": "b6e33f47475d56bc8da457bc31afadc8",
    "wof:hierarchy": [
      {
        "building_id": 1159160869,
        "campus_id": 102527513,
        "continent_id": 102191575,
        "country_id": 85633793,
        "county_id": 102087579,
        "custom_id": 1729359319,
        "instagram_id": 1729359319,
        "locality_id": 85922583,
        "neighbourhood_id": -1,
        "region_id": 85688637
      }
    ],
    "wof:id": 1729359319,
    "wof:lastmodified": 1787777635,
    "wof:name": "Happy Bastille Day!..",
    "wof:parent_id": 1159160869,
    "wof:placetype": "custom",
    "wof:placetype_alt": [
      "instagram"
    ],
    "wof:repo": "sfomuseum-data-socialmedia-instagram",
    "wof:superseded_by": [],
    "wof:supersedes": []
  },
  "bbox": [
    -122.386166,
    37.616356,
    -122.386166,
    37.616356
  ],
  "geometry": {"type":"Point","coordinates":[-122.386166,37.616356]}
}
