{
  "id": 1880151053,
  "type": "Feature",
  "properties": {
    "date:cessation_lower": "2023-03-15",
    "date:cessation_upper": "2023-03-15",
    "date:inception_lower": "2023-03-15",
    "date:inception_upper": "2023-03-15",
    "edtf:cessation": "2023-03-15T08:57:00-07:00",
    "edtf:inception": "2023-03-15T08:57:00-07:00",
    "geom:area": 0,
    "geom:bbox": "-122.386166,37.616356,-122.386166,37.616356",
    "geom:latitude": 37.616356,
    "geom:longitude": -122.386166,
    "instagram:post": {
      "caption": {
        "body": "Linda Geary is an abstract painter whose work is inspired by material processes of cutting, revision and repair; a collage approach that references actions of sewing and construction, akin to making a quilt. “River” refers to the synthesis of multiple sightlines and different ways of looking and provides an energetic backdrop for travelers as they begin their journey. The composition references architectural facades, steps, and a body of water. The color palette is reminiscent of the psychedelic histories and traditions of San Francisco in the 1960s, while the sunrise pinks, midday blues, and greens reflect the color of a setting sun over an imaginary body of water. Higher contrast yellows and oranges move upward like the reflection of a rising sun.  See “River” by Linda Geary, on display, post-security, on the departures level of the International Terminal. http://bit.ly/3mlS4gi",
        "excerpt": "Linda Geary is an abstract painter whose work is inspired by material processes of cutting, revision and repair; a collage approach that references actions of sewing and construction, akin to making a quilt.",
        "hashtags": [
          "WomensHistoryMonth"
        ],
        "users": [
          "sf_arts_commission",
          "lindageary"
        ]
      },
      "media_id": "0d8cbcc37cf2bdd23943fe30f226f638c4303cae",
      "path": "media/posts/202303/335426459_1017908356281152_8001125614878072369_n_17865386210848123.jpg",
      "perceptual_hash": "p:c6a7915dad5ad821",
      "taken": 1678895820,
      "taken_at": "Mar 15, 2023 3:57 pm"
    },
    "millsfield:similar": {
      "google/siglip2-so400m-patch16-naflex": [
        {
          "distance": 0.16663199663162231,
          "id": 1880151069
        },
        {
          "distance": 0.18019014596939087,
          "id": 1947425089
        },
        {
          "distance": 0.18837839365005493,
          "id": 1729359429
        },
        {
          "distance": 0.1989051103591919,
          "id": 1880151137
        },
        {
          "distance": 0.19993841648101807,
          "id": 1947425185
        },
        {
          "distance": 0.20318222045898438,
          "id": 1729357871
        },
        {
          "distance": 0.2152138352394104,
          "id": 1880151131
        },
        {
          "distance": 0.2272661328315735,
          "id": 1880151511
        },
        {
          "distance": 0.2295060157775879,
          "id": 1729357701
        },
        {
          "distance": 0.23173707723617554,
          "id": 1729356163
        }
      ]
    },
    "sfomuseum:placetype": "instagram",
    "src:geom": "sfomuseum",
    "wof:belongsto": [
      1159160869,
      102527513,
      102191575,
      85633793,
      102087579,
      85922583,
      85688637
    ],
    "wof:country": "US",
    "wof:created": 1678895820,
    "wof:geomhash": "b6e33f47475d56bc8da457bc31afadc8",
    "wof:hierarchy": [
      {
        "building_id": 1159160869,
        "campus_id": 102527513,
        "continent_id": 102191575,
        "country_id": 85633793,
        "county_id": 102087579,
        "custom_id": 1880151053,
        "instagram_id": 1880151053,
        "locality_id": 85922583,
        "neighbourhood_id": -1,
        "region_id": 85688637
      }
    ],
    "wof:id": 1880151053,
    "wof:lastmodified": 1787777661,
    "wof:name": "Linda Geary is an abstract painter whose work is inspired by material processes of cutting, revision and repair; a collage approach that references actions of sewing and construction, akin to making a quilt...",
    "wof:parent_id": 1159160869,
    "wof:placetype": "custom",
    "wof:placetype_alt": [
      "instagram"
    ],
    "wof:repo": "sfomuseum-data-socialmedia-instagram",
    "wof:superseded_by": [],
    "wof:supersedes": []
  },
  "bbox": [
    -122.386166,
    37.616356,
    -122.386166,
    37.616356
  ],
  "geometry": {"type":"Point","coordinates":[-122.386166,37.616356]}
}
