{
  "id": 1729361111,
  "type": "Feature",
  "properties": {
    "date:cessation_lower": "2016-01-27",
    "date:cessation_upper": "2016-01-27",
    "date:inception_lower": "2016-01-27",
    "date:inception_upper": "2016-01-27",
    "edtf:cessation": "2016-01-27T03:23:00-08:00",
    "edtf:inception": "2016-01-27T03:23:00-08:00",
    "geom:area": 0,
    "geom:bbox": "-122.386166,37.616356,-122.386166,37.616356",
    "geom:latitude": 37.616356,
    "geom:longitude": -122.386166,
    "instagram:post": {
      "caption": {
        "body": "",
        "excerpt": "",
        "hashtags": [
          "avgeek"
        ],
        "users": []
      },
      "media_id": "cb2de1d93ae86ebfcf48df3bd1004d9c",
      "path": "media/other/12407288_1048190865233431_1458104546_n_17854029070026817.jpg",
      "perceptual_hash": "p:a2c3f80aad4f9b68",
      "taken": 1453893780,
      "taken_at": "Jan 27, 2016 11:23 am"
    },
    "millsfield:similar": {
      "google/siglip2-so400m-patch16-naflex": [
        {
          "distance": 0.006813943386077881,
          "id": 1729358017
        },
        {
          "distance": 0.08025336265563965,
          "id": 1729358017
        },
        {
          "distance": 0.08136260509490967,
          "id": 1729358029
        },
        {
          "distance": 0.12403380870819092,
          "id": 1729358029
        },
        {
          "distance": 0.16791176795959473,
          "id": 1729355347
        },
        {
          "distance": 0.17732226848602295,
          "id": 1729359955
        },
        {
          "distance": 0.17963647842407227,
          "id": 1729360811
        },
        {
          "distance": 0.18467950820922852,
          "id": 1729360513
        },
        {
          "distance": 0.18880242109298706,
          "id": 1729356029
        },
        {
          "distance": 0.19781237840652466,
          "id": 1763559445
        }
      ]
    },
    "sfomuseum:placetype": "instagram",
    "src:geom": "sfomuseum",
    "wof:belongsto": [
      1159160869,
      102527513,
      102191575,
      85633793,
      102087579,
      85922583,
      85688637
    ],
    "wof:country": "US",
    "wof:created": 1453893780,
    "wof:geomhash": "b6e33f47475d56bc8da457bc31afadc8",
    "wof:hierarchy": [
      {
        "building_id": 1159160869,
        "campus_id": 102527513,
        "continent_id": 102191575,
        "country_id": 85633793,
        "county_id": 102087579,
        "custom_id": 1729361111,
        "instagram_id": 1729361111,
        "locality_id": 85922583,
        "neighbourhood_id": -1,
        "region_id": 85688637
      }
    ],
    "wof:id": 1729361111,
    "wof:lastmodified": 1787777644,
    "wof:name": "..",
    "wof:parent_id": 1159160869,
    "wof:placetype": "custom",
    "wof:placetype_alt": [
      "instagram"
    ],
    "wof:repo": "sfomuseum-data-socialmedia-instagram",
    "wof:superseded_by": [],
    "wof:supersedes": []
  },
  "bbox": [
    -122.386166,
    37.616356,
    -122.386166,
    37.616356
  ],
  "geometry": {"type":"Point","coordinates":[-122.386166,37.616356]}
}
