{
  "id": 1729360725,
  "type": "Feature",
  "properties": {
    "date:cessation_lower": "2016-05-13",
    "date:cessation_upper": "2016-05-13",
    "date:inception_lower": "2016-05-13",
    "date:inception_upper": "2016-05-13",
    "edtf:cessation": "2016-05-13T03:10:00-07:00",
    "edtf:inception": "2016-05-13T03:10:00-07:00",
    "geom:area": 0,
    "geom:bbox": "-122.386166,37.616356,-122.386166,37.616356",
    "geom:latitude": 37.616356,
    "geom:longitude": -122.386166,
    "instagram:post": {
      "caption": {
        "body": "One of the most significant figures in the Art Nouveau movement, glassmaker Emile Gallé (1846–1904) combined naturalistic designs with innovative techniques. He developed a process to create cut and incised flash glass and increased the vibrancy of his glass colors while retaining the material’s transparency. At the height of his firm’s productivity during the 1890s, his workshop employed nearly 300 associates. Some of his firm’s pieces were specially commissioned, while others could be chosen from a catalog or purchased at specialized retailers. Gallé’s workshops combined handcrafted techniques and industrial production to offer a variety of decorative objects.",
        "excerpt": "One of the most significant figures in the Art Nouveau movement, glassmaker Emile Gallé (1846–1904) combined naturalistic designs with innovative techniques.",
        "hashtags": [
          "ArtNouveauSFO"
        ],
        "users": []
      },
      "media_id": "fa63055d5e8927fb4dac2d5a8fd43c95",
      "path": "media/other/13183481_1705309193056819_1502190715_n_17856141232021131.jpg",
      "perceptual_hash": "p:96096b5ae507f037",
      "taken": 1463134200,
      "taken_at": "May 13, 2016 10:10 am"
    },
    "millsfield:similar": {
      "google/siglip2-so400m-patch16-naflex": [
        {
          "distance": 0.16419976949691772,
          "id": 1729360871
        },
        {
          "distance": 0.17343878746032715,
          "id": 1729360717
        },
        {
          "distance": 0.19339311122894287,
          "id": 1729360871
        },
        {
          "distance": 0.19909822940826416,
          "id": 1729360775
        },
        {
          "distance": 0.2045000195503235,
          "id": 1729359037
        },
        {
          "distance": 0.2101803421974182,
          "id": 1729359525
        },
        {
          "distance": 0.2314947247505188,
          "id": 1729359037
        },
        {
          "distance": 0.2355288863182068,
          "id": 1729359525
        },
        {
          "distance": 0.23884296417236328,
          "id": 1729360941
        },
        {
          "distance": 0.2464936375617981,
          "id": 1729359499
        }
      ]
    },
    "sfomuseum:placetype": "instagram",
    "src:geom": "sfomuseum",
    "wof:belongsto": [
      1159160869,
      102527513,
      102191575,
      85633793,
      102087579,
      85922583,
      85688637
    ],
    "wof:country": "US",
    "wof:created": 1463134200,
    "wof:geomhash": "b6e33f47475d56bc8da457bc31afadc8",
    "wof:hierarchy": [
      {
        "building_id": 1159160869,
        "campus_id": 102527513,
        "continent_id": 102191575,
        "country_id": 85633793,
        "county_id": 102087579,
        "custom_id": 1729360725,
        "instagram_id": 1729360725,
        "locality_id": 85922583,
        "neighbourhood_id": -1,
        "region_id": 85688637
      }
    ],
    "wof:id": 1729360725,
    "wof:lastmodified": 1787777640,
    "wof:name": "One of the most significant figures in the Art Nouveau movement, glassmaker Emile Gallé (1846–1904) combined naturalistic designs with innovative techniques...",
    "wof:parent_id": 1159160869,
    "wof:placetype": "custom",
    "wof:placetype_alt": [
      "instagram"
    ],
    "wof:repo": "sfomuseum-data-socialmedia-instagram",
    "wof:superseded_by": [],
    "wof:supersedes": []
  },
  "bbox": [
    -122.386166,
    37.616356,
    -122.386166,
    37.616356
  ],
  "geometry": {"type":"Point","coordinates":[-122.386166,37.616356]}
}
