{
  "id": 1729361415,
  "type": "Feature",
  "properties": {
    "date:cessation_lower": "2015-10-26",
    "date:cessation_upper": "2015-10-26",
    "date:inception_lower": "2015-10-26",
    "date:inception_upper": "2015-10-26",
    "edtf:cessation": "2015-10-26T12:41:00-07:00",
    "edtf:inception": "2015-10-26T12:41:00-07:00",
    "geom:area": 0,
    "geom:bbox": "-122.386166,37.616356,-122.386166,37.616356",
    "geom:latitude": 37.616356,
    "geom:longitude": -122.386166,
    "instagram:post": {
      "caption": {
        "body": "",
        "excerpt": "",
        "hashtags": [
          "KirksMonsters",
          "KirkHammett",
          "HappyHalloween",
          "MonsterMonday"
        ],
        "users": [
          "KirkHammett"
        ]
      },
      "media_id": "e45ca226ca65b2a19cceb1744bfd0b31",
      "path": "media/other/12145227_1512824335703192_1248354491_n_17844615622062499.jpg",
      "perceptual_hash": "p:9172c93c9699c6cd",
      "taken": 1445888460,
      "taken_at": "Oct 26, 2015 7:41 pm"
    },
    "millsfield:similar": {
      "google/siglip2-so400m-patch16-naflex": [
        {
          "distance": 0.13883626461029053,
          "id": 1729361463
        },
        {
          "distance": 0.21963077783584595,
          "id": 1729361463
        },
        {
          "distance": 0.22786986827850342,
          "id": 1729361407
        },
        {
          "distance": 0.2307438850402832,
          "id": 1729361423
        },
        {
          "distance": 0.24683135747909546,
          "id": 1729361423
        },
        {
          "distance": 0.272441029548645,
          "id": 1729361483
        },
        {
          "distance": 0.28169679641723633,
          "id": 1729361411
        },
        {
          "distance": 0.29850274324417114,
          "id": 1729361407
        },
        {
          "distance": 0.3064829707145691,
          "id": 1729361765
        },
        {
          "distance": 0.3177281618118286,
          "id": 1729361813
        }
      ]
    },
    "sfomuseum:placetype": "instagram",
    "src:geom": "sfomuseum",
    "wof:belongsto": [
      1159160869,
      102527513,
      102191575,
      85633793,
      102087579,
      85922583,
      85688637
    ],
    "wof:country": "US",
    "wof:created": 1445888460,
    "wof:geomhash": "b6e33f47475d56bc8da457bc31afadc8",
    "wof:hierarchy": [
      {
        "building_id": 1159160869,
        "campus_id": 102527513,
        "continent_id": 102191575,
        "country_id": 85633793,
        "county_id": 102087579,
        "custom_id": 1729361415,
        "instagram_id": 1729361415,
        "locality_id": 85922583,
        "neighbourhood_id": -1,
        "region_id": 85688637
      }
    ],
    "wof:id": 1729361415,
    "wof:lastmodified": 1787777645,
    "wof:name": "..",
    "wof:parent_id": 1159160869,
    "wof:placetype": "custom",
    "wof:placetype_alt": [
      "instagram"
    ],
    "wof:repo": "sfomuseum-data-socialmedia-instagram",
    "wof:superseded_by": [],
    "wof:supersedes": []
  },
  "bbox": [
    -122.386166,
    37.616356,
    -122.386166,
    37.616356
  ],
  "geometry": {"type":"Point","coordinates":[-122.386166,37.616356]}
}
