{
  "id": 1729360625,
  "type": "Feature",
  "properties": {
    "date:cessation_lower": "2016-06-14",
    "date:cessation_upper": "2016-06-14",
    "date:inception_lower": "2016-06-14",
    "date:inception_upper": "2016-06-14",
    "edtf:cessation": "2016-06-14T09:27:00-07:00",
    "edtf:inception": "2016-06-14T09:27:00-07:00",
    "geom:area": 0,
    "geom:bbox": "-122.386166,37.616356,-122.386166,37.616356",
    "geom:latitude": 37.616356,
    "geom:longitude": -122.386166,
    "instagram:post": {
      "caption": {
        "body": "",
        "excerpt": "",
        "hashtags": [
          "SFOHistory"
        ],
        "users": []
      },
      "media_id": "8faf6fab8fd3e7be69bf477be214a69c",
      "path": "media/other/13392782_304601176542415_605400735_n_17856995644018476.jpg",
      "perceptual_hash": "p:e7e15c9e884e24b5",
      "taken": 1465921620,
      "taken_at": "Jun 14, 2016 4:27 pm"
    },
    "millsfield:similar": {
      "google/siglip2-so400m-patch16-naflex": [
        {
          "distance": 0.23529082536697388,
          "id": 1729357891
        },
        {
          "distance": 0.25010693073272705,
          "id": 1729359429
        },
        {
          "distance": 0.2575468420982361,
          "id": 1947425061
        },
        {
          "distance": 0.2587195038795471,
          "id": 1729355617
        },
        {
          "distance": 0.264648973941803,
          "id": 1763558661
        },
        {
          "distance": 0.264648973941803,
          "id": 1729359633
        },
        {
          "distance": 0.2648211717605591,
          "id": 1729359159
        },
        {
          "distance": 0.26721930503845215,
          "id": 1729361679
        },
        {
          "distance": 0.26867276430130005,
          "id": 1729361031
        },
        {
          "distance": 0.2687795162200928,
          "id": 1947425061
        }
      ]
    },
    "sfomuseum:placetype": "instagram",
    "src:geom": "sfomuseum",
    "wof:belongsto": [
      1159160869,
      102527513,
      102191575,
      85633793,
      102087579,
      85922583,
      85688637
    ],
    "wof:country": "US",
    "wof:created": 1465921620,
    "wof:geomhash": "b6e33f47475d56bc8da457bc31afadc8",
    "wof:hierarchy": [
      {
        "building_id": 1159160869,
        "campus_id": 102527513,
        "continent_id": 102191575,
        "country_id": 85633793,
        "county_id": 102087579,
        "custom_id": 1729360625,
        "instagram_id": 1729360625,
        "locality_id": 85922583,
        "neighbourhood_id": -1,
        "region_id": 85688637
      }
    ],
    "wof:id": 1729360625,
    "wof:lastmodified": 1787777640,
    "wof:name": "..",
    "wof:parent_id": 1159160869,
    "wof:placetype": "custom",
    "wof:placetype_alt": [
      "instagram"
    ],
    "wof:repo": "sfomuseum-data-socialmedia-instagram",
    "wof:superseded_by": [],
    "wof:supersedes": []
  },
  "bbox": [
    -122.386166,
    37.616356,
    -122.386166,
    37.616356
  ],
  "geometry": {"type":"Point","coordinates":[-122.386166,37.616356]}
}
