{
  "id": 1729361195,
  "type": "Feature",
  "properties": {
    "date:cessation_lower": "2016-01-08",
    "date:cessation_upper": "2016-01-08",
    "date:inception_lower": "2016-01-08",
    "date:inception_upper": "2016-01-08",
    "edtf:cessation": "2016-01-08T02:45:00-08:00",
    "edtf:inception": "2016-01-08T02:45:00-08:00",
    "geom:area": 0,
    "geom:bbox": "-122.386166,37.616356,-122.386166,37.616356",
    "geom:latitude": 37.616356,
    "geom:longitude": -122.386166,
    "instagram:post": {
      "caption": {
        "body": "\"The bond Woody feels with Andy had to be the first thing we got across in the movie. It had to be immediately tangible, or you wouldn’t care when something comes along to upset it.” Andrew Stanton, story co-creator. “Toy Story at Twenty” is on display everyday, 24 hours a day, pre-security, in the International Terminal or check out our online exhibition at http://www.flysfo.com/museum/exhibitions/toy-story-twenty #ToyStory20  Andy drawing by Dan Haskett; notes by John Lasseter reproduction of pencil and ink on paper Courtesy of Pixar Animation Studios  R2015.1701.259",
        "excerpt": "\"The bond Woody feels with Andy had to be the first thing we got across in the movie.",
        "hashtags": [],
        "users": []
      },
      "media_id": "01e3f6d298669da5d2aad267dcbae8af",
      "path": "media/other/12523732_1093156390737287_787155004_n_17853210061033138.jpg",
      "perceptual_hash": "p:b3c18cce66c99933",
      "taken": 1452249900,
      "taken_at": "Jan 08, 2016 10:45 am"
    },
    "millsfield:similar": {
      "google/siglip2-so400m-patch16-naflex": [
        {
          "distance": 0.27799201011657715,
          "id": 1729361155
        },
        {
          "distance": 0.29231297969818115,
          "id": 1729361343
        },
        {
          "distance": 0.33002662658691406,
          "id": 1729361343
        },
        {
          "distance": 0.3583827614784241,
          "id": 1729361233
        },
        {
          "distance": 0.3687319755554199,
          "id": 1729361073
        },
        {
          "distance": 0.37157636880874634,
          "id": 1729360951
        },
        {
          "distance": 0.37166452407836914,
          "id": 1729361155
        },
        {
          "distance": 0.3776119351387024,
          "id": 1729361361
        },
        {
          "distance": 0.38993608951568604,
          "id": 1729361073
        },
        {
          "distance": 0.39450889825820923,
          "id": 1729357579
        }
      ]
    },
    "sfomuseum:placetype": "instagram",
    "src:geom": "sfomuseum",
    "wof:belongsto": [
      1159160869,
      102527513,
      102191575,
      85633793,
      102087579,
      85922583,
      85688637
    ],
    "wof:country": "US",
    "wof:created": 1452249900,
    "wof:geomhash": "b6e33f47475d56bc8da457bc31afadc8",
    "wof:hierarchy": [
      {
        "building_id": 1159160869,
        "campus_id": 102527513,
        "continent_id": 102191575,
        "country_id": 85633793,
        "county_id": 102087579,
        "custom_id": 1729361195,
        "instagram_id": 1729361195,
        "locality_id": 85922583,
        "neighbourhood_id": -1,
        "region_id": 85688637
      }
    ],
    "wof:id": 1729361195,
    "wof:lastmodified": 1787777645,
    "wof:name": "\"The bond Woody feels with Andy had to be the first thing we got across in the movie...",
    "wof:parent_id": 1159160869,
    "wof:placetype": "custom",
    "wof:placetype_alt": [
      "instagram"
    ],
    "wof:repo": "sfomuseum-data-socialmedia-instagram",
    "wof:superseded_by": [],
    "wof:supersedes": []
  },
  "bbox": [
    -122.386166,
    37.616356,
    -122.386166,
    37.616356
  ],
  "geometry": {"type":"Point","coordinates":[-122.386166,37.616356]}
}
