{
  "id": 1729362157,
  "type": "Feature",
  "properties": {
    "date:cessation_lower": "2014-09-05",
    "date:cessation_upper": "2014-09-05",
    "date:inception_lower": "2014-09-05",
    "date:inception_upper": "2014-09-05",
    "edtf:cessation": "2014-09-05T08:20:00-07:00",
    "edtf:inception": "2014-09-05T08:20:00-07:00",
    "geom:area": 0,
    "geom:bbox": "-122.386166,37.616356,-122.386166,37.616356",
    "geom:latitude": 37.616356,
    "geom:longitude": -122.386166,
    "instagram:post": {
      "caption": {
        "body": "",
        "excerpt": "",
        "hashtags": [
          "Tiffany",
          "fancygoods"
        ],
        "users": []
      },
      "media_id": "83f2c71cd972f8245c89d6a750807c3f",
      "path": "media/other/927761_279084968950966_1547793298_n_17842470937062499.jpg",
      "perceptual_hash": "p:85f4708d37782db4",
      "taken": 1409930400,
      "taken_at": "Sep 05, 2014 3:20 pm"
    },
    "millsfield:similar": {
      "google/siglip2-so400m-patch16-naflex": [
        {
          "distance": 0.2614177465438843,
          "id": 1729362081
        },
        {
          "distance": 0.26410210132598877,
          "id": 1729362035
        },
        {
          "distance": 0.28444039821624756,
          "id": 1729360717
        },
        {
          "distance": 0.28995174169540405,
          "id": 1729362035
        },
        {
          "distance": 0.2904728651046753,
          "id": 1729362111
        },
        {
          "distance": 0.3039761781692505,
          "id": 1729356419
        },
        {
          "distance": 0.30408841371536255,
          "id": 1729362081
        },
        {
          "distance": 0.31459474563598633,
          "id": 1880151195
        },
        {
          "distance": 0.314643919467926,
          "id": 1729360717
        },
        {
          "distance": 0.31598591804504395,
          "id": 1729359381
        }
      ]
    },
    "sfomuseum:placetype": "instagram",
    "src:geom": "sfomuseum",
    "wof:belongsto": [
      1159160869,
      102527513,
      102191575,
      85633793,
      102087579,
      85922583,
      85688637
    ],
    "wof:country": "US",
    "wof:created": 1409930400,
    "wof:geomhash": "b6e33f47475d56bc8da457bc31afadc8",
    "wof:hierarchy": [
      {
        "building_id": 1159160869,
        "campus_id": 102527513,
        "continent_id": 102191575,
        "country_id": 85633793,
        "county_id": 102087579,
        "custom_id": 1729362157,
        "instagram_id": 1729362157,
        "locality_id": 85922583,
        "neighbourhood_id": -1,
        "region_id": 85688637
      }
    ],
    "wof:id": 1729362157,
    "wof:lastmodified": 1787777646,
    "wof:name": "..",
    "wof:parent_id": 1159160869,
    "wof:placetype": "custom",
    "wof:placetype_alt": [
      "instagram"
    ],
    "wof:repo": "sfomuseum-data-socialmedia-instagram",
    "wof:superseded_by": [],
    "wof:supersedes": []
  },
  "bbox": [
    -122.386166,
    37.616356,
    -122.386166,
    37.616356
  ],
  "geometry": {"type":"Point","coordinates":[-122.386166,37.616356]}
}
