{
  "id": 1729361919,
  "type": "Feature",
  "properties": {
    "date:cessation_lower": "2015-02-11",
    "date:cessation_upper": "2015-02-11",
    "date:inception_lower": "2015-02-11",
    "date:inception_upper": "2015-02-11",
    "edtf:cessation": "2015-02-11T05:07:00-08:00",
    "edtf:inception": "2015-02-11T05:07:00-08:00",
    "geom:area": 0,
    "geom:bbox": "-122.386166,37.616356,-122.386166,37.616356",
    "geom:latitude": 37.616356,
    "geom:longitude": -122.386166,
    "instagram:post": {
      "caption": {
        "body": "",
        "excerpt": "",
        "hashtags": [
          "JoseffOfHollywood",
          "costumejewelry",
          "LanaTurner"
        ],
        "users": []
      },
      "media_id": "fec0f853cb7d4901f2c7ebb1bb9c0b5f",
      "path": "media/other/10963761_521858971285743_1608841989_n_17841678247062499.jpg",
      "perceptual_hash": "p:b3bc2c8b43679ce0",
      "taken": 1423660020,
      "taken_at": "Feb 11, 2015 1:07 pm"
    },
    "millsfield:similar": {
      "google/siglip2-so400m-patch16-naflex": [
        {
          "distance": 0.2930651903152466,
          "id": 1729359169
        },
        {
          "distance": 0.29473960399627686,
          "id": 1947425065
        },
        {
          "distance": 0.30155646800994873,
          "id": 1729360771
        },
        {
          "distance": 0.3066598176956177,
          "id": 1729356427
        },
        {
          "distance": 0.30796003341674805,
          "id": 1729356845
        },
        {
          "distance": 0.3083797097206116,
          "id": 1729361903
        },
        {
          "distance": 0.30969905853271484,
          "id": 1880151037
        },
        {
          "distance": 0.3141968250274658,
          "id": 1729358065
        },
        {
          "distance": 0.3163168430328369,
          "id": 1729360919
        },
        {
          "distance": 0.3206499218940735,
          "id": 1729357339
        }
      ]
    },
    "sfomuseum:placetype": "instagram",
    "src:geom": "sfomuseum",
    "wof:belongsto": [
      1159160869,
      102527513,
      102191575,
      85633793,
      102087579,
      85922583,
      85688637
    ],
    "wof:country": "US",
    "wof:created": 1423660020,
    "wof:geomhash": "b6e33f47475d56bc8da457bc31afadc8",
    "wof:hierarchy": [
      {
        "building_id": 1159160869,
        "campus_id": 102527513,
        "continent_id": 102191575,
        "country_id": 85633793,
        "county_id": 102087579,
        "custom_id": 1729361919,
        "instagram_id": 1729361919,
        "locality_id": 85922583,
        "neighbourhood_id": -1,
        "region_id": 85688637
      }
    ],
    "wof:id": 1729361919,
    "wof:lastmodified": 1787777646,
    "wof:name": "..",
    "wof:parent_id": 1159160869,
    "wof:placetype": "custom",
    "wof:placetype_alt": [
      "instagram"
    ],
    "wof:repo": "sfomuseum-data-socialmedia-instagram",
    "wof:superseded_by": [],
    "wof:supersedes": []
  },
  "bbox": [
    -122.386166,
    37.616356,
    -122.386166,
    37.616356
  ],
  "geometry": {"type":"Point","coordinates":[-122.386166,37.616356]}
}
