{
  "id": 1729362093,
  "type": "Feature",
  "properties": {
    "date:cessation_lower": "2014-10-10",
    "date:cessation_upper": "2014-10-10",
    "date:inception_lower": "2014-10-10",
    "date:inception_upper": "2014-10-10",
    "edtf:cessation": "2014-10-10T07:19:00-07:00",
    "edtf:inception": "2014-10-10T07:19:00-07:00",
    "geom:area": 0,
    "geom:bbox": "-122.386166,37.616356,-122.386166,37.616356",
    "geom:latitude": 37.616356,
    "geom:longitude": -122.386166,
    "instagram:post": {
      "caption": {
        "body": "",
        "excerpt": "",
        "hashtags": [
          "ThinkOrange",
          "OrangeOctober",
          "GoGiants",
          "AdIcons"
        ],
        "users": []
      },
      "media_id": "06ccc73b04c00f8422303fbc65720f97",
      "path": "media/other/10707075_1486631228256759_388129641_n_17842482814062499.jpg",
      "perceptual_hash": "p:a50bdaf6cc28c671",
      "taken": 1412950740,
      "taken_at": "Oct 10, 2014 2:19 pm"
    },
    "millsfield:similar": {
      "google/siglip2-so400m-patch16-naflex": [
        {
          "distance": 0.29663366079330444,
          "id": 1729362171
        },
        {
          "distance": 0.3227096199989319,
          "id": 1729362171
        },
        {
          "distance": 0.34105634689331055,
          "id": 1729362009
        },
        {
          "distance": 0.3485032320022583,
          "id": 1729362009
        },
        {
          "distance": 0.3514400124549866,
          "id": 1729362155
        },
        {
          "distance": 0.35449492931365967,
          "id": 1729362155
        },
        {
          "distance": 0.3546316623687744,
          "id": 1729362449
        },
        {
          "distance": 0.3585158586502075,
          "id": 1729362227
        },
        {
          "distance": 0.3630834221839905,
          "id": 1729362199
        },
        {
          "distance": 0.3640187382698059,
          "id": 1729362379
        }
      ]
    },
    "sfomuseum:placetype": "instagram",
    "src:geom": "sfomuseum",
    "wof:belongsto": [
      1159160869,
      102527513,
      102191575,
      85633793,
      102087579,
      85922583,
      85688637
    ],
    "wof:country": "US",
    "wof:created": 1412950740,
    "wof:geomhash": "b6e33f47475d56bc8da457bc31afadc8",
    "wof:hierarchy": [
      {
        "building_id": 1159160869,
        "campus_id": 102527513,
        "continent_id": 102191575,
        "country_id": 85633793,
        "county_id": 102087579,
        "custom_id": 1729362093,
        "instagram_id": 1729362093,
        "locality_id": 85922583,
        "neighbourhood_id": -1,
        "region_id": 85688637
      }
    ],
    "wof:id": 1729362093,
    "wof:lastmodified": 1787777646,
    "wof:name": "..",
    "wof:parent_id": 1159160869,
    "wof:placetype": "custom",
    "wof:placetype_alt": [
      "instagram"
    ],
    "wof:repo": "sfomuseum-data-socialmedia-instagram",
    "wof:superseded_by": [],
    "wof:supersedes": []
  },
  "bbox": [
    -122.386166,
    37.616356,
    -122.386166,
    37.616356
  ],
  "geometry": {"type":"Point","coordinates":[-122.386166,37.616356]}
}
