{
  "id": 1947425163,
  "type": "Feature",
  "properties": {
    "date:cessation_lower": "2024-01-18",
    "date:cessation_upper": "2024-01-18",
    "date:inception_lower": "2024-01-18",
    "date:inception_upper": "2024-01-18",
    "edtf:cessation": "2024-01-18T09:35:00-08:00",
    "edtf:inception": "2024-01-18T09:35:00-08:00",
    "geom:area": 0,
    "geom:bbox": "-122.386166,37.616356,-122.386166,37.616356",
    "geom:latitude": 37.616356,
    "geom:longitude": -122.386166,
    "instagram:post": {
      "caption": {
        "body": "Choreographer Danielle Rowe’s first repertory length work for San Francisco Ballet faced a complex path due to the COVID-19 pandemic in 2020. 𝘞𝘰𝘰𝘥𝘦𝘯 𝘋𝘪𝘮𝘦𝘴, a 1920s Art Deco ballet takes its name from an American saying of the era, “Don’t take any wooden nickels,” a caution to be careful not to get swindled. For the narrative, Rowe explains, “I wanted to look at that space between what I call the real world and the magical world of the theater; particularly the dressing room space, where you put on makeup, change your hair, and transform into somebody else. It can consume you as a performer—there’s an energy and shared experience in that space that’s like nothing else.” Rowe’s story revolves around a married couple, Robert and Betty Fine. As a chorus girl, Betty rises to stardom and Robert remains stuck in a dull, repetitive job.   Special thank you to San Francisco Ballet for making this exhibition possible. See “San Francisco Ballet at 90” on display, pre-security, in the International Terminal and online at: https://bit.ly/SFBalletAt90  #SFBalletAt90 San Francisco Ballet",
        "excerpt": "Choreographer Danielle Rowe’s first repertory length work for San Francisco Ballet faced a complex path due to the COVID-19 pandemic in 2020.",
        "hashtags": [],
        "users": []
      },
      "media_id": "b65c9fb3b3a865891bcc4d8bd4e9cc25b7b28409",
      "path": "media/posts/202401/420164457_855580053245592_1568404778016601049_n_18016238075034822.jpg",
      "perceptual_hash": "p:b730794e8661cb0f",
      "taken": 1705599300,
      "taken_at": "Jan 18, 2024 5:35 pm"
    },
    "millsfield:similar": {
      "google/siglip2-so400m-patch16-naflex": [
        {
          "distance": 0.2818010449409485,
          "id": 1763559655
        },
        {
          "distance": 0.29061394929885864,
          "id": 1729361509
        },
        {
          "distance": 0.2948267459869385,
          "id": 1729360461
        },
        {
          "distance": 0.29685407876968384,
          "id": 1763559655
        },
        {
          "distance": 0.31118160486221313,
          "id": 1729359139
        },
        {
          "distance": 0.31158459186553955,
          "id": 1880150997
        },
        {
          "distance": 0.31447136402130127,
          "id": 1880151491
        },
        {
          "distance": 0.3156224489212036,
          "id": 1880151155
        },
        {
          "distance": 0.325117290019989,
          "id": 1729360313
        },
        {
          "distance": 0.32853686809539795,
          "id": 1729360461
        }
      ]
    },
    "sfomuseum:placetype": "instagram",
    "src:geom": "sfomuseum",
    "wof:belongsto": [
      1159160869,
      102527513,
      102191575,
      85633793,
      102087579,
      85922583,
      85688637
    ],
    "wof:country": "US",
    "wof:created": 1705599300,
    "wof:geomhash": "b6e33f47475d56bc8da457bc31afadc8",
    "wof:hierarchy": [
      {
        "building_id": 1159160869,
        "campus_id": 102527513,
        "continent_id": 102191575,
        "country_id": 85633793,
        "county_id": 102087579,
        "custom_id": 1947425163,
        "locality_id": 85922583,
        "neighbourhood_id": -1,
        "region_id": 85688637
      }
    ],
    "wof:id": 1947425163,
    "wof:lastmodified": 1787777664,
    "wof:name": "Choreographer Danielle Rowe’s first repertory length work for San Francisco Ballet faced a complex path due to the COVID-19 pandemic in 2020...",
    "wof:parent_id": 1159160869,
    "wof:placetype": "custom",
    "wof:repo": "sfomuseum-data-socialmedia-instagram",
    "wof:superseded_by": [],
    "wof:supersedes": []
  },
  "bbox": [
    -122.386166,
    37.616356,
    -122.386166,
    37.616356
  ],
  "geometry": {"type":"Point","coordinates":[-122.386166,37.616356]}
}
