{
  "id": 1729361755,
  "type": "Feature",
  "properties": {
    "date:cessation_lower": "2015-06-16",
    "date:cessation_upper": "2015-06-16",
    "date:inception_lower": "2015-06-16",
    "date:inception_upper": "2015-06-16",
    "edtf:cessation": "2015-06-16T06:05:00-07:00",
    "edtf:inception": "2015-06-16T06:05:00-07:00",
    "geom:area": 0,
    "geom:bbox": "-122.386166,37.616356,-122.386166,37.616356",
    "geom:latitude": 37.616356,
    "geom:longitude": -122.386166,
    "instagram:post": {
      "caption": {
        "body": "",
        "excerpt": "",
        "hashtags": [
          "Tushanwan",
          "pagoda",
          "PPIE",
          "PPIE100"
        ],
        "users": []
      },
      "media_id": "a6e4ee8a5715758ea7d94b306d3e4786",
      "path": "media/other/10729274_462769653890900_1395418456_n_17841649669062499.jpg",
      "perceptual_hash": "p:ffebc014b4af0348",
      "taken": 1434459900,
      "taken_at": "Jun 16, 2015 1:05 pm"
    },
    "millsfield:similar": {
      "google/siglip2-so400m-patch16-naflex": [
        {
          "distance": 0.1022900938987732,
          "id": 1729361771
        },
        {
          "distance": 0.10263264179229736,
          "id": 1729361807
        },
        {
          "distance": 0.11715424060821533,
          "id": 1729361705
        },
        {
          "distance": 0.14002513885498047,
          "id": 1729361807
        },
        {
          "distance": 0.14133232831954956,
          "id": 1729361753
        },
        {
          "distance": 0.1422429084777832,
          "id": 1729361841
        },
        {
          "distance": 0.15007025003433228,
          "id": 1729361671
        },
        {
          "distance": 0.15643972158432007,
          "id": 1729361771
        },
        {
          "distance": 0.1664002537727356,
          "id": 1729361901
        },
        {
          "distance": 0.1664002537727356,
          "id": 1763558599
        }
      ]
    },
    "sfomuseum:placetype": "instagram",
    "src:geom": "sfomuseum",
    "wof:belongsto": [
      1159160869,
      102527513,
      102191575,
      85633793,
      102087579,
      85922583,
      85688637
    ],
    "wof:country": "US",
    "wof:created": 1434459900,
    "wof:geomhash": "b6e33f47475d56bc8da457bc31afadc8",
    "wof:hierarchy": [
      {
        "building_id": 1159160869,
        "campus_id": 102527513,
        "continent_id": 102191575,
        "country_id": 85633793,
        "county_id": 102087579,
        "custom_id": 1729361755,
        "instagram_id": 1729361755,
        "locality_id": 85922583,
        "neighbourhood_id": -1,
        "region_id": 85688637
      }
    ],
    "wof:id": 1729361755,
    "wof:lastmodified": 1787777646,
    "wof:name": "..",
    "wof:parent_id": 1159160869,
    "wof:placetype": "custom",
    "wof:placetype_alt": [
      "instagram"
    ],
    "wof:repo": "sfomuseum-data-socialmedia-instagram",
    "wof:superseded_by": [],
    "wof:supersedes": []
  },
  "bbox": [
    -122.386166,
    37.616356,
    -122.386166,
    37.616356
  ],
  "geometry": {"type":"Point","coordinates":[-122.386166,37.616356]}
}
