{
  "id": 1729356061,
  "type": "Feature",
  "properties": {
    "date:cessation_lower": "2019-09-25",
    "date:cessation_upper": "2019-09-25",
    "date:inception_lower": "2019-09-25",
    "date:inception_upper": "2019-09-25",
    "edtf:cessation": "2019-09-25T10:41:00-07:00",
    "edtf:inception": "2019-09-25T10:41:00-07:00",
    "geom:area": 0,
    "geom:bbox": "-122.386166,37.616356,-122.386166,37.616356",
    "geom:latitude": 37.616356,
    "geom:longitude": -122.386166,
    "instagram:post": {
      "caption": {
        "body": "#Onthisday in 1903, Olive Ann Beech (née Mellor) was born in Kansas. She began her aviation career as a bookkeeper and secretary at Travel Air Manufacturing Company in 1925. She soon moved up in the company to become the personal secretary of Walter Beech, one of the co-founders of Travel Air Manufacturing Company. They married in 1930 and when that company was sold, Walter and Olive Ann established their own company, Beechcraft in 1932. When Walter became ill in 1940, she took control of the company, and when he died in 1950, she became company president, becoming the first woman to head a major aircraft corporation. She led the company through WWII, the space race into the 1980s. In 1980, the Raytheon Company acquired Beechcraft and Olive Ann was elected to the Board of Directors. ",
        "excerpt": "#Onthisday in 1903, Olive Ann Beech (née Mellor) was born in Kansas.",
        "hashtags": [
          "avgeek",
          "womeninaviation",
          "Beechcraft",
          "beech",
          "womeninhistory"
        ],
        "users": []
      },
      "media_id": "dd0b531143a36fb3398d21f67cc8ae2b",
      "path": "media/other/69433252_2455748558045600_3003953014520602519_n_18101420047041969.jpg",
      "perceptual_hash": "p:875c48d3a2f2e1f1",
      "taken": 1569433260,
      "taken_at": "Sep 25, 2019 5:41 pm"
    },
    "millsfield:similar": {
      "google/siglip2-so400m-patch16-naflex": [
        {
          "distance": 0.023268818855285645,
          "id": 1763559519
        },
        {
          "distance": 0.03505319356918335,
          "id": 1947425289
        },
        {
          "distance": 0.076657235622406,
          "id": 1763559519
        },
        {
          "distance": 0.08448421955108643,
          "id": 1947425289
        },
        {
          "distance": 0.18615013360977173,
          "id": 1729356847
        },
        {
          "distance": 0.18875235319137573,
          "id": 1763559661
        },
        {
          "distance": 0.20097345113754272,
          "id": 1729356847
        },
        {
          "distance": 0.20566684007644653,
          "id": 1763559661
        },
        {
          "distance": 0.20692914724349976,
          "id": 1729357331
        },
        {
          "distance": 0.21399670839309692,
          "id": 1729358111
        }
      ]
    },
    "sfomuseum:placetype": "instagram",
    "src:geom": "sfomuseum",
    "wof:belongsto": [
      1159160869,
      102527513,
      102191575,
      85633793,
      102087579,
      85922583,
      85688637
    ],
    "wof:country": "US",
    "wof:created": 1569433260,
    "wof:geomhash": "b6e33f47475d56bc8da457bc31afadc8",
    "wof:hierarchy": [
      {
        "building_id": 1159160869,
        "campus_id": 102527513,
        "continent_id": 102191575,
        "country_id": 85633793,
        "county_id": 102087579,
        "custom_id": 1729356061,
        "instagram_id": 1729356061,
        "locality_id": 85922583,
        "neighbourhood_id": -1,
        "region_id": 85688637
      }
    ],
    "wof:id": 1729356061,
    "wof:lastmodified": 1787777628,
    "wof:name": "#Onthisday in 1903, Olive Ann Beech (née Mellor) was born in Kansas...",
    "wof:parent_id": 1159160869,
    "wof:placetype": "custom",
    "wof:placetype_alt": [
      "instagram"
    ],
    "wof:repo": "sfomuseum-data-socialmedia-instagram",
    "wof:superseded_by": [],
    "wof:supersedes": []
  },
  "bbox": [
    -122.386166,
    37.616356,
    -122.386166,
    37.616356
  ],
  "geometry": {"type":"Point","coordinates":[-122.386166,37.616356]}
}
