{
  "id": 1729355641,
  "type": "Feature",
  "properties": {
    "date:cessation_lower": "2020-01-22",
    "date:cessation_upper": "2020-01-22",
    "date:inception_lower": "2020-01-22",
    "date:inception_upper": "2020-01-22",
    "edtf:cessation": "2020-01-22T09:56:00-08:00",
    "edtf:inception": "2020-01-22T09:56:00-08:00",
    "geom:area": 0,
    "geom:bbox": "-122.386166,37.616356,-122.386166,37.616356",
    "geom:latitude": 37.616356,
    "geom:longitude": -122.386166,
    "instagram:post": {
      "caption": {
        "body": "In 1961, about an hour north of Washington, D.C., a construction crew prepared to demolish a historic home in Thurmont, Maryland. A set of “Views of North America” created by Zuber et Zie remained on its walls. An employee at the Smithsonian, who was aware of First Lady Jacqueline Kennedy’s initiative to refurbish the Diplomatic Reception Room with a historic American theme, contacted the White House about the paper set. The National Society of Interior Designers, who were assisting the First Lady in her efforts, purchased the paper for $12,500 and donated it to the White House. Technicians then conserved the wallpaper before a small staff worked for several weeks on the installation. The famous wallpaper remains on the walls of the Diplomatic Reception Room today. “Zuber: The Art of French Scenic Wallpaper” is on display, pre-security in the International Terminal. http://bit.ly/ZuberScenicWallpaper",
        "excerpt": "In 1961, about an hour north of Washington, D.C., a construction crew prepared to demolish a historic home in Thurmont, Maryland.",
        "hashtags": [
          "ZuberScenicWallpaper",
          "wallpaper",
          "zuber",
          "scenicwallpaper",
          "interiordesign",
          "museum",
          "design"
        ],
        "users": [
          "zuberofficial"
        ]
      },
      "media_id": "607af90e16075f30b23c44580c6d32de",
      "path": "media/posts/202001/81158507_797357570775510_7256671071312045537_n_18089147014187458.jpg",
      "perceptual_hash": "p:a6a6d1f92e0697c1",
      "taken": 1579715760,
      "taken_at": "Jan 22, 2020 5:56 pm"
    },
    "millsfield:similar": {
      "google/siglip2-so400m-patch16-naflex": [
        {
          "distance": 0.06204313039779663,
          "id": 1729356133
        },
        {
          "distance": 0.11109739542007446,
          "id": 1729356133
        },
        {
          "distance": 0.2615794539451599,
          "id": 1729356135
        },
        {
          "distance": 0.2697452902793884,
          "id": 1729355639
        },
        {
          "distance": 0.2778438329696655,
          "id": 1729356137
        },
        {
          "distance": 0.2818060517311096,
          "id": 1729355655
        },
        {
          "distance": 0.31046152114868164,
          "id": 1880151745
        },
        {
          "distance": 0.3145976662635803,
          "id": 1729356011
        },
        {
          "distance": 0.3157294988632202,
          "id": 1729355639
        },
        {
          "distance": 0.31591349840164185,
          "id": 1729355371
        }
      ]
    },
    "sfomuseum:placetype": "instagram",
    "src:geom": "sfomuseum",
    "wof:belongsto": [
      1159160869,
      102527513,
      102191575,
      85633793,
      102087579,
      85922583,
      85688637
    ],
    "wof:country": "US",
    "wof:created": 1579715760,
    "wof:geomhash": "b6e33f47475d56bc8da457bc31afadc8",
    "wof:hierarchy": [
      {
        "building_id": 1159160869,
        "campus_id": 102527513,
        "continent_id": 102191575,
        "country_id": 85633793,
        "county_id": 102087579,
        "custom_id": 1729355641,
        "instagram_id": 1729355641,
        "locality_id": 85922583,
        "neighbourhood_id": -1,
        "region_id": 85688637
      }
    ],
    "wof:id": 1729355641,
    "wof:lastmodified": 1787777627,
    "wof:name": "In 1961, about an hour north of Washington, D.C., a construction crew prepared to demolish a historic home in Thurmont, Maryland...",
    "wof:parent_id": 1159160869,
    "wof:placetype": "custom",
    "wof:placetype_alt": [
      "instagram"
    ],
    "wof:repo": "sfomuseum-data-socialmedia-instagram",
    "wof:superseded_by": [],
    "wof:supersedes": []
  },
  "bbox": [
    -122.386166,
    37.616356,
    -122.386166,
    37.616356
  ],
  "geometry": {"type":"Point","coordinates":[-122.386166,37.616356]}
}
