{
  "id": 1729362911,
  "type": "Feature",
  "properties": {
    "date:cessation_lower": "2012-08-06",
    "date:cessation_upper": "2012-08-06",
    "date:inception_lower": "2012-08-06",
    "date:inception_upper": "2012-08-06",
    "edtf:cessation": "2012-08-06T06:43:00-07:00",
    "edtf:inception": "2012-08-06T06:43:00-07:00",
    "geom:area": 0,
    "geom:bbox": "-122.386166,37.616356,-122.386166,37.616356",
    "geom:latitude": 37.616356,
    "geom:longitude": -122.386166,
    "instagram:post": {
      "caption": {
        "body": "We had a few of mountain biking's living legends over on Friday night!",
        "excerpt": "We had a few of mountain biking's living legends over on Friday night!",
        "hashtags": [],
        "users": []
      },
      "media_id": "55e84d6e2c98286ec6bba5b0085de2ed",
      "path": "media/other/11189445_1591794031090458_815075630_n_17842262356062499.jpg",
      "perceptual_hash": "p:8cfc970f684273d1",
      "taken": 1344260580,
      "taken_at": "Aug 06, 2012 1:43 pm"
    },
    "millsfield:similar": {
      "google/siglip2-so400m-patch16-naflex": [
        {
          "distance": 0.24053597450256348,
          "id": 1729360765
        },
        {
          "distance": 0.2486724853515625,
          "id": 1729360795
        },
        {
          "distance": 0.2505674958229065,
          "id": 1729360765
        },
        {
          "distance": 0.2664828896522522,
          "id": 1729360795
        },
        {
          "distance": 0.28115761280059814,
          "id": 1729362583
        },
        {
          "distance": 0.2878013849258423,
          "id": 1729363057
        },
        {
          "distance": 0.2931366562843323,
          "id": 1729362785
        },
        {
          "distance": 0.2944086194038391,
          "id": 1729362795
        },
        {
          "distance": 0.29715651273727417,
          "id": 1763559527
        },
        {
          "distance": 0.2992403507232666,
          "id": 1729362959
        }
      ]
    },
    "sfomuseum:placetype": "instagram",
    "src:geom": "sfomuseum",
    "wof:belongsto": [
      1159160869,
      102527513,
      102191575,
      85633793,
      102087579,
      85922583,
      85688637
    ],
    "wof:country": "US",
    "wof:created": 1344260580,
    "wof:geomhash": "b6e33f47475d56bc8da457bc31afadc8",
    "wof:hierarchy": [
      {
        "building_id": 1159160869,
        "campus_id": 102527513,
        "continent_id": 102191575,
        "country_id": 85633793,
        "county_id": 102087579,
        "custom_id": 1729362911,
        "instagram_id": 1729362911,
        "locality_id": 85922583,
        "neighbourhood_id": -1,
        "region_id": 85688637
      }
    ],
    "wof:id": 1729362911,
    "wof:lastmodified": 1787777656,
    "wof:name": "We had a few of mountain biking's living legends over on Friday night!..",
    "wof:parent_id": 1159160869,
    "wof:placetype": "custom",
    "wof:placetype_alt": [
      "instagram"
    ],
    "wof:repo": "sfomuseum-data-socialmedia-instagram",
    "wof:superseded_by": [],
    "wof:supersedes": []
  },
  "bbox": [
    -122.386166,
    37.616356,
    -122.386166,
    37.616356
  ],
  "geometry": {"type":"Point","coordinates":[-122.386166,37.616356]}
}
