{
  "id": 1763559619,
  "type": "Feature",
  "properties": {
    "date:cessation_lower": "2022-02-08",
    "date:cessation_upper": "2022-02-08",
    "date:inception_lower": "2022-02-08",
    "date:inception_upper": "2022-02-08",
    "edtf:cessation": "2022-02-08T11:02:00-08:00",
    "edtf:inception": "2022-02-08T11:02:00-08:00",
    "geom:area": 0,
    "geom:bbox": "-122.386166,37.616356,-122.386166,37.616356",
    "geom:latitude": 37.616356,
    "geom:longitude": -122.386166,
    "instagram:post": {
      "caption": {
        "body": "Happy Lunar New Year!  𝐋𝐮𝐧𝐚𝐫 𝐍𝐞𝐰 𝐘𝐞𝐚𝐫 𝐜𝐞𝐥𝐞𝐛𝐫𝐚𝐭𝐢𝐨𝐧 𝐚𝐭 𝐇𝐬𝐢 𝐋𝐚𝐢 𝐓𝐞𝐦𝐩𝐥𝐞 𝐢𝐧 𝐇𝐚𝐜𝐢𝐞𝐧𝐝𝐚 𝐇𝐞𝐢𝐠𝐡𝐭𝐬, 2015, by Jessica Chou is featured in 𝘍𝘪𝘳𝘴𝘵 𝘎𝘦𝘯𝘦𝘳𝘢𝘵𝘪𝘰𝘯 | 𝘊𝘩𝘪𝘯𝘢 𝘋𝘳𝘦𝘢𝘮 \u0026 𝘚𝘶𝘣𝘶𝘳𝘣𝘢𝘯 𝘊𝘩𝘪𝘯𝘢𝘵𝘰𝘸𝘯, currently on view in our new Ruth S. Kadish Gallery.  The exhibition features works by Jessica Chou and Teresa Eng exploring the complex identities and personal narratives belonging to the children of Chinese immigrants.   𝘍𝘪𝘳𝘴𝘵 𝘎𝘦𝘯𝘦𝘳𝘢𝘵𝘪𝘰𝘯 is on display in the Ruth S. Kadish Gallery, located post-security in the connector between Terminal 2 and Terminal 3. https://bit.ly/3CRxuXP",
        "excerpt": "Happy Lunar New Year!",
        "hashtags": [],
        "users": []
      },
      "media_id": "56ab52ef03eb39e66695581d06dde785d6d845d8",
      "path": "media/other/273517219_120787253820857_6119717511471492285_n_18126341413254113.jpg",
      "perceptual_hash": "p:fa64901b6cb2b396",
      "taken": 1644346920,
      "taken_at": "Feb 08, 2022 7:02 pm"
    },
    "millsfield:similar": {
      "google/siglip2-so400m-patch16-naflex": [
        {
          "distance": 0.37995225191116333,
          "id": 1729361671
        },
        {
          "distance": 0.3865870237350464,
          "id": 1729361755
        },
        {
          "distance": 0.3964334726333618,
          "id": 1729361671
        },
        {
          "distance": 0.40838998556137085,
          "id": 1763558861
        },
        {
          "distance": 0.4107505679130554,
          "id": 1763558599
        },
        {
          "distance": 0.4107505679130554,
          "id": 1729361901
        },
        {
          "distance": 0.4156109094619751,
          "id": 1729361831
        },
        {
          "distance": 0.4190235733985901,
          "id": 1729361683
        },
        {
          "distance": 0.4197388291358948,
          "id": 1729361861
        },
        {
          "distance": 0.4202371835708618,
          "id": 1763558861
        }
      ]
    },
    "sfomuseum:placetype": "instagram",
    "src:geom": "sfomuseum",
    "wof:belongsto": [
      1159160869,
      102527513,
      102191575,
      85633793,
      102087579,
      85922583,
      85688637
    ],
    "wof:country": "US",
    "wof:created": 1644346920,
    "wof:geomhash": "b6e33f47475d56bc8da457bc31afadc8",
    "wof:hierarchy": [
      {
        "building_id": 1159160869,
        "campus_id": 102527513,
        "continent_id": 102191575,
        "country_id": 85633793,
        "county_id": 102087579,
        "custom_id": 1763559619,
        "instagram_id": 1763559619,
        "locality_id": 85922583,
        "neighbourhood_id": -1,
        "region_id": 85688637
      }
    ],
    "wof:id": 1763559619,
    "wof:lastmodified": 1787777660,
    "wof:name": "Happy Lunar New Year!..",
    "wof:parent_id": 1159160869,
    "wof:placetype": "custom",
    "wof:placetype_alt": [
      "instagram"
    ],
    "wof:repo": "sfomuseum-data-socialmedia-instagram",
    "wof:superseded_by": [],
    "wof:supersedes": []
  },
  "bbox": [
    -122.386166,
    37.616356,
    -122.386166,
    37.616356
  ],
  "geometry": {"type":"Point","coordinates":[-122.386166,37.616356]}
}
