{
  "id": 1729361215,
  "type": "Feature",
  "properties": {
    "date:cessation_lower": "2015-12-30",
    "date:cessation_upper": "2015-12-30",
    "date:inception_lower": "2015-12-30",
    "date:inception_upper": "2015-12-30",
    "edtf:cessation": "2015-12-30T11:40:00-08:00",
    "edtf:inception": "2015-12-30T11:40:00-08:00",
    "geom:area": 0,
    "geom:bbox": "-122.386166,37.616356,-122.386166,37.616356",
    "geom:latitude": 37.616356,
    "geom:longitude": -122.386166,
    "instagram:post": {
      "caption": {
        "body": "",
        "excerpt": "",
        "hashtags": [
          "WomenInAviation"
        ],
        "users": []
      },
      "media_id": "d9f71eb0dcf8f1af3940a907a15cf3c5",
      "path": "media/other/10448944_192860987728512_1213940833_n_17853302230056758.jpg",
      "perceptual_hash": "p:acf13a0e4b697507",
      "taken": 1451504400,
      "taken_at": "Dec 30, 2015 7:40 pm"
    },
    "millsfield:similar": {
      "google/siglip2-so400m-patch16-naflex": [
        {
          "distance": 0.036872804164886475,
          "id": 1729356427
        },
        {
          "distance": 0.03715795278549194,
          "id": 1880151037
        },
        {
          "distance": 0.11928069591522217,
          "id": 1729358129
        },
        {
          "distance": 0.1663777232170105,
          "id": 1729358129
        },
        {
          "distance": 0.18489736318588257,
          "id": 1729356427
        },
        {
          "distance": 0.18928110599517822,
          "id": 1880151037
        },
        {
          "distance": 0.3302115797996521,
          "id": 1729360133
        },
        {
          "distance": 0.331154465675354,
          "id": 1729355671
        },
        {
          "distance": 0.33192163705825806,
          "id": 1729361919
        },
        {
          "distance": 0.3361126780509949,
          "id": 1729360825
        }
      ]
    },
    "sfomuseum:placetype": "instagram",
    "src:geom": "sfomuseum",
    "wof:belongsto": [
      1159160869,
      102527513,
      102191575,
      85633793,
      102087579,
      85922583,
      85688637
    ],
    "wof:country": "US",
    "wof:created": 1451504400,
    "wof:geomhash": "b6e33f47475d56bc8da457bc31afadc8",
    "wof:hierarchy": [
      {
        "building_id": 1159160869,
        "campus_id": 102527513,
        "continent_id": 102191575,
        "country_id": 85633793,
        "county_id": 102087579,
        "custom_id": 1729361215,
        "instagram_id": 1729361215,
        "locality_id": 85922583,
        "neighbourhood_id": -1,
        "region_id": 85688637
      }
    ],
    "wof:id": 1729361215,
    "wof:lastmodified": 1787777645,
    "wof:name": "..",
    "wof:parent_id": 1159160869,
    "wof:placetype": "custom",
    "wof:placetype_alt": [
      "instagram"
    ],
    "wof:repo": "sfomuseum-data-socialmedia-instagram",
    "wof:superseded_by": [],
    "wof:supersedes": []
  },
  "bbox": [
    -122.386166,
    37.616356,
    -122.386166,
    37.616356
  ],
  "geometry": {"type":"Point","coordinates":[-122.386166,37.616356]}
}
