{
  "id": 1729358717,
  "type": "Feature",
  "properties": {
    "date:cessation_lower": "2018-01-11",
    "date:cessation_upper": "2018-01-11",
    "date:inception_lower": "2018-01-11",
    "date:inception_upper": "2018-01-11",
    "edtf:cessation": "2018-01-11T08:02:00-08:00",
    "edtf:inception": "2018-01-11T08:02:00-08:00",
    "geom:area": 0,
    "geom:bbox": "-122.386166,37.616356,-122.386166,37.616356",
    "geom:latitude": 37.616356,
    "geom:longitude": -122.386166,
    "instagram:post": {
      "caption": {
        "body": "Did you know that New York Airways offered helicopter service directly to the Pan American building? In 1965, New York Airways scheduled seventeen daily flights from John F. Kennedy Airport right to the heart of Manhattan, a flight that only took seven minutes. Fares were $7 one way and $10 round trip. Did you ever fly on New York Airways' helicopter service?  Image: Pan American World Airways Building, New York City, 1960s. Gift of the Pan Am Association. 2000.058.0466.023",
        "excerpt": "Did you know that New York Airways offered helicopter service directly to the Pan American building?",
        "hashtags": [
          "avgeek",
          "avationgeek",
          "aviation",
          "aviationhistory",
          "vintageaviation",
          "history",
          "avhistory",
          "aviationgeeks",
          "avgeeks",
          "Omniflight",
          "helicopter",
          "Clipper",
          "JFKAirport",
          "Manhattan",
          "panambuilding",
          "nyc"
        ],
        "users": []
      },
      "media_id": "73ccefd8e969c8803eaeaa8e4dbec690",
      "path": "media/other/26151914_162844897822821_1613055876606722048_n_17893052752185421.jpg",
      "perceptual_hash": "p:ea90b54ec43b87cc",
      "taken": 1515686520,
      "taken_at": "Jan 11, 2018 4:02 pm"
    },
    "millsfield:similar": {
      "google/siglip2-so400m-patch16-naflex": [
        {
          "distance": 0.1529008150100708,
          "id": 1880151071
        },
        {
          "distance": 0.15922820568084717,
          "id": 1880151071
        },
        {
          "distance": 0.1946752667427063,
          "id": 1729358481
        },
        {
          "distance": 0.21459805965423584,
          "id": 1729361067
        },
        {
          "distance": 0.23597705364227295,
          "id": 1763558843
        },
        {
          "distance": 0.23615527153015137,
          "id": 1729361153
        },
        {
          "distance": 0.23749929666519165,
          "id": 1729358481
        },
        {
          "distance": 0.24392735958099365,
          "id": 1729361171
        },
        {
          "distance": 0.2452700138092041,
          "id": 1729357345
        },
        {
          "distance": 0.24922573566436768,
          "id": 1729360365
        }
      ]
    },
    "sfomuseum:placetype": "instagram",
    "src:geom": "sfomuseum",
    "wof:belongsto": [
      1159160869,
      102527513,
      102191575,
      85633793,
      102087579,
      85922583,
      85688637
    ],
    "wof:country": "US",
    "wof:created": 1515686520,
    "wof:geomhash": "b6e33f47475d56bc8da457bc31afadc8",
    "wof:hierarchy": [
      {
        "building_id": 1159160869,
        "campus_id": 102527513,
        "continent_id": 102191575,
        "country_id": 85633793,
        "county_id": 102087579,
        "custom_id": 1729358717,
        "instagram_id": 1729358717,
        "locality_id": 85922583,
        "neighbourhood_id": -1,
        "region_id": 85688637
      }
    ],
    "wof:id": 1729358717,
    "wof:lastmodified": 1787777634,
    "wof:name": "Did you know that New York Airways offered helicopter service directly to the Pan American building?..",
    "wof:parent_id": 1159160869,
    "wof:placetype": "custom",
    "wof:placetype_alt": [
      "instagram"
    ],
    "wof:repo": "sfomuseum-data-socialmedia-instagram",
    "wof:superseded_by": [],
    "wof:supersedes": []
  },
  "bbox": [
    -122.386166,
    37.616356,
    -122.386166,
    37.616356
  ],
  "geometry": {"type":"Point","coordinates":[-122.386166,37.616356]}
}
