{
  "id": 1729362751,
  "type": "Feature",
  "properties": {
    "date:cessation_lower": "2013-04-04",
    "date:cessation_upper": "2013-04-04",
    "date:inception_lower": "2013-04-04",
    "date:inception_upper": "2013-04-04",
    "edtf:cessation": "2013-04-04T04:24:00-07:00",
    "edtf:inception": "2013-04-04T04:24:00-07:00",
    "geom:area": 0,
    "geom:bbox": "-122.386166,37.616356,-122.386166,37.616356",
    "geom:latitude": 37.616356,
    "geom:longitude": -122.386166,
    "instagram:post": {
      "caption": {
        "body": "Pan-Asian Ceramics from @AsianArtMuseum, on view pre-TSA in the Intl Term. Yuan dynasty (1271-1368) beauty in the foreground.",
        "excerpt": "Pan-Asian Ceramics from @AsianArtMuseum, on view pre-TSA in the Intl Term.",
        "hashtags": [],
        "users": []
      },
      "media_id": "5ca1e9dbd418fdd8299a3c1e5840c596",
      "path": "media/other/11275167_366916923501037_651287160_n_17842312696062499.jpg",
      "perceptual_hash": "p:bdb4f0cde032c0cd",
      "taken": 1365074640,
      "taken_at": "Apr 04, 2013 11:24 am"
    },
    "millsfield:similar": {
      "google/siglip2-so400m-patch16-naflex": [
        {
          "distance": 0.1822441816329956,
          "id": 1729362749
        },
        {
          "distance": 0.19078272581100464,
          "id": 1729362175
        },
        {
          "distance": 0.21263134479522705,
          "id": 1729362749
        },
        {
          "distance": 0.21858972311019897,
          "id": 1729362459
        },
        {
          "distance": 0.22410035133361816,
          "id": 1729362697
        },
        {
          "distance": 0.2429795265197754,
          "id": 1729362565
        },
        {
          "distance": 0.24675750732421875,
          "id": 1729362225
        },
        {
          "distance": 0.24956589937210083,
          "id": 1729362225
        },
        {
          "distance": 0.252053439617157,
          "id": 1729361283
        },
        {
          "distance": 0.2590368390083313,
          "id": 1729362733
        }
      ]
    },
    "sfomuseum:placetype": "instagram",
    "src:geom": "sfomuseum",
    "wof:belongsto": [
      1159160869,
      102527513,
      102191575,
      85633793,
      102087579,
      85922583,
      85688637
    ],
    "wof:country": "US",
    "wof:created": 1365074640,
    "wof:geomhash": "b6e33f47475d56bc8da457bc31afadc8",
    "wof:hierarchy": [
      {
        "building_id": 1159160869,
        "campus_id": 102527513,
        "continent_id": 102191575,
        "country_id": 85633793,
        "county_id": 102087579,
        "custom_id": 1729362751,
        "instagram_id": 1729362751,
        "locality_id": 85922583,
        "neighbourhood_id": -1,
        "region_id": 85688637
      }
    ],
    "wof:id": 1729362751,
    "wof:lastmodified": 1787777647,
    "wof:name": "Pan-Asian Ceramics from @AsianArtMuseum, on view pre-TSA in the Intl Term...",
    "wof:parent_id": 1159160869,
    "wof:placetype": "custom",
    "wof:placetype_alt": [
      "instagram"
    ],
    "wof:repo": "sfomuseum-data-socialmedia-instagram",
    "wof:superseded_by": [],
    "wof:supersedes": []
  },
  "bbox": [
    -122.386166,
    37.616356,
    -122.386166,
    37.616356
  ],
  "geometry": {"type":"Point","coordinates":[-122.386166,37.616356]}
}
