{
  "id": 1880151305,
  "type": "Feature",
  "properties": {
    "date:cessation_lower": "2022-11-28",
    "date:cessation_upper": "2022-11-28",
    "date:inception_lower": "2022-11-28",
    "date:inception_upper": "2022-11-28",
    "edtf:cessation": "2022-11-28T02:41:00-08:00",
    "edtf:inception": "2022-11-28T02:41:00-08:00",
    "geom:area": 0,
    "geom:bbox": "-122.386166,37.616356,-122.386166,37.616356",
    "geom:latitude": 37.616356,
    "geom:longitude": -122.386166,
    "instagram:post": {
      "caption": {
        "body": "Following the peak of their popularity in the West during the 1880s, Japanese designs continued to provide inspiration to the Art Nouveau movement at the turn of the twentieth century in Europe and the United States. Royal Doulton, which was founded in 1815, produced this “Spray” pattern in the 1880s, likely inspired by Japanese mon (紋). Mon are decorative crests traditionally used to identify a Japanese family. One of the exhibited plates also feature hanging wisteria. A symbol of longevity (fuji, 藤), wisteria has been grown for thousands of years in Japan and the motif often appears on kimono, and many forms of Japanese art.  See “Japonisme: A Passion for Japan” on display, post-security, in Terminal 2 and online at: https://bit.ly/JaponismeSFO",
        "excerpt": "Following the peak of their popularity in the West during the 1880s, Japanese designs continued to provide inspiration to the Art Nouveau movement at the turn of the twentieth century in Europe and the United States.",
        "hashtags": [
          "Japonisme",
          "Japan",
          "Design"
        ],
        "users": []
      },
      "media_id": "b45c5c506782fac47f506da2f0cf4bd8172ae80e",
      "path": "media/posts/202211/317105153_466711455595978_185287280632736965_n_17974284382766886.jpg",
      "perceptual_hash": "p:cf4030032d7e2faf",
      "taken": 1669632060,
      "taken_at": "Nov 28, 2022 10:41 am"
    },
    "millsfield:similar": {
      "google/siglip2-so400m-patch16-naflex": [
        {
          "distance": 0.1255878210067749,
          "id": 1947424879
        },
        {
          "distance": 0.14115482568740845,
          "id": 1729355059
        },
        {
          "distance": 0.14413982629776,
          "id": 1729360823
        },
        {
          "distance": 0.15421730279922485,
          "id": 1729362675
        },
        {
          "distance": 0.1586148738861084,
          "id": 1947425291
        },
        {
          "distance": 0.16440677642822266,
          "id": 1880151269
        },
        {
          "distance": 0.16735607385635376,
          "id": 1729360095
        },
        {
          "distance": 0.17802435159683228,
          "id": 1729359343
        },
        {
          "distance": 0.17902398109436035,
          "id": 1947424879
        },
        {
          "distance": 0.1815204620361328,
          "id": 1729355059
        }
      ]
    },
    "sfomuseum:placetype": "instagram",
    "src:geom": "sfomuseum",
    "wof:belongsto": [
      1159160869,
      102527513,
      102191575,
      85633793,
      102087579,
      85922583,
      85688637
    ],
    "wof:country": "US",
    "wof:created": 1669632060,
    "wof:geomhash": "b6e33f47475d56bc8da457bc31afadc8",
    "wof:hierarchy": [
      {
        "building_id": 1159160869,
        "campus_id": 102527513,
        "continent_id": 102191575,
        "country_id": 85633793,
        "county_id": 102087579,
        "custom_id": 1880151305,
        "instagram_id": 1880151305,
        "locality_id": 85922583,
        "neighbourhood_id": -1,
        "region_id": 85688637
      }
    ],
    "wof:id": 1880151305,
    "wof:lastmodified": 1787777662,
    "wof:name": "Following the peak of their popularity in the West during the 1880s, Japanese designs continued to provide inspiration to the Art Nouveau movement at the turn of the twentieth century in Europe and the United States...",
    "wof:parent_id": 1159160869,
    "wof:placetype": "custom",
    "wof:placetype_alt": [
      "instagram"
    ],
    "wof:repo": "sfomuseum-data-socialmedia-instagram",
    "wof:superseded_by": [],
    "wof:supersedes": []
  },
  "bbox": [
    -122.386166,
    37.616356,
    -122.386166,
    37.616356
  ],
  "geometry": {"type":"Point","coordinates":[-122.386166,37.616356]}
}
