{
  "id": 1729362463,
  "type": "Feature",
  "properties": {
    "date:cessation_lower": "2013-12-04",
    "date:cessation_upper": "2013-12-04",
    "date:inception_lower": "2013-12-04",
    "date:inception_upper": "2013-12-04",
    "edtf:cessation": "2013-12-04T04:18:00-08:00",
    "edtf:inception": "2013-12-04T04:18:00-08:00",
    "geom:area": 0,
    "geom:bbox": "-122.386166,37.616356,-122.386166,37.616356",
    "geom:latitude": 37.616356,
    "geom:longitude": -122.386166,
    "instagram:post": {
      "caption": {
        "body": "",
        "excerpt": "",
        "hashtags": [
          "JapaneseToys",
          "kites"
        ],
        "users": []
      },
      "media_id": "f43d8a49e7ebd1eb5b6182c94f888f55",
      "path": "media/other/1172034_224164734431294_1912364228_n_17842381231062499.jpg",
      "perceptual_hash": "p:a4ea4a936e975b24",
      "taken": 1386159480,
      "taken_at": "Dec 04, 2013 12:18 pm"
    },
    "millsfield:similar": {
      "google/siglip2-so400m-patch16-naflex": [
        {
          "distance": 0.25106263160705566,
          "id": 1729362387
        },
        {
          "distance": 0.265974760055542,
          "id": 1729362493
        },
        {
          "distance": 0.27037715911865234,
          "id": 1729361425
        },
        {
          "distance": 0.2733197808265686,
          "id": 1729355363
        },
        {
          "distance": 0.2783493995666504,
          "id": 1729362417
        },
        {
          "distance": 0.281849205493927,
          "id": 1729362959
        },
        {
          "distance": 0.2853085994720459,
          "id": 1729356163
        },
        {
          "distance": 0.28626400232315063,
          "id": 1763559119
        },
        {
          "distance": 0.288205623626709,
          "id": 1729355291
        },
        {
          "distance": 0.29012560844421387,
          "id": 1729360153
        }
      ]
    },
    "sfomuseum:placetype": "instagram",
    "src:geom": "sfomuseum",
    "wof:belongsto": [
      1159160869,
      102527513,
      102191575,
      85633793,
      102087579,
      85922583,
      85688637
    ],
    "wof:country": "US",
    "wof:created": 1386159480,
    "wof:geomhash": "b6e33f47475d56bc8da457bc31afadc8",
    "wof:hierarchy": [
      {
        "building_id": 1159160869,
        "campus_id": 102527513,
        "continent_id": 102191575,
        "country_id": 85633793,
        "county_id": 102087579,
        "custom_id": 1729362463,
        "instagram_id": 1729362463,
        "locality_id": 85922583,
        "neighbourhood_id": -1,
        "region_id": 85688637
      }
    ],
    "wof:id": 1729362463,
    "wof:lastmodified": 1787777647,
    "wof:name": "..",
    "wof:parent_id": 1159160869,
    "wof:placetype": "custom",
    "wof:placetype_alt": [
      "instagram"
    ],
    "wof:repo": "sfomuseum-data-socialmedia-instagram",
    "wof:superseded_by": [],
    "wof:supersedes": []
  },
  "bbox": [
    -122.386166,
    37.616356,
    -122.386166,
    37.616356
  ],
  "geometry": {"type":"Point","coordinates":[-122.386166,37.616356]}
}
