{
  "id": 1729360939,
  "type": "Feature",
  "properties": {
    "date:cessation_lower": "2016-03-13",
    "date:cessation_upper": "2016-03-13",
    "date:inception_lower": "2016-03-13",
    "date:inception_upper": "2016-03-13",
    "edtf:cessation": "2016-03-13T11:10:03-07:00",
    "edtf:inception": "2016-03-13T11:10:03-07:00",
    "geom:area": 0,
    "geom:bbox": "-122.386166,37.616356,-122.386166,37.616356",
    "geom:latitude": 37.616356,
    "geom:longitude": -122.386166,
    "instagram:post": {
      "caption": {
        "body": "Our collection features over one thousand safety information cards. Check out our online database, which features a few gems from our collection, including this Air California safety information card from 1980, printed on a sunny orange background. http://ow.ly/Zn2eA  Air California Boeing 737 safety information card 1980 SFO Museum Collection Gift of Thomas G. Dragges  2002.127.013",
        "excerpt": "Our collection features over one thousand safety information cards.",
        "hashtags": [],
        "users": []
      },
      "location": "San Francisco International Airport (SFO)",
      "media_id": "a75716c37422c994c7633bdbc21f38de",
      "path": "photos/201603/a75716c37422c994c7633bdbc21f38de.jpg",
      "perceptual_hash": "p:c738396760c3b6c3",
      "taken": 1457863800,
      "taken_at": "Mar 13, 2016, 10:10 AM"
    },
    "millsfield:similar": {
      "google/siglip2-so400m-patch16-naflex": [
        {
          "distance": 0.000024199485778808594,
          "id": 1763558617
        },
        {
          "distance": 0.11355805397033691,
          "id": 1763558617
        },
        {
          "distance": 0.24604052305221558,
          "id": 1880151715
        },
        {
          "distance": 0.28500300645828247,
          "id": 1880151715
        },
        {
          "distance": 0.30072689056396484,
          "id": 1729359411
        },
        {
          "distance": 0.30315881967544556,
          "id": 1729358727
        },
        {
          "distance": 0.3080431818962097,
          "id": 1729360029
        },
        {
          "distance": 0.32006359100341797,
          "id": 1729363027
        },
        {
          "distance": 0.32014721632003784,
          "id": 1880151505
        },
        {
          "distance": 0.3216620683670044,
          "id": 1729361153
        }
      ]
    },
    "sfomuseum:placetype": "instagram",
    "src:geom": "sfomuseum",
    "wof:belongsto": [
      1159160869,
      102527513,
      102191575,
      85633793,
      102087579,
      85922583,
      85688637
    ],
    "wof:country": "US",
    "wof:created": 1457892603,
    "wof:geomhash": "b6e33f47475d56bc8da457bc31afadc8",
    "wof:hierarchy": [
      {
        "building_id": 1159160869,
        "campus_id": 102527513,
        "continent_id": 102191575,
        "country_id": 85633793,
        "county_id": 102087579,
        "custom_id": 1729360939,
        "instagram_id": 1729360939,
        "locality_id": 85922583,
        "neighbourhood_id": -1,
        "region_id": 85688637
      }
    ],
    "wof:id": 1729360939,
    "wof:lastmodified": 1787777640,
    "wof:name": "Our collection features over one thousand safety information cards...",
    "wof:parent_id": 1159160869,
    "wof:placetype": "custom",
    "wof:placetype_alt": [
      "instagram"
    ],
    "wof:repo": "sfomuseum-data-socialmedia-instagram",
    "wof:superseded_by": [],
    "wof:supersedes": []
  },
  "bbox": [
    -122.386166,
    37.616356,
    -122.386166,
    37.616356
  ],
  "geometry": {"type":"Point","coordinates":[-122.386166,37.616356]}
}
