{
  "id": 1729362963,
  "type": "Feature",
  "properties": {
    "date:cessation_lower": "2012-07-06",
    "date:cessation_upper": "2012-07-06",
    "date:inception_lower": "2012-07-06",
    "date:inception_upper": "2012-07-06",
    "edtf:cessation": "2012-07-06T05:14:00-07:00",
    "edtf:inception": "2012-07-06T05:14:00-07:00",
    "geom:area": 0,
    "geom:bbox": "-122.386166,37.616356,-122.386166,37.616356",
    "geom:latitude": 37.616356,
    "geom:longitude": -122.386166,
    "instagram:post": {
      "caption": {
        "body": "We've got to hand it to our Librarian for making sure our white gloves are totally dry after being cleaned.",
        "excerpt": "We've got to hand it to our Librarian for making sure our white gloves are totally dry after being cleaned.",
        "hashtags": [],
        "users": []
      },
      "media_id": "b08faf73da5af44a16b9e29a3fda2258",
      "path": "media/other/11190258_441708072656798_209131795_n_17842256776062499.jpg",
      "perceptual_hash": "p:a3c11b986e3cec39",
      "taken": 1341576840,
      "taken_at": "Jul 06, 2012 12:14 pm"
    },
    "millsfield:similar": {
      "google/siglip2-so400m-patch16-naflex": [
        {
          "distance": 0.284745991230011,
          "id": 1729362707
        },
        {
          "distance": 0.30726712942123413,
          "id": 1729362707
        },
        {
          "distance": 0.31410521268844604,
          "id": 1729362865
        },
        {
          "distance": 0.3260113000869751,
          "id": 1729362757
        },
        {
          "distance": 0.33670657873153687,
          "id": 1729363051
        },
        {
          "distance": 0.3384929895401001,
          "id": 1729362725
        },
        {
          "distance": 0.3386686444282532,
          "id": 1729362477
        },
        {
          "distance": 0.3405648469924927,
          "id": 1729362109
        },
        {
          "distance": 0.34216833114624023,
          "id": 1729360153
        },
        {
          "distance": 0.34328192472457886,
          "id": 1729362535
        }
      ]
    },
    "sfomuseum:placetype": "instagram",
    "src:geom": "sfomuseum",
    "wof:belongsto": [
      1159160869,
      102527513,
      102191575,
      85633793,
      102087579,
      85922583,
      85688637
    ],
    "wof:country": "US",
    "wof:created": 1341576840,
    "wof:geomhash": "b6e33f47475d56bc8da457bc31afadc8",
    "wof:hierarchy": [
      {
        "building_id": 1159160869,
        "campus_id": 102527513,
        "continent_id": 102191575,
        "country_id": 85633793,
        "county_id": 102087579,
        "custom_id": 1729362963,
        "instagram_id": 1729362963,
        "locality_id": 85922583,
        "neighbourhood_id": -1,
        "region_id": 85688637
      }
    ],
    "wof:id": 1729362963,
    "wof:lastmodified": 1787777657,
    "wof:name": "We've got to hand it to our Librarian for making sure our white gloves are totally dry after being cleaned...",
    "wof:parent_id": 1159160869,
    "wof:placetype": "custom",
    "wof:placetype_alt": [
      "instagram"
    ],
    "wof:repo": "sfomuseum-data-socialmedia-instagram",
    "wof:superseded_by": [],
    "wof:supersedes": []
  },
  "bbox": [
    -122.386166,
    37.616356,
    -122.386166,
    37.616356
  ],
  "geometry": {"type":"Point","coordinates":[-122.386166,37.616356]}
}
