{
  "id": 1729359541,
  "type": "Feature",
  "properties": {
    "date:cessation_lower": "2017-05-10",
    "date:cessation_upper": "2017-05-10",
    "date:inception_lower": "2017-05-10",
    "date:inception_upper": "2017-05-10",
    "edtf:cessation": "2017-05-10T12:16:00-07:00",
    "edtf:inception": "2017-05-10T12:16:00-07:00",
    "geom:area": 0,
    "geom:bbox": "-122.386166,37.616356,-122.386166,37.616356",
    "geom:latitude": 37.616356,
    "geom:longitude": -122.386166,
    "instagram:post": {
      "caption": {
        "body": "The semi-nomadic Manchu conquerors who founded the Qing dynasty (1644–1911) embraced much of the cultural and artistic practices of the Han Chinese. However, they rejected female foot binding, in which young girls’ feet were bound to keep them extremely small. Foot binding conveyed a woman’s prominent place in Han society and made her more desirable to men. Instead of forcibly reshaping the foot, elite Manchu women conveyed their prestige by wearing platform shoes. The upper parts of the shoes were often elaborately embroidered with a variety of motifs and made of colorful silk or satin brocade. The platform shoes produced a stilted gait that slightly emulated the desirable “lotus walk” of women with bound feet. Such shoes also helped to keep feet and clothing hems clean and dry.  See more shoes from all over the world in \"Stepping Out: Shoes in World Culture\" on display, pre-security, in the International Terminal. http://bit.ly/ShoesinCulture #ShoesinCulture  Manchu platform shoes  late 19th–early 20th century China fabric, embroidery thread  Courtesy of Sally Yu Leung L2017.0107.007a,b",
        "excerpt": "The semi-nomadic Manchu conquerors who founded the Qing dynasty (1644–1911) embraced much of the cultural and artistic practices of the Han Chinese.",
        "hashtags": [
          "shoes",
          "shoestagram",
          "shoeswag",
          "shoesoftheday",
          "shoedesign",
          "instashoes",
          "shoefashion",
          "shoeslover",
          "platformshoes"
        ],
        "users": []
      },
      "media_id": "12d0043a6241b544fbb178de4431e01b",
      "path": "media/posts/201705/18443346_1942708265973990_4766919103011094528_n_17855305609193090.jpg",
      "perceptual_hash": "p:a305ad6e2f21f652",
      "taken": 1494443760,
      "taken_at": "May 10, 2017 7:16 pm"
    },
    "millsfield:similar": {
      "google/siglip2-so400m-patch16-naflex": [
        {
          "distance": 0.28681403398513794,
          "id": 1729359105
        },
        {
          "distance": 0.2904447317123413,
          "id": 1729359915
        },
        {
          "distance": 0.29993903636932373,
          "id": 1729356479
        },
        {
          "distance": 0.3053741455078125,
          "id": 1729360169
        },
        {
          "distance": 0.3155063986778259,
          "id": 1729362207
        },
        {
          "distance": 0.3202996850013733,
          "id": 1729359915
        },
        {
          "distance": 0.32985299825668335,
          "id": 1729359105
        },
        {
          "distance": 0.33294713497161865,
          "id": 1729359365
        },
        {
          "distance": 0.3411523699760437,
          "id": 1729356481
        },
        {
          "distance": 0.342671275138855,
          "id": 1729359239
        }
      ]
    },
    "sfomuseum:placetype": "instagram",
    "src:geom": "sfomuseum",
    "wof:belongsto": [
      1159160869,
      102527513,
      102191575,
      85633793,
      102087579,
      85922583,
      85688637
    ],
    "wof:country": "US",
    "wof:created": 1494443760,
    "wof:geomhash": "b6e33f47475d56bc8da457bc31afadc8",
    "wof:hierarchy": [
      {
        "building_id": 1159160869,
        "campus_id": 102527513,
        "continent_id": 102191575,
        "country_id": 85633793,
        "county_id": 102087579,
        "custom_id": 1729359541,
        "instagram_id": 1729359541,
        "locality_id": 85922583,
        "neighbourhood_id": -1,
        "region_id": 85688637
      }
    ],
    "wof:id": 1729359541,
    "wof:lastmodified": 1787777636,
    "wof:name": "The semi-nomadic Manchu conquerors who founded the Qing dynasty (1644–1911) embraced much of the cultural and artistic practices of the Han Chinese...",
    "wof:parent_id": 1159160869,
    "wof:placetype": "custom",
    "wof:placetype_alt": [
      "instagram"
    ],
    "wof:repo": "sfomuseum-data-socialmedia-instagram",
    "wof:superseded_by": [],
    "wof:supersedes": []
  },
  "bbox": [
    -122.386166,
    37.616356,
    -122.386166,
    37.616356
  ],
  "geometry": {"type":"Point","coordinates":[-122.386166,37.616356]}
}
