{
  "id": 1729362701,
  "type": "Feature",
  "properties": {
    "date:cessation_lower": "2013-05-06",
    "date:cessation_upper": "2013-05-06",
    "date:inception_lower": "2013-05-06",
    "date:inception_upper": "2013-05-06",
    "edtf:cessation": "2013-05-06T05:24:00-07:00",
    "edtf:inception": "2013-05-06T05:24:00-07:00",
    "geom:area": 0,
    "geom:bbox": "-122.386166,37.616356,-122.386166,37.616356",
    "geom:latitude": 37.616356,
    "geom:longitude": -122.386166,
    "instagram:post": {
      "caption": {
        "body": "In honor of prom season- 1958's The Senior Prom Game offered players \"all the thrills of a social season\"",
        "excerpt": "In honor of prom season- 1958's The Senior Prom Game offered players \"all the thrills of a social season\"",
        "hashtags": [],
        "users": []
      },
      "media_id": "e37beee07d3c54ef5af36b0e995a0386",
      "path": "media/other/11327440_1651673101721356_1081991616_n_17842320466062499.jpg",
      "perceptual_hash": "p:95945eed2e46e119",
      "taken": 1367843040,
      "taken_at": "May 06, 2013 12:24 pm"
    },
    "millsfield:similar": {
      "google/siglip2-so400m-patch16-naflex": [
        {
          "distance": 0.2671646475791931,
          "id": 1729362855
        },
        {
          "distance": 0.2688128352165222,
          "id": 1729362855
        },
        {
          "distance": 0.29730796813964844,
          "id": 1729362769
        },
        {
          "distance": 0.31286269426345825,
          "id": 1729362769
        },
        {
          "distance": 0.33721089363098145,
          "id": 1729362891
        },
        {
          "distance": 0.34705913066864014,
          "id": 1729362485
        },
        {
          "distance": 0.3519141674041748,
          "id": 1729362891
        },
        {
          "distance": 0.35196346044540405,
          "id": 1729362005
        },
        {
          "distance": 0.35317492485046387,
          "id": 1729362827
        },
        {
          "distance": 0.35610055923461914,
          "id": 1729362845
        }
      ]
    },
    "sfomuseum:placetype": "instagram",
    "src:geom": "sfomuseum",
    "wof:belongsto": [
      1159160869,
      102527513,
      102191575,
      85633793,
      102087579,
      85922583,
      85688637
    ],
    "wof:country": "US",
    "wof:created": 1367843040,
    "wof:geomhash": "b6e33f47475d56bc8da457bc31afadc8",
    "wof:hierarchy": [
      {
        "building_id": 1159160869,
        "campus_id": 102527513,
        "continent_id": 102191575,
        "country_id": 85633793,
        "county_id": 102087579,
        "custom_id": 1729362701,
        "instagram_id": 1729362701,
        "locality_id": 85922583,
        "neighbourhood_id": -1,
        "region_id": 85688637
      }
    ],
    "wof:id": 1729362701,
    "wof:lastmodified": 1787777647,
    "wof:name": "In honor of prom season- 1958's The Senior Prom Game offered players \"all the thrills of a social season\"..",
    "wof:parent_id": 1159160869,
    "wof:placetype": "custom",
    "wof:placetype_alt": [
      "instagram"
    ],
    "wof:repo": "sfomuseum-data-socialmedia-instagram",
    "wof:superseded_by": [],
    "wof:supersedes": []
  },
  "bbox": [
    -122.386166,
    37.616356,
    -122.386166,
    37.616356
  ],
  "geometry": {"type":"Point","coordinates":[-122.386166,37.616356]}
}
