{
  "id": 1729362127,
  "type": "Feature",
  "properties": {
    "date:cessation_lower": "2014-09-11",
    "date:cessation_upper": "2014-09-11",
    "date:inception_lower": "2014-09-11",
    "date:inception_upper": "2014-09-11",
    "edtf:cessation": "2014-09-11T13:59:54-07:00",
    "edtf:inception": "2014-09-11T13:59:54-07:00",
    "geom:area": 0,
    "geom:bbox": "-122.386166,37.616356,-122.386166,37.616356",
    "geom:latitude": 37.616356,
    "geom:longitude": -122.386166,
    "instagram:post": {
      "caption": {
        "body": "#AdIcons - appealing to all ages.",
        "excerpt": "#AdIcons - appealing to all ages.",
        "hashtags": [],
        "users": []
      },
      "location": "",
      "media_id": "ade233faa96290a75b394a40543d3ca4",
      "path": "photos/201409/ade233faa96290a75b394a40543d3ca4.jpg",
      "perceptual_hash": "p:c894234837d35b6f",
      "taken": 1410440340,
      "taken_at": "Sep 11, 2014, 12:59 PM"
    },
    "millsfield:similar": {
      "google/siglip2-so400m-patch16-naflex": [
        {
          "distance": 0.000091552734375,
          "id": 1763558603
        },
        {
          "distance": 0.12589967250823975,
          "id": 1763558603
        },
        {
          "distance": 0.3171079158782959,
          "id": 1729361063
        },
        {
          "distance": 0.3265700340270996,
          "id": 1729362301
        },
        {
          "distance": 0.33117222785949707,
          "id": 1729362269
        },
        {
          "distance": 0.33399081230163574,
          "id": 1729362269
        },
        {
          "distance": 0.3398944139480591,
          "id": 1729362379
        },
        {
          "distance": 0.3432837724685669,
          "id": 1729362493
        },
        {
          "distance": 0.3437013626098633,
          "id": 1947424919
        },
        {
          "distance": 0.3498552441596985,
          "id": 1947424987
        }
      ]
    },
    "sfomuseum:placetype": "instagram",
    "src:geom": "sfomuseum",
    "wof:belongsto": [
      1159160869,
      102527513,
      102191575,
      85633793,
      102087579,
      85922583,
      85688637
    ],
    "wof:country": "US",
    "wof:created": 1410469194,
    "wof:geomhash": "b6e33f47475d56bc8da457bc31afadc8",
    "wof:hierarchy": [
      {
        "building_id": 1159160869,
        "campus_id": 102527513,
        "continent_id": 102191575,
        "country_id": 85633793,
        "county_id": 102087579,
        "custom_id": 1729362127,
        "instagram_id": 1729362127,
        "locality_id": 85922583,
        "neighbourhood_id": -1,
        "region_id": 85688637
      }
    ],
    "wof:id": 1729362127,
    "wof:lastmodified": 1787777646,
    "wof:name": "#AdIcons - appealing to all ages...",
    "wof:parent_id": 1159160869,
    "wof:placetype": "custom",
    "wof:placetype_alt": [
      "instagram"
    ],
    "wof:repo": "sfomuseum-data-socialmedia-instagram",
    "wof:superseded_by": [],
    "wof:supersedes": []
  },
  "bbox": [
    -122.386166,
    37.616356,
    -122.386166,
    37.616356
  ],
  "geometry": {"type":"Point","coordinates":[-122.386166,37.616356]}
}
