{
  "id": 1729361353,
  "type": "Feature",
  "properties": {
    "date:cessation_lower": "2015-11-18",
    "date:cessation_upper": "2015-11-18",
    "date:inception_lower": "2015-11-18",
    "date:inception_upper": "2015-11-18",
    "edtf:cessation": "2015-11-18T04:57:00-08:00",
    "edtf:inception": "2015-11-18T04:57:00-08:00",
    "geom:area": 0,
    "geom:bbox": "-122.386166,37.616356,-122.386166,37.616356",
    "geom:latitude": 37.616356,
    "geom:longitude": -122.386166,
    "instagram:post": {
      "caption": {
        "body": "In 1965, Pacific Air Lines leased two Boeing 727 jet airliners and placed orders for four more. Emphasizing its entry into the jet age, the following year the airline streamlined its thunderbird logo and announced the introduction of new station agent uniforms with light-blue blazers and bright pink stewardess uniforms designed by Saks Fifth Avenue. \"Catch Our Style: California Regional Airlines 1950s–1980s\" features more objects from Pacific Air Lines and other California regional airlines. The exhibition is on display pre-security, in the Aviation Museum and Library in the International Terminal. The Aviation Museum and Library is open from Sunday through Friday, 10am to 4:30pm. Do you remembering flying on Pacific Air Lines?",
        "excerpt": "In 1965, Pacific Air Lines leased two Boeing 727 jet airliners and placed orders for four more.",
        "hashtags": [],
        "users": []
      },
      "media_id": "3b44d7df11d0821ed5e2edb995e92992",
      "path": "media/other/12139726_1661798947443106_962348843_n_17847555652016216.jpg",
      "perceptual_hash": "p:e45991c49bb6b878",
      "taken": 1447851420,
      "taken_at": "Nov 18, 2015 12:57 pm"
    },
    "millsfield:similar": {
      "google/siglip2-so400m-patch16-naflex": [
        {
          "distance": 0.18228203058242798,
          "id": 1729361017
        },
        {
          "distance": 0.18969380855560303,
          "id": 1729360365
        },
        {
          "distance": 0.2019858956336975,
          "id": 1729355335
        },
        {
          "distance": 0.20201325416564941,
          "id": 1763558845
        },
        {
          "distance": 0.20330685377120972,
          "id": 1729360551
        },
        {
          "distance": 0.21342766284942627,
          "id": 1729361017
        },
        {
          "distance": 0.2171207070350647,
          "id": 1729361795
        },
        {
          "distance": 0.22263693809509277,
          "id": 1763558845
        },
        {
          "distance": 0.22393858432769775,
          "id": 1729355335
        },
        {
          "distance": 0.22462248802185059,
          "id": 1729355261
        }
      ]
    },
    "sfomuseum:placetype": "instagram",
    "src:geom": "sfomuseum",
    "wof:belongsto": [
      1159160869,
      102527513,
      102191575,
      85633793,
      102087579,
      85922583,
      85688637
    ],
    "wof:country": "US",
    "wof:created": 1447851420,
    "wof:geomhash": "b6e33f47475d56bc8da457bc31afadc8",
    "wof:hierarchy": [
      {
        "building_id": 1159160869,
        "campus_id": 102527513,
        "continent_id": 102191575,
        "country_id": 85633793,
        "county_id": 102087579,
        "custom_id": 1729361353,
        "instagram_id": 1729361353,
        "locality_id": 85922583,
        "neighbourhood_id": -1,
        "region_id": 85688637
      }
    ],
    "wof:id": 1729361353,
    "wof:lastmodified": 1787777645,
    "wof:name": "In 1965, Pacific Air Lines leased two Boeing 727 jet airliners and placed orders for four more...",
    "wof:parent_id": 1159160869,
    "wof:placetype": "custom",
    "wof:placetype_alt": [
      "instagram"
    ],
    "wof:repo": "sfomuseum-data-socialmedia-instagram",
    "wof:superseded_by": [],
    "wof:supersedes": []
  },
  "bbox": [
    -122.386166,
    37.616356,
    -122.386166,
    37.616356
  ],
  "geometry": {"type":"Point","coordinates":[-122.386166,37.616356]}
}
