{
  "id": 1729361159,
  "type": "Feature",
  "properties": {
    "date:cessation_lower": "2016-01-16",
    "date:cessation_upper": "2016-01-16",
    "date:inception_lower": "2016-01-16",
    "date:inception_upper": "2016-01-16",
    "edtf:cessation": "2016-01-16T11:34:39-08:00",
    "edtf:inception": "2016-01-16T11:34:39-08:00",
    "geom:area": 0,
    "geom:bbox": "-122.386166,37.616356,-122.386166,37.616356",
    "geom:latitude": 37.616356,
    "geom:longitude": -122.386166,
    "instagram:post": {
      "caption": {
        "body": "The eight-passenger Fokker F-7 inaugurated Pan Am’s first scheduled passenger flight from Key West, Florida, to Havana, Cuba, on January 16, 1928. The three-engine plane made the 90-mile trip in about an hour, opening a network that later extended throughout the Caribbean to South America, across the Pacific and, finally, the Atlantic. #OnThisDay  Pan American Airways, Fokker F.VII, Cuba inaugural flight 1928 SFO Museum Collection Gift of the Captain John B. Russell Family 2012.149.0864",
        "excerpt": "The eight-passenger Fokker F-7 inaugurated Pan Am’s first scheduled passenger flight from Key West, Florida, to Havana, Cuba, on January 16, 1928.",
        "hashtags": [],
        "users": []
      },
      "location": "San Francisco International Airport (SFO)",
      "media_id": "e5a0f8af660b249bf21e82783e63ddd8",
      "path": "photos/201601/e5a0f8af660b249bf21e82783e63ddd8.jpg",
      "perceptual_hash": "p:c9d29c9fa1315ea4",
      "taken": 1452944040,
      "taken_at": "Jan 16, 2016, 11:34 AM"
    },
    "millsfield:similar": {
      "google/siglip2-so400m-patch16-naflex": [
        {
          "distance": 0.004374444484710693,
          "id": 1763558607
        },
        {
          "distance": 0.026863694190979004,
          "id": 1729357075
        },
        {
          "distance": 0.031444251537323,
          "id": 1729355657
        },
        {
          "distance": 0.03420674800872803,
          "id": 1880151189
        },
        {
          "distance": 0.03607898950576782,
          "id": 1729358701
        },
        {
          "distance": 0.07105493545532227,
          "id": 1729358701
        },
        {
          "distance": 0.07341122627258301,
          "id": 1729357075
        },
        {
          "distance": 0.08039093017578125,
          "id": 1763558607
        },
        {
          "distance": 0.08176648616790771,
          "id": 1880151189
        },
        {
          "distance": 0.08376145362854004,
          "id": 1729355657
        }
      ]
    },
    "sfomuseum:placetype": "instagram",
    "src:geom": "sfomuseum",
    "wof:belongsto": [
      1159160869,
      102527513,
      102191575,
      85633793,
      102087579,
      85922583,
      85688637
    ],
    "wof:country": "US",
    "wof:created": 1452972879,
    "wof:geomhash": "b6e33f47475d56bc8da457bc31afadc8",
    "wof:hierarchy": [
      {
        "building_id": 1159160869,
        "campus_id": 102527513,
        "continent_id": 102191575,
        "country_id": 85633793,
        "county_id": 102087579,
        "custom_id": 1729361159,
        "instagram_id": 1729361159,
        "locality_id": 85922583,
        "neighbourhood_id": -1,
        "region_id": 85688637
      }
    ],
    "wof:id": 1729361159,
    "wof:lastmodified": 1787777645,
    "wof:name": "The eight-passenger Fokker F-7 inaugurated Pan Am’s first scheduled passenger flight from Key West, Florida, to Havana, Cuba, on January 16, 1928...",
    "wof:parent_id": 1159160869,
    "wof:placetype": "custom",
    "wof:placetype_alt": [
      "instagram"
    ],
    "wof:repo": "sfomuseum-data-socialmedia-instagram",
    "wof:superseded_by": [],
    "wof:supersedes": []
  },
  "bbox": [
    -122.386166,
    37.616356,
    -122.386166,
    37.616356
  ],
  "geometry": {"type":"Point","coordinates":[-122.386166,37.616356]}
}
