{
  "id": 1729356833,
  "type": "Feature",
  "properties": {
    "date:cessation_lower": "2019-03-11",
    "date:cessation_upper": "2019-03-11",
    "date:inception_lower": "2019-03-11",
    "date:inception_upper": "2019-03-11",
    "edtf:cessation": "2019-03-11T09:50:00-07:00",
    "edtf:inception": "2019-03-11T09:50:00-07:00",
    "geom:area": 0,
    "geom:bbox": "-122.386166,37.616356,-122.386166,37.616356",
    "geom:latitude": 37.616356,
    "geom:longitude": -122.386166,
    "instagram:post": {
      "caption": {
        "body": "Television quickly surpassed radio as the most popular media in the United States during the 1950s. At the beginning of the decade, approximately one in ten households owned a television. By 1960, at least one TV set was installed in nearly ninety percent of American homes. Portable TV sets brought television to a wider audience. Compact and more affordable than heavier, full-size models, portable televisions could be transported to various rooms of the home with relative ease. In the mid-1950s, personal portable sets incorporated miniature tubes and became even smaller—however, they still required household voltage to operate. \"The Modern Consumer: Products and Style\" is on display, post-security, in Terminal 3. http://bit.ly/1950sConsumer",
        "excerpt": "Television quickly surpassed radio as the most popular media in the United States during the 1950s.",
        "hashtags": [
          "1950sConsumer",
          "1950s",
          "vintage",
          "50s",
          "midcentury",
          "classic",
          "retro",
          "TV",
          "television"
        ],
        "users": []
      },
      "media_id": "f8514a4ed57a18be10c063a7b334cbb6",
      "path": "media/posts/201903/53098742_403753643505339_8144257314267266925_n_17924214769303079.jpg",
      "perceptual_hash": "p:ecece8b832874396",
      "taken": 1552323000,
      "taken_at": "Mar 11, 2019 4:50 pm"
    },
    "millsfield:similar": {
      "google/siglip2-so400m-patch16-naflex": [
        {
          "distance": 0.1912320852279663,
          "id": 1763558761
        },
        {
          "distance": 0.19363826513290405,
          "id": 1729358039
        },
        {
          "distance": 0.19480079412460327,
          "id": 1729358237
        },
        {
          "distance": 0.19772660732269287,
          "id": 1729356719
        },
        {
          "distance": 0.2010728120803833,
          "id": 1729356839
        },
        {
          "distance": 0.20733481645584106,
          "id": 1729357979
        },
        {
          "distance": 0.20733481645584106,
          "id": 1729357975
        },
        {
          "distance": 0.20860111713409424,
          "id": 1729356837
        },
        {
          "distance": 0.22092831134796143,
          "id": 1729358309
        },
        {
          "distance": 0.22435146570205688,
          "id": 1729358039
        }
      ]
    },
    "sfomuseum:placetype": "instagram",
    "src:geom": "sfomuseum",
    "wof:belongsto": [
      1159160869,
      102527513,
      102191575,
      85633793,
      102087579,
      85922583,
      85688637
    ],
    "wof:country": "US",
    "wof:created": 1552323000,
    "wof:geomhash": "b6e33f47475d56bc8da457bc31afadc8",
    "wof:hierarchy": [
      {
        "building_id": 1159160869,
        "campus_id": 102527513,
        "continent_id": 102191575,
        "country_id": 85633793,
        "county_id": 102087579,
        "custom_id": 1729356833,
        "instagram_id": 1729356833,
        "locality_id": 85922583,
        "neighbourhood_id": -1,
        "region_id": 85688637
      }
    ],
    "wof:id": 1729356833,
    "wof:lastmodified": 1787777629,
    "wof:name": "Television quickly surpassed radio as the most popular media in the United States during the 1950s...",
    "wof:parent_id": 1159160869,
    "wof:placetype": "custom",
    "wof:placetype_alt": [
      "instagram"
    ],
    "wof:repo": "sfomuseum-data-socialmedia-instagram",
    "wof:superseded_by": [],
    "wof:supersedes": []
  },
  "bbox": [
    -122.386166,
    37.616356,
    -122.386166,
    37.616356
  ],
  "geometry": {"type":"Point","coordinates":[-122.386166,37.616356]}
}
