{
  "id": 1729359293,
  "type": "Feature",
  "properties": {
    "date:cessation_lower": "2017-07-19",
    "date:cessation_upper": "2017-07-19",
    "date:inception_lower": "2017-07-19",
    "date:inception_upper": "2017-07-19",
    "edtf:cessation": "2017-07-19T03:16:00-07:00",
    "edtf:inception": "2017-07-19T03:16:00-07:00",
    "geom:area": 0,
    "geom:bbox": "-122.386166,37.616356,-122.386166,37.616356",
    "geom:latitude": 37.616356,
    "geom:longitude": -122.386166,
    "instagram:post": {
      "caption": {
        "body": "Mexican fashion designer Macario Jiménez studied at Milan’s Marangoni Institute and created his own clothing brand in 1994 specializing in women’s ready-to-wear. His Aeroméxico uniform, worn from 2008 to 2011, is a black polyester knit suit worn with a skirt or pants. The trim, tailored look of the jacket and skirt is highlighted with red piping, a two-tone tie belt, and dramatic kick pleat. The outfit is finished with the multicolor scarf. \"#FashionInFlight: A History of Airline Uniform Design\" is on display, pre-security, in the Aviation Museum. http://bit.ly/FashionInFlight1",
        "excerpt": "Mexican fashion designer Macario Jiménez studied at Milan’s Marangoni Institute and created his own clothing brand in 1994 specializing in women’s ready-to-wear.",
        "hashtags": [
          "fashion",
          "flightattendant",
          "uniform",
          "aviationhistory",
          "avgeek",
          "WomeninAviation",
          "fashionHistory",
          "MacarioJiménez",
          "Jiménez",
          "Milan",
          "mexico",
          "aeromexico",
          "MarangoniInstitute"
        ],
        "users": []
      },
      "media_id": "52c95fe8274de933d9a0476cc2f37e2e",
      "path": "media/posts/201707/20214614_1878892722357516_7112131925648605184_n_17876627764120991.jpg",
      "perceptual_hash": "p:ceb1c69b4d907364",
      "taken": 1500459360,
      "taken_at": "Jul 19, 2017 10:16 am"
    },
    "millsfield:similar": {
      "google/siglip2-so400m-patch16-naflex": [
        {
          "distance": 0.18668639659881592,
          "id": 1729359995
        },
        {
          "distance": 0.20552533864974976,
          "id": 1729359995
        },
        {
          "distance": 0.21401619911193848,
          "id": 1729360439
        },
        {
          "distance": 0.2144055962562561,
          "id": 1729359957
        },
        {
          "distance": 0.21636956930160522,
          "id": 1729360101
        },
        {
          "distance": 0.22348248958587646,
          "id": 1729359957
        },
        {
          "distance": 0.2318083643913269,
          "id": 1729359325
        },
        {
          "distance": 0.23494482040405273,
          "id": 1763559499
        },
        {
          "distance": 0.23847073316574097,
          "id": 1729359467
        },
        {
          "distance": 0.24073266983032227,
          "id": 1729359535
        }
      ]
    },
    "sfomuseum:placetype": "instagram",
    "src:geom": "sfomuseum",
    "wof:belongsto": [
      1159160869,
      102527513,
      102191575,
      85633793,
      102087579,
      85922583,
      85688637
    ],
    "wof:country": "US",
    "wof:created": 1500459360,
    "wof:geomhash": "b6e33f47475d56bc8da457bc31afadc8",
    "wof:hierarchy": [
      {
        "building_id": 1159160869,
        "campus_id": 102527513,
        "continent_id": 102191575,
        "country_id": 85633793,
        "county_id": 102087579,
        "custom_id": 1729359293,
        "instagram_id": 1729359293,
        "locality_id": 85922583,
        "neighbourhood_id": -1,
        "region_id": 85688637
      }
    ],
    "wof:id": 1729359293,
    "wof:lastmodified": 1787777635,
    "wof:name": "Mexican fashion designer Macario Jiménez studied at Milan’s Marangoni Institute and created his own clothing brand in 1994 specializing in women’s ready-to-wear...",
    "wof:parent_id": 1159160869,
    "wof:placetype": "custom",
    "wof:placetype_alt": [
      "instagram"
    ],
    "wof:repo": "sfomuseum-data-socialmedia-instagram",
    "wof:superseded_by": [],
    "wof:supersedes": []
  },
  "bbox": [
    -122.386166,
    37.616356,
    -122.386166,
    37.616356
  ],
  "geometry": {"type":"Point","coordinates":[-122.386166,37.616356]}
}
