{
  "id": 1947424841,
  "type": "Feature",
  "properties": {
    "date:cessation_lower": "2024-10-08",
    "date:cessation_upper": "2024-10-08",
    "date:inception_lower": "2024-10-08",
    "date:inception_upper": "2024-10-08",
    "edtf:cessation": "2024-10-08T08:50:00-07:00",
    "edtf:inception": "2024-10-08T08:50:00-07:00",
    "geom:area": 0,
    "geom:bbox": "-122.386166,37.616356,-122.386166,37.616356",
    "geom:latitude": 37.616356,
    "geom:longitude": -122.386166,
    "instagram:post": {
      "caption": {
        "body": "Manuel Neri was a prominent member in the San Francisco Bay Area figurative movement in the 1950s and 1960s. He continued to create life-size figurative sculptures in plaster, bronze and marble over the succeeding decades. Neri said of his devotion to the figure: “I’ve always been intrigued with the spirit the figure conveys…It is the God-spirit that I think is the real God for us. It is the thing inside us that I want to talk about in the figure.”  See “Mujer Pegada, No. 4” by Manuel Neri on display, pre-security, in Harvey Milk Terminal 1 and online at: https://bit.ly/4dZWsXV",
        "excerpt": "Manuel Neri was a prominent member in the San Francisco Bay Area figurative movement in the 1950s and 1960s.",
        "hashtags": [
          "HispanicHeritageMonth"
        ],
        "users": [
          "sf_arts_commission"
        ]
      },
      "media_id": "73806141b938c2c65b4e84ea1852425b3789e36a",
      "path": "media/other/462335196_1048878913915704_7512373969776702226_n_17920928852976609.jpg",
      "perceptual_hash": "p:a18bc70ccd34d976",
      "taken": 1728402600,
      "taken_at": "Oct 08, 2024 3:50 pm"
    },
    "millsfield:similar": {
      "google/siglip2-so400m-patch16-naflex": [
        {
          "distance": 0.22637563943862915,
          "id": 1729357139
        },
        {
          "distance": 0.23304462432861328,
          "id": 1763559407
        },
        {
          "distance": 0.2366378903388977,
          "id": 1729355475
        },
        {
          "distance": 0.24844074249267578,
          "id": 1880151737
        },
        {
          "distance": 0.25026410818099976,
          "id": 1729355475
        },
        {
          "distance": 0.265386164188385,
          "id": 1880151677
        },
        {
          "distance": 0.2656102180480957,
          "id": 1729357261
        },
        {
          "distance": 0.266072154045105,
          "id": 1880151557
        },
        {
          "distance": 0.26758819818496704,
          "id": 1763558925
        },
        {
          "distance": 0.2686920762062073,
          "id": 1729355461
        }
      ]
    },
    "sfomuseum:placetype": "instagram",
    "src:geom": "sfomuseum",
    "wof:belongsto": [
      1159160869,
      102527513,
      102191575,
      85633793,
      102087579,
      85922583,
      85688637
    ],
    "wof:country": "US",
    "wof:created": 1728402600,
    "wof:geomhash": "b6e33f47475d56bc8da457bc31afadc8",
    "wof:hierarchy": [
      {
        "building_id": 1159160869,
        "campus_id": 102527513,
        "continent_id": 102191575,
        "country_id": 85633793,
        "county_id": 102087579,
        "custom_id": 1947424841,
        "locality_id": 85922583,
        "neighbourhood_id": -1,
        "region_id": 85688637
      }
    ],
    "wof:id": 1947424841,
    "wof:lastmodified": 1787777664,
    "wof:name": "Manuel Neri was a prominent member in the San Francisco Bay Area figurative movement in the 1950s and 1960s...",
    "wof:parent_id": 1159160869,
    "wof:placetype": "custom",
    "wof:repo": "sfomuseum-data-socialmedia-instagram",
    "wof:superseded_by": [],
    "wof:supersedes": []
  },
  "bbox": [
    -122.386166,
    37.616356,
    -122.386166,
    37.616356
  ],
  "geometry": {"type":"Point","coordinates":[-122.386166,37.616356]}
}
