{
  "id": 1729362545,
  "type": "Feature",
  "properties": {
    "date:cessation_lower": "2013-09-16",
    "date:cessation_upper": "2013-09-16",
    "date:inception_lower": "2013-09-16",
    "date:inception_upper": "2013-09-16",
    "edtf:cessation": "2013-09-16T05:35:00-07:00",
    "edtf:inception": "2013-09-16T05:35:00-07:00",
    "geom:area": 0,
    "geom:bbox": "-122.386166,37.616356,-122.386166,37.616356",
    "geom:latitude": 37.616356,
    "geom:longitude": -122.386166,
    "instagram:post": {
      "caption": {
        "body": "",
        "excerpt": "",
        "hashtags": [
          "Sikorsky",
          "airplane.",
          "avgeek",
          "aviation"
        ],
        "users": []
      },
      "media_id": "5cc104fbe3506fb9d5b791e5f31b8a65",
      "path": "media/other/11379347_1165558950136957_1768665531_n_17842359880062499.jpg",
      "perceptual_hash": "p:8c7ecc34e3895363",
      "taken": 1379334900,
      "taken_at": "Sep 16, 2013 12:35 pm"
    },
    "millsfield:similar": {
      "google/siglip2-so400m-patch16-naflex": [
        {
          "distance": 0.2820342183113098,
          "id": 1729362641
        },
        {
          "distance": 0.28426235914230347,
          "id": 1729362641
        },
        {
          "distance": 0.2867721915245056,
          "id": 1729362515
        },
        {
          "distance": 0.2873343825340271,
          "id": 1729360069
        },
        {
          "distance": 0.2913975119590759,
          "id": 1729360455
        },
        {
          "distance": 0.2946254014968872,
          "id": 1729362291
        },
        {
          "distance": 0.29758989810943604,
          "id": 1729362631
        },
        {
          "distance": 0.30690431594848633,
          "id": 1729362631
        },
        {
          "distance": 0.3094508647918701,
          "id": 1729362965
        },
        {
          "distance": 0.31081199645996094,
          "id": 1729362053
        }
      ]
    },
    "sfomuseum:placetype": "instagram",
    "src:geom": "sfomuseum",
    "wof:belongsto": [
      1159160869,
      102527513,
      102191575,
      85633793,
      102087579,
      85922583,
      85688637
    ],
    "wof:country": "US",
    "wof:created": 1379334900,
    "wof:geomhash": "b6e33f47475d56bc8da457bc31afadc8",
    "wof:hierarchy": [
      {
        "building_id": 1159160869,
        "campus_id": 102527513,
        "continent_id": 102191575,
        "country_id": 85633793,
        "county_id": 102087579,
        "custom_id": 1729362545,
        "instagram_id": 1729362545,
        "locality_id": 85922583,
        "neighbourhood_id": -1,
        "region_id": 85688637
      }
    ],
    "wof:id": 1729362545,
    "wof:lastmodified": 1787777647,
    "wof:name": "..",
    "wof:parent_id": 1159160869,
    "wof:placetype": "custom",
    "wof:placetype_alt": [
      "instagram"
    ],
    "wof:repo": "sfomuseum-data-socialmedia-instagram",
    "wof:superseded_by": [],
    "wof:supersedes": []
  },
  "bbox": [
    -122.386166,
    37.616356,
    -122.386166,
    37.616356
  ],
  "geometry": {"type":"Point","coordinates":[-122.386166,37.616356]}
}
