{
  "id": 1729358269,
  "type": "Feature",
  "properties": {
    "date:cessation_lower": "2018-05-10",
    "date:cessation_upper": "2018-05-10",
    "date:inception_lower": "2018-05-10",
    "date:inception_upper": "2018-05-10",
    "edtf:cessation": "2018-05-10T12:01:17-07:00",
    "edtf:inception": "2018-05-10T12:01:17-07:00",
    "geom:area": 0,
    "geom:bbox": "-122.386166,37.616356,-122.386166,37.616356",
    "geom:latitude": 37.616356,
    "geom:longitude": -122.386166,
    "instagram:post": {
      "caption": {
        "body": "Described by Fortune magazine in 1936 as “the gaudy brother of somber Bakelite,” Catalin, the trade name for a cast-phenolic plastic made in a variety of brilliant colors, was first used to make smaller items such as bracelets, chess pieces, and buckles. By mixing and matching the bright and lustrous range of Catalin colors, designers including Walter Dorwin Teague (1883–1960) and Norman Bel Geddes (1893–1958) created radio cases that embodied progress and optimism during the Great Depression. Made from the mid-1930s through the late 1940s, Catalin radios are colorful, visually expressive examples of modern styling and industrial design. Now highly sought after by collectors, these radios exhibit influences of Art Deco and combine art and style with functional objects.  Radio courtesy of Jaime Arbona. \"On the Radio\" is on display, post-security, in Terminal 3. http://bit.ly/RadioSFO",
        "excerpt": "Described by Fortune magazine in 1936 as “the gaudy brother of somber Bakelite,” Catalin, the trade name for a cast-phenolic plastic made in a variety of brilliant colors, was first used to make smaller items such as bracelets, chess pieces, and buckles.",
        "hashtags": [
          "RadioSFO",
          "Catalin",
          "plastics",
          "Bakelite",
          "resin",
          "ontheradio",
          "radio",
          "radios",
          "wireless",
          "vintage",
          "antique",
          "vintageradio",
          "portableradio",
          "retroradio",
          "retro",
          "normanbelgeddes",
          "modernism",
          "design"
        ],
        "users": []
      },
      "location": "",
      "media_id": "e87341bafccf29c5080867dddd81df80",
      "path": "photos/201805/e87341bafccf29c5080867dddd81df80.jpg",
      "perceptual_hash": "p:ee10916fc46b1be1",
      "taken": 1525950060,
      "taken_at": "May 10, 2018, 11:01 AM"
    },
    "millsfield:similar": {
      "google/siglip2-so400m-patch16-naflex": [
        {
          "distance": 0.028093814849853516,
          "id": 1729358245
        },
        {
          "distance": 0.039225995540618896,
          "id": 1729358247
        },
        {
          "distance": 0.08260256052017212,
          "id": 1729358245
        },
        {
          "distance": 0.09800469875335693,
          "id": 1729358247
        },
        {
          "distance": 0.12329334020614624,
          "id": 1729358345
        },
        {
          "distance": 0.1554192304611206,
          "id": 1729358345
        },
        {
          "distance": 0.16197305917739868,
          "id": 1729358223
        },
        {
          "distance": 0.16749560832977295,
          "id": 1729358295
        },
        {
          "distance": 0.1739007830619812,
          "id": 1729358115
        },
        {
          "distance": 0.17700296640396118,
          "id": 1729357987
        }
      ]
    },
    "sfomuseum:placetype": "instagram",
    "src:geom": "sfomuseum",
    "wof:belongsto": [
      1159160869,
      102527513,
      102191575,
      85633793,
      102087579,
      85922583,
      85688637
    ],
    "wof:country": "US",
    "wof:created": 1525978877,
    "wof:geomhash": "b6e33f47475d56bc8da457bc31afadc8",
    "wof:hierarchy": [
      {
        "building_id": 1159160869,
        "campus_id": 102527513,
        "continent_id": 102191575,
        "country_id": 85633793,
        "county_id": 102087579,
        "custom_id": 1729358269,
        "instagram_id": 1729358269,
        "locality_id": 85922583,
        "neighbourhood_id": -1,
        "region_id": 85688637
      }
    ],
    "wof:id": 1729358269,
    "wof:lastmodified": 1787777633,
    "wof:name": "Described by Fortune magazine in 1936 as “the gaudy brother of somber Bakelite,” Catalin, the trade name for a cast-phenolic plastic made in a variety of brilliant colors, was first used to make smaller items such as bracelets, chess pieces, and buckles...",
    "wof:parent_id": 1159160869,
    "wof:placetype": "custom",
    "wof:placetype_alt": [
      "instagram"
    ],
    "wof:repo": "sfomuseum-data-socialmedia-instagram",
    "wof:superseded_by": [],
    "wof:supersedes": []
  },
  "bbox": [
    -122.386166,
    37.616356,
    -122.386166,
    37.616356
  ],
  "geometry": {"type":"Point","coordinates":[-122.386166,37.616356]}
}
