{
  "id": 1729355835,
  "type": "Feature",
  "properties": {
    "date:cessation_lower": "2019-12-03",
    "date:cessation_upper": "2019-12-03",
    "date:inception_lower": "2019-12-03",
    "date:inception_upper": "2019-12-03",
    "edtf:cessation": "2019-12-02T18:13:00-08:00",
    "edtf:inception": "2019-12-02T18:13:00-08:00",
    "geom:area": 0,
    "geom:bbox": "-122.386166,37.616356,-122.386166,37.616356",
    "geom:latitude": 37.616356,
    "geom:longitude": -122.386166,
    "instagram:post": {
      "caption": {
        "body": "In response to the Victorians’ love of collecting and eclectic display, furniture firms also produced smaller, shorter stands to display all manner of items—from plants, vases, and candleholders to smoking paraphernalia. Such stands might grace drawing rooms, hallways, and parlors. Plant stands often have a rim encircling their tops. Kilian Brothers produced a variety of plant stands with lively decorative details. This ebonized pedestal features polychrome painted decoration and gilding. Greek fretwork adorns the bottom of the plant stand while winged cherubs grace either side; gold chains drape from their feet. “The Style of Display: Victorian Pedestals” is on display pre-security in the International Terminal. http://bit.ly/VictorianPedestals",
        "excerpt": "In response to the Victorians’ love of collecting and eclectic display, furniture firms also produced smaller, shorter stands to display all manner of items—from plants, vases, and candleholders to smoking paraphernalia.",
        "hashtags": [
          "VictorianPedestals",
          "victorian",
          "pedestals",
          "victorianfurniture",
          "victoriana",
          "design",
          "decorativeart",
          "interiorstyle"
        ],
        "users": []
      },
      "location": "",
      "media_id": "99ca3c24c9bc1d28f9c07ef8863a866e",
      "path": "photos/201912/99ca3c24c9bc1d28f9c07ef8863a866e.jpg",
      "perceptual_hash": "p:b94386c8977c6366",
      "taken": 1575310380,
      "taken_at": "Dec 2, 2019, 6:13 PM"
    },
    "millsfield:similar": {
      "google/siglip2-so400m-patch16-naflex": [
        {
          "distance": 0.13313651084899902,
          "id": 1729355831
        },
        {
          "distance": 0.14717483520507812,
          "id": 1729356501
        },
        {
          "distance": 0.15513074398040771,
          "id": 1729355839
        },
        {
          "distance": 0.15655869245529175,
          "id": 1729356401
        },
        {
          "distance": 0.1568729281425476,
          "id": 1729356501
        },
        {
          "distance": 0.16089868545532227,
          "id": 1729356251
        },
        {
          "distance": 0.1642560362815857,
          "id": 1729356175
        },
        {
          "distance": 0.17317640781402588,
          "id": 1729355831
        },
        {
          "distance": 0.18543851375579834,
          "id": 1729356457
        },
        {
          "distance": 0.18674546480178833,
          "id": 1729356469
        }
      ]
    },
    "sfomuseum:placetype": "instagram",
    "src:geom": "sfomuseum",
    "wof:belongsto": [
      1159160869,
      102527513,
      102191575,
      85633793,
      102087579,
      85922583,
      85688637
    ],
    "wof:country": "US",
    "wof:created": 1575339180,
    "wof:geomhash": "b6e33f47475d56bc8da457bc31afadc8",
    "wof:hierarchy": [
      {
        "building_id": 1159160869,
        "campus_id": 102527513,
        "continent_id": 102191575,
        "country_id": 85633793,
        "county_id": 102087579,
        "custom_id": 1729355835,
        "instagram_id": 1729355835,
        "locality_id": 85922583,
        "neighbourhood_id": -1,
        "region_id": 85688637
      }
    ],
    "wof:id": 1729355835,
    "wof:lastmodified": 1787777627,
    "wof:name": "In response to the Victorians’ love of collecting and eclectic display, furniture firms also produced smaller, shorter stands to display all manner of items—from plants, vases, and candleholders to smoking paraphernalia...",
    "wof:parent_id": 1159160869,
    "wof:placetype": "custom",
    "wof:placetype_alt": [
      "instagram"
    ],
    "wof:repo": "sfomuseum-data-socialmedia-instagram",
    "wof:superseded_by": [],
    "wof:supersedes": []
  },
  "bbox": [
    -122.386166,
    37.616356,
    -122.386166,
    37.616356
  ],
  "geometry": {"type":"Point","coordinates":[-122.386166,37.616356]}
}
