{
  "id": 1729359663,
  "type": "Feature",
  "properties": {
    "date:cessation_lower": "2017-03-31",
    "date:cessation_upper": "2017-03-31",
    "date:inception_lower": "2017-03-31",
    "date:inception_upper": "2017-03-31",
    "edtf:cessation": "2017-03-31T01:57:00-07:00",
    "edtf:inception": "2017-03-31T01:57:00-07:00",
    "geom:area": 0,
    "geom:bbox": "-122.386166,37.616356,-122.386166,37.616356",
    "geom:latitude": 37.616356,
    "geom:longitude": -122.386166,
    "instagram:post": {
      "caption": {
        "body": "The Pan Am Historical Foundation was established #onthisday in 1992 by a group of former Pan American employees to preserve and promote the unique heritage of Pan American World Airways, Inc. and its incomparable contributions to the technology, convenience, safety and excitement of commercial aviation. Thank you for your donations to the SFO Museum collection, including this fantastic 50th anniversary Pan American poster!  Image:  Pan American World Airways poster, 50th anniversary, c.1977. Gift of The Pan Am Historical Foundation. 2014.089.005",
        "excerpt": "The Pan Am Historical Foundation was established #onthisday in 1992 by a group of former Pan American employees to preserve and promote the unique heritage of Pan American World Airways, Inc. and its incomparable contributions to the technology, convenience, safety and excitement of commercial aviation.",
        "hashtags": [
          "PanAmericanHistoricalFoundation",
          "PanAm",
          "Avgeek",
          "aviationhistory"
        ],
        "users": []
      },
      "media_id": "e68f1a5c62b7db03d99fdb9bb91a91dc",
      "path": "media/posts/201703/17587400_418753681811784_6098713952408043520_n_17876484877061773.jpg",
      "perceptual_hash": "p:bce6c593c0699366",
      "taken": 1490950620,
      "taken_at": "Mar 31, 2017 8:57 am"
    },
    "millsfield:similar": {
      "google/siglip2-so400m-patch16-naflex": [
        {
          "distance": 0.21099448204040527,
          "id": 1729356023
        },
        {
          "distance": 0.21514731645584106,
          "id": 1763558821
        },
        {
          "distance": 0.22074979543685913,
          "id": 1729361153
        },
        {
          "distance": 0.2291654348373413,
          "id": 1729360475
        },
        {
          "distance": 0.23074710369110107,
          "id": 1880151013
        },
        {
          "distance": 0.24159955978393555,
          "id": 1729356023
        },
        {
          "distance": 0.24184465408325195,
          "id": 1763558821
        },
        {
          "distance": 0.24474579095840454,
          "id": 1763558719
        },
        {
          "distance": 0.24776238203048706,
          "id": 1729358583
        },
        {
          "distance": 0.24943524599075317,
          "id": 1880151161
        }
      ]
    },
    "sfomuseum:placetype": "instagram",
    "src:geom": "sfomuseum",
    "wof:belongsto": [
      1159160869,
      102527513,
      102191575,
      85633793,
      102087579,
      85922583,
      85688637
    ],
    "wof:country": "US",
    "wof:created": 1490950620,
    "wof:geomhash": "b6e33f47475d56bc8da457bc31afadc8",
    "wof:hierarchy": [
      {
        "building_id": 1159160869,
        "campus_id": 102527513,
        "continent_id": 102191575,
        "country_id": 85633793,
        "county_id": 102087579,
        "custom_id": 1729359663,
        "instagram_id": 1729359663,
        "locality_id": 85922583,
        "neighbourhood_id": -1,
        "region_id": 85688637
      }
    ],
    "wof:id": 1729359663,
    "wof:lastmodified": 1787777636,
    "wof:name": "The Pan Am Historical Foundation was established #onthisday in 1992 by a group of former Pan American employees to preserve and promote the unique heritage of Pan American World Airways, Inc. and its incomparable contributions to the technology, convenience, safety and excitement of commercial aviation...",
    "wof:parent_id": 1159160869,
    "wof:placetype": "custom",
    "wof:placetype_alt": [
      "instagram"
    ],
    "wof:repo": "sfomuseum-data-socialmedia-instagram",
    "wof:superseded_by": [],
    "wof:supersedes": []
  },
  "bbox": [
    -122.386166,
    37.616356,
    -122.386166,
    37.616356
  ],
  "geometry": {"type":"Point","coordinates":[-122.386166,37.616356]}
}
