{
  "id": 1729355871,
  "type": "Feature",
  "properties": {
    "date:cessation_lower": "2019-11-19",
    "date:cessation_upper": "2019-11-19",
    "date:inception_lower": "2019-11-19",
    "date:inception_upper": "2019-11-19",
    "edtf:cessation": "2019-11-19T05:17:00-08:00",
    "edtf:inception": "2019-11-19T05:17:00-08:00",
    "geom:area": 0,
    "geom:bbox": "-122.386166,37.616356,-122.386166,37.616356",
    "geom:latitude": 37.616356,
    "geom:longitude": -122.386166,
    "instagram:post": {
      "caption": {
        "body": "Taxiing out from Pan American seaplane base at Dinner Key, Miami, Florida, the airline's new Sikorsky S-40 prepared for take off on its inaugural passenger flight #onthisday in 1931. This flying boat, then the largest commercial airplane built in the United States, was christened \"American Clipper\" by First Lady Mrs. Herbert Hoover. It was the first to carry the famous \"Clipper\" name, which was subsequently registered as a trademark by Pan American. While the detached wing and twin-boom design of the S-40 was similar to the S-38 model, it was roughly twice the size, required a crew of six, and carried thirty more passengers than its predecessor. The \"American Clipper\" arrived in Cristobal in the Panama Canal Zone with thirty-three passengers and several hundred pounds of mail.  Image: Pan American Airways, Sikorsky S-40 “American Clipper”, c. 1931. Gift of the Captain John B. Russell Family. 2012.149.1459",
        "excerpt": "Taxiing out from Pan American seaplane base at Dinner Key, Miami, Florida, the airline's new Sikorsky S-40 prepared for take off on its inaugural passenger flight #onthisday in 1931.",
        "hashtags": [
          "avgeek",
          "panam",
          "seaplane",
          "sikorsky",
          "dinnerkey",
          "clipper",
          "aviationhistory"
        ],
        "users": []
      },
      "media_id": "d8c3f6f4f8e1655cac24dca4631402b8",
      "path": "media/other/70909061_2395772657218415_7272549589487600649_n_17846584324759767.jpg",
      "perceptual_hash": "p:e0eac66a19ccc6c7",
      "taken": 1574169420,
      "taken_at": "Nov 19, 2019 1:17 pm"
    },
    "millsfield:similar": {
      "google/siglip2-so400m-patch16-naflex": [
        {
          "distance": 0.10667073726654053,
          "id": 1729358695
        },
        {
          "distance": 0.12352108955383301,
          "id": 1880151189
        },
        {
          "distance": 0.12623625993728638,
          "id": 1729357041
        },
        {
          "distance": 0.1293795108795166,
          "id": 1729357075
        },
        {
          "distance": 0.1309170126914978,
          "id": 1729355657
        },
        {
          "distance": 0.1329106092453003,
          "id": 1880151691
        },
        {
          "distance": 0.13534009456634521,
          "id": 1729358701
        },
        {
          "distance": 0.1367540955543518,
          "id": 1880151387
        },
        {
          "distance": 0.1368212103843689,
          "id": 1729357537
        },
        {
          "distance": 0.13963717222213745,
          "id": 1729361159
        }
      ]
    },
    "sfomuseum:placetype": "instagram",
    "src:geom": "sfomuseum",
    "wof:belongsto": [
      1159160869,
      102527513,
      102191575,
      85633793,
      102087579,
      85922583,
      85688637
    ],
    "wof:country": "US",
    "wof:created": 1574169420,
    "wof:geomhash": "b6e33f47475d56bc8da457bc31afadc8",
    "wof:hierarchy": [
      {
        "building_id": 1159160869,
        "campus_id": 102527513,
        "continent_id": 102191575,
        "country_id": 85633793,
        "county_id": 102087579,
        "custom_id": 1729355871,
        "instagram_id": 1729355871,
        "locality_id": 85922583,
        "neighbourhood_id": -1,
        "region_id": 85688637
      }
    ],
    "wof:id": 1729355871,
    "wof:lastmodified": 1787777627,
    "wof:name": "Taxiing out from Pan American seaplane base at Dinner Key, Miami, Florida, the airline's new Sikorsky S-40 prepared for take off on its inaugural passenger flight #onthisday in 1931...",
    "wof:parent_id": 1159160869,
    "wof:placetype": "custom",
    "wof:placetype_alt": [
      "instagram"
    ],
    "wof:repo": "sfomuseum-data-socialmedia-instagram",
    "wof:superseded_by": [],
    "wof:supersedes": []
  },
  "bbox": [
    -122.386166,
    37.616356,
    -122.386166,
    37.616356
  ],
  "geometry": {"type":"Point","coordinates":[-122.386166,37.616356]}
}
