{
  "id": 1729358243,
  "type": "Feature",
  "properties": {
    "date:cessation_lower": "2018-05-12",
    "date:cessation_upper": "2018-05-12",
    "date:inception_lower": "2018-05-12",
    "date:inception_upper": "2018-05-12",
    "edtf:cessation": "2018-05-12T03:27:00-07:00",
    "edtf:inception": "2018-05-12T03:27:00-07:00",
    "geom:area": 0,
    "geom:bbox": "-122.386166,37.616356,-122.386166,37.616356",
    "geom:latitude": 37.616356,
    "geom:longitude": -122.386166,
    "instagram:post": {
      "caption": {
        "body": "#OnThisDay in 1982, Braniff International Airways ceased operations. In 1928, Paul Revere Braniff convinced his brother, Thomas E. Braniff, to invest in an aviation company they named Tulsa-Oklahoma City Airways. They formed a new company in 1930 and named it Braniff Airways. With a Chicago–Dallas airmail contract awarded in 1934, they soon added service to the Mexican border. After World War II, Braniff flew internationally to the Caribbean, Mexico, and other parts of Latin America, and began doing business as Braniff International Airways. What are your favorite Braniff memories?  Image: Braniff International poster, Douglas DC-8-62, c. 1974, Gift of Thomas G. Dragges. 2015.109.020",
        "excerpt": "#OnThisDay in 1982, Braniff International Airways ceased operations.",
        "hashtags": [
          "Braniff",
          "avgeek",
          "avationgeek",
          "aviation",
          "aviationhistory",
          "vintageaviation",
          "history",
          "avhistory",
          "aviationgeeks",
          "avgeeks"
        ],
        "users": []
      },
      "media_id": "744ac0d52baf0ea41f8e0064052e9310",
      "path": "media/other/31571490_247666955801244_9140244229035917312_n_17883066850217565.jpg",
      "perceptual_hash": "p:fac22a81ed68bc3c",
      "taken": 1526120820,
      "taken_at": "May 12, 2018 10:27 am"
    },
    "millsfield:similar": {
      "google/siglip2-so400m-patch16-naflex": [
        {
          "distance": 0.06387907266616821,
          "id": 1947424931
        },
        {
          "distance": 0.11324220895767212,
          "id": 1947424931
        },
        {
          "distance": 0.15069830417633057,
          "id": 1729358691
        },
        {
          "distance": 0.17024582624435425,
          "id": 1729360549
        },
        {
          "distance": 0.17033261060714722,
          "id": 1729355185
        },
        {
          "distance": 0.18775314092636108,
          "id": 1729358691
        },
        {
          "distance": 0.18997055292129517,
          "id": 1729358125
        },
        {
          "distance": 0.19001221656799316,
          "id": 1880151551
        },
        {
          "distance": 0.20264267921447754,
          "id": 1729358125
        },
        {
          "distance": 0.21077102422714233,
          "id": 1729360549
        }
      ]
    },
    "sfomuseum:placetype": "instagram",
    "src:geom": "sfomuseum",
    "wof:belongsto": [
      1159160869,
      102527513,
      102191575,
      85633793,
      102087579,
      85922583,
      85688637
    ],
    "wof:country": "US",
    "wof:created": 1526120820,
    "wof:geomhash": "b6e33f47475d56bc8da457bc31afadc8",
    "wof:hierarchy": [
      {
        "building_id": 1159160869,
        "campus_id": 102527513,
        "continent_id": 102191575,
        "country_id": 85633793,
        "county_id": 102087579,
        "custom_id": 1729358243,
        "instagram_id": 1729358243,
        "locality_id": 85922583,
        "neighbourhood_id": -1,
        "region_id": 85688637
      }
    ],
    "wof:id": 1729358243,
    "wof:lastmodified": 1787777633,
    "wof:name": "#OnThisDay in 1982, Braniff International Airways ceased operations...",
    "wof:parent_id": 1159160869,
    "wof:placetype": "custom",
    "wof:placetype_alt": [
      "instagram"
    ],
    "wof:repo": "sfomuseum-data-socialmedia-instagram",
    "wof:superseded_by": [],
    "wof:supersedes": []
  },
  "bbox": [
    -122.386166,
    37.616356,
    -122.386166,
    37.616356
  ],
  "geometry": {"type":"Point","coordinates":[-122.386166,37.616356]}
}
