{
  "id": 1947425073,
  "type": "Feature",
  "properties": {
    "date:cessation_lower": "2024-04-03",
    "date:cessation_upper": "2024-04-03",
    "date:inception_lower": "2024-04-03",
    "date:inception_upper": "2024-04-03",
    "edtf:cessation": "2024-04-03T09:10:00-07:00",
    "edtf:inception": "2024-04-03T09:10:00-07:00",
    "geom:area": 0,
    "geom:bbox": "-122.386166,37.616356,-122.386166,37.616356",
    "geom:latitude": 37.616356,
    "geom:longitude": -122.386166,
    "instagram:post": {
      "caption": {
        "body": "SAS (Scandinavian Airlines System), the flag carrier for Norway, Denmark, and Sweden, was founded in 1951 after a merger of airlines from each country, Det Danske Luftfartselskab A/S (DDL), Det Norske Luftfartselskap A/S (DNL), and Svensk Interkontinetal Lufttrafik AB (SILA). The airline’s first international service departed from Stockholm to New York later that year and began promoting its service with posters highlighting the region’s attractions. SAS traces its linage to 1918 when Det Danske Luftfartselskab A/S (DDL) was founded. Have you ever flown on SAS?  poster: Scandinavian Airlines System (SAS), Copenhagen; 1960s Gift of Captain Jon Simmonds 2014.166.086 https://ow.ly/Wvim50R810p",
        "excerpt": "SAS (Scandinavian Airlines System), the flag carrier for Norway, Denmark, and Sweden, was founded in 1951 after a merger of airlines from each country, Det Danske Luftfartselskab A/S (DDL), Det Norske Luftfartselskap A/S (DNL), and Svensk Interkontinetal Lufttrafik AB (SILA).",
        "hashtags": [
          "52Posters",
          "AvGeek"
        ],
        "users": []
      },
      "media_id": "99732879ac88513bdf812c34270b2ed39ea86648",
      "path": "media/other/435741882_385055867690134_4814840463278958781_n_18021872647910681.jpg",
      "perceptual_hash": "p:bc1c9cc33d656196",
      "taken": 1712160600,
      "taken_at": "Apr 03, 2024 4:10 pm"
    },
    "millsfield:similar": {
      "google/siglip2-so400m-patch16-naflex": [
        {
          "distance": 0.3238446116447449,
          "id": 1729356257
        },
        {
          "distance": 0.3272261619567871,
          "id": 1763559353
        },
        {
          "distance": 0.3381078243255615,
          "id": 1729360867
        },
        {
          "distance": 0.3397873640060425,
          "id": 1729355197
        },
        {
          "distance": 0.34319937229156494,
          "id": 1729357961
        },
        {
          "distance": 0.34485578536987305,
          "id": 1729359319
        },
        {
          "distance": 0.37711310386657715,
          "id": 1729359015
        },
        {
          "distance": 0.3781461715698242,
          "id": 1729361167
        },
        {
          "distance": 0.3783145546913147,
          "id": 1729356257
        },
        {
          "distance": 0.37837445735931396,
          "id": 1763559353
        }
      ]
    },
    "sfomuseum:placetype": "instagram",
    "src:geom": "sfomuseum",
    "wof:belongsto": [
      1159160869,
      102527513,
      102191575,
      85633793,
      102087579,
      85922583,
      85688637
    ],
    "wof:country": "US",
    "wof:created": 1712160600,
    "wof:geomhash": "b6e33f47475d56bc8da457bc31afadc8",
    "wof:hierarchy": [
      {
        "building_id": 1159160869,
        "campus_id": 102527513,
        "continent_id": 102191575,
        "country_id": 85633793,
        "county_id": 102087579,
        "custom_id": 1947425073,
        "locality_id": 85922583,
        "neighbourhood_id": -1,
        "region_id": 85688637
      }
    ],
    "wof:id": 1947425073,
    "wof:lastmodified": 1787777664,
    "wof:name": "SAS (Scandinavian Airlines System), the flag carrier for Norway, Denmark, and Sweden, was founded in 1951 after a merger of airlines from each country, Det Danske Luftfartselskab A/S (DDL), Det Norske Luftfartselskap A/S (DNL), and Svensk Interkontinetal Lufttrafik AB (SILA)...",
    "wof:parent_id": 1159160869,
    "wof:placetype": "custom",
    "wof:repo": "sfomuseum-data-socialmedia-instagram",
    "wof:superseded_by": [],
    "wof:supersedes": []
  },
  "bbox": [
    -122.386166,
    37.616356,
    -122.386166,
    37.616356
  ],
  "geometry": {"type":"Point","coordinates":[-122.386166,37.616356]}
}
