{
  "id": 1729359343,
  "type": "Feature",
  "properties": {
    "date:cessation_lower": "2017-07-06",
    "date:cessation_upper": "2017-07-06",
    "date:inception_lower": "2017-07-06",
    "date:inception_upper": "2017-07-06",
    "edtf:cessation": "2017-07-06T02:41:00-07:00",
    "edtf:inception": "2017-07-06T02:41:00-07:00",
    "geom:area": 0,
    "geom:bbox": "-122.386166,37.616356,-122.386166,37.616356",
    "geom:latitude": 37.616356,
    "geom:longitude": -122.386166,
    "instagram:post": {
      "caption": {
        "body": "In 2011, the new Terminal 2 opened at SFO. The completely remodeled terminal opened with fourteen common-use gates, LEEDS Gold certification, and industry leading amenities, in addition to a renowned collection of fine art and an #SFOMuseum gallery. Our first exhibition in this new gallery space was “A Century of Silver and Metalwork from the Margo Grant Walsh Collection”. When was the last time you flew out of SFO?",
        "excerpt": "In 2011, the new Terminal 2 opened at SFO.",
        "hashtags": [
          "TBT",
          "ThrowbackThursday",
          "SFOHistory",
          "Terminal2"
        ],
        "users": []
      },
      "media_id": "b732db1b65171a29098fe2009dedcc17",
      "path": "media/posts/201707/19764393_481601915517952_6385917930160259072_n_17861974276191117.jpg",
      "perceptual_hash": "p:cc29168cbbcd3867",
      "taken": 1499334060,
      "taken_at": "Jul 06, 2017 9:41 am"
    },
    "millsfield:similar": {
      "google/siglip2-so400m-patch16-naflex": [
        {
          "distance": 0.097259521484375,
          "id": 1729360823
        },
        {
          "distance": 0.15521132946014404,
          "id": 1729360823
        },
        {
          "distance": 0.1638137698173523,
          "id": 1729357385
        },
        {
          "distance": 0.16944843530654907,
          "id": 1729355059
        },
        {
          "distance": 0.17745983600616455,
          "id": 1729360245
        },
        {
          "distance": 0.17784029245376587,
          "id": 1880151305
        },
        {
          "distance": 0.18792778253555298,
          "id": 1763558969
        },
        {
          "distance": 0.19408541917800903,
          "id": 1947425291
        },
        {
          "distance": 0.1994084119796753,
          "id": 1880151305
        },
        {
          "distance": 0.20496481657028198,
          "id": 1880151425
        }
      ]
    },
    "sfomuseum:placetype": "instagram",
    "src:geom": "sfomuseum",
    "wof:belongsto": [
      1159160869,
      102527513,
      102191575,
      85633793,
      102087579,
      85922583,
      85688637
    ],
    "wof:country": "US",
    "wof:created": 1499334060,
    "wof:geomhash": "b6e33f47475d56bc8da457bc31afadc8",
    "wof:hierarchy": [
      {
        "building_id": 1159160869,
        "campus_id": 102527513,
        "continent_id": 102191575,
        "country_id": 85633793,
        "county_id": 102087579,
        "custom_id": 1729359343,
        "instagram_id": 1729359343,
        "locality_id": 85922583,
        "neighbourhood_id": -1,
        "region_id": 85688637
      }
    ],
    "wof:id": 1729359343,
    "wof:lastmodified": 1787777635,
    "wof:name": "In 2011, the new Terminal 2 opened at SFO...",
    "wof:parent_id": 1159160869,
    "wof:placetype": "custom",
    "wof:placetype_alt": [
      "instagram"
    ],
    "wof:repo": "sfomuseum-data-socialmedia-instagram",
    "wof:superseded_by": [],
    "wof:supersedes": []
  },
  "bbox": [
    -122.386166,
    37.616356,
    -122.386166,
    37.616356
  ],
  "geometry": {"type":"Point","coordinates":[-122.386166,37.616356]}
}
