{
  "id": 1763559255,
  "type": "Feature",
  "properties": {
    "date:cessation_lower": "2021-02-23",
    "date:cessation_upper": "2021-02-23",
    "date:inception_lower": "2021-02-23",
    "date:inception_upper": "2021-02-23",
    "edtf:cessation": "2021-02-23T08:44:00-08:00",
    "edtf:inception": "2021-02-23T08:44:00-08:00",
    "geom:area": 0,
    "geom:bbox": "-122.386166,37.616356,-122.386166,37.616356",
    "geom:latitude": 37.616356,
    "geom:longitude": -122.386166,
    "instagram:post": {
      "caption": {
        "body": "Publicity photo perfection.  📸: photograph: JAL (Japan Air Lines), Douglas DC-8, early 1960s Gift of Thomas G. Dragges 2010.039.001.012",
        "excerpt": "Publicity photo perfection.",
        "hashtags": [
          "avgeek",
          "JapanAirLines",
          "MtFuji",
          "windowseat"
        ],
        "users": []
      },
      "media_id": "64fd33c9233c571e4c19753ca44496fe013170ae",
      "path": "media/other/152835486_252261623182263_1570091159908420777_n_18139144504145802.jpg",
      "perceptual_hash": "p:e2f8d3c23923641f",
      "taken": 1614098640,
      "taken_at": "Feb 23, 2021 4:44 pm"
    },
    "millsfield:similar": {
      "google/siglip2-so400m-patch16-naflex": [
        {
          "distance": 0.19340795278549194,
          "id": 1763559357
        },
        {
          "distance": 0.19728606939315796,
          "id": 1729355793
        },
        {
          "distance": 0.19897150993347168,
          "id": 1729355109
        },
        {
          "distance": 0.2128077745437622,
          "id": 1729355793
        },
        {
          "distance": 0.21576577425003052,
          "id": 1729356531
        },
        {
          "distance": 0.21866005659103394,
          "id": 1729355315
        },
        {
          "distance": 0.22209125757217407,
          "id": 1729359533
        },
        {
          "distance": 0.22880512475967407,
          "id": 1763559357
        },
        {
          "distance": 0.23332446813583374,
          "id": 1729357215
        },
        {
          "distance": 0.23705285787582397,
          "id": 1729359173
        }
      ]
    },
    "sfomuseum:placetype": "instagram",
    "src:geom": "sfomuseum",
    "wof:belongsto": [
      1159160869,
      102527513,
      102191575,
      85633793,
      102087579,
      85922583,
      85688637
    ],
    "wof:country": "US",
    "wof:created": 1614098640,
    "wof:geomhash": "b6e33f47475d56bc8da457bc31afadc8",
    "wof:hierarchy": [
      {
        "building_id": 1159160869,
        "campus_id": 102527513,
        "continent_id": 102191575,
        "country_id": 85633793,
        "county_id": 102087579,
        "custom_id": 1763559255,
        "instagram_id": 1763559255,
        "locality_id": 85922583,
        "neighbourhood_id": -1,
        "region_id": 85688637
      }
    ],
    "wof:id": 1763559255,
    "wof:lastmodified": 1787777660,
    "wof:name": "Publicity photo perfection...",
    "wof:parent_id": 1159160869,
    "wof:placetype": "custom",
    "wof:placetype_alt": [
      "instagram"
    ],
    "wof:repo": "sfomuseum-data-socialmedia-instagram",
    "wof:superseded_by": [],
    "wof:supersedes": []
  },
  "bbox": [
    -122.386166,
    37.616356,
    -122.386166,
    37.616356
  ],
  "geometry": {"type":"Point","coordinates":[-122.386166,37.616356]}
}
