{
  "id": 1763559525,
  "type": "Feature",
  "properties": {
    "date:cessation_lower": "2022-03-28",
    "date:cessation_upper": "2022-03-28",
    "date:inception_lower": "2022-03-28",
    "date:inception_upper": "2022-03-28",
    "edtf:cessation": "2022-03-28T08:07:00-07:00",
    "edtf:inception": "2022-03-28T08:07:00-07:00",
    "geom:area": 0,
    "geom:bbox": "-122.386166,37.616356,-122.386166,37.616356",
    "geom:latitude": 37.616356,
    "geom:longitude": -122.386166,
    "instagram:post": {
      "caption": {
        "body": "Luggage labels are miniature works of graphic art that evoke the early years of commercial aviation and travel to faraway places. Browse through more than one thousand on our online collection database! See them here: https://bit.ly/3vUyudJ",
        "excerpt": "Luggage labels are miniature works of graphic art that evoke the early years of commercial aviation and travel to faraway places.",
        "hashtags": [
          "avgeek",
          "luggagelables",
          "aviation",
          "collections",
          "museumcollection",
          "graphicdesign"
        ],
        "users": []
      },
      "media_id": "a14d83aff203b640a3caf240b3dfc865c9eaa258",
      "path": "media/posts/202203/277416947_1443096569426612_7056276214280567593_n_17929256480156124.jpg",
      "perceptual_hash": "p:ea46959cca71b44e",
      "taken": 1648480020,
      "taken_at": "Mar 28, 2022 3:07 pm"
    },
    "millsfield:similar": {
      "google/siglip2-so400m-patch16-naflex": [
        {
          "distance": 0.3405342698097229,
          "id": 1729360817
        },
        {
          "distance": 0.35027897357940674,
          "id": 1729356243
        },
        {
          "distance": 0.3621257543563843,
          "id": 1729360817
        },
        {
          "distance": 0.3664807677268982,
          "id": 1763559557
        },
        {
          "distance": 0.371789813041687,
          "id": 1729361989
        },
        {
          "distance": 0.37958407402038574,
          "id": 1729358625
        },
        {
          "distance": 0.3796859383583069,
          "id": 1729356243
        },
        {
          "distance": 0.38023585081100464,
          "id": 1729359553
        },
        {
          "distance": 0.3819112777709961,
          "id": 1729359385
        },
        {
          "distance": 0.38337743282318115,
          "id": 1729359433
        }
      ]
    },
    "sfomuseum:placetype": "instagram",
    "src:geom": "sfomuseum",
    "wof:belongsto": [
      1159160869,
      102527513,
      102191575,
      85633793,
      102087579,
      85922583,
      85688637
    ],
    "wof:country": "US",
    "wof:created": 1648480020,
    "wof:geomhash": "b6e33f47475d56bc8da457bc31afadc8",
    "wof:hierarchy": [
      {
        "building_id": 1159160869,
        "campus_id": 102527513,
        "continent_id": 102191575,
        "country_id": 85633793,
        "county_id": 102087579,
        "custom_id": 1763559525,
        "instagram_id": 1763559525,
        "locality_id": 85922583,
        "neighbourhood_id": -1,
        "region_id": 85688637
      }
    ],
    "wof:id": 1763559525,
    "wof:lastmodified": 1787777660,
    "wof:name": "Luggage labels are miniature works of graphic art that evoke the early years of commercial aviation and travel to faraway places...",
    "wof:parent_id": 1159160869,
    "wof:placetype": "custom",
    "wof:placetype_alt": [
      "instagram"
    ],
    "wof:repo": "sfomuseum-data-socialmedia-instagram",
    "wof:superseded_by": [],
    "wof:supersedes": []
  },
  "bbox": [
    -122.386166,
    37.616356,
    -122.386166,
    37.616356
  ],
  "geometry": {"type":"Point","coordinates":[-122.386166,37.616356]}
}
