{
  "id": 1729362721,
  "type": "Feature",
  "properties": {
    "date:cessation_lower": "2013-04-29",
    "date:cessation_upper": "2013-04-29",
    "date:inception_lower": "2013-04-29",
    "date:inception_upper": "2013-04-29",
    "edtf:cessation": "2013-04-29T02:49:00-07:00",
    "edtf:inception": "2013-04-29T02:49:00-07:00",
    "geom:area": 0,
    "geom:bbox": "-122.386166,37.616356,-122.386166,37.616356",
    "geom:latitude": 37.616356,
    "geom:longitude": -122.386166,
    "instagram:post": {
      "caption": {
        "body": "Disassembling and packing the cutaway models for transport back to our facility.",
        "excerpt": "Disassembling and packing the cutaway models for transport back to our facility.",
        "hashtags": [],
        "users": []
      },
      "media_id": "5414977799a09140e10f5e3d640c768a",
      "path": "media/other/11260850_1582777912001204_2039851318_n_17842318600062499.jpg",
      "perceptual_hash": "p:888f1ff830d03f93",
      "taken": 1367228940,
      "taken_at": "Apr 29, 2013 9:49 am"
    },
    "millsfield:similar": {
      "google/siglip2-so400m-patch16-naflex": [
        {
          "distance": 0.16707760095596313,
          "id": 1729362373
        },
        {
          "distance": 0.18707400560379028,
          "id": 1729362617
        },
        {
          "distance": 0.2001083493232727,
          "id": 1729362475
        },
        {
          "distance": 0.20021778345108032,
          "id": 1729362373
        },
        {
          "distance": 0.20268923044204712,
          "id": 1729362475
        },
        {
          "distance": 0.21803289651870728,
          "id": 1729362229
        },
        {
          "distance": 0.22364866733551025,
          "id": 1729362617
        },
        {
          "distance": 0.23261600732803345,
          "id": 1729362655
        },
        {
          "distance": 0.2344619631767273,
          "id": 1729362817
        },
        {
          "distance": 0.23528248071670532,
          "id": 1729362993
        }
      ]
    },
    "sfomuseum:placetype": "instagram",
    "src:geom": "sfomuseum",
    "wof:belongsto": [
      1159160869,
      102527513,
      102191575,
      85633793,
      102087579,
      85922583,
      85688637
    ],
    "wof:country": "US",
    "wof:created": 1367228940,
    "wof:geomhash": "b6e33f47475d56bc8da457bc31afadc8",
    "wof:hierarchy": [
      {
        "building_id": 1159160869,
        "campus_id": 102527513,
        "continent_id": 102191575,
        "country_id": 85633793,
        "county_id": 102087579,
        "custom_id": 1729362721,
        "instagram_id": 1729362721,
        "locality_id": 85922583,
        "neighbourhood_id": -1,
        "region_id": 85688637
      }
    ],
    "wof:id": 1729362721,
    "wof:lastmodified": 1787777647,
    "wof:name": "Disassembling and packing the cutaway models for transport back to our facility...",
    "wof:parent_id": 1159160869,
    "wof:placetype": "custom",
    "wof:placetype_alt": [
      "instagram"
    ],
    "wof:repo": "sfomuseum-data-socialmedia-instagram",
    "wof:superseded_by": [],
    "wof:supersedes": []
  },
  "bbox": [
    -122.386166,
    37.616356,
    -122.386166,
    37.616356
  ],
  "geometry": {"type":"Point","coordinates":[-122.386166,37.616356]}
}
