{
  "id": 1729356587,
  "type": "Feature",
  "properties": {
    "date:cessation_lower": "2019-05-11",
    "date:cessation_upper": "2019-05-11",
    "date:inception_lower": "2019-05-11",
    "date:inception_upper": "2019-05-11",
    "edtf:cessation": "2019-05-10T17:24:03-07:00",
    "edtf:inception": "2019-05-10T17:24:03-07:00",
    "geom:area": 0,
    "geom:bbox": "-122.386166,37.616356,-122.386166,37.616356",
    "geom:latitude": 37.616356,
    "geom:longitude": -122.386166,
    "instagram:post": {
      "caption": {
        "body": "The Parker 51 fountain pen, designed by Marlin S. Baker (1906–1982) and Kenneth S. Parker (1895¬–1979) and introduced in 1941, was compared to the sleek, aerodynamic North American P-51 fighter. Parker proclaimed, “it looks for all the world as if it had been planned by aircraft designers!” \"Streamlines: Air Age Aesthetics for Industrial Design\" is on display, pre-security, in the Aviation Museum and Library in the International Terminal. http://bit.ly/Streamlines",
        "excerpt": "The Parker 51 fountain pen, designed by Marlin S. Baker (1906–1982) and Kenneth S. Parker (1895¬–1979) and introduced in 1941, was compared to the sleek, aerodynamic North American P-51 fighter.",
        "hashtags": [
          "StreamlinesAesthetics",
          "streamline",
          "design",
          "industrialdesign",
          "avgeek",
          "fountainpen",
          "parker51"
        ],
        "users": []
      },
      "location": "",
      "media_id": "1ddeb304646fd926ccab77d9d3ace9ac",
      "path": "photos/201905/1ddeb304646fd926ccab77d9d3ace9ac.jpg",
      "perceptual_hash": "p:b33032399ec2e32f",
      "taken": 1557505440,
      "taken_at": "May 10, 2019, 4:24 PM"
    },
    "millsfield:similar": {
      "google/siglip2-so400m-patch16-naflex": [
        {
          "distance": 0.15999042987823486,
          "id": 1729356595
        },
        {
          "distance": 0.23607903718948364,
          "id": 1729356595
        },
        {
          "distance": 0.3603917360305786,
          "id": 1729359659
        },
        {
          "distance": 0.37902939319610596,
          "id": 1763559155
        },
        {
          "distance": 0.37926143407821655,
          "id": 1729359217
        },
        {
          "distance": 0.38453561067581177,
          "id": 1729356331
        },
        {
          "distance": 0.38966041803359985,
          "id": 1729356715
        },
        {
          "distance": 0.39381682872772217,
          "id": 1729356671
        },
        {
          "distance": 0.39381682872772217,
          "id": 1729356699
        },
        {
          "distance": 0.39803773164749146,
          "id": 1729360043
        }
      ]
    },
    "sfomuseum:placetype": "instagram",
    "src:geom": "sfomuseum",
    "wof:belongsto": [
      1159160869,
      102527513,
      102191575,
      85633793,
      102087579,
      85922583,
      85688637
    ],
    "wof:country": "US",
    "wof:created": 1557534243,
    "wof:geomhash": "b6e33f47475d56bc8da457bc31afadc8",
    "wof:hierarchy": [
      {
        "building_id": 1159160869,
        "campus_id": 102527513,
        "continent_id": 102191575,
        "country_id": 85633793,
        "county_id": 102087579,
        "custom_id": 1729356587,
        "instagram_id": 1729356587,
        "locality_id": 85922583,
        "neighbourhood_id": -1,
        "region_id": 85688637
      }
    ],
    "wof:id": 1729356587,
    "wof:lastmodified": 1787777629,
    "wof:name": "The Parker 51 fountain pen, designed by Marlin S. Baker (1906–1982) and Kenneth S. Parker (1895¬–1979) and introduced in 1941, was compared to the sleek, aerodynamic North American P-51 fighter...",
    "wof:parent_id": 1159160869,
    "wof:placetype": "custom",
    "wof:placetype_alt": [
      "instagram"
    ],
    "wof:repo": "sfomuseum-data-socialmedia-instagram",
    "wof:superseded_by": [],
    "wof:supersedes": []
  },
  "bbox": [
    -122.386166,
    37.616356,
    -122.386166,
    37.616356
  ],
  "geometry": {"type":"Point","coordinates":[-122.386166,37.616356]}
}
