{
  "id": 1947425219,
  "type": "Feature",
  "properties": {
    "date:cessation_lower": "2023-11-20",
    "date:cessation_upper": "2023-11-20",
    "date:inception_lower": "2023-11-20",
    "date:inception_upper": "2023-11-20",
    "edtf:cessation": "2023-11-20T08:52:00-08:00",
    "edtf:inception": "2023-11-20T08:52:00-08:00",
    "geom:area": 0,
    "geom:bbox": "-122.386166,37.616356,-122.386166,37.616356",
    "geom:latitude": 37.616356,
    "geom:longitude": -122.386166,
    "instagram:post": {
      "caption": {
        "body": "Principal dancer Joseph Walsh (b. 1990), who has frequently performed the lead role in 𝘚𝘸𝘪𝘮𝘮𝘦𝘳, began his early training at Walnut Hill School for the Arts in Massachusetts before joining the Houston Ballet in 2006. Walsh says that one of the primary reasons he decided to join San Francisco Ballet in 2014 as a soloist was because he felt “drawn by the amount of new material they were putting on, the new pieces, the new choreography.” Wei Wang (b. 1993), who also performs in 𝘚𝘸𝘪𝘮𝘮𝘦𝘳, trained for seven years at the Beijing Dance Academy, beginning at age ten, before joining the San Francisco Ballet School’s Trainee Program in 2011. He was named an apprentice in 2012 and then joined the corps de ballet (group of dancers) in 2013. Wang was promoted to a soloist in 2016 and became a principal dancer in 2018.   Most professional dancers train at least ten years before joining a ballet company around age eighteen. San Francisco Ballet dancers come from all over the world to perform with the Company. Dancers train and rehearse an average of six hours each day, six days a week, in addition to devoting time outside of the studio conditioning and strength training. When compared to other non-athletic professions, ballet careers seem short. Most dancers retire sometime in their thirties, though some dancers continue.   Special thank you to San Francisco Ballet for making this exhibition possible. See “San Francisco Ballet at 90” on display, pre-security, in the International Terminal and online at: https://bit.ly/SFBalletAt90",
        "excerpt": "Principal dancer Joseph Walsh (b.",
        "hashtags": [
          "SFBalletAt0"
        ],
        "users": [
          "sfballet"
        ]
      },
      "media_id": "db2821d0bccf79c484171c84cbc9a1673ca113b4",
      "path": "media/posts/202311/402086888_814693900667541_426452972160572274_n_18012534293008231.jpg",
      "perceptual_hash": "p:c787383ce69099c7",
      "taken": 1700499120,
      "taken_at": "Nov 20, 2023 4:52 pm"
    },
    "millsfield:similar": {
      "google/siglip2-so400m-patch16-naflex": [
        {
          "distance": 0.15430676937103271,
          "id": 1947425307
        },
        {
          "distance": 0.15498465299606323,
          "id": 1880150937
        },
        {
          "distance": 0.15878432989120483,
          "id": 1880150937
        },
        {
          "distance": 0.16706544160842896,
          "id": 1880150971
        },
        {
          "distance": 0.1844097375869751,
          "id": 1947425307
        },
        {
          "distance": 0.18484646081924438,
          "id": 1880150907
        },
        {
          "distance": 0.2014148235321045,
          "id": 1880150971
        },
        {
          "distance": 0.20583373308181763,
          "id": 1880150907
        },
        {
          "distance": 0.21354132890701294,
          "id": 1947425261
        },
        {
          "distance": 0.2282128930091858,
          "id": 1947425261
        }
      ]
    },
    "sfomuseum:placetype": "instagram",
    "src:geom": "sfomuseum",
    "wof:belongsto": [
      1159160869,
      102527513,
      102191575,
      85633793,
      102087579,
      85922583,
      85688637
    ],
    "wof:country": "US",
    "wof:created": 1700499120,
    "wof:geomhash": "b6e33f47475d56bc8da457bc31afadc8",
    "wof:hierarchy": [
      {
        "building_id": 1159160869,
        "campus_id": 102527513,
        "continent_id": 102191575,
        "country_id": 85633793,
        "county_id": 102087579,
        "custom_id": 1947425219,
        "locality_id": 85922583,
        "neighbourhood_id": -1,
        "region_id": 85688637
      }
    ],
    "wof:id": 1947425219,
    "wof:lastmodified": 1787777664,
    "wof:name": "Principal dancer Joseph Walsh (b...",
    "wof:parent_id": 1159160869,
    "wof:placetype": "custom",
    "wof:repo": "sfomuseum-data-socialmedia-instagram",
    "wof:superseded_by": [],
    "wof:supersedes": []
  },
  "bbox": [
    -122.386166,
    37.616356,
    -122.386166,
    37.616356
  ],
  "geometry": {"type":"Point","coordinates":[-122.386166,37.616356]}
}
