{
  "id": 1729359199,
  "type": "Feature",
  "properties": {
    "date:cessation_lower": "2017-08-11",
    "date:cessation_upper": "2017-08-11",
    "date:inception_lower": "2017-08-11",
    "date:inception_upper": "2017-08-11",
    "edtf:cessation": "2017-08-11T12:09:00-07:00",
    "edtf:inception": "2017-08-11T12:09:00-07:00",
    "geom:area": 0,
    "geom:bbox": "-122.386166,37.616356,-122.386166,37.616356",
    "geom:latitude": 37.616356,
    "geom:longitude": -122.386166,
    "instagram:post": {
      "caption": {
        "body": "In the decade between the late-1930s and late-1940s, United Air Lines introduced a series of modern airliners that elevated air travel to new levels of speed and comfort.  United called its new aircraft Mainliners, including the Douglas DC-3, DC-6, and the later Boeing 377, and used them to establish its position as the leading American air carrier.  The DC-6 and Boeing 377 employed cabin pressurization, pioneered during the late 1930s, to enable the aircraft to fly higher and faster than ever before. The extended range and capacity of these airplanes allowed United to open a new route from California to Hawai’i in 1947.  The new aircraft and America’s postwar prosperity increased the volume of air travel to record levels. The four-engine airliners made non-stop, coast-to-coast flights possible in just under ten hours. Americans continued to travel by air for business, and more and more people were choosing airlines for their vacation travel as well. United began new marketing campaigns specifically promoting vacation destinations, particularly their new route to Hawai’i.  Poster courtesy of the United Airlines Archives. Learn more about early aviation in \"Flying the Main Line: A History of United Airlines\" on display, post-security, in Terminal 3. http://bit.ly/TheMainLine",
        "excerpt": "In the decade between the late-1930s and late-1940s, United Air Lines introduced a series of modern airliners that elevated air travel to new levels of speed and comfort.",
        "hashtags": [
          "TheMainLine",
          "flyingthemainline",
          "united",
          "unitedairlines",
          "travelposter",
          "travel",
          "instatravel",
          "avgeek",
          "avationgeek",
          "aviation",
          "aviationhistory",
          "aviationlovers",
          "vintageaviation",
          "history",
          "avhistory",
          "aviationgeeks",
          "instaplane",
          "flying",
          "plane",
          "flight",
          "airline",
          "avgeeks",
          "aviation4u",
          "aviationdaily",
          "travelposter",
          "hawaii"
        ],
        "users": []
      },
      "media_id": "7758f0b5bc691a5e7a3a45aa20525063",
      "path": "media/posts/201708/20759139_1095142620621564_1698327727804776448_n_17882093749106411.jpg",
      "perceptual_hash": "p:e9cb6c3129cf8632",
      "taken": 1502478540,
      "taken_at": "Aug 11, 2017 7:09 pm"
    },
    "millsfield:similar": {
      "google/siglip2-so400m-patch16-naflex": [
        {
          "distance": 0.008805930614471436,
          "id": 1729358887
        },
        {
          "distance": 0.06672227382659912,
          "id": 1729358887
        },
        {
          "distance": 0.11706680059432983,
          "id": 1729360641
        },
        {
          "distance": 0.1815028190612793,
          "id": 1729360641
        },
        {
          "distance": 0.2075507640838623,
          "id": 1947425093
        },
        {
          "distance": 0.2118014097213745,
          "id": 1763559487
        },
        {
          "distance": 0.21330922842025757,
          "id": 1947425093
        },
        {
          "distance": 0.2134137749671936,
          "id": 1763559327
        },
        {
          "distance": 0.23113512992858887,
          "id": 1763558725
        },
        {
          "distance": 0.23113512992858887,
          "id": 1729358623
        }
      ]
    },
    "sfomuseum:placetype": "instagram",
    "src:geom": "sfomuseum",
    "wof:belongsto": [
      1159160869,
      102527513,
      102191575,
      85633793,
      102087579,
      85922583,
      85688637
    ],
    "wof:country": "US",
    "wof:created": 1502478540,
    "wof:geomhash": "b6e33f47475d56bc8da457bc31afadc8",
    "wof:hierarchy": [
      {
        "building_id": 1159160869,
        "campus_id": 102527513,
        "continent_id": 102191575,
        "country_id": 85633793,
        "county_id": 102087579,
        "custom_id": 1729359199,
        "instagram_id": 1729359199,
        "locality_id": 85922583,
        "neighbourhood_id": -1,
        "region_id": 85688637
      }
    ],
    "wof:id": 1729359199,
    "wof:lastmodified": 1787777635,
    "wof:name": "In the decade between the late-1930s and late-1940s, United Air Lines introduced a series of modern airliners that elevated air travel to new levels of speed and comfort...",
    "wof:parent_id": 1159160869,
    "wof:placetype": "custom",
    "wof:placetype_alt": [
      "instagram"
    ],
    "wof:repo": "sfomuseum-data-socialmedia-instagram",
    "wof:superseded_by": [],
    "wof:supersedes": []
  },
  "bbox": [
    -122.386166,
    37.616356,
    -122.386166,
    37.616356
  ],
  "geometry": {"type":"Point","coordinates":[-122.386166,37.616356]}
}
