{
  "id": 1729361213,
  "type": "Feature",
  "properties": {
    "date:cessation_lower": "2015-12-31",
    "date:cessation_upper": "2015-12-31",
    "date:inception_lower": "2015-12-31",
    "date:inception_upper": "2015-12-31",
    "edtf:cessation": "2015-12-31T11:49:00-08:00",
    "edtf:inception": "2015-12-31T11:49:00-08:00",
    "geom:area": 0,
    "geom:bbox": "-122.386166,37.616356,-122.386166,37.616356",
    "geom:latitude": 37.616356,
    "geom:longitude": -122.386166,
    "instagram:post": {
      "caption": {
        "body": "",
        "excerpt": "",
        "hashtags": [
          "ThrowbackThursday"
        ],
        "users": []
      },
      "media_id": "d9308c6f1835240ce5e28a37e3caf319",
      "path": "media/other/927615_768654929931967_156240669_n_17852624461051191.jpg",
      "perceptual_hash": "p:f187c761783c8743",
      "taken": 1451591340,
      "taken_at": "Dec 31, 2015 7:49 pm"
    },
    "millsfield:similar": {
      "google/siglip2-so400m-patch16-naflex": [
        {
          "distance": 0.12469512224197388,
          "id": 1729360319
        },
        {
          "distance": 0.1344965696334839,
          "id": 1729356091
        },
        {
          "distance": 0.13468509912490845,
          "id": 1880151445
        },
        {
          "distance": 0.13573670387268066,
          "id": 1880151387
        },
        {
          "distance": 0.14254605770111084,
          "id": 1763558839
        },
        {
          "distance": 0.14546698331832886,
          "id": 1729355287
        },
        {
          "distance": 0.1564602255821228,
          "id": 1729355657
        },
        {
          "distance": 0.15875250101089478,
          "id": 1729357075
        },
        {
          "distance": 0.16151690483093262,
          "id": 1880151189
        },
        {
          "distance": 0.16187894344329834,
          "id": 1729357841
        }
      ]
    },
    "sfomuseum:placetype": "instagram",
    "src:geom": "sfomuseum",
    "wof:belongsto": [
      1159160869,
      102527513,
      102191575,
      85633793,
      102087579,
      85922583,
      85688637
    ],
    "wof:country": "US",
    "wof:created": 1451591340,
    "wof:geomhash": "b6e33f47475d56bc8da457bc31afadc8",
    "wof:hierarchy": [
      {
        "building_id": 1159160869,
        "campus_id": 102527513,
        "continent_id": 102191575,
        "country_id": 85633793,
        "county_id": 102087579,
        "custom_id": 1729361213,
        "instagram_id": 1729361213,
        "locality_id": 85922583,
        "neighbourhood_id": -1,
        "region_id": 85688637
      }
    ],
    "wof:id": 1729361213,
    "wof:lastmodified": 1787777645,
    "wof:name": "..",
    "wof:parent_id": 1159160869,
    "wof:placetype": "custom",
    "wof:placetype_alt": [
      "instagram"
    ],
    "wof:repo": "sfomuseum-data-socialmedia-instagram",
    "wof:superseded_by": [],
    "wof:supersedes": []
  },
  "bbox": [
    -122.386166,
    37.616356,
    -122.386166,
    37.616356
  ],
  "geometry": {"type":"Point","coordinates":[-122.386166,37.616356]}
}
