{
  "id": 1880150899,
  "type": "Feature",
  "properties": {
    "date:cessation_lower": "2023-05-19",
    "date:cessation_upper": "2023-05-19",
    "date:inception_lower": "2023-05-19",
    "date:inception_upper": "2023-05-19",
    "edtf:cessation": "2023-05-19T04:59:00-07:00",
    "edtf:inception": "2023-05-19T04:59:00-07:00",
    "geom:area": 0,
    "geom:bbox": "-122.386166,37.616356,-122.386166,37.616356",
    "geom:latitude": 37.616356,
    "geom:longitude": -122.386166,
    "instagram:post": {
      "caption": {
        "body": "Our newest exhibition, “Recollections… from the Unknown Museum” is now on display in Terminal 2! An “exploration into America’s brain,” the Unknown Museum was founded by artist, curator, and archivist Mickey McGowan (b. 1946) and artist Dickens “44” Bascom (b. 1944) in a former automotive radiator shop at 39 Corte Madera Avenue in Mill Valley. McGowan and Bascom created art and installations in a singular, large room that allowed for mass assemblages and the “assault of the objects” on one’s senses. According to McGowan, “curating the museum allowed me to present my ‘two-cents-worth’ reactions to postwar American culture, its fads, trends, joys, and ‘important’ moments.” Formally opened in December 1974, the Unknown Museum became a center of local creativity, rotating its own exhibitions, displaying the work of other artists, and hosting concerts and themed events.  The Unknown Museum continues as a private museum and lending archives. This exhibition presents a sampling of the fantastic art and object installations from various locations of the Unknown Museum.   See “Recollections… from the Unknown Museum” on display post-security in Terminal 2. https://bit.ly/UnknownMuseum",
        "excerpt": "Our newest exhibition, “Recollections… from the Unknown Museum” is now on display in Terminal 2!",
        "hashtags": [
          "UnknownMuseum",
          "MickeyMcGowan",
          "BayArea",
          "BayAreaHistory"
        ],
        "users": []
      },
      "media_id": "200e14dc7ab23c63a8b652e9cd130f3eaf0dd088",
      "path": "media/posts/202305/348261998_634336371538808_3008399222753714545_n_17931038741680150.jpg",
      "perceptual_hash": "p:c70aead56c31d06e",
      "taken": 1684497540,
      "taken_at": "May 19, 2023 11:59 am"
    },
    "millsfield:similar": {
      "google/siglip2-so400m-patch16-naflex": [
        {
          "distance": 0.3200126886367798,
          "id": 1729356477
        },
        {
          "distance": 0.33218449354171753,
          "id": 1729356473
        },
        {
          "distance": 0.33441829681396484,
          "id": 1763559325
        },
        {
          "distance": 0.3477919101715088,
          "id": 1729358943
        },
        {
          "distance": 0.35092341899871826,
          "id": 1729355539
        },
        {
          "distance": 0.3548205494880676,
          "id": 1729359341
        },
        {
          "distance": 0.35878443717956543,
          "id": 1763559325
        },
        {
          "distance": 0.3625403642654419,
          "id": 1729357339
        },
        {
          "distance": 0.3626909852027893,
          "id": 1880151469
        },
        {
          "distance": 0.36512237787246704,
          "id": 1729358413
        }
      ]
    },
    "sfomuseum:placetype": "instagram",
    "src:geom": "sfomuseum",
    "wof:belongsto": [
      1159160869,
      102527513,
      102191575,
      85633793,
      102087579,
      85922583,
      85688637
    ],
    "wof:country": "US",
    "wof:created": 1684497540,
    "wof:geomhash": "b6e33f47475d56bc8da457bc31afadc8",
    "wof:hierarchy": [
      {
        "building_id": 1159160869,
        "campus_id": 102527513,
        "continent_id": 102191575,
        "country_id": 85633793,
        "county_id": 102087579,
        "custom_id": 1880150899,
        "instagram_id": 1880150899,
        "locality_id": 85922583,
        "neighbourhood_id": -1,
        "region_id": 85688637
      }
    ],
    "wof:id": 1880150899,
    "wof:lastmodified": 1787777661,
    "wof:name": "Our newest exhibition, “Recollections… from the Unknown Museum” is now on display in Terminal 2!..",
    "wof:parent_id": 1159160869,
    "wof:placetype": "custom",
    "wof:placetype_alt": [
      "instagram"
    ],
    "wof:repo": "sfomuseum-data-socialmedia-instagram",
    "wof:superseded_by": [],
    "wof:supersedes": []
  },
  "bbox": [
    -122.386166,
    37.616356,
    -122.386166,
    37.616356
  ],
  "geometry": {"type":"Point","coordinates":[-122.386166,37.616356]}
}
