{
  "id": 1729357105,
  "type": "Feature",
  "properties": {
    "date:cessation_lower": "2019-01-11",
    "date:cessation_upper": "2019-01-11",
    "date:inception_lower": "2019-01-11",
    "date:inception_upper": "2019-01-11",
    "edtf:cessation": "2019-01-11T04:01:00-08:00",
    "edtf:inception": "2019-01-11T04:01:00-08:00",
    "geom:area": 0,
    "geom:bbox": "-122.386166,37.616356,-122.386166,37.616356",
    "geom:latitude": 37.616356,
    "geom:longitude": -122.386166,
    "instagram:post": {
      "caption": {
        "body": "\"Sydney is just 37 1/2 hours from California!\" In 1951, flying from Los Angeles or San Francisco to Sydney, Australia, was major achievement in commercial aviation technology. It included stopovers in Hawai'i and Fiji. The double-decker Boeing 377 Stratocruiser was introduced in 1949 by Pan American World Airways. The aircraft’s four twenty-eight-cylinder Pratt \u0026 Whitney radial engines enabled the Stratocruiser, as its name asserted, to cruise in the stratosphere at over 300 miles per hour. With a range of just over 4,000 miles, the airliner was ideally suited for transoceanic routes.  Image: Pan American World Airways, Sunset advertisement, 1951. SFO Museum Collection. 2017.112.018",
        "excerpt": "\"Sydney is just 37 1/2 hours from California!\"",
        "hashtags": [
          "Sydney",
          "California",
          "PanAmerican",
          "PanAm",
          "PAA",
          "avgeek",
          "stratocruiser",
          "stratosphere",
          "transoceanic",
          "PanAmericanWorldAirways",
          "1950s"
        ],
        "users": []
      },
      "media_id": "376748c4f74bc1e47683c20e90295e30",
      "path": "media/other/49544029_232216757704028_961506555999572075_n_17998169869080488.jpg",
      "perceptual_hash": "p:be6acc95c11c5ac6",
      "taken": 1547208060,
      "taken_at": "Jan 11, 2019 12:01 pm"
    },
    "millsfield:similar": {
      "google/siglip2-so400m-patch16-naflex": [
        {
          "distance": 0.18063026666641235,
          "id": 1729356017
        },
        {
          "distance": 0.20998460054397583,
          "id": 1729359833
        },
        {
          "distance": 0.22579437494277954,
          "id": 1729356017
        },
        {
          "distance": 0.22585612535476685,
          "id": 1729357279
        },
        {
          "distance": 0.2412760853767395,
          "id": 1880150923
        },
        {
          "distance": 0.24388569593429565,
          "id": 1729360397
        },
        {
          "distance": 0.24452245235443115,
          "id": 1729359659
        },
        {
          "distance": 0.25409209728240967,
          "id": 1880150923
        },
        {
          "distance": 0.25952452421188354,
          "id": 1729360479
        },
        {
          "distance": 0.2674994468688965,
          "id": 1729359875
        }
      ]
    },
    "sfomuseum:placetype": "instagram",
    "src:geom": "sfomuseum",
    "wof:belongsto": [
      1159160869,
      102527513,
      102191575,
      85633793,
      102087579,
      85922583,
      85688637
    ],
    "wof:country": "US",
    "wof:created": 1547208060,
    "wof:geomhash": "b6e33f47475d56bc8da457bc31afadc8",
    "wof:hierarchy": [
      {
        "building_id": 1159160869,
        "campus_id": 102527513,
        "continent_id": 102191575,
        "country_id": 85633793,
        "county_id": 102087579,
        "custom_id": 1729357105,
        "instagram_id": 1729357105,
        "locality_id": 85922583,
        "neighbourhood_id": -1,
        "region_id": 85688637
      }
    ],
    "wof:id": 1729357105,
    "wof:lastmodified": 1787777630,
    "wof:name": "\"Sydney is just 37 1/2 hours from California!\"..",
    "wof:parent_id": 1159160869,
    "wof:placetype": "custom",
    "wof:placetype_alt": [
      "instagram"
    ],
    "wof:repo": "sfomuseum-data-socialmedia-instagram",
    "wof:superseded_by": [],
    "wof:supersedes": []
  },
  "bbox": [
    -122.386166,
    37.616356,
    -122.386166,
    37.616356
  ],
  "geometry": {"type":"Point","coordinates":[-122.386166,37.616356]}
}
