{
  "id": 1729361731,
  "type": "Feature",
  "properties": {
    "date:cessation_lower": "2015-06-25",
    "date:cessation_upper": "2015-06-25",
    "date:inception_lower": "2015-06-25",
    "date:inception_upper": "2015-06-25",
    "edtf:cessation": "2015-06-25T07:31:00-07:00",
    "edtf:inception": "2015-06-25T07:31:00-07:00",
    "geom:area": 0,
    "geom:bbox": "-122.386166,37.616356,-122.386166,37.616356",
    "geom:latitude": 37.616356,
    "geom:longitude": -122.386166,
    "instagram:post": {
      "caption": {
        "body": "",
        "excerpt": "",
        "hashtags": [
          "CatchOurStyle",
          "AirWest",
          "flightattendant",
          "1960s",
          "1960sfashion"
        ],
        "users": []
      },
      "media_id": "213c4b183b26cb6ce03ade658f35f6c0",
      "path": "media/other/11267261_1670680803151849_1083423931_n_17841897988062499.jpg",
      "perceptual_hash": "p:fa0e8f339c61e4b0",
      "taken": 1435242660,
      "taken_at": "Jun 25, 2015 2:31 pm"
    },
    "millsfield:similar": {
      "google/siglip2-so400m-patch16-naflex": [
        {
          "distance": 0.05011516809463501,
          "id": 1729360329
        },
        {
          "distance": 0.07289260625839233,
          "id": 1729360329
        },
        {
          "distance": 0.1643868088722229,
          "id": 1729360205
        },
        {
          "distance": 0.18692249059677124,
          "id": 1763559655
        },
        {
          "distance": 0.18705487251281738,
          "id": 1763559113
        },
        {
          "distance": 0.18719589710235596,
          "id": 1729360205
        },
        {
          "distance": 0.19768399000167847,
          "id": 1729360313
        },
        {
          "distance": 0.20930135250091553,
          "id": 1763559079
        },
        {
          "distance": 0.21204674243927002,
          "id": 1729359183
        },
        {
          "distance": 0.21570587158203125,
          "id": 1763559113
        }
      ]
    },
    "sfomuseum:placetype": "instagram",
    "src:geom": "sfomuseum",
    "wof:belongsto": [
      1159160869,
      102527513,
      102191575,
      85633793,
      102087579,
      85922583,
      85688637
    ],
    "wof:country": "US",
    "wof:created": 1435242660,
    "wof:geomhash": "b6e33f47475d56bc8da457bc31afadc8",
    "wof:hierarchy": [
      {
        "building_id": 1159160869,
        "campus_id": 102527513,
        "continent_id": 102191575,
        "country_id": 85633793,
        "county_id": 102087579,
        "custom_id": 1729361731,
        "instagram_id": 1729361731,
        "locality_id": 85922583,
        "neighbourhood_id": -1,
        "region_id": 85688637
      }
    ],
    "wof:id": 1729361731,
    "wof:lastmodified": 1787777646,
    "wof:name": "..",
    "wof:parent_id": 1159160869,
    "wof:placetype": "custom",
    "wof:placetype_alt": [
      "instagram"
    ],
    "wof:repo": "sfomuseum-data-socialmedia-instagram",
    "wof:superseded_by": [],
    "wof:supersedes": []
  },
  "bbox": [
    -122.386166,
    37.616356,
    -122.386166,
    37.616356
  ],
  "geometry": {"type":"Point","coordinates":[-122.386166,37.616356]}
}
