{
  "id": 1729362379,
  "type": "Feature",
  "properties": {
    "date:cessation_lower": "2014-03-11",
    "date:cessation_upper": "2014-03-11",
    "date:inception_lower": "2014-03-11",
    "date:inception_upper": "2014-03-11",
    "edtf:cessation": "2014-03-11T07:46:00-07:00",
    "edtf:inception": "2014-03-11T07:46:00-07:00",
    "geom:area": 0,
    "geom:bbox": "-122.386166,37.616356,-122.386166,37.616356",
    "geom:latitude": 37.616356,
    "geom:longitude": -122.386166,
    "instagram:post": {
      "caption": {
        "body": "",
        "excerpt": "",
        "hashtags": [
          "JapaneseToys",
          "toys"
        ],
        "users": []
      },
      "media_id": "c8b32419bd0f3042afe0a6e4bc17f524",
      "path": "media/other/11333490_468436753321683_2144535028_n_17842409758062499.jpg",
      "perceptual_hash": "p:8741a519ea36e9ce",
      "taken": 1394549160,
      "taken_at": "Mar 11, 2014 2:46 pm"
    },
    "millsfield:similar": {
      "google/siglip2-so400m-patch16-naflex": [
        {
          "distance": 0.18832796812057495,
          "id": 1729362449
        },
        {
          "distance": 0.1894761323928833,
          "id": 1729362387
        },
        {
          "distance": 0.2025904655456543,
          "id": 1729356637
        },
        {
          "distance": 0.21830648183822632,
          "id": 1729362605
        },
        {
          "distance": 0.2199684977531433,
          "id": 1729362747
        },
        {
          "distance": 0.22563427686691284,
          "id": 1729362449
        },
        {
          "distance": 0.24261713027954102,
          "id": 1729356641
        },
        {
          "distance": 0.25447607040405273,
          "id": 1729356637
        },
        {
          "distance": 0.2549298405647278,
          "id": 1729356645
        },
        {
          "distance": 0.2550436854362488,
          "id": 1729362387
        }
      ]
    },
    "sfomuseum:placetype": "instagram",
    "src:geom": "sfomuseum",
    "wof:belongsto": [
      1159160869,
      102527513,
      102191575,
      85633793,
      102087579,
      85922583,
      85688637
    ],
    "wof:country": "US",
    "wof:created": 1394549160,
    "wof:geomhash": "b6e33f47475d56bc8da457bc31afadc8",
    "wof:hierarchy": [
      {
        "building_id": 1159160869,
        "campus_id": 102527513,
        "continent_id": 102191575,
        "country_id": 85633793,
        "county_id": 102087579,
        "custom_id": 1729362379,
        "instagram_id": 1729362379,
        "locality_id": 85922583,
        "neighbourhood_id": -1,
        "region_id": 85688637
      }
    ],
    "wof:id": 1729362379,
    "wof:lastmodified": 1787777647,
    "wof:name": "..",
    "wof:parent_id": 1159160869,
    "wof:placetype": "custom",
    "wof:placetype_alt": [
      "instagram"
    ],
    "wof:repo": "sfomuseum-data-socialmedia-instagram",
    "wof:superseded_by": [],
    "wof:supersedes": []
  },
  "bbox": [
    -122.386166,
    37.616356,
    -122.386166,
    37.616356
  ],
  "geometry": {"type":"Point","coordinates":[-122.386166,37.616356]}
}
