{
  "id": 1729355909,
  "type": "Feature",
  "properties": {
    "date:cessation_lower": "2019-11-04",
    "date:cessation_upper": "2019-11-04",
    "date:inception_lower": "2019-11-04",
    "date:inception_upper": "2019-11-04",
    "edtf:cessation": "2019-11-04T05:46:00-08:00",
    "edtf:inception": "2019-11-04T05:46:00-08:00",
    "geom:area": 0,
    "geom:bbox": "-122.386166,37.616356,-122.386166,37.616356",
    "geom:latitude": 37.616356,
    "geom:longitude": -122.386166,
    "instagram:post": {
      "caption": {
        "body": "#Onthisday in 1932, the Model 17 Beech Staggerwing took off on its maiden flight. Throughout the 1930s and 1940s, Beechcraft improved their designs and differentiated models through the use of letters, A-G in their naming convention. Shown here is a G17 Staggerwing.  This model of the Beech Staggerwing was originally created for the Nut Tree Restaurant and Airfield Model Aircraft Collection in Vacaville, California. It was handmade and scratch-built by Edward “Eddie” Chavez in a 1:10 scale. The model was completed December 1968.  See more aircraft models created by Edward Chavez in “Masterworks by Edward Chavez: The Nut Tree Restaurant and Airfield Model Aircraft Collection” on display, pre-security, on the arrivals level of Terminal 3. http://bit.ly/32YbucL",
        "excerpt": "#Onthisday in 1932, the Model 17 Beech Staggerwing took off on its maiden flight.",
        "hashtags": [
          "avgeek",
          "beechcraft",
          "beech",
          "staggerwing"
        ],
        "users": []
      },
      "media_id": "a385c1ad64e0aa70ef0429aa3d3d6725",
      "path": "media/posts/201911/73713236_158065625403340_1906960123565903819_n_18079347988089667.jpg",
      "perceptual_hash": "p:d2db6565c1181caf",
      "taken": 1572875160,
      "taken_at": "Nov 04, 2019 1:46 pm"
    },
    "millsfield:similar": {
      "google/siglip2-so400m-patch16-naflex": [
        {
          "distance": 0.228279709815979,
          "id": 1729355539
        },
        {
          "distance": 0.230354905128479,
          "id": 1729355539
        },
        {
          "distance": 0.25026124715805054,
          "id": 1729357637
        },
        {
          "distance": 0.2536938190460205,
          "id": 1729357483
        },
        {
          "distance": 0.2536938190460205,
          "id": 1763558787
        },
        {
          "distance": 0.26020801067352295,
          "id": 1729358969
        },
        {
          "distance": 0.2667967677116394,
          "id": 1763558765
        },
        {
          "distance": 0.2667967677116394,
          "id": 1729357579
        },
        {
          "distance": 0.2683570981025696,
          "id": 1729357355
        },
        {
          "distance": 0.2708570957183838,
          "id": 1729360435
        }
      ]
    },
    "sfomuseum:placetype": "instagram",
    "src:geom": "sfomuseum",
    "wof:belongsto": [
      1159160869,
      102527513,
      102191575,
      85633793,
      102087579,
      85922583,
      85688637
    ],
    "wof:country": "US",
    "wof:created": 1572875160,
    "wof:geomhash": "b6e33f47475d56bc8da457bc31afadc8",
    "wof:hierarchy": [
      {
        "building_id": 1159160869,
        "campus_id": 102527513,
        "continent_id": 102191575,
        "country_id": 85633793,
        "county_id": 102087579,
        "custom_id": 1729355909,
        "instagram_id": 1729355909,
        "locality_id": 85922583,
        "neighbourhood_id": -1,
        "region_id": 85688637
      }
    ],
    "wof:id": 1729355909,
    "wof:lastmodified": 1787777627,
    "wof:name": "#Onthisday in 1932, the Model 17 Beech Staggerwing took off on its maiden flight...",
    "wof:parent_id": 1159160869,
    "wof:placetype": "custom",
    "wof:placetype_alt": [
      "instagram"
    ],
    "wof:repo": "sfomuseum-data-socialmedia-instagram",
    "wof:superseded_by": [],
    "wof:supersedes": []
  },
  "bbox": [
    -122.386166,
    37.616356,
    -122.386166,
    37.616356
  ],
  "geometry": {"type":"Point","coordinates":[-122.386166,37.616356]}
}
