{
  "id": 1729357611,
  "type": "Feature",
  "properties": {
    "date:cessation_lower": "2018-10-04",
    "date:cessation_upper": "2018-10-04",
    "date:inception_lower": "2018-10-04",
    "date:inception_upper": "2018-10-04",
    "edtf:cessation": "2018-10-04T11:38:00-07:00",
    "edtf:inception": "2018-10-04T11:38:00-07:00",
    "geom:area": 0,
    "geom:bbox": "-122.386166,37.616356,-122.386166,37.616356",
    "geom:latitude": 37.616356,
    "geom:longitude": -122.386166,
    "instagram:post": {
      "caption": {
        "body": "David Simpson’s paintings with their thin films of paint and soft  edges, anticipate the 1960’s formalist trends in pure color painting.  Storm, Stars and Stripes recalls the flat horizons, open vistas and  billowy skies of the Sacramento Delta region where Simpson was living. \"Storm,  Stars and Stripes \" by David Simpson is located pre-security, in  Terminal 3.  http://ow.ly/xWld50jkfG3",
        "excerpt": "David Simpson’s paintings with their thin films of paint and soft  edges, anticipate the 1960’s formalist trends in pure color painting.",
        "hashtags": [
          "davidsimpson",
          "stormstarsandstripes",
          "painting",
          "airportart",
          "art",
          "publicart"
        ],
        "users": []
      },
      "media_id": "7ade282820a308a865bd78025af4f1fe",
      "path": "media/posts/201810/42784746_536336860142636_7350155757365742065_n_17912628535239169.jpg",
      "perceptual_hash": "p:ec981373b384cc8f",
      "taken": 1538678280,
      "taken_at": "Oct 04, 2018 6:38 pm"
    },
    "millsfield:similar": {
      "google/siglip2-so400m-patch16-naflex": [
        {
          "distance": 0.18042081594467163,
          "id": 1729357365
        },
        {
          "distance": 0.18103480339050293,
          "id": 1729355435
        },
        {
          "distance": 0.18485045433044434,
          "id": 1763559521
        },
        {
          "distance": 0.20024645328521729,
          "id": 1880151253
        },
        {
          "distance": 0.2010403275489807,
          "id": 1729359429
        },
        {
          "distance": 0.20263463258743286,
          "id": 1947425185
        },
        {
          "distance": 0.20655596256256104,
          "id": 1729355435
        },
        {
          "distance": 0.20733368396759033,
          "id": 1880150939
        },
        {
          "distance": 0.21089375019073486,
          "id": 1880151285
        },
        {
          "distance": 0.21238833665847778,
          "id": 1729355383
        }
      ]
    },
    "sfomuseum:placetype": "instagram",
    "src:geom": "sfomuseum",
    "wof:belongsto": [
      1159160869,
      102527513,
      102191575,
      85633793,
      102087579,
      85922583,
      85688637
    ],
    "wof:country": "US",
    "wof:created": 1538678280,
    "wof:geomhash": "b6e33f47475d56bc8da457bc31afadc8",
    "wof:hierarchy": [
      {
        "building_id": 1159160869,
        "campus_id": 102527513,
        "continent_id": 102191575,
        "country_id": 85633793,
        "county_id": 102087579,
        "custom_id": 1729357611,
        "instagram_id": 1729357611,
        "locality_id": 85922583,
        "neighbourhood_id": -1,
        "region_id": 85688637
      }
    ],
    "wof:id": 1729357611,
    "wof:lastmodified": 1787777632,
    "wof:name": "David Simpson’s paintings with their thin films of paint and soft  edges, anticipate the 1960’s formalist trends in pure color painting...",
    "wof:parent_id": 1159160869,
    "wof:placetype": "custom",
    "wof:placetype_alt": [
      "instagram"
    ],
    "wof:repo": "sfomuseum-data-socialmedia-instagram",
    "wof:superseded_by": [],
    "wof:supersedes": []
  },
  "bbox": [
    -122.386166,
    37.616356,
    -122.386166,
    37.616356
  ],
  "geometry": {"type":"Point","coordinates":[-122.386166,37.616356]}
}
