{
  "id": 1729357153,
  "type": "Feature",
  "properties": {
    "date:cessation_lower": "2018-12-31",
    "date:cessation_upper": "2018-12-31",
    "date:inception_lower": "2018-12-31",
    "date:inception_upper": "2018-12-31",
    "edtf:cessation": "2018-12-31T14:23:00-08:00",
    "edtf:inception": "2018-12-31T14:23:00-08:00",
    "geom:area": 0,
    "geom:bbox": "-122.386166,37.616356,-122.386166,37.616356",
    "geom:latitude": 37.616356,
    "geom:longitude": -122.386166,
    "instagram:post": {
      "caption": {
        "body": "Happy New Year! The Aviation Museum and Library will be closed on January 1st to celebrate the New Year. Our other exhibitions around the airport are available to view. http://bit.ly/SFOExhibitions  Image: Holiday greeting card, LAMSA (Lineas Aereas Mexicanas), 1949 SFO Museum, Gift of the Elizabeth Clancy Beamish Trust 2013.060.032",
        "excerpt": "Happy New Year!",
        "hashtags": [
          "happynewyear"
        ],
        "users": []
      },
      "media_id": "23efb50f188b7b24cdc05f5cfd721fc5",
      "path": "media/posts/201812/47690602_587634568316787_1115164094075069088_n_18001151830119758.jpg",
      "perceptual_hash": "p:ab69da9694846c6b",
      "taken": 1546294980,
      "taken_at": "Dec 31, 2018 10:23 pm"
    },
    "millsfield:similar": {
      "google/siglip2-so400m-patch16-naflex": [
        {
          "distance": 0.4502759575843811,
          "id": 1763558679
        },
        {
          "distance": 0.45070940256118774,
          "id": 1729359463
        },
        {
          "distance": 0.4638434052467346,
          "id": 1729356331
        },
        {
          "distance": 0.47685885429382324,
          "id": 1763558953
        },
        {
          "distance": 0.4784442186355591,
          "id": 1880151505
        },
        {
          "distance": 0.48028671741485596,
          "id": 1763559345
        },
        {
          "distance": 0.4804380536079407,
          "id": 1880151277
        },
        {
          "distance": 0.4804770350456238,
          "id": 1729355239
        },
        {
          "distance": 0.4812747836112976,
          "id": 1947425059
        },
        {
          "distance": 0.4818727374076843,
          "id": 1729355239
        }
      ]
    },
    "sfomuseum:placetype": "instagram",
    "src:geom": "sfomuseum",
    "wof:belongsto": [
      1159160869,
      102527513,
      102191575,
      85633793,
      102087579,
      85922583,
      85688637
    ],
    "wof:country": "US",
    "wof:created": 1546294980,
    "wof:geomhash": "b6e33f47475d56bc8da457bc31afadc8",
    "wof:hierarchy": [
      {
        "building_id": 1159160869,
        "campus_id": 102527513,
        "continent_id": 102191575,
        "country_id": 85633793,
        "county_id": 102087579,
        "custom_id": 1729357153,
        "instagram_id": 1729357153,
        "locality_id": 85922583,
        "neighbourhood_id": -1,
        "region_id": 85688637
      }
    ],
    "wof:id": 1729357153,
    "wof:lastmodified": 1787777630,
    "wof:name": "Happy New Year!..",
    "wof:parent_id": 1159160869,
    "wof:placetype": "custom",
    "wof:placetype_alt": [
      "instagram"
    ],
    "wof:repo": "sfomuseum-data-socialmedia-instagram",
    "wof:superseded_by": [],
    "wof:supersedes": []
  },
  "bbox": [
    -122.386166,
    37.616356,
    -122.386166,
    37.616356
  ],
  "geometry": {"type":"Point","coordinates":[-122.386166,37.616356]}
}
