{
  "id": 1729359111,
  "type": "Feature",
  "properties": {
    "date:cessation_lower": "2017-09-07",
    "date:cessation_upper": "2017-09-07",
    "date:inception_lower": "2017-09-07",
    "date:inception_upper": "2017-09-07",
    "edtf:cessation": "2017-09-07T02:46:00-07:00",
    "edtf:inception": "2017-09-07T02:46:00-07:00",
    "geom:area": 0,
    "geom:bbox": "-122.386166,37.616356,-122.386166,37.616356",
    "geom:latitude": 37.616356,
    "geom:longitude": -122.386166,
    "instagram:post": {
      "caption": {
        "body": "Do you remember this sign? It was located on the roadway approach to San Francisco International Airport and read “Welcome to San Francisco - Mayor Joseph L. Alioto.” Image: San Francisco International Airport (SFO), signage, 1970. SFO Museum Collection. 2011.032.2104",
        "excerpt": "Do you remember this sign?",
        "hashtags": [
          "ThrowbackThursday",
          "TBT",
          "SFOHistory",
          "SFO",
          "paxex",
          "avgeek",
          "avationgeek",
          "aviation",
          "aviationhistory",
          "aviationlovers",
          "vintageaviation",
          "history",
          "avhistory",
          "aviationgeeks",
          "avgeeks",
          "SanFrancisco"
        ],
        "users": []
      },
      "media_id": "d46f9002c5a436103c10693e38cfd244",
      "path": "media/posts/201709/21480573_1388663497853966_2855859153954406400_n_17885519602102637.jpg",
      "perceptual_hash": "p:d4807a6a6a3b3db4",
      "taken": 1504777560,
      "taken_at": "Sep 07, 2017 9:46 am"
    },
    "millsfield:similar": {
      "google/siglip2-so400m-patch16-naflex": [
        {
          "distance": 0.2903793454170227,
          "id": 1729360873
        },
        {
          "distance": 0.294097900390625,
          "id": 1729357989
        },
        {
          "distance": 0.3076730966567993,
          "id": 1763559345
        },
        {
          "distance": 0.30794674158096313,
          "id": 1729357231
        },
        {
          "distance": 0.3116169571876526,
          "id": 1729359523
        },
        {
          "distance": 0.3250182867050171,
          "id": 1729361227
        },
        {
          "distance": 0.33634889125823975,
          "id": 1729359523
        },
        {
          "distance": 0.33733224868774414,
          "id": 1763559345
        },
        {
          "distance": 0.3373602032661438,
          "id": 1729359987
        },
        {
          "distance": 0.33940643072128296,
          "id": 1729359951
        }
      ]
    },
    "sfomuseum:placetype": "instagram",
    "src:geom": "sfomuseum",
    "wof:belongsto": [
      1159160869,
      102527513,
      102191575,
      85633793,
      102087579,
      85922583,
      85688637
    ],
    "wof:country": "US",
    "wof:created": 1504777560,
    "wof:geomhash": "b6e33f47475d56bc8da457bc31afadc8",
    "wof:hierarchy": [
      {
        "building_id": 1159160869,
        "campus_id": 102527513,
        "continent_id": 102191575,
        "country_id": 85633793,
        "county_id": 102087579,
        "custom_id": 1729359111,
        "instagram_id": 1729359111,
        "locality_id": 85922583,
        "neighbourhood_id": -1,
        "region_id": 85688637
      }
    ],
    "wof:id": 1729359111,
    "wof:lastmodified": 1787777635,
    "wof:name": "Do you remember this sign?..",
    "wof:parent_id": 1159160869,
    "wof:placetype": "custom",
    "wof:placetype_alt": [
      "instagram"
    ],
    "wof:repo": "sfomuseum-data-socialmedia-instagram",
    "wof:superseded_by": [],
    "wof:supersedes": []
  },
  "bbox": [
    -122.386166,
    37.616356,
    -122.386166,
    37.616356
  ],
  "geometry": {"type":"Point","coordinates":[-122.386166,37.616356]}
}
