{
  "id": 1729356341,
  "type": "Feature",
  "properties": {
    "date:cessation_lower": "2019-07-05",
    "date:cessation_upper": "2019-07-05",
    "date:inception_lower": "2019-07-05",
    "date:inception_upper": "2019-07-05",
    "edtf:cessation": "2019-07-05T08:04:00-07:00",
    "edtf:inception": "2019-07-05T08:04:00-07:00",
    "geom:area": 0,
    "geom:bbox": "-122.386166,37.616356,-122.386166,37.616356",
    "geom:latitude": 37.616356,
    "geom:longitude": -122.386166,
    "instagram:post": {
      "caption": {
        "body": "#Onthisday in 1994, the \"rebooted\" Frontier Airlines commenced operations. The ultra low-cost carrier traces its legacy back to the first Frontier Airlines, which was founded in 1950 and operated until 1986. In 1994, the new Frontier introduced a livery that included animals – each with their own name – painted on the tail of every aircraft. Some passengers have a favorite animal they like to fly. Have you ever flown on Frontier?  Image: Frontier Airlines model airplane, Airbus A319, 2013. Gift of Frontier Airlines. 2014.046.001 a b",
        "excerpt": "#Onthisday in 1994, the \"rebooted\" Frontier Airlines commenced operations.",
        "hashtags": [
          "avgeek",
          "frontier",
          "livery",
          "airbus"
        ],
        "users": []
      },
      "media_id": "3642563ab4ab351e5301f0eaeed4d4cd",
      "path": "media/other/66094724_2276940662361637_2387767056676859941_n_17969336704277280.jpg",
      "perceptual_hash": "p:b29807e549729a9f",
      "taken": 1562339040,
      "taken_at": "Jul 05, 2019 3:04 pm"
    },
    "millsfield:similar": {
      "google/siglip2-so400m-patch16-naflex": [
        {
          "distance": 0.17398685216903687,
          "id": 1729355557
        },
        {
          "distance": 0.2329431176185608,
          "id": 1729360605
        },
        {
          "distance": 0.2355588674545288,
          "id": 1729355557
        },
        {
          "distance": 0.2410309910774231,
          "id": 1729358097
        },
        {
          "distance": 0.24532246589660645,
          "id": 1763559313
        },
        {
          "distance": 0.24546074867248535,
          "id": 1763558963
        },
        {
          "distance": 0.2550048828125,
          "id": 1729355709
        },
        {
          "distance": 0.2586851716041565,
          "id": 1729360605
        },
        {
          "distance": 0.26045531034469604,
          "id": 1729359579
        },
        {
          "distance": 0.2637622356414795,
          "id": 1729359359
        }
      ]
    },
    "sfomuseum:placetype": "instagram",
    "src:geom": "sfomuseum",
    "wof:belongsto": [
      1159160869,
      102527513,
      102191575,
      85633793,
      102087579,
      85922583,
      85688637
    ],
    "wof:country": "US",
    "wof:created": 1562339040,
    "wof:geomhash": "b6e33f47475d56bc8da457bc31afadc8",
    "wof:hierarchy": [
      {
        "building_id": 1159160869,
        "campus_id": 102527513,
        "continent_id": 102191575,
        "country_id": 85633793,
        "county_id": 102087579,
        "custom_id": 1729356341,
        "instagram_id": 1729356341,
        "locality_id": 85922583,
        "neighbourhood_id": -1,
        "region_id": 85688637
      }
    ],
    "wof:id": 1729356341,
    "wof:lastmodified": 1787777629,
    "wof:name": "#Onthisday in 1994, the \"rebooted\" Frontier Airlines commenced operations...",
    "wof:parent_id": 1159160869,
    "wof:placetype": "custom",
    "wof:placetype_alt": [
      "instagram"
    ],
    "wof:repo": "sfomuseum-data-socialmedia-instagram",
    "wof:superseded_by": [],
    "wof:supersedes": []
  },
  "bbox": [
    -122.386166,
    37.616356,
    -122.386166,
    37.616356
  ],
  "geometry": {"type":"Point","coordinates":[-122.386166,37.616356]}
}
