{
  "id": 1729361449,
  "type": "Feature",
  "properties": {
    "date:cessation_lower": "2015-10-16",
    "date:cessation_upper": "2015-10-16",
    "date:inception_lower": "2015-10-16",
    "date:inception_upper": "2015-10-16",
    "edtf:cessation": "2015-10-16T03:04:00-07:00",
    "edtf:inception": "2015-10-16T03:04:00-07:00",
    "geom:area": 0,
    "geom:bbox": "-122.386166,37.616356,-122.386166,37.616356",
    "geom:latitude": 37.616356,
    "geom:longitude": -122.386166,
    "instagram:post": {
      "caption": {
        "body": "",
        "excerpt": "",
        "hashtags": [
          "OnThisDay"
        ],
        "users": []
      },
      "media_id": "d22f84cae370ec072e9c0fc79e6eb33f",
      "path": "media/other/12139791_486350251547901_1279631335_n_17844262285062499.jpg",
      "perceptual_hash": "p:90326ecd3d991b4b",
      "taken": 1444989840,
      "taken_at": "Oct 16, 2015 10:04 am"
    },
    "millsfield:similar": {
      "google/siglip2-so400m-patch16-naflex": [
        {
          "distance": 0.28241926431655884,
          "id": 1880151101
        },
        {
          "distance": 0.35198551416397095,
          "id": 1880151101
        },
        {
          "distance": 0.352239191532135,
          "id": 1880151427
        },
        {
          "distance": 0.4110291600227356,
          "id": 1729360861
        },
        {
          "distance": 0.422208309173584,
          "id": 1729361397
        },
        {
          "distance": 0.4272690415382385,
          "id": 1729360141
        },
        {
          "distance": 0.4286785125732422,
          "id": 1729361299
        },
        {
          "distance": 0.4310629963874817,
          "id": 1729361051
        },
        {
          "distance": 0.4334772229194641,
          "id": 1729360347
        },
        {
          "distance": 0.43607741594314575,
          "id": 1729361051
        }
      ]
    },
    "sfomuseum:placetype": "instagram",
    "src:geom": "sfomuseum",
    "wof:belongsto": [
      1159160869,
      102527513,
      102191575,
      85633793,
      102087579,
      85922583,
      85688637
    ],
    "wof:country": "US",
    "wof:created": 1444989840,
    "wof:geomhash": "b6e33f47475d56bc8da457bc31afadc8",
    "wof:hierarchy": [
      {
        "building_id": 1159160869,
        "campus_id": 102527513,
        "continent_id": 102191575,
        "country_id": 85633793,
        "county_id": 102087579,
        "custom_id": 1729361449,
        "instagram_id": 1729361449,
        "locality_id": 85922583,
        "neighbourhood_id": -1,
        "region_id": 85688637
      }
    ],
    "wof:id": 1729361449,
    "wof:lastmodified": 1787777645,
    "wof:name": "..",
    "wof:parent_id": 1159160869,
    "wof:placetype": "custom",
    "wof:placetype_alt": [
      "instagram"
    ],
    "wof:repo": "sfomuseum-data-socialmedia-instagram",
    "wof:superseded_by": [],
    "wof:supersedes": []
  },
  "bbox": [
    -122.386166,
    37.616356,
    -122.386166,
    37.616356
  ],
  "geometry": {"type":"Point","coordinates":[-122.386166,37.616356]}
}
