{
  "id": 1729362315,
  "type": "Feature",
  "properties": {
    "date:cessation_lower": "2014-04-24",
    "date:cessation_upper": "2014-04-24",
    "date:inception_lower": "2014-04-24",
    "date:inception_upper": "2014-04-24",
    "edtf:cessation": "2014-04-24T08:26:00-07:00",
    "edtf:inception": "2014-04-24T08:26:00-07:00",
    "geom:area": 0,
    "geom:bbox": "-122.386166,37.616356,-122.386166,37.616356",
    "geom:latitude": 37.616356,
    "geom:longitude": -122.386166,
    "instagram:post": {
      "caption": {
        "body": "",
        "excerpt": "",
        "hashtags": [
          "ThowbackThursday",
          "tbt",
          "sfo",
          "unitedairlines"
        ],
        "users": [
          "flySFO"
        ]
      },
      "media_id": "29ab0450b294615de0b0ef973fb20178",
      "path": "media/other/10268988_272495026269491_917154776_n_17842423120062499.jpg",
      "perceptual_hash": "p:e09b954946761e2f",
      "taken": 1398353160,
      "taken_at": "Apr 24, 2014 3:26 pm"
    },
    "millsfield:similar": {
      "google/siglip2-so400m-patch16-naflex": [
        {
          "distance": 0.1538277268409729,
          "id": 1729358009
        },
        {
          "distance": 0.1611899733543396,
          "id": 1880151589
        },
        {
          "distance": 0.16306281089782715,
          "id": 1729359361
        },
        {
          "distance": 0.17037826776504517,
          "id": 1729356979
        },
        {
          "distance": 0.17057210206985474,
          "id": 1729360277
        },
        {
          "distance": 0.17059099674224854,
          "id": 1729358317
        },
        {
          "distance": 0.1777639389038086,
          "id": 1763559505
        },
        {
          "distance": 0.1781386137008667,
          "id": 1763559547
        },
        {
          "distance": 0.18046808242797852,
          "id": 1729359361
        },
        {
          "distance": 0.1829546093940735,
          "id": 1729357145
        }
      ]
    },
    "sfomuseum:placetype": "instagram",
    "src:geom": "sfomuseum",
    "wof:belongsto": [
      1159160869,
      102527513,
      102191575,
      85633793,
      102087579,
      85922583,
      85688637
    ],
    "wof:country": "US",
    "wof:created": 1398353160,
    "wof:geomhash": "b6e33f47475d56bc8da457bc31afadc8",
    "wof:hierarchy": [
      {
        "building_id": 1159160869,
        "campus_id": 102527513,
        "continent_id": 102191575,
        "country_id": 85633793,
        "county_id": 102087579,
        "custom_id": 1729362315,
        "instagram_id": 1729362315,
        "locality_id": 85922583,
        "neighbourhood_id": -1,
        "region_id": 85688637
      }
    ],
    "wof:id": 1729362315,
    "wof:lastmodified": 1787777646,
    "wof:name": "..",
    "wof:parent_id": 1159160869,
    "wof:placetype": "custom",
    "wof:placetype_alt": [
      "instagram"
    ],
    "wof:repo": "sfomuseum-data-socialmedia-instagram",
    "wof:superseded_by": [],
    "wof:supersedes": []
  },
  "bbox": [
    -122.386166,
    37.616356,
    -122.386166,
    37.616356
  ],
  "geometry": {"type":"Point","coordinates":[-122.386166,37.616356]}
}
