{
  "id": 1729357901,
  "type": "Feature",
  "properties": {
    "date:cessation_lower": "2018-07-24",
    "date:cessation_upper": "2018-07-24",
    "date:inception_lower": "2018-07-24",
    "date:inception_upper": "2018-07-24",
    "edtf:cessation": "2018-07-23T17:30:18-07:00",
    "edtf:inception": "2018-07-23T17:30:18-07:00",
    "geom:area": 0,
    "geom:bbox": "-122.386166,37.616356,-122.386166,37.616356",
    "geom:latitude": 37.616356,
    "geom:longitude": -122.386166,
    "instagram:post": {
      "caption": {
        "body": "From the 1950s to the 1970s, the Airline Textile Company of Des Moines, Iowa, dominated the production of U.S. based airline kits, including R.O.N. (Remain Over Night) kits. Loaded with many of the amenities one would need for an overnight stay if a flight were canceled, including hair cream and brushless shave cream, these kits were given out on to stranded passengers. Do you have any Remain Over Night kits?",
        "excerpt": "From the 1950s to the 1970s, the Airline Textile Company of Des Moines, Iowa, dominated the production of U.S. based airline kits, including R.O.N. (Remain Over Night) kits.",
        "hashtags": [
          "avgeek",
          "aviationgeek",
          "aviation",
          "aviationhistory",
          "aviationlovers",
          "vintageaviation",
          "history",
          "avgeeks",
          "paxex",
          "amenity",
          "HughesAirwest"
        ],
        "users": []
      },
      "location": "",
      "media_id": "8fd9ac9377df3975a091e32cebc4033d",
      "path": "photos/201807/8fd9ac9377df3975a091e32cebc4033d.jpg",
      "perceptual_hash": "p:f8479638c3b04f9a",
      "taken": 1532363400,
      "taken_at": "Jul 23, 2018, 4:30 PM"
    },
    "millsfield:similar": {
      "google/siglip2-so400m-patch16-naflex": [
        {
          "distance": 0.24703997373580933,
          "id": 1729361003
        },
        {
          "distance": 0.268898606300354,
          "id": 1729361003
        },
        {
          "distance": 0.3022092580795288,
          "id": 1880150941
        },
        {
          "distance": 0.30398595333099365,
          "id": 1729357909
        },
        {
          "distance": 0.3261905312538147,
          "id": 1729357937
        },
        {
          "distance": 0.33514243364334106,
          "id": 1880150941
        },
        {
          "distance": 0.33819901943206787,
          "id": 1729357909
        },
        {
          "distance": 0.37426185607910156,
          "id": 1729357937
        },
        {
          "distance": 0.4157645106315613,
          "id": 1729362219
        },
        {
          "distance": 0.41834431886672974,
          "id": 1729358965
        }
      ]
    },
    "sfomuseum:placetype": "instagram",
    "src:geom": "sfomuseum",
    "wof:belongsto": [
      1159160869,
      102527513,
      102191575,
      85633793,
      102087579,
      85922583,
      85688637
    ],
    "wof:country": "US",
    "wof:created": 1532392218,
    "wof:geomhash": "b6e33f47475d56bc8da457bc31afadc8",
    "wof:hierarchy": [
      {
        "building_id": 1159160869,
        "campus_id": 102527513,
        "continent_id": 102191575,
        "country_id": 85633793,
        "county_id": 102087579,
        "custom_id": 1729357901,
        "instagram_id": 1729357901,
        "locality_id": 85922583,
        "neighbourhood_id": -1,
        "region_id": 85688637
      }
    ],
    "wof:id": 1729357901,
    "wof:lastmodified": 1787777632,
    "wof:name": "From the 1950s to the 1970s, the Airline Textile Company of Des Moines, Iowa, dominated the production of U.S. based airline kits, including R.O.N. (Remain Over Night) kits...",
    "wof:parent_id": 1159160869,
    "wof:placetype": "custom",
    "wof:placetype_alt": [
      "instagram"
    ],
    "wof:repo": "sfomuseum-data-socialmedia-instagram",
    "wof:superseded_by": [],
    "wof:supersedes": []
  },
  "bbox": [
    -122.386166,
    37.616356,
    -122.386166,
    37.616356
  ],
  "geometry": {"type":"Point","coordinates":[-122.386166,37.616356]}
}
