{
  "id": 1729359779,
  "type": "Feature",
  "properties": {
    "date:cessation_lower": "2017-02-24",
    "date:cessation_upper": "2017-02-24",
    "date:inception_lower": "2017-02-24",
    "date:inception_upper": "2017-02-24",
    "edtf:cessation": "2017-02-24T10:36:21-08:00",
    "edtf:inception": "2017-02-24T10:36:21-08:00",
    "geom:area": 0,
    "geom:bbox": "-122.386166,37.616356,-122.386166,37.616356",
    "geom:latitude": 37.616356,
    "geom:longitude": -122.386166,
    "instagram:post": {
      "caption": {
        "body": "A mechanical device patented by Harry Hoke, Jr., required the player to flip a steel ball into a snake’s mouth before the machine would pay out—a feature billed as “Compulsory Skill Control” on the body of the machine. Although this feat required very little expertise, it allowed the machine’s classification as a game of skill rather than a game of chance, thus circumventing anti-gambling ordinances in many states. A horizontal coin escalator at the top of the machine was viewed through a window in the body of the snake.  All objects are courtesy of the Joe Welch American Antique Museum. See \"#GamesofChance: Gambling Devices of the Mechanical Age\", on display, post-security, in Terminal 3. http://bit.ly/GamesofChance",
        "excerpt": "A mechanical device patented by Harry Hoke, Jr., required the player to flip a steel ball into a snake’s mouth before the machine would pay out—a feature billed as “Compulsory Skill Control” on the body of the machine.",
        "hashtags": [],
        "users": []
      },
      "location": "San Francisco International Airport (SFO)",
      "media_id": "062504c8a5a7efb64e9e9ffc295438d8",
      "path": "photos/201702/062504c8a5a7efb64e9e9ffc295438d8.jpg",
      "perceptual_hash": "p:ffe54e248b02c34b",
      "taken": 1487932560,
      "taken_at": "Feb 24, 2017, 10:36 AM"
    },
    "millsfield:similar": {
      "google/siglip2-so400m-patch16-naflex": [
        {
          "distance": 0.0056893229484558105,
          "id": 1763558647
        },
        {
          "distance": 0.09040313959121704,
          "id": 1763558647
        },
        {
          "distance": 0.24914801120758057,
          "id": 1729360031
        },
        {
          "distance": 0.2640951871871948,
          "id": 1729357723
        },
        {
          "distance": 0.2708352208137512,
          "id": 1729359923
        },
        {
          "distance": 0.29165929555892944,
          "id": 1729359741
        },
        {
          "distance": 0.2925059199333191,
          "id": 1729359669
        },
        {
          "distance": 0.2976929545402527,
          "id": 1729358737
        },
        {
          "distance": 0.298770546913147,
          "id": 1729359887
        },
        {
          "distance": 0.30109453201293945,
          "id": 1729358735
        }
      ]
    },
    "sfomuseum:placetype": "instagram",
    "src:geom": "sfomuseum",
    "wof:belongsto": [
      1159160869,
      102527513,
      102191575,
      85633793,
      102087579,
      85922583,
      85688637
    ],
    "wof:country": "US",
    "wof:created": 1487961381,
    "wof:geomhash": "b6e33f47475d56bc8da457bc31afadc8",
    "wof:hierarchy": [
      {
        "building_id": 1159160869,
        "campus_id": 102527513,
        "continent_id": 102191575,
        "country_id": 85633793,
        "county_id": 102087579,
        "custom_id": 1729359779,
        "instagram_id": 1729359779,
        "locality_id": 85922583,
        "neighbourhood_id": -1,
        "region_id": 85688637
      }
    ],
    "wof:id": 1729359779,
    "wof:lastmodified": 1787777636,
    "wof:name": "A mechanical device patented by Harry Hoke, Jr., required the player to flip a steel ball into a snake’s mouth before the machine would pay out—a feature billed as “Compulsory Skill Control” on the body of the machine...",
    "wof:parent_id": 1159160869,
    "wof:placetype": "custom",
    "wof:placetype_alt": [
      "instagram"
    ],
    "wof:repo": "sfomuseum-data-socialmedia-instagram",
    "wof:superseded_by": [],
    "wof:supersedes": []
  },
  "bbox": [
    -122.386166,
    37.616356,
    -122.386166,
    37.616356
  ],
  "geometry": {"type":"Point","coordinates":[-122.386166,37.616356]}
}
