{
  "id": 1729360057,
  "type": "Feature",
  "properties": {
    "date:cessation_lower": "2016-12-03",
    "date:cessation_upper": "2016-12-03",
    "date:inception_lower": "2016-12-03",
    "date:inception_upper": "2016-12-03",
    "edtf:cessation": "2016-12-03T07:13:00-08:00",
    "edtf:inception": "2016-12-03T07:13:00-08:00",
    "geom:area": 0,
    "geom:bbox": "-122.386166,37.616356,-122.386166,37.616356",
    "geom:latitude": 37.616356,
    "geom:longitude": -122.386166,
    "instagram:post": {
      "caption": {
        "body": "San Francisco’s Sunset District, one of the biggest residential neighborhoods in the city, was once mostly sand dunes. As public transportation and the use of automobiles spread, the area was largely developed during the first half of the twentieth century, as a suburb of the city. For six months in 2014 and 2015, photographer Spencer Brown chased street cleaning vehicles along the avenues, capturing relatively treeless scenes devoid of people and cars. The resulting wide-angle shots explore the play of overhead power lines against the sky and the district’s stark, repetitive architecture. \"Sunset, SF\" by @spencerbrownphoto is on display, pre-security on the departures level of Terminal 1. http://bit.ly/2gP7JSd",
        "excerpt": "San Francisco’s Sunset District, one of the biggest residential neighborhoods in the city, was once mostly sand dunes.",
        "hashtags": [
          "SpencerBrown",
          "fineart",
          "sf",
          "sfhistory",
          "outerlands",
          "photography"
        ],
        "users": []
      },
      "media_id": "accec072af66a31ef8f0dcb0ff9f6f64",
      "path": "media/posts/201612/15099490_1251251398270093_895329677093109760_n_17866829548047097.jpg",
      "perceptual_hash": "p:8c3b669972ec1966",
      "taken": 1480777980,
      "taken_at": "Dec 03, 2016 3:13 pm"
    },
    "millsfield:similar": {
      "google/siglip2-so400m-patch16-naflex": [
        {
          "distance": 0.2349904179573059,
          "id": 1729355127
        },
        {
          "distance": 0.2384122610092163,
          "id": 1729360873
        },
        {
          "distance": 0.2515413165092468,
          "id": 1729357923
        },
        {
          "distance": 0.2568027973175049,
          "id": 1729356191
        },
        {
          "distance": 0.2601434588432312,
          "id": 1729357231
        },
        {
          "distance": 0.2718159556388855,
          "id": 1729360865
        },
        {
          "distance": 0.27399754524230957,
          "id": 1729355127
        },
        {
          "distance": 0.2784572243690491,
          "id": 1729355141
        },
        {
          "distance": 0.2892454266548157,
          "id": 1880151423
        },
        {
          "distance": 0.28949421644210815,
          "id": 1947424789
        }
      ]
    },
    "sfomuseum:placetype": "instagram",
    "src:geom": "sfomuseum",
    "wof:belongsto": [
      1159160869,
      102527513,
      102191575,
      85633793,
      102087579,
      85922583,
      85688637
    ],
    "wof:country": "US",
    "wof:created": 1480777980,
    "wof:geomhash": "b6e33f47475d56bc8da457bc31afadc8",
    "wof:hierarchy": [
      {
        "building_id": 1159160869,
        "campus_id": 102527513,
        "continent_id": 102191575,
        "country_id": 85633793,
        "county_id": 102087579,
        "custom_id": 1729360057,
        "instagram_id": 1729360057,
        "locality_id": 85922583,
        "neighbourhood_id": -1,
        "region_id": 85688637
      }
    ],
    "wof:id": 1729360057,
    "wof:lastmodified": 1787777639,
    "wof:name": "San Francisco’s Sunset District, one of the biggest residential neighborhoods in the city, was once mostly sand dunes...",
    "wof:parent_id": 1159160869,
    "wof:placetype": "custom",
    "wof:placetype_alt": [
      "instagram"
    ],
    "wof:repo": "sfomuseum-data-socialmedia-instagram",
    "wof:superseded_by": [],
    "wof:supersedes": []
  },
  "bbox": [
    -122.386166,
    37.616356,
    -122.386166,
    37.616356
  ],
  "geometry": {"type":"Point","coordinates":[-122.386166,37.616356]}
}
