{
  "id": 1729362305,
  "type": "Feature",
  "properties": {
    "date:cessation_lower": "2014-05-09",
    "date:cessation_upper": "2014-05-09",
    "date:inception_lower": "2014-05-09",
    "date:inception_upper": "2014-05-09",
    "edtf:cessation": "2014-05-09T07:49:00-07:00",
    "edtf:inception": "2014-05-09T07:49:00-07:00",
    "geom:area": 0,
    "geom:bbox": "-122.386166,37.616356,-122.386166,37.616356",
    "geom:latitude": 37.616356,
    "geom:longitude": -122.386166,
    "instagram:post": {
      "caption": {
        "body": "",
        "excerpt": "",
        "hashtags": [
          "HelloKitty",
          "JapaneseToys"
        ],
        "users": []
      },
      "media_id": "6632308006f6227f93762dee8ee14a47",
      "path": "media/other/10349722_659641467418725_954779862_n_17841584101062499.jpg",
      "perceptual_hash": "p:95e9623e883c1f27",
      "taken": 1399646940,
      "taken_at": "May 09, 2014 2:49 pm"
    },
    "millsfield:similar": {
      "google/siglip2-so400m-patch16-naflex": [
        {
          "distance": 0.2693958878517151,
          "id": 1729362301
        },
        {
          "distance": 0.3232589364051819,
          "id": 1729362301
        },
        {
          "distance": 0.3454786539077759,
          "id": 1729360291
        },
        {
          "distance": 0.36324435472488403,
          "id": 1729362513
        },
        {
          "distance": 0.36871588230133057,
          "id": 1729362359
        },
        {
          "distance": 0.37666136026382446,
          "id": 1729362669
        },
        {
          "distance": 0.3779902458190918,
          "id": 1729362293
        },
        {
          "distance": 0.37800049781799316,
          "id": 1729362747
        },
        {
          "distance": 0.3780261278152466,
          "id": 1729361747
        },
        {
          "distance": 0.37975311279296875,
          "id": 1729362493
        }
      ]
    },
    "sfomuseum:placetype": "instagram",
    "src:geom": "sfomuseum",
    "wof:belongsto": [
      1159160869,
      102527513,
      102191575,
      85633793,
      102087579,
      85922583,
      85688637
    ],
    "wof:country": "US",
    "wof:created": 1399646940,
    "wof:geomhash": "b6e33f47475d56bc8da457bc31afadc8",
    "wof:hierarchy": [
      {
        "building_id": 1159160869,
        "campus_id": 102527513,
        "continent_id": 102191575,
        "country_id": 85633793,
        "county_id": 102087579,
        "custom_id": 1729362305,
        "instagram_id": 1729362305,
        "locality_id": 85922583,
        "neighbourhood_id": -1,
        "region_id": 85688637
      }
    ],
    "wof:id": 1729362305,
    "wof:lastmodified": 1787777646,
    "wof:name": "..",
    "wof:parent_id": 1159160869,
    "wof:placetype": "custom",
    "wof:placetype_alt": [
      "instagram"
    ],
    "wof:repo": "sfomuseum-data-socialmedia-instagram",
    "wof:superseded_by": [],
    "wof:supersedes": []
  },
  "bbox": [
    -122.386166,
    37.616356,
    -122.386166,
    37.616356
  ],
  "geometry": {"type":"Point","coordinates":[-122.386166,37.616356]}
}
