{
  "id": 1729359393,
  "type": "Feature",
  "properties": {
    "date:cessation_lower": "2017-06-20",
    "date:cessation_upper": "2017-06-20",
    "date:inception_lower": "2017-06-20",
    "date:inception_upper": "2017-06-20",
    "edtf:cessation": "2017-06-20T09:37:31-07:00",
    "edtf:inception": "2017-06-20T09:37:31-07:00",
    "geom:area": 0,
    "geom:bbox": "-122.386166,37.616356,-122.386166,37.616356",
    "geom:latitude": 37.616356,
    "geom:longitude": -122.386166,
    "instagram:post": {
      "caption": {
        "body": "The Airport is hosting a ground-breaking ceremony today for a new hotel. In the 1960s, the airport's previous hotel featured 380 rooms and a night club favored by airline staff and locals called the Tiger A Go-Go. The San Francisco Airport Hilton was the first of the Hilton chain to be located at an airport. It was demolished in the 1990s to make way for the International Terminal. Do you remember the old airport hotel?  Image: San Francisco International Airport (SFO), aerial, Hilton Hotel, 1962. SFO Museum Collection. 2011.032.0740",
        "excerpt": "The Airport is hosting a ground-breaking ceremony today for a new hotel.",
        "hashtags": [
          "hilton",
          "grandhyatt",
          "hyatt",
          "hotels",
          "sfohistory",
          "avgeek",
          "aviationhistory",
          "sfhistory",
          "tigeragogo"
        ],
        "users": []
      },
      "location": "",
      "media_id": "efe5b0e7f2d7bab6f2ba1b6a2bd75746",
      "path": "photos/201706/efe5b0e7f2d7bab6f2ba1b6a2bd75746.jpg",
      "perceptual_hash": "p:81da6e819d7bc3e0",
      "taken": 1497947820,
      "taken_at": "Jun 20, 2017, 8:37 AM"
    },
    "millsfield:similar": {
      "google/siglip2-so400m-patch16-naflex": [
        {
          "distance": 0.00002378225326538086,
          "id": 1763558675
        },
        {
          "distance": 0.15670347213745117,
          "id": 1947425255
        },
        {
          "distance": 0.15721869468688965,
          "id": 1729356281
        },
        {
          "distance": 0.16239839792251587,
          "id": 1729359933
        },
        {
          "distance": 0.18294745683670044,
          "id": 1729359805
        },
        {
          "distance": 0.19037878513336182,
          "id": 1763558675
        },
        {
          "distance": 0.203544020652771,
          "id": 1729360235
        },
        {
          "distance": 0.20994818210601807,
          "id": 1729359583
        },
        {
          "distance": 0.21482998132705688,
          "id": 1729357547
        },
        {
          "distance": 0.21858614683151245,
          "id": 1729359005
        }
      ]
    },
    "sfomuseum:placetype": "instagram",
    "src:geom": "sfomuseum",
    "wof:belongsto": [
      1159160869,
      102527513,
      102191575,
      85633793,
      102087579,
      85922583,
      85688637
    ],
    "wof:country": "US",
    "wof:created": 1497976651,
    "wof:geomhash": "b6e33f47475d56bc8da457bc31afadc8",
    "wof:hierarchy": [
      {
        "building_id": 1159160869,
        "campus_id": 102527513,
        "continent_id": 102191575,
        "country_id": 85633793,
        "county_id": 102087579,
        "custom_id": 1729359393,
        "instagram_id": 1729359393,
        "locality_id": 85922583,
        "neighbourhood_id": -1,
        "region_id": 85688637
      }
    ],
    "wof:id": 1729359393,
    "wof:lastmodified": 1787777635,
    "wof:name": "The Airport is hosting a ground-breaking ceremony today for a new hotel...",
    "wof:parent_id": 1159160869,
    "wof:placetype": "custom",
    "wof:placetype_alt": [
      "instagram"
    ],
    "wof:repo": "sfomuseum-data-socialmedia-instagram",
    "wof:superseded_by": [],
    "wof:supersedes": []
  },
  "bbox": [
    -122.386166,
    37.616356,
    -122.386166,
    37.616356
  ],
  "geometry": {"type":"Point","coordinates":[-122.386166,37.616356]}
}
