{
  "id": 1729362435,
  "type": "Feature",
  "properties": {
    "date:cessation_lower": "2013-12-18",
    "date:cessation_upper": "2013-12-18",
    "date:inception_lower": "2013-12-18",
    "date:inception_upper": "2013-12-18",
    "edtf:cessation": "2013-12-18T08:12:00-08:00",
    "edtf:inception": "2013-12-18T08:12:00-08:00",
    "geom:area": 0,
    "geom:bbox": "-122.386166,37.616356,-122.386166,37.616356",
    "geom:latitude": 37.616356,
    "geom:longitude": -122.386166,
    "instagram:post": {
      "caption": {
        "body": "New permanent art from Merge is being installed in the new, soon-to-be-unveiled Boarding Area E!",
        "excerpt": "New permanent art from Merge is being installed in the new, soon-to-be-unveiled Boarding Area E!",
        "hashtags": [],
        "users": []
      },
      "media_id": "4fb53766ab355efbe9a77eca2ac74a60",
      "path": "media/other/11352436_1602264213391152_703506728_n_17842384903062499.jpg",
      "perceptual_hash": "p:ee96111b9de2b429",
      "taken": 1387383120,
      "taken_at": "Dec 18, 2013 4:12 pm"
    },
    "millsfield:similar": {
      "google/siglip2-so400m-patch16-naflex": [
        {
          "distance": 0.2131391167640686,
          "id": 1729362469
        },
        {
          "distance": 0.2626166343688965,
          "id": 1729362331
        },
        {
          "distance": 0.27459245920181274,
          "id": 1729362469
        },
        {
          "distance": 0.2775506377220154,
          "id": 1729362719
        },
        {
          "distance": 0.2835603952407837,
          "id": 1880151689
        },
        {
          "distance": 0.2888975739479065,
          "id": 1729361591
        },
        {
          "distance": 0.2896416187286377,
          "id": 1729362913
        },
        {
          "distance": 0.2921984791755676,
          "id": 1729361953
        },
        {
          "distance": 0.2935452461242676,
          "id": 1880151689
        },
        {
          "distance": 0.30300629138946533,
          "id": 1947424913
        }
      ]
    },
    "sfomuseum:placetype": "instagram",
    "src:geom": "sfomuseum",
    "wof:belongsto": [
      1159160869,
      102527513,
      102191575,
      85633793,
      102087579,
      85922583,
      85688637
    ],
    "wof:country": "US",
    "wof:created": 1387383120,
    "wof:geomhash": "b6e33f47475d56bc8da457bc31afadc8",
    "wof:hierarchy": [
      {
        "building_id": 1159160869,
        "campus_id": 102527513,
        "continent_id": 102191575,
        "country_id": 85633793,
        "county_id": 102087579,
        "custom_id": 1729362435,
        "instagram_id": 1729362435,
        "locality_id": 85922583,
        "neighbourhood_id": -1,
        "region_id": 85688637
      }
    ],
    "wof:id": 1729362435,
    "wof:lastmodified": 1787777647,
    "wof:name": "New permanent art from Merge is being installed in the new, soon-to-be-unveiled Boarding Area E!..",
    "wof:parent_id": 1159160869,
    "wof:placetype": "custom",
    "wof:placetype_alt": [
      "instagram"
    ],
    "wof:repo": "sfomuseum-data-socialmedia-instagram",
    "wof:superseded_by": [],
    "wof:supersedes": []
  },
  "bbox": [
    -122.386166,
    37.616356,
    -122.386166,
    37.616356
  ],
  "geometry": {"type":"Point","coordinates":[-122.386166,37.616356]}
}
