{
  "id": 1729358535,
  "type": "Feature",
  "properties": {
    "date:cessation_lower": "2018-02-18",
    "date:cessation_upper": "2018-02-18",
    "date:inception_lower": "2018-02-18",
    "date:inception_upper": "2018-02-18",
    "edtf:cessation": "2018-02-18T05:25:00-08:00",
    "edtf:inception": "2018-02-18T05:25:00-08:00",
    "geom:area": 0,
    "geom:bbox": "-122.386166,37.616356,-122.386166,37.616356",
    "geom:latitude": 37.616356,
    "geom:longitude": -122.386166,
    "instagram:post": {
      "caption": {
        "body": "Our online database features over 10,000 objects from our collection, including over 200 airmail covers from all over the world, commemorating different airmail routes. See them here: http://bit.ly/AirMailSFO  Image: Pan American Airways airmail flight cover, Eastbound from Manila to San Francisco, 1936. Gift of Jon E. Krupnick. 2008.075.155",
        "excerpt": "Our online database features over 10,000 objects from our collection, including over 200 airmail covers from all over the world, commemorating different airmail routes.",
        "hashtags": [
          "avgeek",
          "avationgeek",
          "aviation",
          "aviationhistory",
          "vintageaviation",
          "history",
          "avhistory",
          "aviationgeeks",
          "avgeeks",
          "philately",
          "airmail",
          "SFO",
          "manila",
          "panam",
          "panamerican",
          "transpacific"
        ],
        "users": []
      },
      "media_id": "7bbb1c16edc58ca3426aa32a74536c60",
      "path": "media/other/27880522_114777702632597_1259842469172871168_n_17924739577028037.jpg",
      "perceptual_hash": "p:ee4c4487b9999b23",
      "taken": 1518960300,
      "taken_at": "Feb 18, 2018 1:25 pm"
    },
    "millsfield:similar": {
      "google/siglip2-so400m-patch16-naflex": [
        {
          "distance": 0.03702068328857422,
          "id": 1729360783
        },
        {
          "distance": 0.11982160806655884,
          "id": 1729360783
        },
        {
          "distance": 0.19387447834014893,
          "id": 1729360693
        },
        {
          "distance": 0.2291361689567566,
          "id": 1729360693
        },
        {
          "distance": 0.24802857637405396,
          "id": 1729360137
        },
        {
          "distance": 0.24878454208374023,
          "id": 1880151359
        },
        {
          "distance": 0.25963306427001953,
          "id": 1729360163
        },
        {
          "distance": 0.2706447243690491,
          "id": 1729361299
        },
        {
          "distance": 0.2745714783668518,
          "id": 1729360137
        },
        {
          "distance": 0.2768236994743347,
          "id": 1729361057
        }
      ]
    },
    "sfomuseum:placetype": "instagram",
    "src:geom": "sfomuseum",
    "wof:belongsto": [
      1159160869,
      102527513,
      102191575,
      85633793,
      102087579,
      85922583,
      85688637
    ],
    "wof:country": "US",
    "wof:created": 1518960300,
    "wof:geomhash": "b6e33f47475d56bc8da457bc31afadc8",
    "wof:hierarchy": [
      {
        "building_id": 1159160869,
        "campus_id": 102527513,
        "continent_id": 102191575,
        "country_id": 85633793,
        "county_id": 102087579,
        "custom_id": 1729358535,
        "instagram_id": 1729358535,
        "locality_id": 85922583,
        "neighbourhood_id": -1,
        "region_id": 85688637
      }
    ],
    "wof:id": 1729358535,
    "wof:lastmodified": 1787777633,
    "wof:name": "Our online database features over 10,000 objects from our collection, including over 200 airmail covers from all over the world, commemorating different airmail routes...",
    "wof:parent_id": 1159160869,
    "wof:placetype": "custom",
    "wof:placetype_alt": [
      "instagram"
    ],
    "wof:repo": "sfomuseum-data-socialmedia-instagram",
    "wof:superseded_by": [],
    "wof:supersedes": []
  },
  "bbox": [
    -122.386166,
    37.616356,
    -122.386166,
    37.616356
  ],
  "geometry": {"type":"Point","coordinates":[-122.386166,37.616356]}
}
