{
  "id": 1729359821,
  "type": "Feature",
  "properties": {
    "date:cessation_lower": "2017-02-12",
    "date:cessation_upper": "2017-02-12",
    "date:inception_lower": "2017-02-12",
    "date:inception_upper": "2017-02-12",
    "edtf:cessation": "2017-02-12T08:34:00-08:00",
    "edtf:inception": "2017-02-12T08:34:00-08:00",
    "geom:area": 0,
    "geom:bbox": "-122.386166,37.616356,-122.386166,37.616356",
    "geom:latitude": 37.616356,
    "geom:longitude": -122.386166,
    "instagram:post": {
      "caption": {
        "body": "The Indian National Finals Rodeo (INFR), the largest and oldest organization of its kind, was founded in 1976. As many as seventy-five different tribes compete in this prestigious event. Self-taught photographer Allen Russell captures many of Montana’s Native American rodeos. His spontaneous, photo-journalistic shots range from adolescent bull riders to spectators and Miss Indian Rodeo winners.",
        "excerpt": "The Indian National Finals Rodeo (INFR), the largest and oldest organization of its kind, was founded in 1976.",
        "hashtags": [
          "NativeAmericanRodeo",
          "AllenRussell",
          "CrowFair",
          "Montana"
        ],
        "users": []
      },
      "media_id": "99a03b571af758c61590c7fdf66a912c",
      "path": "media/posts/201702/16465849_1208064855980718_8717913192807792640_n_17849180098160514.jpg",
      "perceptual_hash": "p:f61c99a4da1a98ad",
      "taken": 1486917240,
      "taken_at": "Feb 12, 2017 4:34 pm"
    },
    "millsfield:similar": {
      "google/siglip2-so400m-patch16-naflex": [
        {
          "distance": 0.17042452096939087,
          "id": 1729359725
        },
        {
          "distance": 0.2245827317237854,
          "id": 1729359725
        },
        {
          "distance": 0.38755518198013306,
          "id": 1729361137
        },
        {
          "distance": 0.40293025970458984,
          "id": 1729355277
        },
        {
          "distance": 0.40625935792922974,
          "id": 1880151297
        },
        {
          "distance": 0.42003458738327026,
          "id": 1763558731
        },
        {
          "distance": 0.4206969738006592,
          "id": 1729361137
        },
        {
          "distance": 0.4216495752334595,
          "id": 1729358367
        },
        {
          "distance": 0.43182218074798584,
          "id": 1763559539
        },
        {
          "distance": 0.4347074031829834,
          "id": 1729356481
        }
      ]
    },
    "sfomuseum:placetype": "instagram",
    "src:geom": "sfomuseum",
    "wof:belongsto": [
      1159160869,
      102527513,
      102191575,
      85633793,
      102087579,
      85922583,
      85688637
    ],
    "wof:country": "US",
    "wof:created": 1486917240,
    "wof:geomhash": "b6e33f47475d56bc8da457bc31afadc8",
    "wof:hierarchy": [
      {
        "building_id": 1159160869,
        "campus_id": 102527513,
        "continent_id": 102191575,
        "country_id": 85633793,
        "county_id": 102087579,
        "custom_id": 1729359821,
        "instagram_id": 1729359821,
        "locality_id": 85922583,
        "neighbourhood_id": -1,
        "region_id": 85688637
      }
    ],
    "wof:id": 1729359821,
    "wof:lastmodified": 1787777637,
    "wof:name": "The Indian National Finals Rodeo (INFR), the largest and oldest organization of its kind, was founded in 1976...",
    "wof:parent_id": 1159160869,
    "wof:placetype": "custom",
    "wof:placetype_alt": [
      "instagram"
    ],
    "wof:repo": "sfomuseum-data-socialmedia-instagram",
    "wof:superseded_by": [],
    "wof:supersedes": []
  },
  "bbox": [
    -122.386166,
    37.616356,
    -122.386166,
    37.616356
  ],
  "geometry": {"type":"Point","coordinates":[-122.386166,37.616356]}
}
