{
  "id": 1729360227,
  "type": "Feature",
  "properties": {
    "date:cessation_lower": "2016-10-17",
    "date:cessation_upper": "2016-10-17",
    "date:inception_lower": "2016-10-17",
    "date:inception_upper": "2016-10-17",
    "edtf:cessation": "2016-10-17T14:55:00-07:00",
    "edtf:inception": "2016-10-17T14:55:00-07:00",
    "geom:area": 0,
    "geom:bbox": "-122.386166,37.616356,-122.386166,37.616356",
    "geom:latitude": 37.616356,
    "geom:longitude": -122.386166,
    "instagram:post": {
      "caption": {
        "body": "As you have gotten off your international flight at SFO have you noticed the textured walls as you walk to border patrol? It is \"You Were in Heaven\" by Ann Preston.  A ceiling dome, installed at one end of the corridor and lit through blue gels, it is inspired by early creation myths that describe the sky as originating from ice crystals. On the floor below the dome are bronze and terrazzo medallions. As passengers pass through the dome and walk along the corridor wall, they encounter five 60-foot long curved niches. In these niches, groups of cast plaster tiles with forms derived from the theories of English mathematician Roger Penrose, are fitted together to create shapes that resemble clouds. The artist created these complex forms using only two unique shapes of tiles. #SFAC #SFO #AirportArt #AnnPreston  See \"You Were in Heaven\" by Ann Preston, post security, in Boarding Area A in the International Terminal. http://bit.ly/2dHu9Ao",
        "excerpt": "As you have gotten off your international flight at SFO have you noticed the textured walls as you walk to border patrol?",
        "hashtags": [],
        "users": []
      },
      "media_id": "99a5b41b3e5bcde90e59b6ff0881f740",
      "path": "media/other/14676512_1055692227883036_8442133918257250304_n_17843368147154642.jpg",
      "perceptual_hash": "p:c49d894e1f5887d6",
      "taken": 1476741300,
      "taken_at": "Oct 17, 2016 9:55 pm"
    },
    "millsfield:similar": {
      "google/siglip2-so400m-patch16-naflex": [
        {
          "distance": 0.22783273458480835,
          "id": 1729359429
        },
        {
          "distance": 0.24864399433135986,
          "id": 1729355723
        },
        {
          "distance": 0.25604110956192017,
          "id": 1729358483
        },
        {
          "distance": 0.25676286220550537,
          "id": 1729356013
        },
        {
          "distance": 0.2595115303993225,
          "id": 1729356013
        },
        {
          "distance": 0.25962698459625244,
          "id": 1729357871
        },
        {
          "distance": 0.26082664728164673,
          "id": 1729355723
        },
        {
          "distance": 0.26434069871902466,
          "id": 1729358483
        },
        {
          "distance": 0.2722160220146179,
          "id": 1729355633
        },
        {
          "distance": 0.27634376287460327,
          "id": 1880151285
        }
      ]
    },
    "sfomuseum:placetype": "instagram",
    "src:geom": "sfomuseum",
    "wof:belongsto": [
      1159160869,
      102527513,
      102191575,
      85633793,
      102087579,
      85922583,
      85688637
    ],
    "wof:country": "US",
    "wof:created": 1476741300,
    "wof:geomhash": "b6e33f47475d56bc8da457bc31afadc8",
    "wof:hierarchy": [
      {
        "building_id": 1159160869,
        "campus_id": 102527513,
        "continent_id": 102191575,
        "country_id": 85633793,
        "county_id": 102087579,
        "custom_id": 1729360227,
        "instagram_id": 1729360227,
        "locality_id": 85922583,
        "neighbourhood_id": -1,
        "region_id": 85688637
      }
    ],
    "wof:id": 1729360227,
    "wof:lastmodified": 1787777639,
    "wof:name": "As you have gotten off your international flight at SFO have you noticed the textured walls as you walk to border patrol?..",
    "wof:parent_id": 1159160869,
    "wof:placetype": "custom",
    "wof:placetype_alt": [
      "instagram"
    ],
    "wof:repo": "sfomuseum-data-socialmedia-instagram",
    "wof:superseded_by": [],
    "wof:supersedes": []
  },
  "bbox": [
    -122.386166,
    37.616356,
    -122.386166,
    37.616356
  ],
  "geometry": {"type":"Point","coordinates":[-122.386166,37.616356]}
}
