{
  "id": 1729355059,
  "type": "Feature",
  "properties": {
    "date:cessation_lower": "2020-09-17",
    "date:cessation_upper": "2020-09-17",
    "date:inception_lower": "2020-09-17",
    "date:inception_upper": "2020-09-17",
    "edtf:cessation": "2020-09-17T10:47:00-07:00",
    "edtf:inception": "2020-09-17T10:47:00-07:00",
    "geom:area": 0,
    "geom:bbox": "-122.386166,37.616356,-122.386166,37.616356",
    "geom:latitude": 37.616356,
    "geom:longitude": -122.386166,
    "instagram:post": {
      "caption": {
        "body": "In honor of our 40th anniversary, every week this year we are highlighting one  of our past exhibitions. In 2013, we presented “Souvenirs: Tokens of Travel,” which featured objects found in souvenir shops around the world. from the nineteenth century to the present. Sailors’ valentines, transfer ware, ruby-stained glass, heraldic china, and even ashtrays, were a few of the many souvenirs on display, some of which viewers may recall collecting during their own excursions. Do you remember this exhibition? “Souvenirs: Tokens of Travel” is online at: https://bit.ly/3jUgKpQ",
        "excerpt": "In honor of our 40th anniversary, every week this year we are highlighting one  of our past exhibitions.",
        "hashtags": [
          "SFOMat40",
          "TBTSFOM",
          "MuseumFromHome"
        ],
        "users": []
      },
      "media_id": "306458d719887549b044c402a40d5a95",
      "path": "media/posts/202009/119547476_129879708823424_4362021351814024222_n_17923996489434585.jpg",
      "perceptual_hash": "p:c1cd2d213dea6a59",
      "taken": 1600364820,
      "taken_at": "Sep 17, 2020 5:47 pm"
    },
    "millsfield:similar": {
      "google/siglip2-so400m-patch16-naflex": [
        {
          "distance": 0.14098215103149414,
          "id": 1880151305
        },
        {
          "distance": 0.16683125495910645,
          "id": 1947425291
        },
        {
          "distance": 0.16837966442108154,
          "id": 1763559119
        },
        {
          "distance": 0.16926002502441406,
          "id": 1729359343
        },
        {
          "distance": 0.17136824131011963,
          "id": 1880151187
        },
        {
          "distance": 0.1738867163658142,
          "id": 1947425291
        },
        {
          "distance": 0.17596787214279175,
          "id": 1729360823
        },
        {
          "distance": 0.1781144142150879,
          "id": 1729360245
        },
        {
          "distance": 0.17850041389465332,
          "id": 1763558925
        },
        {
          "distance": 0.18085229396820068,
          "id": 1763558907
        }
      ]
    },
    "sfomuseum:placetype": "instagram",
    "src:geom": "sfomuseum",
    "wof:belongsto": [
      1159160869,
      102527513,
      102191575,
      85633793,
      102087579,
      85922583,
      85688637
    ],
    "wof:country": "US",
    "wof:created": 1600364820,
    "wof:geomhash": "b6e33f47475d56bc8da457bc31afadc8",
    "wof:hierarchy": [
      {
        "building_id": 1159160869,
        "campus_id": 102527513,
        "continent_id": 102191575,
        "country_id": 85633793,
        "county_id": 102087579,
        "custom_id": 1729355059,
        "instagram_id": 1729355059,
        "locality_id": 85922583,
        "neighbourhood_id": -1,
        "region_id": 85688637
      }
    ],
    "wof:id": 1729355059,
    "wof:lastmodified": 1787777615,
    "wof:name": "In honor of our 40th anniversary, every week this year we are highlighting one  of our past exhibitions...",
    "wof:parent_id": 1159160869,
    "wof:placetype": "custom",
    "wof:placetype_alt": [
      "instagram"
    ],
    "wof:repo": "sfomuseum-data-socialmedia-instagram",
    "wof:superseded_by": [],
    "wof:supersedes": []
  },
  "bbox": [
    -122.386166,
    37.616356,
    -122.386166,
    37.616356
  ],
  "geometry": {"type":"Point","coordinates":[-122.386166,37.616356]}
}
