{
  "id": 1729355899,
  "type": "Feature",
  "properties": {
    "date:cessation_lower": "2019-11-12",
    "date:cessation_upper": "2019-11-12",
    "date:inception_lower": "2019-11-12",
    "date:inception_upper": "2019-11-12",
    "edtf:cessation": "2019-11-12T04:04:00-08:00",
    "edtf:inception": "2019-11-12T04:04:00-08:00",
    "geom:area": 0,
    "geom:bbox": "-122.386166,37.616356,-122.386166,37.616356",
    "geom:latitude": 37.616356,
    "geom:longitude": -122.386166,
    "instagram:post": {
      "caption": {
        "body": "Lesser known and slightly older than the Golden Gate Bridge, the San Francisco-Oakland Bay Bridge has one of the longest spans in the United States and carries over 260,000 cars each day. Designed by Charles H. Purcell, it opened six months before the Golden Gate Bridge, on #onthisday in 1936. After part of the East Span collapsed during the 1989 Loma Prieta earthquake, work began on a seismic retrofit. Ultimately, the East Span was replaced and reopened in 2013. Have you ever traveled across the Bay Bridge?  Image: San Francisco - Oakland Bay Bridge approach, 1937. SFO Museum Collection. 2013.117.025",
        "excerpt": "Lesser known and slightly older than the Golden Gate Bridge, the San Francisco-Oakland Bay Bridge has one of the longest spans in the United States and carries over 260,000 cars each day.",
        "hashtags": [
          "baybridge",
          "SFBridge",
          "Bridge",
          "SFhistory"
        ],
        "users": []
      },
      "media_id": "c4bdf68850465cf8a1053fa6c59ddd0a",
      "path": "media/other/72489742_153991262524926_3573146318747763899_n_18114330553017748.jpg",
      "perceptual_hash": "p:bb8fd8a35c483196",
      "taken": 1573560240,
      "taken_at": "Nov 12, 2019 12:04 pm"
    },
    "millsfield:similar": {
      "google/siglip2-so400m-patch16-naflex": [
        {
          "distance": 0.1522306203842163,
          "id": 1729355227
        },
        {
          "distance": 0.15571415424346924,
          "id": 1763558929
        },
        {
          "distance": 0.15624159574508667,
          "id": 1729359877
        },
        {
          "distance": 0.16033244132995605,
          "id": 1729357125
        },
        {
          "distance": 0.16350191831588745,
          "id": 1729358177
        },
        {
          "distance": 0.16857057809829712,
          "id": 1729359877
        },
        {
          "distance": 0.16899257898330688,
          "id": 1880151215
        },
        {
          "distance": 0.17826688289642334,
          "id": 1729357989
        },
        {
          "distance": 0.18026822805404663,
          "id": 1729357989
        },
        {
          "distance": 0.1822277307510376,
          "id": 1763558993
        }
      ]
    },
    "sfomuseum:placetype": "instagram",
    "src:geom": "sfomuseum",
    "wof:belongsto": [
      1159160869,
      102527513,
      102191575,
      85633793,
      102087579,
      85922583,
      85688637
    ],
    "wof:country": "US",
    "wof:created": 1573560240,
    "wof:geomhash": "b6e33f47475d56bc8da457bc31afadc8",
    "wof:hierarchy": [
      {
        "building_id": 1159160869,
        "campus_id": 102527513,
        "continent_id": 102191575,
        "country_id": 85633793,
        "county_id": 102087579,
        "custom_id": 1729355899,
        "instagram_id": 1729355899,
        "locality_id": 85922583,
        "neighbourhood_id": -1,
        "region_id": 85688637
      }
    ],
    "wof:id": 1729355899,
    "wof:lastmodified": 1787777627,
    "wof:name": "Lesser known and slightly older than the Golden Gate Bridge, the San Francisco-Oakland Bay Bridge has one of the longest spans in the United States and carries over 260,000 cars each day...",
    "wof:parent_id": 1159160869,
    "wof:placetype": "custom",
    "wof:placetype_alt": [
      "instagram"
    ],
    "wof:repo": "sfomuseum-data-socialmedia-instagram",
    "wof:superseded_by": [],
    "wof:supersedes": []
  },
  "bbox": [
    -122.386166,
    37.616356,
    -122.386166,
    37.616356
  ],
  "geometry": {"type":"Point","coordinates":[-122.386166,37.616356]}
}
