{
  "id": 1947425077,
  "type": "Feature",
  "properties": {
    "date:cessation_lower": "2024-04-01",
    "date:cessation_upper": "2024-04-01",
    "date:inception_lower": "2024-04-01",
    "date:inception_upper": "2024-04-01",
    "edtf:cessation": "2024-04-01T08:56:00-07:00",
    "edtf:inception": "2024-04-01T08:56:00-07:00",
    "geom:area": 0,
    "geom:bbox": "-122.386166,37.616356,-122.386166,37.616356",
    "geom:latitude": 37.616356,
    "geom:longitude": -122.386166,
    "instagram:post": {
      "caption": {
        "body": "“No Other Lands Their Glory Know” by Alice Shaw is a photographic image of a redwood forest on Mount Tamalpais in Marin County, California just north of San Francisco. The title for this artwork is taken from a line in a poem, “The Redwoods,” written by Joseph B. Strauss who was the chief engineer of the Golden Gate Bridge. Visitors are invited to enjoy the natural splendor of The Golden State while at the airport.  See “No Other Lands Their Glory Know” by Alice Shaw, on display, post-security in the International Terminal above Gate G7 and online at: https://ow.ly/I40K50R6afB  All photos © Ethan Kaplan",
        "excerpt": "“No Other Lands Their Glory Know” by Alice Shaw is a photographic image of a redwood forest on Mount Tamalpais in Marin County, California just north of San Francisco.",
        "hashtags": [
          "PublicArt",
          "EarthMonth",
          "SFAC",
          "AliceShaw"
        ],
        "users": []
      },
      "media_id": "fff065ee02876e31073285b628091f30f8c1968d",
      "path": "media/posts/202404/435012931_1171356740966092_1003863701219095960_n_17958606914754533.jpg",
      "perceptual_hash": "p:afe9409035d23d3e",
      "taken": 1711986960,
      "taken_at": "Apr 01, 2024 3:56 pm"
    },
    "millsfield:similar": {
      "google/siglip2-so400m-patch16-naflex": [
        {
          "distance": 0.04345148801803589,
          "id": 1729355487
        },
        {
          "distance": 0.13663631677627563,
          "id": 1729355487
        },
        {
          "distance": 0.18183523416519165,
          "id": 1729359059
        },
        {
          "distance": 0.1998833417892456,
          "id": 1729359059
        },
        {
          "distance": 0.2080373764038086,
          "id": 1729359429
        },
        {
          "distance": 0.21939021348953247,
          "id": 1729355493
        },
        {
          "distance": 0.2290375828742981,
          "id": 1947425185
        },
        {
          "distance": 0.23141717910766602,
          "id": 1729357701
        },
        {
          "distance": 0.23739683628082275,
          "id": 1729357871
        },
        {
          "distance": 0.24500328302383423,
          "id": 1729358839
        }
      ]
    },
    "sfomuseum:placetype": "instagram",
    "src:geom": "sfomuseum",
    "wof:belongsto": [
      1159160869,
      102527513,
      102191575,
      85633793,
      102087579,
      85922583,
      85688637
    ],
    "wof:country": "US",
    "wof:created": 1711986960,
    "wof:geomhash": "b6e33f47475d56bc8da457bc31afadc8",
    "wof:hierarchy": [
      {
        "building_id": 1159160869,
        "campus_id": 102527513,
        "continent_id": 102191575,
        "country_id": 85633793,
        "county_id": 102087579,
        "custom_id": 1947425077,
        "locality_id": 85922583,
        "neighbourhood_id": -1,
        "region_id": 85688637
      }
    ],
    "wof:id": 1947425077,
    "wof:lastmodified": 1787777664,
    "wof:name": "“No Other Lands Their Glory Know” by Alice Shaw is a photographic image of a redwood forest on Mount Tamalpais in Marin County, California just north of San Francisco...",
    "wof:parent_id": 1159160869,
    "wof:placetype": "custom",
    "wof:repo": "sfomuseum-data-socialmedia-instagram",
    "wof:superseded_by": [],
    "wof:supersedes": []
  },
  "bbox": [
    -122.386166,
    37.616356,
    -122.386166,
    37.616356
  ],
  "geometry": {"type":"Point","coordinates":[-122.386166,37.616356]}
}
