{
  "id": 1729356319,
  "type": "Feature",
  "properties": {
    "date:cessation_lower": "2019-07-13",
    "date:cessation_upper": "2019-07-13",
    "date:inception_lower": "2019-07-13",
    "date:inception_upper": "2019-07-13",
    "edtf:cessation": "2019-07-13T07:29:00-07:00",
    "edtf:inception": "2019-07-13T07:29:00-07:00",
    "geom:area": 0,
    "geom:bbox": "-122.386166,37.616356,-122.386166,37.616356",
    "geom:latitude": 37.616356,
    "geom:longitude": -122.386166,
    "instagram:post": {
      "caption": {
        "body": "Airlines have customarily used landmarks to advertise their destinations. How many San Francisco landmarks can you recognize?  Image: TWA (Trans World Airlines) stationery card, San Francisco, early 1960s. Gift of Daniel Kusrow. 2018.061.052",
        "excerpt": "Airlines have customarily used landmarks to advertise their destinations.",
        "hashtags": [
          "TWA",
          "SanFrancisco",
          "poster",
          "1960s"
        ],
        "users": []
      },
      "media_id": "da4d1853e950eaf7050a799611335e60",
      "path": "media/other/66270420_183015846063522_5035505019907760915_n_17876873125400883.jpg",
      "perceptual_hash": "p:bcc3963f9a38e034",
      "taken": 1563028140,
      "taken_at": "Jul 13, 2019 2:29 pm"
    },
    "millsfield:similar": {
      "google/siglip2-so400m-patch16-naflex": [
        {
          "distance": 0.17522156238555908,
          "id": 1729359455
        },
        {
          "distance": 0.17744725942611694,
          "id": 1947425117
        },
        {
          "distance": 0.1911664605140686,
          "id": 1729359455
        },
        {
          "distance": 0.20373332500457764,
          "id": 1763559327
        },
        {
          "distance": 0.21207594871520996,
          "id": 1763559487
        },
        {
          "distance": 0.21251249313354492,
          "id": 1763559109
        },
        {
          "distance": 0.2213403582572937,
          "id": 1729355323
        },
        {
          "distance": 0.22633576393127441,
          "id": 1729361569
        },
        {
          "distance": 0.22731941938400269,
          "id": 1763559327
        },
        {
          "distance": 0.23111319541931152,
          "id": 1729360631
        }
      ]
    },
    "sfomuseum:placetype": "instagram",
    "src:geom": "sfomuseum",
    "wof:belongsto": [
      1159160869,
      102527513,
      102191575,
      85633793,
      102087579,
      85922583,
      85688637
    ],
    "wof:country": "US",
    "wof:created": 1563028140,
    "wof:geomhash": "b6e33f47475d56bc8da457bc31afadc8",
    "wof:hierarchy": [
      {
        "building_id": 1159160869,
        "campus_id": 102527513,
        "continent_id": 102191575,
        "country_id": 85633793,
        "county_id": 102087579,
        "custom_id": 1729356319,
        "instagram_id": 1729356319,
        "locality_id": 85922583,
        "neighbourhood_id": -1,
        "region_id": 85688637
      }
    ],
    "wof:id": 1729356319,
    "wof:lastmodified": 1787777629,
    "wof:name": "Airlines have customarily used landmarks to advertise their destinations...",
    "wof:parent_id": 1159160869,
    "wof:placetype": "custom",
    "wof:placetype_alt": [
      "instagram"
    ],
    "wof:repo": "sfomuseum-data-socialmedia-instagram",
    "wof:superseded_by": [],
    "wof:supersedes": []
  },
  "bbox": [
    -122.386166,
    37.616356,
    -122.386166,
    37.616356
  ],
  "geometry": {"type":"Point","coordinates":[-122.386166,37.616356]}
}
