{
  "id": 1947425191,
  "type": "Feature",
  "properties": {
    "date:cessation_lower": "2023-12-25",
    "date:cessation_upper": "2023-12-25",
    "date:inception_lower": "2023-12-25",
    "date:inception_upper": "2023-12-25",
    "edtf:cessation": "2023-12-25T00:08:00-08:00",
    "edtf:inception": "2023-12-25T00:08:00-08:00",
    "geom:area": 0,
    "geom:bbox": "-122.386166,37.616356,-122.386166,37.616356",
    "geom:latitude": 37.616356,
    "geom:longitude": -122.386166,
    "instagram:post": {
      "caption": {
        "body": "Merry Christmas! The Aviation Museum and Library is closed today to observe the Christmas holiday and will re-open tomorrow, Tuesday, December 26 at 10am. All other exhibitions around the airport are available to view.  https://www.sfomuseum.org/exhibitions  holiday greeting card: Pan American Airways; c. 1940 Gift of the Captain John B. Russell Family 2012.149.1023",
        "excerpt": "Merry Christmas!",
        "hashtags": [
          "MerryChristmas"
        ],
        "users": []
      },
      "media_id": "bff6ca40598dd08d278300d82c076c7aad6b965c",
      "path": "media/other/412979678_836765711793693_7123502598696029783_n_18292770703151721.jpg",
      "perceptual_hash": "p:eb70cc8eb06782d9",
      "taken": 1703491680,
      "taken_at": "Dec 25, 2023 8:08 am"
    },
    "millsfield:similar": {
      "google/siglip2-so400m-patch16-naflex": [
        {
          "distance": 0.2213270664215088,
          "id": 1880151169
        },
        {
          "distance": 0.24823331832885742,
          "id": 1729357437
        },
        {
          "distance": 0.25082868337631226,
          "id": 1763559247
        },
        {
          "distance": 0.2609075903892517,
          "id": 1729360779
        },
        {
          "distance": 0.26174092292785645,
          "id": 1880151229
        },
        {
          "distance": 0.26330679655075073,
          "id": 1729356623
        },
        {
          "distance": 0.26363492012023926,
          "id": 1729361049
        },
        {
          "distance": 0.26402777433395386,
          "id": 1763558629
        },
        {
          "distance": 0.26428091526031494,
          "id": 1763558939
        },
        {
          "distance": 0.26579928398132324,
          "id": 1880151169
        }
      ]
    },
    "sfomuseum:placetype": "instagram",
    "src:geom": "sfomuseum",
    "wof:belongsto": [
      1159160869,
      102527513,
      102191575,
      85633793,
      102087579,
      85922583,
      85688637
    ],
    "wof:country": "US",
    "wof:created": 1703491680,
    "wof:geomhash": "b6e33f47475d56bc8da457bc31afadc8",
    "wof:hierarchy": [
      {
        "building_id": 1159160869,
        "campus_id": 102527513,
        "continent_id": 102191575,
        "country_id": 85633793,
        "county_id": 102087579,
        "custom_id": 1947425191,
        "locality_id": 85922583,
        "neighbourhood_id": -1,
        "region_id": 85688637
      }
    ],
    "wof:id": 1947425191,
    "wof:lastmodified": 1787777664,
    "wof:name": "Merry Christmas!..",
    "wof:parent_id": 1159160869,
    "wof:placetype": "custom",
    "wof:repo": "sfomuseum-data-socialmedia-instagram",
    "wof:superseded_by": [],
    "wof:supersedes": []
  },
  "bbox": [
    -122.386166,
    37.616356,
    -122.386166,
    37.616356
  ],
  "geometry": {"type":"Point","coordinates":[-122.386166,37.616356]}
}
