{
  "id": 1729357593,
  "type": "Feature",
  "properties": {
    "date:cessation_lower": "2018-10-05",
    "date:cessation_upper": "2018-10-05",
    "date:inception_lower": "2018-10-05",
    "date:inception_upper": "2018-10-05",
    "edtf:cessation": "2018-10-05T02:14:00-07:00",
    "edtf:inception": "2018-10-05T02:14:00-07:00",
    "geom:area": 0,
    "geom:bbox": "-122.386166,37.616356,-122.386166,37.616356",
    "geom:latitude": 37.616356,
    "geom:longitude": -122.386166,
    "instagram:post": {
      "caption": {
        "body": "#Onthisday in 1951, construction began on the new terminal building at San Francisco International Airport. The new terminal (now Terminal 2) was built to serve the international community in the coming jet age. ",
        "excerpt": "#Onthisday in 1951, construction began on the new terminal building at San Francisco International Airport.",
        "hashtags": [
          "SFOHistory",
          "avgeek",
          "aviationgeek",
          "aviation",
          "aviationhistory",
          "aviationlovers",
          "vintageaviation",
          "history",
          "aviationgeeks",
          "avgeeks",
          "airport"
        ],
        "users": []
      },
      "media_id": "bfc1c7bb2fe4bd4b4249c933a38ae30d",
      "path": "media/posts/201810/43238394_2270054486556840_5034038155123469045_n_17985155002022825.jpg",
      "perceptual_hash": "p:9f90d56a2e35370a",
      "taken": 1538730840,
      "taken_at": "Oct 05, 2018 9:14 am"
    },
    "millsfield:similar": {
      "google/siglip2-so400m-patch16-naflex": [
        {
          "distance": 0.10641735792160034,
          "id": 1729359523
        },
        {
          "distance": 0.11246705055236816,
          "id": 1880151675
        },
        {
          "distance": 0.11644798517227173,
          "id": 1880151675
        },
        {
          "distance": 0.13904565572738647,
          "id": 1947425271
        },
        {
          "distance": 0.14007949829101562,
          "id": 1729355115
        },
        {
          "distance": 0.14779096841812134,
          "id": 1729357855
        },
        {
          "distance": 0.14981979131698608,
          "id": 1729361227
        },
        {
          "distance": 0.15037328004837036,
          "id": 1880151727
        },
        {
          "distance": 0.15455955266952515,
          "id": 1729360429
        },
        {
          "distance": 0.15505671501159668,
          "id": 1729359583
        }
      ]
    },
    "sfomuseum:placetype": "instagram",
    "src:geom": "sfomuseum",
    "wof:belongsto": [
      1159160869,
      102527513,
      102191575,
      85633793,
      102087579,
      85922583,
      85688637
    ],
    "wof:country": "US",
    "wof:created": 1538730840,
    "wof:geomhash": "b6e33f47475d56bc8da457bc31afadc8",
    "wof:hierarchy": [
      {
        "building_id": 1159160869,
        "campus_id": 102527513,
        "continent_id": 102191575,
        "country_id": 85633793,
        "county_id": 102087579,
        "custom_id": 1729357593,
        "instagram_id": 1729357593,
        "locality_id": 85922583,
        "neighbourhood_id": -1,
        "region_id": 85688637
      }
    ],
    "wof:id": 1729357593,
    "wof:lastmodified": 1787777632,
    "wof:name": "#Onthisday in 1951, construction began on the new terminal building at San Francisco International Airport...",
    "wof:parent_id": 1159160869,
    "wof:placetype": "custom",
    "wof:placetype_alt": [
      "instagram"
    ],
    "wof:repo": "sfomuseum-data-socialmedia-instagram",
    "wof:superseded_by": [],
    "wof:supersedes": []
  },
  "bbox": [
    -122.386166,
    37.616356,
    -122.386166,
    37.616356
  ],
  "geometry": {"type":"Point","coordinates":[-122.386166,37.616356]}
}
