{
  "id": 1729362649,
  "type": "Feature",
  "properties": {
    "date:cessation_lower": "2013-06-21",
    "date:cessation_upper": "2013-06-21",
    "date:inception_lower": "2013-06-21",
    "date:inception_upper": "2013-06-21",
    "edtf:cessation": "2013-06-21T07:22:00-07:00",
    "edtf:inception": "2013-06-21T07:22:00-07:00",
    "geom:area": 0,
    "geom:bbox": "-122.386166,37.616356,-122.386166,37.616356",
    "geom:latitude": 37.616356,
    "geom:longitude": -122.386166,
    "instagram:post": {
      "caption": {
        "body": "Photo stand set up is ready to shoot around 200 of our uniform badges. We're looking forward to sharing more of our #aviation collection with you soon!",
        "excerpt": "Photo stand set up is ready to shoot around 200 of our uniform badges.",
        "hashtags": [],
        "users": []
      },
      "media_id": "e16dc02f72bb8f0ec202973f2737ea38",
      "path": "media/other/11296736_543247012480678_725794239_n_17842333450062499.jpg",
      "perceptual_hash": "p:a75b7184c3c69783",
      "taken": 1371824520,
      "taken_at": "Jun 21, 2013 2:22 pm"
    },
    "millsfield:similar": {
      "google/siglip2-so400m-patch16-naflex": [
        {
          "distance": 0.2594563364982605,
          "id": 1729362515
        },
        {
          "distance": 0.2638726830482483,
          "id": 1729359211
        },
        {
          "distance": 0.2668795585632324,
          "id": 1729362601
        },
        {
          "distance": 0.2857382297515869,
          "id": 1729362601
        },
        {
          "distance": 0.2929237484931946,
          "id": 1729362515
        },
        {
          "distance": 0.305247962474823,
          "id": 1729362641
        },
        {
          "distance": 0.30974334478378296,
          "id": 1729359211
        },
        {
          "distance": 0.3125750422477722,
          "id": 1729362641
        },
        {
          "distance": 0.32051610946655273,
          "id": 1729362327
        },
        {
          "distance": 0.3225454092025757,
          "id": 1729361669
        }
      ]
    },
    "sfomuseum:placetype": "instagram",
    "src:geom": "sfomuseum",
    "wof:belongsto": [
      1159160869,
      102527513,
      102191575,
      85633793,
      102087579,
      85922583,
      85688637
    ],
    "wof:country": "US",
    "wof:created": 1371824520,
    "wof:geomhash": "b6e33f47475d56bc8da457bc31afadc8",
    "wof:hierarchy": [
      {
        "building_id": 1159160869,
        "campus_id": 102527513,
        "continent_id": 102191575,
        "country_id": 85633793,
        "county_id": 102087579,
        "custom_id": 1729362649,
        "instagram_id": 1729362649,
        "locality_id": 85922583,
        "neighbourhood_id": -1,
        "region_id": 85688637
      }
    ],
    "wof:id": 1729362649,
    "wof:lastmodified": 1787777647,
    "wof:name": "Photo stand set up is ready to shoot around 200 of our uniform badges...",
    "wof:parent_id": 1159160869,
    "wof:placetype": "custom",
    "wof:placetype_alt": [
      "instagram"
    ],
    "wof:repo": "sfomuseum-data-socialmedia-instagram",
    "wof:superseded_by": [],
    "wof:supersedes": []
  },
  "bbox": [
    -122.386166,
    37.616356,
    -122.386166,
    37.616356
  ],
  "geometry": {"type":"Point","coordinates":[-122.386166,37.616356]}
}
