{
  "id": 1729359141,
  "type": "Feature",
  "properties": {
    "date:cessation_lower": "2017-08-28",
    "date:cessation_upper": "2017-08-28",
    "date:inception_lower": "2017-08-28",
    "date:inception_upper": "2017-08-28",
    "edtf:cessation": "2017-08-28T12:31:11-07:00",
    "edtf:inception": "2017-08-28T12:31:11-07:00",
    "geom:area": 0,
    "geom:bbox": "-122.386166,37.616356,-122.386166,37.616356",
    "geom:latitude": 37.616356,
    "geom:longitude": -122.386166,
    "instagram:post": {
      "caption": {
        "body": "United Air Lines introduced hot meal service on Douglas DST (Douglas Sleeper Transport) and DC-3 flights in the late 1930s. On the DC-3, one of the first airliners to be equipped with a galley, meals were served with paper or plastic cups and plates to reduce weight. Lightweight plastic cups, saucers, and plates were produced by Hemco Plastics and Plastics, Inc., while paper cups were made of sturdy “Nestrite” by the Lily-Tulip Cup Company of New York. Ceramic wares were specifically designed to be light, yet sturdy, for inflight use. Plates were produced by the Shenango China Company of New Castle, Pennsylvania, while casserole dishes were manufactured by Hall China of East Liverpool, Ohio. Silver-plated flatware was offered with most types of meal service. One set featured the same “Embossed” art deco pattern incorporated on the airline’s blue plastic dishes.  See \"Flying the Main Line: A History of United Air Lines\", post-security, in Terminal 3. http://bit.ly/TheMainLine",
        "excerpt": "United Air Lines introduced hot meal service on Douglas DST (Douglas Sleeper Transport) and DC-3 flights in the late 1930s.",
        "hashtags": [
          "avgeek",
          "united",
          "aviationhistory",
          "flyingthemainline",
          "themainline",
          "unitedairlines",
          "aviationgeek",
          "aviation",
          "douglasaircraft",
          "douglasDST",
          "plastic",
          "Nestrite",
          "Ceramic",
          "china",
          "dishes",
          "artdeco",
          "flatware",
          "history",
          "foodhistory"
        ],
        "users": []
      },
      "location": "",
      "media_id": "169e3ff68d09be3c0a468440ab8e4008",
      "path": "photos/201708/169e3ff68d09be3c0a468440ab8e4008.jpg",
      "perceptual_hash": "p:8a1375c58f287973",
      "taken": 1503919860,
      "taken_at": "Aug 28, 2017, 11:31 AM"
    },
    "millsfield:similar": {
      "google/siglip2-so400m-patch16-naflex": [
        {
          "distance": 0.14276576042175293,
          "id": 1729358633
        },
        {
          "distance": 0.1927945613861084,
          "id": 1729358633
        },
        {
          "distance": 0.25312918424606323,
          "id": 1729355399
        },
        {
          "distance": 0.25499099493026733,
          "id": 1729357897
        },
        {
          "distance": 0.2642042636871338,
          "id": 1729355399
        },
        {
          "distance": 0.26464927196502686,
          "id": 1729357897
        },
        {
          "distance": 0.26551371812820435,
          "id": 1729359147
        },
        {
          "distance": 0.34116291999816895,
          "id": 1880151079
        },
        {
          "distance": 0.34882909059524536,
          "id": 1880151301
        },
        {
          "distance": 0.37347984313964844,
          "id": 1729360511
        }
      ]
    },
    "sfomuseum:placetype": "instagram",
    "src:geom": "sfomuseum",
    "wof:belongsto": [
      1159160869,
      102527513,
      102191575,
      85633793,
      102087579,
      85922583,
      85688637
    ],
    "wof:country": "US",
    "wof:created": 1503948671,
    "wof:geomhash": "b6e33f47475d56bc8da457bc31afadc8",
    "wof:hierarchy": [
      {
        "building_id": 1159160869,
        "campus_id": 102527513,
        "continent_id": 102191575,
        "country_id": 85633793,
        "county_id": 102087579,
        "custom_id": 1729359141,
        "instagram_id": 1729359141,
        "locality_id": 85922583,
        "neighbourhood_id": -1,
        "region_id": 85688637
      }
    ],
    "wof:id": 1729359141,
    "wof:lastmodified": 1787777635,
    "wof:name": "United Air Lines introduced hot meal service on Douglas DST (Douglas Sleeper Transport) and DC-3 flights in the late 1930s...",
    "wof:parent_id": 1159160869,
    "wof:placetype": "custom",
    "wof:placetype_alt": [
      "instagram"
    ],
    "wof:repo": "sfomuseum-data-socialmedia-instagram",
    "wof:superseded_by": [],
    "wof:supersedes": []
  },
  "bbox": [
    -122.386166,
    37.616356,
    -122.386166,
    37.616356
  ],
  "geometry": {"type":"Point","coordinates":[-122.386166,37.616356]}
}
