{
  "id": 1729356887,
  "type": "Feature",
  "properties": {
    "date:cessation_lower": "2019-03-01",
    "date:cessation_upper": "2019-03-01",
    "date:inception_lower": "2019-03-01",
    "date:inception_upper": "2019-03-01",
    "edtf:cessation": "2019-03-01T11:55:31-08:00",
    "edtf:inception": "2019-03-01T11:55:31-08:00",
    "geom:area": 0,
    "geom:bbox": "-122.386166,37.616356,-122.386166,37.616356",
    "geom:latitude": 37.616356,
    "geom:longitude": -122.386166,
    "instagram:post": {
      "caption": {
        "body": "“A cat has absolute emotional honesty; human beings, for one reason or another, may hide their feelings, but a cat does not. Where else can we be as sure of love as when it is given by a cat?” —Ernest Hemingway (1899–1961)  A very special thank you to Sandy Lerner for making this exhibition possible. See \"Caticons: The Cat in Art\" is on display, pre-security, in the International Terminal. http://bit.ly/Caticons",
        "excerpt": "“A cat has absolute emotional honesty; human beings, for one reason or another, may hide their feelings, but a cat does not.",
        "hashtags": [
          "caticons",
          "catsofinstagram",
          "cats",
          "mewseum",
          "caticon",
          "cat"
        ],
        "users": []
      },
      "location": "",
      "media_id": "7a1d2917012ac941907cd55a3f4e48c8",
      "path": "photos/201903/7a1d2917012ac941907cd55a3f4e48c8.jpg",
      "perceptual_hash": "p:a54c9a33c764cb6c",
      "taken": 1551441300,
      "taken_at": "Mar 1, 2019, 11:55 AM"
    },
    "millsfield:similar": {
      "google/siglip2-so400m-patch16-naflex": [
        {
          "distance": 0.13667839765548706,
          "id": 1729357457
        },
        {
          "distance": 0.14625191688537598,
          "id": 1729357453
        },
        {
          "distance": 0.18423908948898315,
          "id": 1729357457
        },
        {
          "distance": 0.21190518140792847,
          "id": 1729357453
        },
        {
          "distance": 0.2121521234512329,
          "id": 1729358445
        },
        {
          "distance": 0.21798479557037354,
          "id": 1729357451
        },
        {
          "distance": 0.22102242708206177,
          "id": 1729358591
        },
        {
          "distance": 0.23266738653182983,
          "id": 1729357067
        },
        {
          "distance": 0.2403208613395691,
          "id": 1729357719
        },
        {
          "distance": 0.24508821964263916,
          "id": 1729357505
        }
      ]
    },
    "sfomuseum:placetype": "instagram",
    "src:geom": "sfomuseum",
    "wof:belongsto": [
      1159160869,
      102527513,
      102191575,
      85633793,
      102087579,
      85922583,
      85688637
    ],
    "wof:country": "US",
    "wof:created": 1551470131,
    "wof:geomhash": "b6e33f47475d56bc8da457bc31afadc8",
    "wof:hierarchy": [
      {
        "building_id": 1159160869,
        "campus_id": 102527513,
        "continent_id": 102191575,
        "country_id": 85633793,
        "county_id": 102087579,
        "custom_id": 1729356887,
        "instagram_id": 1729356887,
        "locality_id": 85922583,
        "neighbourhood_id": -1,
        "region_id": 85688637
      }
    ],
    "wof:id": 1729356887,
    "wof:lastmodified": 1787777629,
    "wof:name": "“A cat has absolute emotional honesty; human beings, for one reason or another, may hide their feelings, but a cat does not...",
    "wof:parent_id": 1159160869,
    "wof:placetype": "custom",
    "wof:placetype_alt": [
      "instagram"
    ],
    "wof:repo": "sfomuseum-data-socialmedia-instagram",
    "wof:superseded_by": [],
    "wof:supersedes": []
  },
  "bbox": [
    -122.386166,
    37.616356,
    -122.386166,
    37.616356
  ],
  "geometry": {"type":"Point","coordinates":[-122.386166,37.616356]}
}
