{
  "id": 1729356653,
  "type": "Feature",
  "properties": {
    "date:cessation_lower": "2019-04-17",
    "date:cessation_upper": "2019-04-17",
    "date:inception_lower": "2019-04-17",
    "date:inception_upper": "2019-04-17",
    "edtf:cessation": "2019-04-17T10:45:00-07:00",
    "edtf:inception": "2019-04-17T10:45:00-07:00",
    "geom:area": 0,
    "geom:bbox": "-122.386166,37.616356,-122.386166,37.616356",
    "geom:latitude": 37.616356,
    "geom:longitude": -122.386166,
    "instagram:post": {
      "caption": {
        "body": "One of the most individualistic, great Texas barrelhouse pianists, Alex Moore (1899–1989) made his first recordings with Columbia Records in the late 1920s. After recording with Arhoolie Records in the 1960s, the Dallas native became more widely known. Moore received a National Heritage Fellowship from the National Endowment for the Arts in 1987. \"Down-Home Music: The Story of Arhoolie Records\" is on display, post-security, in Terminal 2. http://bit.ly/StoryofArhoolie",
        "excerpt": "One of the most individualistic, great Texas barrelhouse pianists, Alex Moore (1899–1989) made his first recordings with Columbia Records in the late 1920s.",
        "hashtags": [
          "storyofarhoolie",
          "arhoolie",
          "arhoolierecords",
          "ChrisStrachwitz",
          "AlexMoore",
          "albumcover",
          "piano"
        ],
        "users": []
      },
      "media_id": "f11d8f05ea2430ebed8fa233aea405bd",
      "path": "media/other/56723989_647774352321836_3576481057378466649_n_18023984131145807.jpg",
      "perceptual_hash": "p:a157772d684e583c",
      "taken": 1555523100,
      "taken_at": "Apr 17, 2019 5:45 pm"
    },
    "millsfield:similar": {
      "google/siglip2-so400m-patch16-naflex": [
        {
          "distance": 0.24397295713424683,
          "id": 1729357149
        },
        {
          "distance": 0.2659415006637573,
          "id": 1729356829
        },
        {
          "distance": 0.2697792649269104,
          "id": 1729357009
        },
        {
          "distance": 0.27363133430480957,
          "id": 1729356627
        },
        {
          "distance": 0.2843775153160095,
          "id": 1729356627
        },
        {
          "distance": 0.28447049856185913,
          "id": 1729357143
        },
        {
          "distance": 0.2951381206512451,
          "id": 1729357571
        },
        {
          "distance": 0.31529808044433594,
          "id": 1729357097
        },
        {
          "distance": 0.3160638213157654,
          "id": 1729359521
        },
        {
          "distance": 0.31910204887390137,
          "id": 1729357339
        }
      ]
    },
    "sfomuseum:placetype": "instagram",
    "src:geom": "sfomuseum",
    "wof:belongsto": [
      1159160869,
      102527513,
      102191575,
      85633793,
      102087579,
      85922583,
      85688637
    ],
    "wof:country": "US",
    "wof:created": 1555523100,
    "wof:geomhash": "b6e33f47475d56bc8da457bc31afadc8",
    "wof:hierarchy": [
      {
        "building_id": 1159160869,
        "campus_id": 102527513,
        "continent_id": 102191575,
        "country_id": 85633793,
        "county_id": 102087579,
        "custom_id": 1729356653,
        "instagram_id": 1729356653,
        "locality_id": 85922583,
        "neighbourhood_id": -1,
        "region_id": 85688637
      }
    ],
    "wof:id": 1729356653,
    "wof:lastmodified": 1787777629,
    "wof:name": "One of the most individualistic, great Texas barrelhouse pianists, Alex Moore (1899–1989) made his first recordings with Columbia Records in the late 1920s...",
    "wof:parent_id": 1159160869,
    "wof:placetype": "custom",
    "wof:placetype_alt": [
      "instagram"
    ],
    "wof:repo": "sfomuseum-data-socialmedia-instagram",
    "wof:superseded_by": [],
    "wof:supersedes": []
  },
  "bbox": [
    -122.386166,
    37.616356,
    -122.386166,
    37.616356
  ],
  "geometry": {"type":"Point","coordinates":[-122.386166,37.616356]}
}
