{
  "id": 1729355227,
  "type": "Feature",
  "properties": {
    "date:cessation_lower": "2020-05-27",
    "date:cessation_upper": "2020-05-27",
    "date:inception_lower": "2020-05-27",
    "date:inception_upper": "2020-05-27",
    "edtf:cessation": "2020-05-27T06:05:00-07:00",
    "edtf:inception": "2020-05-27T06:05:00-07:00",
    "geom:area": 0,
    "geom:bbox": "-122.386166,37.616356,-122.386166,37.616356",
    "geom:latitude": 37.616356,
    "geom:longitude": -122.386166,
    "instagram:post": {
      "caption": {
        "body": "Happy Birthday to the Golden Gate Bridge! The Golden Gate Bridge is an internationally recognized symbol of San Francisco. The bridge spans almost two miles of water between Marin County and San Francisco and held the title of the longest suspension bridge for almost 30 years. This immense undertaking started in 1933 and finished in 1937.  This black and white photograph of a ground-level view of construction of the Golden Gate Bridge was taken on October 21, 1935, almost two years before construction was officially complete. Have you visited this popular tourist destination?  Image: Golden Gate Bridge construction, 1935. SFO Museum Collection. 2013.117.018",
        "excerpt": "Happy Birthday to the Golden Gate Bridge!",
        "hashtags": [
          "SFHistory",
          "GoldenGateBridge",
          "MuseumFromHome"
        ],
        "users": []
      },
      "media_id": "6872eb9bd997dda1ce339a0f3c57c9f2",
      "path": "media/other/100963408_256096068807437_7712894373857375258_n_18012048127303235.jpg",
      "perceptual_hash": "p:bfc75419b0c98738",
      "taken": 1590584700,
      "taken_at": "May 27, 2020 1:05 pm"
    },
    "millsfield:similar": {
      "google/siglip2-so400m-patch16-naflex": [
        {
          "distance": 0.018723666667938232,
          "id": 1763558929
        },
        {
          "distance": 0.037979066371917725,
          "id": 1729357125
        },
        {
          "distance": 0.04792487621307373,
          "id": 1880151215
        },
        {
          "distance": 0.05872666835784912,
          "id": 1729358177
        },
        {
          "distance": 0.10301125049591064,
          "id": 1763558929
        },
        {
          "distance": 0.12529093027114868,
          "id": 1729358177
        },
        {
          "distance": 0.128059983253479,
          "id": 1729357125
        },
        {
          "distance": 0.1378147006034851,
          "id": 1729359877
        },
        {
          "distance": 0.13994252681732178,
          "id": 1729361381
        },
        {
          "distance": 0.15234941244125366,
          "id": 1729355899
        }
      ]
    },
    "sfomuseum:placetype": "instagram",
    "src:geom": "sfomuseum",
    "wof:belongsto": [
      1159160869,
      102527513,
      102191575,
      85633793,
      102087579,
      85922583,
      85688637
    ],
    "wof:country": "US",
    "wof:created": 1590584700,
    "wof:geomhash": "b6e33f47475d56bc8da457bc31afadc8",
    "wof:hierarchy": [
      {
        "building_id": 1159160869,
        "campus_id": 102527513,
        "continent_id": 102191575,
        "country_id": 85633793,
        "county_id": 102087579,
        "custom_id": 1729355227,
        "instagram_id": 1729355227,
        "locality_id": 85922583,
        "neighbourhood_id": -1,
        "region_id": 85688637
      }
    ],
    "wof:id": 1729355227,
    "wof:lastmodified": 1787777619,
    "wof:name": "Happy Birthday to the Golden Gate Bridge!..",
    "wof:parent_id": 1159160869,
    "wof:placetype": "custom",
    "wof:placetype_alt": [
      "instagram"
    ],
    "wof:repo": "sfomuseum-data-socialmedia-instagram",
    "wof:superseded_by": [],
    "wof:supersedes": []
  },
  "bbox": [
    -122.386166,
    37.616356,
    -122.386166,
    37.616356
  ],
  "geometry": {"type":"Point","coordinates":[-122.386166,37.616356]}
}
