{
  "id": 1880151483,
  "type": "Feature",
  "properties": {
    "date:cessation_lower": "2022-08-26",
    "date:cessation_upper": "2022-08-26",
    "date:inception_lower": "2022-08-26",
    "date:inception_upper": "2022-08-26",
    "edtf:cessation": "2022-08-26T09:50:00-07:00",
    "edtf:inception": "2022-08-26T09:50:00-07:00",
    "geom:area": 0,
    "geom:bbox": "-122.386166,37.616356,-122.386166,37.616356",
    "geom:latitude": 37.616356,
    "geom:longitude": -122.386166,
    "instagram:post": {
      "caption": {
        "body": "Captain Zoya Agarwal (@CaptainZoya) led an all-female crew for a record-breaking @AirIndia.in flight from San Francisco to Bengaluru over the North Pole to celebrate International Women’s Day in January 2021. Her interview and life story is part of the @SFOMuseum collection through the Museum’s Oral History Program and serves to inspire future generations of girls and women to follow their dreams.",
        "excerpt": "Captain Zoya Agarwal (@CaptainZoya) led an all-female crew for a record-breaking @AirIndia.in flight from San Francisco to Bengaluru over the North Pole to celebrate International Women’s Day in January 2021.",
        "hashtags": [
          "avgeek",
          "WomeninAviation",
          "CaptainZoya",
          "AirIndia",
          "womensequalityday"
        ],
        "users": []
      },
      "media_id": "7b043fc688015e2cf0ff3c8feb2783e8dbc602ce",
      "path": "media/other/301223416_772908847462422_450363085001020909_n_17939849363506182.jpg",
      "perceptual_hash": "p:becd1ec29d0ca18e",
      "taken": 1661532600,
      "taken_at": "Aug 26, 2022 4:50 pm"
    },
    "millsfield:similar": {
      "google/siglip2-so400m-patch16-naflex": [
        {
          "distance": 0.2799500823020935,
          "id": 1880151049
        },
        {
          "distance": 0.2822344899177551,
          "id": 1880151175
        },
        {
          "distance": 0.2833639979362488,
          "id": 1947425187
        },
        {
          "distance": 0.28587812185287476,
          "id": 1880151521
        },
        {
          "distance": 0.29301130771636963,
          "id": 1880151643
        },
        {
          "distance": 0.29572588205337524,
          "id": 1880150963
        },
        {
          "distance": 0.2959085702896118,
          "id": 1880151685
        },
        {
          "distance": 0.29693466424942017,
          "id": 1880151643
        },
        {
          "distance": 0.29859811067581177,
          "id": 1880151175
        },
        {
          "distance": 0.3002529740333557,
          "id": 1880151613
        }
      ]
    },
    "sfomuseum:placetype": "instagram",
    "src:geom": "sfomuseum",
    "wof:belongsto": [
      1159160869,
      102527513,
      102191575,
      85633793,
      102087579,
      85922583,
      85688637
    ],
    "wof:country": "US",
    "wof:created": 1661532600,
    "wof:geomhash": "b6e33f47475d56bc8da457bc31afadc8",
    "wof:hierarchy": [
      {
        "building_id": 1159160869,
        "campus_id": 102527513,
        "continent_id": 102191575,
        "country_id": 85633793,
        "county_id": 102087579,
        "custom_id": 1880151483,
        "instagram_id": 1880151483,
        "locality_id": 85922583,
        "neighbourhood_id": -1,
        "region_id": 85688637
      }
    ],
    "wof:id": 1880151483,
    "wof:lastmodified": 1787777662,
    "wof:name": "Captain Zoya Agarwal (@CaptainZoya) led an all-female crew for a record-breaking @AirIndia.in flight from San Francisco to Bengaluru over the North Pole to celebrate International Women’s Day in January 2021...",
    "wof:parent_id": 1159160869,
    "wof:placetype": "custom",
    "wof:placetype_alt": [
      "instagram"
    ],
    "wof:repo": "sfomuseum-data-socialmedia-instagram",
    "wof:superseded_by": [],
    "wof:supersedes": []
  },
  "bbox": [
    -122.386166,
    37.616356,
    -122.386166,
    37.616356
  ],
  "geometry": {"type":"Point","coordinates":[-122.386166,37.616356]}
}
