{
  "id": 1729357373,
  "type": "Feature",
  "properties": {
    "date:cessation_lower": "2018-11-11",
    "date:cessation_upper": "2018-11-11",
    "date:inception_lower": "2018-11-11",
    "date:inception_upper": "2018-11-11",
    "edtf:cessation": "2018-11-11T07:56:00-08:00",
    "edtf:inception": "2018-11-11T07:56:00-08:00",
    "geom:area": 0,
    "geom:bbox": "-122.386166,37.616356,-122.386166,37.616356",
    "geom:latitude": 37.616356,
    "geom:longitude": -122.386166,
    "instagram:post": {
      "caption": {
        "body": "#Onthisday in 1929, Inter-Island Airways started schedule passenger service with two Sikorsky S-38 planes linking the Hawaiian Islands. Though not yet a state, airlines operating in the Territory of Hawaii were under the jurisdiction of the United States’ Civil Aeronautics Board. After the C.A.B. awarded the airline a permanent certificate, Inter-Island Airways changed its name to Hawaiian Airlines in 1941.  Image: Inter Island Airways brochure, Hawaii, 1939. Gift of Hiller Aviation Museum. 2007.007.025",
        "excerpt": "#Onthisday in 1929, Inter-Island Airways started schedule passenger service with two Sikorsky S-38 planes linking the Hawaiian Islands.",
        "hashtags": [
          "avgeek",
          "hawaii",
          "interisland",
          "aviationgeek",
          "aviation",
          "aviationhistory",
          "history",
          "aviationgeeks",
          "avgeeks"
        ],
        "users": []
      },
      "media_id": "90b998afcab8dc71db7105512c9a329b",
      "path": "media/other/44583684_272328076820457_264370039798856384_n_17972119921149909.jpg",
      "perceptual_hash": "p:a8909834c79bcbcf",
      "taken": 1541951760,
      "taken_at": "Nov 11, 2018 3:56 pm"
    },
    "millsfield:similar": {
      "google/siglip2-so400m-patch16-naflex": [
        {
          "distance": 0.305389404296875,
          "id": 1729360641
        },
        {
          "distance": 0.323794424533844,
          "id": 1729358623
        },
        {
          "distance": 0.323794424533844,
          "id": 1763558725
        },
        {
          "distance": 0.3291800022125244,
          "id": 1729359199
        },
        {
          "distance": 0.3322422504425049,
          "id": 1729358887
        },
        {
          "distance": 0.33357352018356323,
          "id": 1729359969
        },
        {
          "distance": 0.3339717984199524,
          "id": 1880151161
        },
        {
          "distance": 0.33923977613449097,
          "id": 1729359767
        },
        {
          "distance": 0.34063172340393066,
          "id": 1729361605
        },
        {
          "distance": 0.35329127311706543,
          "id": 1880150943
        }
      ]
    },
    "sfomuseum:placetype": "instagram",
    "src:geom": "sfomuseum",
    "wof:belongsto": [
      1159160869,
      102527513,
      102191575,
      85633793,
      102087579,
      85922583,
      85688637
    ],
    "wof:country": "US",
    "wof:created": 1541951760,
    "wof:geomhash": "b6e33f47475d56bc8da457bc31afadc8",
    "wof:hierarchy": [
      {
        "building_id": 1159160869,
        "campus_id": 102527513,
        "continent_id": 102191575,
        "country_id": 85633793,
        "county_id": 102087579,
        "custom_id": 1729357373,
        "instagram_id": 1729357373,
        "locality_id": 85922583,
        "neighbourhood_id": -1,
        "region_id": 85688637
      }
    ],
    "wof:id": 1729357373,
    "wof:lastmodified": 1787777631,
    "wof:name": "#Onthisday in 1929, Inter-Island Airways started schedule passenger service with two Sikorsky S-38 planes linking the Hawaiian Islands...",
    "wof:parent_id": 1159160869,
    "wof:placetype": "custom",
    "wof:placetype_alt": [
      "instagram"
    ],
    "wof:repo": "sfomuseum-data-socialmedia-instagram",
    "wof:superseded_by": [],
    "wof:supersedes": []
  },
  "bbox": [
    -122.386166,
    37.616356,
    -122.386166,
    37.616356
  ],
  "geometry": {"type":"Point","coordinates":[-122.386166,37.616356]}
}
