{
  "id": 1729358401,
  "type": "Feature",
  "properties": {
    "date:cessation_lower": "2018-03-30",
    "date:cessation_upper": "2018-03-30",
    "date:inception_lower": "2018-03-30",
    "date:inception_upper": "2018-03-30",
    "edtf:cessation": "2018-03-30T06:49:00-07:00",
    "edtf:inception": "2018-03-30T06:49:00-07:00",
    "geom:area": 0,
    "geom:bbox": "-122.386166,37.616356,-122.386166,37.616356",
    "geom:latitude": 37.616356,
    "geom:longitude": -122.386166,
    "instagram:post": {
      "caption": {
        "body": "Designed by Louis Blériot and Raymond Saulnier, the Blériot XI monoplane was developed from the earlier Blériot VIII monoplane design. On July 25, 1909, Blériot flew the aircraft over the English Channel from Calais, France, to Dover, England. This was the first successful crossing of the Channel in an airplane. The feat made Blériot a worldwide celebrity and earned him the £1,000 prize established by the British newspaper the Daily Mail a year earlier. The design was highly successful, produced in numerous variants, and flown widely by early aviators, including Harriett Quimby and John and Matilde Moisant. In 1911, Earle Lewis Ovington carried the first U.S. airmail in a Blériot XI.  See \"Aviation Evolutions: The Jim Lund 1:72 Scale Model Airplane Collection\", which features more than 200 models, on display, pre-security, in the Aviation Museum. http://bit.ly/AviationEvolutions",
        "excerpt": "Designed by Louis Blériot and Raymond Saulnier, the Blériot XI monoplane was developed from the earlier Blériot VIII monoplane design.",
        "hashtags": [
          "AviationEvolutions",
          "jimlund",
          "avgeek",
          "avationgeek",
          "aviation",
          "aviationhistory",
          "aviationlovers",
          "vintageaviation",
          "history",
          "avhistory",
          "aviationgeeks",
          "instaplane",
          "flying",
          "modelplane",
          "flight",
          "airline",
          "avgeeks",
          "aviation4u",
          "aviationdaily",
          "modelaircraft",
          "airplane",
          "aircraft"
        ],
        "users": []
      },
      "media_id": "e54c0907bb5271005825ffe2597527c7",
      "path": "media/other/29096092_2030053170542514_6827620656167780352_n_17933449831037869.jpg",
      "perceptual_hash": "p:bcdb9364c938e0cc",
      "taken": 1522417740,
      "taken_at": "Mar 30, 2018 1:49 pm"
    },
    "millsfield:similar": {
      "google/siglip2-so400m-patch16-naflex": [
        {
          "distance": 0.0704641342163086,
          "id": 1729361319
        },
        {
          "distance": 0.12823498249053955,
          "id": 1729361319
        },
        {
          "distance": 0.14923208951950073,
          "id": 1763558923
        },
        {
          "distance": 0.16151607036590576,
          "id": 1947425155
        },
        {
          "distance": 0.1723828911781311,
          "id": 1729357729
        },
        {
          "distance": 0.18223440647125244,
          "id": 1763558923
        },
        {
          "distance": 0.19321417808532715,
          "id": 1729357039
        },
        {
          "distance": 0.19707036018371582,
          "id": 1729355627
        },
        {
          "distance": 0.20374417304992676,
          "id": 1763558881
        },
        {
          "distance": 0.20803070068359375,
          "id": 1947425155
        }
      ]
    },
    "sfomuseum:placetype": "instagram",
    "src:geom": "sfomuseum",
    "wof:belongsto": [
      1159160869,
      102527513,
      102191575,
      85633793,
      102087579,
      85922583,
      85688637
    ],
    "wof:country": "US",
    "wof:created": 1522417740,
    "wof:geomhash": "b6e33f47475d56bc8da457bc31afadc8",
    "wof:hierarchy": [
      {
        "building_id": 1159160869,
        "campus_id": 102527513,
        "continent_id": 102191575,
        "country_id": 85633793,
        "county_id": 102087579,
        "custom_id": 1729358401,
        "instagram_id": 1729358401,
        "locality_id": 85922583,
        "neighbourhood_id": -1,
        "region_id": 85688637
      }
    ],
    "wof:id": 1729358401,
    "wof:lastmodified": 1787777633,
    "wof:name": "Designed by Louis Blériot and Raymond Saulnier, the Blériot XI monoplane was developed from the earlier Blériot VIII monoplane design...",
    "wof:parent_id": 1159160869,
    "wof:placetype": "custom",
    "wof:placetype_alt": [
      "instagram"
    ],
    "wof:repo": "sfomuseum-data-socialmedia-instagram",
    "wof:superseded_by": [],
    "wof:supersedes": []
  },
  "bbox": [
    -122.386166,
    37.616356,
    -122.386166,
    37.616356
  ],
  "geometry": {"type":"Point","coordinates":[-122.386166,37.616356]}
}
