{
  "id": 1729356757,
  "type": "Feature",
  "properties": {
    "date:cessation_lower": "2019-03-30",
    "date:cessation_upper": "2019-03-30",
    "date:inception_lower": "2019-03-30",
    "date:inception_upper": "2019-03-30",
    "edtf:cessation": "2019-03-29T18:18:51-07:00",
    "edtf:inception": "2019-03-29T18:18:51-07:00",
    "geom:area": 0,
    "geom:bbox": "-122.386166,37.616356,-122.386166,37.616356",
    "geom:latitude": 37.616356,
    "geom:longitude": -122.386166,
    "instagram:post": {
      "caption": {
        "body": "Many lamps from the 1950s represent an eclectic range of taste and design. Companies created lamps that featured novel, multi-purpose functions. Bilt-Rite Manufacturing of Chicago combined an aquarium, planter, and TV lamp into one unit—complete with an illustrated, mountain riverscape as a backdrop for the fish. \"The Modern Consumer: Products and Style\" is on display, post-security, in Terminal 3. http://bit.ly/1950sConsumer",
        "excerpt": "Many lamps from the 1950s represent an eclectic range of taste and design.",
        "hashtags": [
          "1950sConsumer",
          "1950s",
          "vintage",
          "50s",
          "midcentury",
          "classic",
          "retro",
          "lamps",
          "noveltylamp",
          "lamp"
        ],
        "users": []
      },
      "location": "",
      "media_id": "74ca551065bda5ff57367737c4fb6594",
      "path": "photos/201903/74ca551065bda5ff57367737c4fb6594.jpg",
      "perceptual_hash": "p:e64f913e56704f90",
      "taken": 1553879880,
      "taken_at": "Mar 29, 2019, 5:18 PM"
    },
    "millsfield:similar": {
      "google/siglip2-so400m-patch16-naflex": [
        {
          "distance": 0.1294727921485901,
          "id": 1729356747
        },
        {
          "distance": 0.2005239725112915,
          "id": 1729356747
        },
        {
          "distance": 0.3226536512374878,
          "id": 1729356333
        },
        {
          "distance": 0.3345743417739868,
          "id": 1729356333
        },
        {
          "distance": 0.3405056595802307,
          "id": 1729360355
        },
        {
          "distance": 0.34799355268478394,
          "id": 1729356765
        },
        {
          "distance": 0.35039222240448,
          "id": 1729358021
        },
        {
          "distance": 0.35341113805770874,
          "id": 1729359635
        },
        {
          "distance": 0.3566930890083313,
          "id": 1729356739
        },
        {
          "distance": 0.35671013593673706,
          "id": 1880151091
        }
      ]
    },
    "sfomuseum:placetype": "instagram",
    "src:geom": "sfomuseum",
    "wof:belongsto": [
      1159160869,
      102527513,
      102191575,
      85633793,
      102087579,
      85922583,
      85688637
    ],
    "wof:country": "US",
    "wof:created": 1553908731,
    "wof:geomhash": "b6e33f47475d56bc8da457bc31afadc8",
    "wof:hierarchy": [
      {
        "building_id": 1159160869,
        "campus_id": 102527513,
        "continent_id": 102191575,
        "country_id": 85633793,
        "county_id": 102087579,
        "custom_id": 1729356757,
        "instagram_id": 1729356757,
        "locality_id": 85922583,
        "neighbourhood_id": -1,
        "region_id": 85688637
      }
    ],
    "wof:id": 1729356757,
    "wof:lastmodified": 1787777629,
    "wof:name": "Many lamps from the 1950s represent an eclectic range of taste and design...",
    "wof:parent_id": 1159160869,
    "wof:placetype": "custom",
    "wof:placetype_alt": [
      "instagram"
    ],
    "wof:repo": "sfomuseum-data-socialmedia-instagram",
    "wof:superseded_by": [],
    "wof:supersedes": []
  },
  "bbox": [
    -122.386166,
    37.616356,
    -122.386166,
    37.616356
  ],
  "geometry": {"type":"Point","coordinates":[-122.386166,37.616356]}
}
