{
  "id": 1763559587,
  "type": "Feature",
  "properties": {
    "date:cessation_lower": "2022-02-24",
    "date:cessation_upper": "2022-02-24",
    "date:inception_lower": "2022-02-24",
    "date:inception_upper": "2022-02-24",
    "edtf:cessation": "2022-02-24T09:07:00-08:00",
    "edtf:inception": "2022-02-24T09:07:00-08:00",
    "geom:area": 0,
    "geom:bbox": "-122.386166,37.616356,-122.386166,37.616356",
    "geom:latitude": 37.616356,
    "geom:longitude": -122.386166,
    "instagram:post": {
      "caption": {
        "body": "BEA (British European Airways), was formed by the Civil Aviation Act of 1946 in Great Britain.  After World War II, numerous European airlines, including BEA, purchased surplus C-47 military transports and had them converted to DC-3 commercial use. BEA introduced the turboprop Vickers Viscount, the world’s first jet-powered airliner to enter service, in 1950 and inaugurated scheduled service in 1953. BEA inaugurated Comet 4B jetliner service to numerous destinations in Europe in April 1960. In 1974, BEA merged with British Overseas Airways Corporation to form British Airways, the current flag carrier airline of the United Kingdom.",
        "excerpt": "BEA (British European Airways), was formed by the Civil Aviation Act of 1946 in Great Britain.",
        "hashtags": [
          "DefunctThursday",
          "BEA",
          "BOAC",
          "AvGeek",
          "BritishAirways"
        ],
        "users": []
      },
      "media_id": "a0dfd7be2c6527fc9525aff3c18b61d74c5c3e60",
      "path": "media/posts/202202/274645901_464551158421862_6071071951183240107_n_18027874771324664.jpg",
      "perceptual_hash": "p:eb15966a35cb2aa4",
      "taken": 1645722420,
      "taken_at": "Feb 24, 2022 5:07 pm"
    },
    "millsfield:similar": {
      "google/siglip2-so400m-patch16-naflex": [
        {
          "distance": 0.04681116342544556,
          "id": 1729357619
        },
        {
          "distance": 0.06648975610733032,
          "id": 1763559101
        },
        {
          "distance": 0.11377894878387451,
          "id": 1763559101
        },
        {
          "distance": 0.12349826097488403,
          "id": 1729357619
        },
        {
          "distance": 0.15510129928588867,
          "id": 1729357837
        },
        {
          "distance": 0.16228270530700684,
          "id": 1763558711
        },
        {
          "distance": 0.16228270530700684,
          "id": 1729359003
        },
        {
          "distance": 0.1662631630897522,
          "id": 1729357123
        },
        {
          "distance": 0.17882627248764038,
          "id": 1729356909
        },
        {
          "distance": 0.18520218133926392,
          "id": 1729358643
        }
      ]
    },
    "sfomuseum:placetype": "instagram",
    "src:geom": "sfomuseum",
    "wof:belongsto": [
      1159160869,
      102527513,
      102191575,
      85633793,
      102087579,
      85922583,
      85688637
    ],
    "wof:country": "US",
    "wof:created": 1645722420,
    "wof:geomhash": "b6e33f47475d56bc8da457bc31afadc8",
    "wof:hierarchy": [
      {
        "building_id": 1159160869,
        "campus_id": 102527513,
        "continent_id": 102191575,
        "country_id": 85633793,
        "county_id": 102087579,
        "custom_id": 1763559587,
        "instagram_id": 1763559587,
        "locality_id": 85922583,
        "neighbourhood_id": -1,
        "region_id": 85688637
      }
    ],
    "wof:id": 1763559587,
    "wof:lastmodified": 1787777660,
    "wof:name": "BEA (British European Airways), was formed by the Civil Aviation Act of 1946 in Great Britain...",
    "wof:parent_id": 1159160869,
    "wof:placetype": "custom",
    "wof:placetype_alt": [
      "instagram"
    ],
    "wof:repo": "sfomuseum-data-socialmedia-instagram",
    "wof:superseded_by": [],
    "wof:supersedes": []
  },
  "bbox": [
    -122.386166,
    37.616356,
    -122.386166,
    37.616356
  ],
  "geometry": {"type":"Point","coordinates":[-122.386166,37.616356]}
}
