{
  "id": 1729357397,
  "type": "Feature",
  "properties": {
    "date:cessation_lower": "2018-11-09",
    "date:cessation_upper": "2018-11-09",
    "date:inception_lower": "2018-11-09",
    "date:inception_upper": "2018-11-09",
    "edtf:cessation": "2018-11-09T11:05:49-08:00",
    "edtf:inception": "2018-11-09T11:05:49-08:00",
    "geom:area": 0,
    "geom:bbox": "-122.386166,37.616356,-122.386166,37.616356",
    "geom:latitude": 37.616356,
    "geom:longitude": -122.386166,
    "instagram:post": {
      "caption": {
        "body": "Hollywood fashion designer Howard Greer (1896–1974) created this fitted suit in light blue wool gabardine for TWA (Trans World Airlines) in 1944. It was known as the “cutout” for the openwork TWA lettering on the shoulder. With suggestions from supervisor of hostess services Ida Staggers, Greer introduced the “blou-slip,” a combined undergarment in rayon and satin that did not need constant tucking in. The triangular jacket flap could be unbuttoned to cover the TWA lettering, allowing the hostess to smoke or have a cocktail while off duty. This style of uniform was worn until 1955.  Image: TWA (Trans World Airlines), Audrey McNamara Nevis, c. 1949. Gift of the Estate of Audrey McNamara Nevis. 2013.057.001",
        "excerpt": "Hollywood fashion designer Howard Greer (1896–1974) created this fitted suit in light blue wool gabardine for TWA (Trans World Airlines) in 1944.",
        "hashtags": [
          "HowardGreer",
          "TWA",
          "Hollywood",
          "fashiondesign",
          "fashion",
          "satin",
          "IdaStaggers",
          "uniform",
          "flightattendant"
        ],
        "users": []
      },
      "location": "",
      "media_id": "422e7ee5de3c8e4f65d06fcd023ee923",
      "path": "photos/201811/422e7ee5de3c8e4f65d06fcd023ee923.jpg",
      "perceptual_hash": "p:8b055c3d63e28e9d",
      "taken": 1541761500,
      "taken_at": "Nov 9, 2018, 11:05 AM"
    },
    "millsfield:similar": {
      "google/siglip2-so400m-patch16-naflex": [
        {
          "distance": 0.1277329921722412,
          "id": 1763559491
        },
        {
          "distance": 0.15015524625778198,
          "id": 1763559491
        },
        {
          "distance": 0.170629620552063,
          "id": 1729360519
        },
        {
          "distance": 0.17420774698257446,
          "id": 1729357403
        },
        {
          "distance": 0.18667393922805786,
          "id": 1880151177
        },
        {
          "distance": 0.18947196006774902,
          "id": 1763559537
        },
        {
          "distance": 0.19599610567092896,
          "id": 1729361467
        },
        {
          "distance": 0.19638997316360474,
          "id": 1729360257
        },
        {
          "distance": 0.19869470596313477,
          "id": 1729360519
        },
        {
          "distance": 0.2103811502456665,
          "id": 1880151465
        }
      ]
    },
    "sfomuseum:placetype": "instagram",
    "src:geom": "sfomuseum",
    "wof:belongsto": [
      1159160869,
      102527513,
      102191575,
      85633793,
      102087579,
      85922583,
      85688637
    ],
    "wof:country": "US",
    "wof:created": 1541790349,
    "wof:geomhash": "b6e33f47475d56bc8da457bc31afadc8",
    "wof:hierarchy": [
      {
        "building_id": 1159160869,
        "campus_id": 102527513,
        "continent_id": 102191575,
        "country_id": 85633793,
        "county_id": 102087579,
        "custom_id": 1729357397,
        "instagram_id": 1729357397,
        "locality_id": 85922583,
        "neighbourhood_id": -1,
        "region_id": 85688637
      }
    ],
    "wof:id": 1729357397,
    "wof:lastmodified": 1787777631,
    "wof:name": "Hollywood fashion designer Howard Greer (1896–1974) created this fitted suit in light blue wool gabardine for TWA (Trans World Airlines) in 1944...",
    "wof:parent_id": 1159160869,
    "wof:placetype": "custom",
    "wof:placetype_alt": [
      "instagram"
    ],
    "wof:repo": "sfomuseum-data-socialmedia-instagram",
    "wof:superseded_by": [],
    "wof:supersedes": []
  },
  "bbox": [
    -122.386166,
    37.616356,
    -122.386166,
    37.616356
  ],
  "geometry": {"type":"Point","coordinates":[-122.386166,37.616356]}
}
