{
  "id": 1729363049,
  "type": "Feature",
  "properties": {
    "date:cessation_lower": "2012-03-08",
    "date:cessation_upper": "2012-03-08",
    "date:inception_lower": "2012-03-08",
    "date:inception_upper": "2012-03-08",
    "edtf:cessation": "2012-03-08T03:22:00-08:00",
    "edtf:inception": "2012-03-08T03:22:00-08:00",
    "geom:area": 0,
    "geom:bbox": "-122.386166,37.616356,-122.386166,37.616356",
    "geom:latitude": 37.616356,
    "geom:longitude": -122.386166,
    "instagram:post": {
      "caption": {
        "body": "Original mountain biker Jacquie Phelan on her winning Cunningham bike (in our storage)!",
        "excerpt": "Original mountain biker Jacquie Phelan on her winning Cunningham bike (in our storage)!",
        "hashtags": [],
        "users": []
      },
      "media_id": "0cad215984fbd4c3de086e9b1ce43e27",
      "path": "media/other/11117093_899707730068389_1998625841_n_17842245592062499.jpg",
      "perceptual_hash": "p:9ef8701352df421e",
      "taken": 1331205720,
      "taken_at": "Mar 08, 2012 11:22 am"
    },
    "millsfield:similar": {
      "google/siglip2-so400m-patch16-naflex": [
        {
          "distance": 0.24305129051208496,
          "id": 1729363019
        },
        {
          "distance": 0.2602226734161377,
          "id": 1729363019
        },
        {
          "distance": 0.29686248302459717,
          "id": 1729362941
        },
        {
          "distance": 0.318132221698761,
          "id": 1729363011
        },
        {
          "distance": 0.32776427268981934,
          "id": 1729356955
        },
        {
          "distance": 0.32860875129699707,
          "id": 1729362955
        },
        {
          "distance": 0.34721654653549194,
          "id": 1729363031
        },
        {
          "distance": 0.3573739528656006,
          "id": 1729362955
        },
        {
          "distance": 0.3622944951057434,
          "id": 1729356933
        },
        {
          "distance": 0.36246275901794434,
          "id": 1729356933
        }
      ]
    },
    "sfomuseum:placetype": "instagram",
    "src:geom": "sfomuseum",
    "wof:belongsto": [
      1159160869,
      102527513,
      102191575,
      85633793,
      102087579,
      85922583,
      85688637
    ],
    "wof:country": "US",
    "wof:created": 1331205720,
    "wof:geomhash": "b6e33f47475d56bc8da457bc31afadc8",
    "wof:hierarchy": [
      {
        "building_id": 1159160869,
        "campus_id": 102527513,
        "continent_id": 102191575,
        "country_id": 85633793,
        "county_id": 102087579,
        "custom_id": 1729363049,
        "instagram_id": 1729363049,
        "locality_id": 85922583,
        "neighbourhood_id": -1,
        "region_id": 85688637
      }
    ],
    "wof:id": 1729363049,
    "wof:lastmodified": 1787777658,
    "wof:name": "Original mountain biker Jacquie Phelan on her winning Cunningham bike (in our storage)!..",
    "wof:parent_id": 1159160869,
    "wof:placetype": "custom",
    "wof:placetype_alt": [
      "instagram"
    ],
    "wof:repo": "sfomuseum-data-socialmedia-instagram",
    "wof:superseded_by": [],
    "wof:supersedes": []
  },
  "bbox": [
    -122.386166,
    37.616356,
    -122.386166,
    37.616356
  ],
  "geometry": {"type":"Point","coordinates":[-122.386166,37.616356]}
}
