{
  "id": 1729361359,
  "type": "Feature",
  "properties": {
    "date:cessation_lower": "2015-11-17",
    "date:cessation_upper": "2015-11-17",
    "date:inception_lower": "2015-11-17",
    "date:inception_upper": "2015-11-17",
    "edtf:cessation": "2015-11-17T11:47:00-08:00",
    "edtf:inception": "2015-11-17T11:47:00-08:00",
    "geom:area": 0,
    "geom:bbox": "-122.386166,37.616356,-122.386166,37.616356",
    "geom:latitude": 37.616356,
    "geom:longitude": -122.386166,
    "instagram:post": {
      "caption": {
        "body": "",
        "excerpt": "",
        "hashtags": [
          "TravelTuesday"
        ],
        "users": []
      },
      "media_id": "4ac7c58eb8b3f4501bad511fca903e30",
      "path": "media/other/12237039_937083983052856_57659296_n_17847736687048222.jpg",
      "perceptual_hash": "p:c887c787ac0db396",
      "taken": 1447789620,
      "taken_at": "Nov 17, 2015 7:47 pm"
    },
    "millsfield:similar": {
      "google/siglip2-so400m-patch16-naflex": [
        {
          "distance": 0.13643383979797363,
          "id": 1729361351
        },
        {
          "distance": 0.15639019012451172,
          "id": 1947424791
        },
        {
          "distance": 0.16145294904708862,
          "id": 1729360081
        },
        {
          "distance": 0.17801278829574585,
          "id": 1729361351
        },
        {
          "distance": 0.18282043933868408,
          "id": 1947424791
        },
        {
          "distance": 0.1847381591796875,
          "id": 1729360081
        },
        {
          "distance": 0.20398205518722534,
          "id": 1729360591
        },
        {
          "distance": 0.209239661693573,
          "id": 1729358071
        },
        {
          "distance": 0.20926225185394287,
          "id": 1729356541
        },
        {
          "distance": 0.2162991762161255,
          "id": 1729360207
        }
      ]
    },
    "sfomuseum:placetype": "instagram",
    "src:geom": "sfomuseum",
    "wof:belongsto": [
      1159160869,
      102527513,
      102191575,
      85633793,
      102087579,
      85922583,
      85688637
    ],
    "wof:country": "US",
    "wof:created": 1447789620,
    "wof:geomhash": "b6e33f47475d56bc8da457bc31afadc8",
    "wof:hierarchy": [
      {
        "building_id": 1159160869,
        "campus_id": 102527513,
        "continent_id": 102191575,
        "country_id": 85633793,
        "county_id": 102087579,
        "custom_id": 1729361359,
        "instagram_id": 1729361359,
        "locality_id": 85922583,
        "neighbourhood_id": -1,
        "region_id": 85688637
      }
    ],
    "wof:id": 1729361359,
    "wof:lastmodified": 1787777645,
    "wof:name": "..",
    "wof:parent_id": 1159160869,
    "wof:placetype": "custom",
    "wof:placetype_alt": [
      "instagram"
    ],
    "wof:repo": "sfomuseum-data-socialmedia-instagram",
    "wof:superseded_by": [],
    "wof:supersedes": []
  },
  "bbox": [
    -122.386166,
    37.616356,
    -122.386166,
    37.616356
  ],
  "geometry": {"type":"Point","coordinates":[-122.386166,37.616356]}
}
