{
  "id": 1729362509,
  "type": "Feature",
  "properties": {
    "date:cessation_lower": "2013-10-22",
    "date:cessation_upper": "2013-10-22",
    "date:inception_lower": "2013-10-22",
    "date:inception_upper": "2013-10-22",
    "edtf:cessation": "2013-10-22T05:58:00-07:00",
    "edtf:inception": "2013-10-22T05:58:00-07:00",
    "geom:area": 0,
    "geom:bbox": "-122.386166,37.616356,-122.386166,37.616356",
    "geom:latitude": 37.616356,
    "geom:longitude": -122.386166,
    "instagram:post": {
      "caption": {
        "body": "",
        "excerpt": "",
        "hashtags": [
          "plastics",
          "bakelite",
          "jewelry"
        ],
        "users": []
      },
      "media_id": "8375a9c06811a22e646253f26cf6c7c6",
      "path": "media/other/1391311_604210586287512_911261314_n_17842370089062499.jpg",
      "perceptual_hash": "p:85bc0b0f365aad53",
      "taken": 1382446680,
      "taken_at": "Oct 22, 2013 12:58 pm"
    },
    "millsfield:similar": {
      "google/siglip2-so400m-patch16-naflex": [
        {
          "distance": 0.26440972089767456,
          "id": 1729362387
        },
        {
          "distance": 0.27805978059768677,
          "id": 1729362605
        },
        {
          "distance": 0.29501795768737793,
          "id": 1729362379
        },
        {
          "distance": 0.2964518666267395,
          "id": 1729361839
        },
        {
          "distance": 0.29979556798934937,
          "id": 1729362961
        },
        {
          "distance": 0.31117725372314453,
          "id": 1729362517
        },
        {
          "distance": 0.31429213285446167,
          "id": 1729361723
        },
        {
          "distance": 0.3196449279785156,
          "id": 1729362153
        },
        {
          "distance": 0.320206880569458,
          "id": 1729362651
        },
        {
          "distance": 0.32301223278045654,
          "id": 1729362561
        }
      ]
    },
    "sfomuseum:placetype": "instagram",
    "src:geom": "sfomuseum",
    "wof:belongsto": [
      1159160869,
      102527513,
      102191575,
      85633793,
      102087579,
      85922583,
      85688637
    ],
    "wof:country": "US",
    "wof:created": 1382446680,
    "wof:geomhash": "b6e33f47475d56bc8da457bc31afadc8",
    "wof:hierarchy": [
      {
        "building_id": 1159160869,
        "campus_id": 102527513,
        "continent_id": 102191575,
        "country_id": 85633793,
        "county_id": 102087579,
        "custom_id": 1729362509,
        "instagram_id": 1729362509,
        "locality_id": 85922583,
        "neighbourhood_id": -1,
        "region_id": 85688637
      }
    ],
    "wof:id": 1729362509,
    "wof:lastmodified": 1787777647,
    "wof:name": "..",
    "wof:parent_id": 1159160869,
    "wof:placetype": "custom",
    "wof:placetype_alt": [
      "instagram"
    ],
    "wof:repo": "sfomuseum-data-socialmedia-instagram",
    "wof:superseded_by": [],
    "wof:supersedes": []
  },
  "bbox": [
    -122.386166,
    37.616356,
    -122.386166,
    37.616356
  ],
  "geometry": {"type":"Point","coordinates":[-122.386166,37.616356]}
}
