{
  "id": 1729362725,
  "type": "Feature",
  "properties": {
    "date:cessation_lower": "2013-04-22",
    "date:cessation_upper": "2013-04-22",
    "date:inception_lower": "2013-04-22",
    "date:inception_upper": "2013-04-22",
    "edtf:cessation": "2013-04-22T02:00:00-07:00",
    "edtf:inception": "2013-04-22T02:00:00-07:00",
    "geom:area": 0,
    "geom:bbox": "-122.386166,37.616356,-122.386166,37.616356",
    "geom:latitude": 37.616356,
    "geom:longitude": -122.386166,
    "instagram:post": {
      "caption": {
        "body": "Scott Oliver aims to explore the meaning of everyday objects by melding mass produced objects with labor-intensive handicraft. Here: Stoppages, 2008.",
        "excerpt": "Scott Oliver aims to explore the meaning of everyday objects by melding mass produced objects with labor-intensive handicraft.",
        "hashtags": [],
        "users": []
      },
      "media_id": "47b174f494256f91046940d831a4e82d",
      "path": "media/other/11351685_1408949286095801_704362211_n_17842316905062499.jpg",
      "perceptual_hash": "p:b9d137c0c666607e",
      "taken": 1366621200,
      "taken_at": "Apr 22, 2013 9:00 am"
    },
    "millsfield:similar": {
      "google/siglip2-so400m-patch16-naflex": [
        {
          "distance": 0.2601790428161621,
          "id": 1729363039
        },
        {
          "distance": 0.28937971591949463,
          "id": 1729362991
        },
        {
          "distance": 0.30083149671554565,
          "id": 1729363039
        },
        {
          "distance": 0.3201764225959778,
          "id": 1729362453
        },
        {
          "distance": 0.320385217666626,
          "id": 1729362647
        },
        {
          "distance": 0.32190579175949097,
          "id": 1729362175
        },
        {
          "distance": 0.3243855834007263,
          "id": 1729362651
        },
        {
          "distance": 0.32830625772476196,
          "id": 1729362739
        },
        {
          "distance": 0.3341488242149353,
          "id": 1729362283
        },
        {
          "distance": 0.33873897790908813,
          "id": 1729362963
        }
      ]
    },
    "sfomuseum:placetype": "instagram",
    "src:geom": "sfomuseum",
    "wof:belongsto": [
      1159160869,
      102527513,
      102191575,
      85633793,
      102087579,
      85922583,
      85688637
    ],
    "wof:country": "US",
    "wof:created": 1366621200,
    "wof:geomhash": "b6e33f47475d56bc8da457bc31afadc8",
    "wof:hierarchy": [
      {
        "building_id": 1159160869,
        "campus_id": 102527513,
        "continent_id": 102191575,
        "country_id": 85633793,
        "county_id": 102087579,
        "custom_id": 1729362725,
        "instagram_id": 1729362725,
        "locality_id": 85922583,
        "neighbourhood_id": -1,
        "region_id": 85688637
      }
    ],
    "wof:id": 1729362725,
    "wof:lastmodified": 1787777647,
    "wof:name": "Scott Oliver aims to explore the meaning of everyday objects by melding mass produced objects with labor-intensive handicraft...",
    "wof:parent_id": 1159160869,
    "wof:placetype": "custom",
    "wof:placetype_alt": [
      "instagram"
    ],
    "wof:repo": "sfomuseum-data-socialmedia-instagram",
    "wof:superseded_by": [],
    "wof:supersedes": []
  },
  "bbox": [
    -122.386166,
    37.616356,
    -122.386166,
    37.616356
  ],
  "geometry": {"type":"Point","coordinates":[-122.386166,37.616356]}
}
