{
  "id": 1729363029,
  "type": "Feature",
  "properties": {
    "date:cessation_lower": "2012-04-26",
    "date:cessation_upper": "2012-04-26",
    "date:inception_lower": "2012-04-26",
    "date:inception_upper": "2012-04-26",
    "edtf:cessation": "2012-04-26T03:13:00-07:00",
    "edtf:inception": "2012-04-26T03:13:00-07:00",
    "geom:area": 0,
    "geom:bbox": "-122.386166,37.616356,-122.386166,37.616356",
    "geom:latitude": 37.616356,
    "geom:longitude": -122.386166,
    "instagram:post": {
      "caption": {
        "body": "",
        "excerpt": "",
        "hashtags": [
          "SFOisART"
        ],
        "users": []
      },
      "media_id": "31a15e053bcb3c1ac393fb35f4ae8e02",
      "path": "media/other/11201547_1431940717109141_302903896_n_17842248490062499.jpg",
      "perceptual_hash": "p:c2707b2d360bb59a",
      "taken": 1335435180,
      "taken_at": "Apr 26, 2012 10:13 am"
    },
    "millsfield:similar": {
      "google/siglip2-so400m-patch16-naflex": [
        {
          "distance": 0.2635548710823059,
          "id": 1729362995
        },
        {
          "distance": 0.2663359045982361,
          "id": 1729362995
        },
        {
          "distance": 0.2713802456855774,
          "id": 1729363035
        },
        {
          "distance": 0.2888076901435852,
          "id": 1729362473
        },
        {
          "distance": 0.2904597520828247,
          "id": 1729359547
        },
        {
          "distance": 0.2935999035835266,
          "id": 1729362273
        },
        {
          "distance": 0.29765570163726807,
          "id": 1763559563
        },
        {
          "distance": 0.3054105043411255,
          "id": 1729361585
        },
        {
          "distance": 0.30759197473526,
          "id": 1729363035
        },
        {
          "distance": 0.3089712858200073,
          "id": 1729362469
        }
      ]
    },
    "sfomuseum:placetype": "instagram",
    "src:geom": "sfomuseum",
    "wof:belongsto": [
      1159160869,
      102527513,
      102191575,
      85633793,
      102087579,
      85922583,
      85688637
    ],
    "wof:country": "US",
    "wof:created": 1335435180,
    "wof:geomhash": "b6e33f47475d56bc8da457bc31afadc8",
    "wof:hierarchy": [
      {
        "building_id": 1159160869,
        "campus_id": 102527513,
        "continent_id": 102191575,
        "country_id": 85633793,
        "county_id": 102087579,
        "custom_id": 1729363029,
        "instagram_id": 1729363029,
        "locality_id": 85922583,
        "neighbourhood_id": -1,
        "region_id": 85688637
      }
    ],
    "wof:id": 1729363029,
    "wof:lastmodified": 1787777657,
    "wof:name": "..",
    "wof:parent_id": 1159160869,
    "wof:placetype": "custom",
    "wof:placetype_alt": [
      "instagram"
    ],
    "wof:repo": "sfomuseum-data-socialmedia-instagram",
    "wof:superseded_by": [],
    "wof:supersedes": []
  },
  "bbox": [
    -122.386166,
    37.616356,
    -122.386166,
    37.616356
  ],
  "geometry": {"type":"Point","coordinates":[-122.386166,37.616356]}
}
