{
  "id": 1729360043,
  "type": "Feature",
  "properties": {
    "date:cessation_lower": "2016-12-06",
    "date:cessation_upper": "2016-12-06",
    "date:inception_lower": "2016-12-06",
    "date:inception_upper": "2016-12-06",
    "edtf:cessation": "2016-12-06T01:59:00-08:00",
    "edtf:inception": "2016-12-06T01:59:00-08:00",
    "geom:area": 0,
    "geom:bbox": "-122.386166,37.616356,-122.386166,37.616356",
    "geom:latitude": 37.616356,
    "geom:longitude": -122.386166,
    "instagram:post": {
      "caption": {
        "body": "#Onthisday in 1957, the first prototype for the Lockheed L-188 Electra turboprop airliner took flight. Did you ever fly on one?",
        "excerpt": "#Onthisday in 1957, the first prototype for the Lockheed L-188 Electra turboprop airliner took flight.",
        "hashtags": [],
        "users": []
      },
      "media_id": "3feb5771af249c5b2082adf0f3d04182",
      "path": "media/posts/201612/15337344_288816594853945_814090147350970368_n_17867081206044923.jpg",
      "perceptual_hash": "p:cc242ea4cec9b58f",
      "taken": 1481018340,
      "taken_at": "Dec 06, 2016 9:59 am"
    },
    "millsfield:similar": {
      "google/siglip2-so400m-patch16-naflex": [
        {
          "distance": 0.25547051429748535,
          "id": 1729355971
        },
        {
          "distance": 0.2572587728500366,
          "id": 1763559155
        },
        {
          "distance": 0.25897425413131714,
          "id": 1729359659
        },
        {
          "distance": 0.2619485855102539,
          "id": 1729355245
        },
        {
          "distance": 0.263025164604187,
          "id": 1729355971
        },
        {
          "distance": 0.2675173282623291,
          "id": 1729358537
        },
        {
          "distance": 0.2733837366104126,
          "id": 1729360007
        },
        {
          "distance": 0.27587687969207764,
          "id": 1729356685
        },
        {
          "distance": 0.2771286964416504,
          "id": 1729356623
        },
        {
          "distance": 0.27846115827560425,
          "id": 1729358339
        }
      ]
    },
    "sfomuseum:placetype": "instagram",
    "src:geom": "sfomuseum",
    "wof:belongsto": [
      1159160869,
      102527513,
      102191575,
      85633793,
      102087579,
      85922583,
      85688637
    ],
    "wof:country": "US",
    "wof:created": 1481018340,
    "wof:geomhash": "b6e33f47475d56bc8da457bc31afadc8",
    "wof:hierarchy": [
      {
        "building_id": 1159160869,
        "campus_id": 102527513,
        "continent_id": 102191575,
        "country_id": 85633793,
        "county_id": 102087579,
        "custom_id": 1729360043,
        "instagram_id": 1729360043,
        "locality_id": 85922583,
        "neighbourhood_id": -1,
        "region_id": 85688637
      }
    ],
    "wof:id": 1729360043,
    "wof:lastmodified": 1787777639,
    "wof:name": "#Onthisday in 1957, the first prototype for the Lockheed L-188 Electra turboprop airliner took flight...",
    "wof:parent_id": 1159160869,
    "wof:placetype": "custom",
    "wof:placetype_alt": [
      "instagram"
    ],
    "wof:repo": "sfomuseum-data-socialmedia-instagram",
    "wof:superseded_by": [],
    "wof:supersedes": []
  },
  "bbox": [
    -122.386166,
    37.616356,
    -122.386166,
    37.616356
  ],
  "geometry": {"type":"Point","coordinates":[-122.386166,37.616356]}
}
