{
  "id": 1880151299,
  "type": "Feature",
  "properties": {
    "date:cessation_lower": "2022-12-02",
    "date:cessation_upper": "2022-12-02",
    "date:inception_lower": "2022-12-02",
    "date:inception_upper": "2022-12-02",
    "edtf:cessation": "2022-12-02T04:12:00-08:00",
    "edtf:inception": "2022-12-02T04:12:00-08:00",
    "geom:area": 0,
    "geom:bbox": "-122.386166,37.616356,-122.386166,37.616356",
    "geom:latitude": 37.616356,
    "geom:longitude": -122.386166,
    "instagram:post": {
      "caption": {
        "body": "#Onthisday in 1919, Lee Mullican was born in Chickasha, Oklahoma. Mullican’s paintings reflect the influence of his interest in and study of Native American art and culture. He evokes ritual and myth with his ornate, mosaic-patterned surfaces.  See “The Great Transparents” by Lee Mullican on display, post-security, in Terminal 2 or online at: http://bit.ly/3TDrdHF",
        "excerpt": "#Onthisday in 1919, Lee Mullican was born in Chickasha, Oklahoma.",
        "hashtags": [
          "PublicArt",
          "LeeMullican",
          "painting"
        ],
        "users": [
          "sf_arts_commission"
        ]
      },
      "media_id": "f44484b1b880e12b5b3b30a90b2c3abe5771836e",
      "path": "media/posts/202212/317733328_459967879639916_7949184238182209152_n_17974055389788420.jpg",
      "perceptual_hash": "p:b79228cd92cdb26c",
      "taken": 1669983120,
      "taken_at": "Dec 02, 2022 12:12 pm"
    },
    "millsfield:similar": {
      "google/siglip2-so400m-patch16-naflex": [
        {
          "distance": 0.13876163959503174,
          "id": 1880150939
        },
        {
          "distance": 0.14450526237487793,
          "id": 1880151137
        },
        {
          "distance": 0.16947418451309204,
          "id": 1729357871
        },
        {
          "distance": 0.1744060516357422,
          "id": 1880151131
        },
        {
          "distance": 0.17651677131652832,
          "id": 1729359429
        },
        {
          "distance": 0.17925000190734863,
          "id": 1947425185
        },
        {
          "distance": 0.19653469324111938,
          "id": 1880150939
        },
        {
          "distance": 0.19950228929519653,
          "id": 1729359429
        },
        {
          "distance": 0.21074926853179932,
          "id": 1729355147
        },
        {
          "distance": 0.21128827333450317,
          "id": 1880151253
        }
      ]
    },
    "sfomuseum:placetype": "instagram",
    "src:geom": "sfomuseum",
    "wof:belongsto": [
      1159160869,
      102527513,
      102191575,
      85633793,
      102087579,
      85922583,
      85688637
    ],
    "wof:country": "US",
    "wof:created": 1669983120,
    "wof:geomhash": "b6e33f47475d56bc8da457bc31afadc8",
    "wof:hierarchy": [
      {
        "building_id": 1159160869,
        "campus_id": 102527513,
        "continent_id": 102191575,
        "country_id": 85633793,
        "county_id": 102087579,
        "custom_id": 1880151299,
        "instagram_id": 1880151299,
        "locality_id": 85922583,
        "neighbourhood_id": -1,
        "region_id": 85688637
      }
    ],
    "wof:id": 1880151299,
    "wof:lastmodified": 1787777662,
    "wof:name": "#Onthisday in 1919, Lee Mullican was born in Chickasha, Oklahoma...",
    "wof:parent_id": 1159160869,
    "wof:placetype": "custom",
    "wof:placetype_alt": [
      "instagram"
    ],
    "wof:repo": "sfomuseum-data-socialmedia-instagram",
    "wof:superseded_by": [],
    "wof:supersedes": []
  },
  "bbox": [
    -122.386166,
    37.616356,
    -122.386166,
    37.616356
  ],
  "geometry": {"type":"Point","coordinates":[-122.386166,37.616356]}
}
