{
  "id": 1729361977,
  "type": "Feature",
  "properties": {
    "date:cessation_lower": "2015-01-08",
    "date:cessation_upper": "2015-01-08",
    "date:inception_lower": "2015-01-08",
    "date:inception_upper": "2015-01-08",
    "edtf:cessation": "2015-01-08T07:00:00-08:00",
    "edtf:inception": "2015-01-08T07:00:00-08:00",
    "geom:area": 0,
    "geom:bbox": "-122.386166,37.616356,-122.386166,37.616356",
    "geom:latitude": 37.616356,
    "geom:longitude": -122.386166,
    "instagram:post": {
      "caption": {
        "body": "",
        "excerpt": "",
        "hashtags": [
          "EgyptianRevival",
          "behindthescenes",
          "fashion"
        ],
        "users": []
      },
      "media_id": "a16c4fd385b7de91547242f4fe662edf",
      "path": "media/other/10932265_412196972279706_285794549_n_17843059492062499.jpg",
      "perceptual_hash": "p:cabd7046456f2ea2",
      "taken": 1420729200,
      "taken_at": "Jan 08, 2015 3:00 pm"
    },
    "millsfield:similar": {
      "google/siglip2-so400m-patch16-naflex": [
        {
          "distance": 0.27512508630752563,
          "id": 1729362403
        },
        {
          "distance": 0.2951509952545166,
          "id": 1729362409
        },
        {
          "distance": 0.29628312587738037,
          "id": 1729362669
        },
        {
          "distance": 0.32289445400238037,
          "id": 1880150997
        },
        {
          "distance": 0.3229343295097351,
          "id": 1729362669
        },
        {
          "distance": 0.3239758610725403,
          "id": 1947425303
        },
        {
          "distance": 0.329520046710968,
          "id": 1880151517
        },
        {
          "distance": 0.3297443985939026,
          "id": 1880151155
        },
        {
          "distance": 0.3311154246330261,
          "id": 1880150979
        },
        {
          "distance": 0.33420175313949585,
          "id": 1947425243
        }
      ]
    },
    "sfomuseum:placetype": "instagram",
    "src:geom": "sfomuseum",
    "wof:belongsto": [
      1159160869,
      102527513,
      102191575,
      85633793,
      102087579,
      85922583,
      85688637
    ],
    "wof:country": "US",
    "wof:created": 1420729200,
    "wof:geomhash": "b6e33f47475d56bc8da457bc31afadc8",
    "wof:hierarchy": [
      {
        "building_id": 1159160869,
        "campus_id": 102527513,
        "continent_id": 102191575,
        "country_id": 85633793,
        "county_id": 102087579,
        "custom_id": 1729361977,
        "instagram_id": 1729361977,
        "locality_id": 85922583,
        "neighbourhood_id": -1,
        "region_id": 85688637
      }
    ],
    "wof:id": 1729361977,
    "wof:lastmodified": 1787777646,
    "wof:name": "..",
    "wof:parent_id": 1159160869,
    "wof:placetype": "custom",
    "wof:placetype_alt": [
      "instagram"
    ],
    "wof:repo": "sfomuseum-data-socialmedia-instagram",
    "wof:superseded_by": [],
    "wof:supersedes": []
  },
  "bbox": [
    -122.386166,
    37.616356,
    -122.386166,
    37.616356
  ],
  "geometry": {"type":"Point","coordinates":[-122.386166,37.616356]}
}
