{
  "id": 1729362037,
  "type": "Feature",
  "properties": {
    "date:cessation_lower": "2014-11-19",
    "date:cessation_upper": "2014-11-19",
    "date:inception_lower": "2014-11-19",
    "date:inception_upper": "2014-11-19",
    "edtf:cessation": "2014-11-19T07:07:00-08:00",
    "edtf:inception": "2014-11-19T07:07:00-08:00",
    "geom:area": 0,
    "geom:bbox": "-122.386166,37.616356,-122.386166,37.616356",
    "geom:latitude": 37.616356,
    "geom:longitude": -122.386166,
    "instagram:post": {
      "caption": {
        "body": "",
        "excerpt": "",
        "hashtags": [
          "sneakpeek",
          "EgyptianRevival",
          "mummy"
        ],
        "users": []
      },
      "media_id": "b9d54806fb02f7d142dbf561b296b01a",
      "path": "media/other/10809991_572680702833289_1722540382_n_17841868198062499.jpg",
      "perceptual_hash": "p:8a91315e2f2da778",
      "taken": 1416409620,
      "taken_at": "Nov 19, 2014 3:07 pm"
    },
    "millsfield:similar": {
      "google/siglip2-so400m-patch16-naflex": [
        {
          "distance": 0.31629329919815063,
          "id": 1729360471
        },
        {
          "distance": 0.33591651916503906,
          "id": 1729361779
        },
        {
          "distance": 0.3396604061126709,
          "id": 1729359381
        },
        {
          "distance": 0.35405051708221436,
          "id": 1729361927
        },
        {
          "distance": 0.3594624400138855,
          "id": 1729359381
        },
        {
          "distance": 0.3639602065086365,
          "id": 1729361779
        },
        {
          "distance": 0.3684304356575012,
          "id": 1729360471
        },
        {
          "distance": 0.3697051405906677,
          "id": 1729361715
        },
        {
          "distance": 0.371181845664978,
          "id": 1729361927
        },
        {
          "distance": 0.3802850842475891,
          "id": 1729361769
        }
      ]
    },
    "sfomuseum:placetype": "instagram",
    "src:geom": "sfomuseum",
    "wof:belongsto": [
      1159160869,
      102527513,
      102191575,
      85633793,
      102087579,
      85922583,
      85688637
    ],
    "wof:country": "US",
    "wof:created": 1416409620,
    "wof:geomhash": "b6e33f47475d56bc8da457bc31afadc8",
    "wof:hierarchy": [
      {
        "building_id": 1159160869,
        "campus_id": 102527513,
        "continent_id": 102191575,
        "country_id": 85633793,
        "county_id": 102087579,
        "custom_id": 1729362037,
        "instagram_id": 1729362037,
        "locality_id": 85922583,
        "neighbourhood_id": -1,
        "region_id": 85688637
      }
    ],
    "wof:id": 1729362037,
    "wof:lastmodified": 1787777646,
    "wof:name": "..",
    "wof:parent_id": 1159160869,
    "wof:placetype": "custom",
    "wof:placetype_alt": [
      "instagram"
    ],
    "wof:repo": "sfomuseum-data-socialmedia-instagram",
    "wof:superseded_by": [],
    "wof:supersedes": []
  },
  "bbox": [
    -122.386166,
    37.616356,
    -122.386166,
    37.616356
  ],
  "geometry": {"type":"Point","coordinates":[-122.386166,37.616356]}
}
