{
  "id": 1729359023,
  "type": "Feature",
  "properties": {
    "date:cessation_lower": "2017-10-05",
    "date:cessation_upper": "2017-10-05",
    "date:inception_lower": "2017-10-05",
    "date:inception_upper": "2017-10-05",
    "edtf:cessation": "2017-10-05T10:23:00-07:00",
    "edtf:inception": "2017-10-05T10:23:00-07:00",
    "geom:area": 0,
    "geom:bbox": "-122.386166,37.616356,-122.386166,37.616356",
    "geom:latitude": 37.616356,
    "geom:longitude": -122.386166,
    "instagram:post": {
      "caption": {
        "body": "Located north of San Cristóbal de Las Casas in Los Altos de Chiapas, San Andrés Larráinzar is home to a vibrant community of weavers. For centuries, Tzotzil-speaking women in San Andrés have woven huipiles on backstrap looms in a similar manner to their ancestors of the Classic Maya Period (300–900CE). The art of Mayan backstrap weaving and its associated symbols and designs are traditionally passed down through generations of women in Chiapas. This transfer of knowledge does not always occur from mother to daughter. Some artisans, including Magdalena López López, learned their craft from grandmothers and other women in their community. Like many weavers, she keeps small muestra weaving samples to reference designs and symbols.  Learn more about \"Empowering Threads: Textiles of Jolom Mayaetik\" on display, pre-security, in the International Terminal. http://bit.ly/EmpoweringThreads",
        "excerpt": "Located north of San Cristóbal de Las Casas in Los Altos de Chiapas, San Andrés Larráinzar is home to a vibrant community of weavers.",
        "hashtags": [
          "mayantextiles",
          "textile",
          "textiles",
          "mayan",
          "mexico",
          "mexican",
          "mexicanhistory",
          "mayanhistory",
          "empoweringthreads",
          "JolomMayaetik",
          "weavers",
          "weaving",
          "blouses",
          "huipiles",
          "looms",
          "backstraploom",
          "mayanculture",
          "handwoven",
          "sewing",
          "cooperativa",
          "artesanaschiapanecas",
          "chiapas",
          "cojinesartesanales",
          "artesanias",
          "empoweringwomen",
          "socialmission",
          "womeninart"
        ],
        "users": []
      },
      "media_id": "48414f26ca022da2c1e5b39cf6f12de4",
      "path": "media/posts/201710/22159080_135510903755978_6234256059343568896_n_17877217900151767.jpg",
      "perceptual_hash": "p:ae40cb3f96c2d86c",
      "taken": 1507224180,
      "taken_at": "Oct 05, 2017 5:23 pm"
    },
    "millsfield:similar": {
      "google/siglip2-so400m-patch16-naflex": [
        {
          "distance": 0.05479329824447632,
          "id": 1729358517
        },
        {
          "distance": 0.08640861511230469,
          "id": 1729358517
        },
        {
          "distance": 0.12407004833221436,
          "id": 1729359061
        },
        {
          "distance": 0.12459689378738403,
          "id": 1729358495
        },
        {
          "distance": 0.1457984447479248,
          "id": 1729358495
        },
        {
          "distance": 0.14712393283843994,
          "id": 1729359061
        },
        {
          "distance": 0.2076646089553833,
          "id": 1729358509
        },
        {
          "distance": 0.20838183164596558,
          "id": 1729359203
        },
        {
          "distance": 0.21241909265518188,
          "id": 1729358621
        },
        {
          "distance": 0.22071903944015503,
          "id": 1729358429
        }
      ]
    },
    "sfomuseum:placetype": "instagram",
    "src:geom": "sfomuseum",
    "wof:belongsto": [
      1159160869,
      102527513,
      102191575,
      85633793,
      102087579,
      85922583,
      85688637
    ],
    "wof:country": "US",
    "wof:created": 1507224180,
    "wof:geomhash": "b6e33f47475d56bc8da457bc31afadc8",
    "wof:hierarchy": [
      {
        "building_id": 1159160869,
        "campus_id": 102527513,
        "continent_id": 102191575,
        "country_id": 85633793,
        "county_id": 102087579,
        "custom_id": 1729359023,
        "instagram_id": 1729359023,
        "locality_id": 85922583,
        "neighbourhood_id": -1,
        "region_id": 85688637
      }
    ],
    "wof:id": 1729359023,
    "wof:lastmodified": 1787777634,
    "wof:name": "Located north of San Cristóbal de Las Casas in Los Altos de Chiapas, San Andrés Larráinzar is home to a vibrant community of weavers...",
    "wof:parent_id": 1159160869,
    "wof:placetype": "custom",
    "wof:placetype_alt": [
      "instagram"
    ],
    "wof:repo": "sfomuseum-data-socialmedia-instagram",
    "wof:superseded_by": [],
    "wof:supersedes": []
  },
  "bbox": [
    -122.386166,
    37.616356,
    -122.386166,
    37.616356
  ],
  "geometry": {"type":"Point","coordinates":[-122.386166,37.616356]}
}
