{
  "id": 1729362255,
  "type": "Feature",
  "properties": {
    "date:cessation_lower": "2014-06-13",
    "date:cessation_upper": "2014-06-13",
    "date:inception_lower": "2014-06-13",
    "date:inception_upper": "2014-06-13",
    "edtf:cessation": "2014-06-13T06:31:00-07:00",
    "edtf:inception": "2014-06-13T06:31:00-07:00",
    "geom:area": 0,
    "geom:bbox": "-122.386166,37.616356,-122.386166,37.616356",
    "geom:latitude": 37.616356,
    "geom:longitude": -122.386166,
    "instagram:post": {
      "caption": {
        "body": "",
        "excerpt": "",
        "hashtags": [
          "DualNatures",
          "korea",
          "ceramics"
        ],
        "users": []
      },
      "media_id": "e8143804c3e3d0a58d5ecd83897d34f2",
      "path": "media/other/926784_255314314656564_662349325_n_17842439218062499.jpg",
      "perceptual_hash": "p:949e69a1bc9c63a3",
      "taken": 1402666260,
      "taken_at": "Jun 13, 2014 1:31 pm"
    },
    "millsfield:similar": {
      "google/siglip2-so400m-patch16-naflex": [
        {
          "distance": 0.1917075514793396,
          "id": 1729362367
        },
        {
          "distance": 0.21774184703826904,
          "id": 1729360095
        },
        {
          "distance": 0.22011488676071167,
          "id": 1729360291
        },
        {
          "distance": 0.23703110218048096,
          "id": 1729362367
        },
        {
          "distance": 0.24262356758117676,
          "id": 1729361681
        },
        {
          "distance": 0.24577349424362183,
          "id": 1729362773
        },
        {
          "distance": 0.24638491868972778,
          "id": 1729362947
        },
        {
          "distance": 0.2513810396194458,
          "id": 1947424999
        },
        {
          "distance": 0.2513921856880188,
          "id": 1729361861
        },
        {
          "distance": 0.2539406418800354,
          "id": 1729360095
        }
      ]
    },
    "sfomuseum:placetype": "instagram",
    "src:geom": "sfomuseum",
    "wof:belongsto": [
      1159160869,
      102527513,
      102191575,
      85633793,
      102087579,
      85922583,
      85688637
    ],
    "wof:country": "US",
    "wof:created": 1402666260,
    "wof:geomhash": "b6e33f47475d56bc8da457bc31afadc8",
    "wof:hierarchy": [
      {
        "building_id": 1159160869,
        "campus_id": 102527513,
        "continent_id": 102191575,
        "country_id": 85633793,
        "county_id": 102087579,
        "custom_id": 1729362255,
        "instagram_id": 1729362255,
        "locality_id": 85922583,
        "neighbourhood_id": -1,
        "region_id": 85688637
      }
    ],
    "wof:id": 1729362255,
    "wof:lastmodified": 1787777646,
    "wof:name": "..",
    "wof:parent_id": 1159160869,
    "wof:placetype": "custom",
    "wof:placetype_alt": [
      "instagram"
    ],
    "wof:repo": "sfomuseum-data-socialmedia-instagram",
    "wof:superseded_by": [],
    "wof:supersedes": []
  },
  "bbox": [
    -122.386166,
    37.616356,
    -122.386166,
    37.616356
  ],
  "geometry": {"type":"Point","coordinates":[-122.386166,37.616356]}
}
