{
  "id": 1729357697,
  "type": "Feature",
  "properties": {
    "date:cessation_lower": "2018-09-09",
    "date:cessation_upper": "2018-09-09",
    "date:inception_lower": "2018-09-09",
    "date:inception_upper": "2018-09-09",
    "edtf:cessation": "2018-09-09T04:03:00-07:00",
    "edtf:inception": "2018-09-09T04:03:00-07:00",
    "geom:area": 0,
    "geom:bbox": "-122.386166,37.616356,-122.386166,37.616356",
    "geom:latitude": 37.616356,
    "geom:longitude": -122.386166,
    "instagram:post": {
      "caption": {
        "body": "What's going on in the museum? We're getting ready for our upcoming exhibition on Arhoolie Records. Among the objects we'll be displaying are posters from musicians recorded on the Arhoolie label. While they're awaiting installation, we store them in flat files that keep out light and dust, in secure, climate-controlled storage.",
        "excerpt": "What's going on in the museum?",
        "hashtags": [],
        "users": []
      },
      "media_id": "8b3a54d31bf7c62c0a9ce52ae75b924a",
      "path": "media/other/40187250_233074534037618_7863766936891342876_n_17915862730214205.jpg",
      "perceptual_hash": "p:912a6ed4c835d763",
      "taken": 1536490980,
      "taken_at": "Sep 09, 2018 11:03 am"
    },
    "millsfield:similar": {
      "google/siglip2-so400m-patch16-naflex": [
        {
          "distance": 0.32309961318969727,
          "id": 1763558891
        },
        {
          "distance": 0.3247506022453308,
          "id": 1729357431
        },
        {
          "distance": 0.3396877646446228,
          "id": 1729356835
        },
        {
          "distance": 0.3454485535621643,
          "id": 1729357431
        },
        {
          "distance": 0.34877800941467285,
          "id": 1729356835
        },
        {
          "distance": 0.35577332973480225,
          "id": 1880150917
        },
        {
          "distance": 0.360384464263916,
          "id": 1729357405
        },
        {
          "distance": 0.3657211661338806,
          "id": 1729356573
        },
        {
          "distance": 0.3712170720100403,
          "id": 1729357779
        },
        {
          "distance": 0.3716665506362915,
          "id": 1729355297
        }
      ]
    },
    "sfomuseum:placetype": "instagram",
    "src:geom": "sfomuseum",
    "wof:belongsto": [
      1159160869,
      102527513,
      102191575,
      85633793,
      102087579,
      85922583,
      85688637
    ],
    "wof:country": "US",
    "wof:created": 1536490980,
    "wof:geomhash": "b6e33f47475d56bc8da457bc31afadc8",
    "wof:hierarchy": [
      {
        "building_id": 1159160869,
        "campus_id": 102527513,
        "continent_id": 102191575,
        "country_id": 85633793,
        "county_id": 102087579,
        "custom_id": 1729357697,
        "instagram_id": 1729357697,
        "locality_id": 85922583,
        "neighbourhood_id": -1,
        "region_id": 85688637
      }
    ],
    "wof:id": 1729357697,
    "wof:lastmodified": 1787777632,
    "wof:name": "What's going on in the museum?..",
    "wof:parent_id": 1159160869,
    "wof:placetype": "custom",
    "wof:placetype_alt": [
      "instagram"
    ],
    "wof:repo": "sfomuseum-data-socialmedia-instagram",
    "wof:superseded_by": [],
    "wof:supersedes": []
  },
  "bbox": [
    -122.386166,
    37.616356,
    -122.386166,
    37.616356
  ],
  "geometry": {"type":"Point","coordinates":[-122.386166,37.616356]}
}
