{
  "id": 1729362065,
  "type": "Feature",
  "properties": {
    "date:cessation_lower": "2014-11-04",
    "date:cessation_upper": "2014-11-04",
    "date:inception_lower": "2014-11-04",
    "date:inception_upper": "2014-11-04",
    "edtf:cessation": "2014-11-04T07:25:00-08:00",
    "edtf:inception": "2014-11-04T07:25:00-08:00",
    "geom:area": 0,
    "geom:bbox": "-122.386166,37.616356,-122.386166,37.616356",
    "geom:latitude": 37.616356,
    "geom:longitude": -122.386166,
    "instagram:post": {
      "caption": {
        "body": "",
        "excerpt": "",
        "hashtags": [
          "DualNatures",
          "Korea",
          "ceramics"
        ],
        "users": []
      },
      "media_id": "11bcd25408683d106d6d1ca3a6c56e6f",
      "path": "media/other/10755718_634006153375683_258882445_n_17841739633062499.jpg",
      "perceptual_hash": "p:85921acd6eb9c336",
      "taken": 1415114700,
      "taken_at": "Nov 04, 2014 3:25 pm"
    },
    "millsfield:similar": {
      "google/siglip2-so400m-patch16-naflex": [
        {
          "distance": 0.280647337436676,
          "id": 1729362117
        },
        {
          "distance": 0.2888222336769104,
          "id": 1729362749
        },
        {
          "distance": 0.28921574354171753,
          "id": 1729362239
        },
        {
          "distance": 0.2908421754837036,
          "id": 1729362751
        },
        {
          "distance": 0.29623204469680786,
          "id": 1729362751
        },
        {
          "distance": 0.30105775594711304,
          "id": 1729362117
        },
        {
          "distance": 0.30129438638687134,
          "id": 1729362749
        },
        {
          "distance": 0.31056326627731323,
          "id": 1729362255
        },
        {
          "distance": 0.3426387310028076,
          "id": 1729362175
        },
        {
          "distance": 0.3457071781158447,
          "id": 1729362137
        }
      ]
    },
    "sfomuseum:placetype": "instagram",
    "src:geom": "sfomuseum",
    "wof:belongsto": [
      1159160869,
      102527513,
      102191575,
      85633793,
      102087579,
      85922583,
      85688637
    ],
    "wof:country": "US",
    "wof:created": 1415114700,
    "wof:geomhash": "b6e33f47475d56bc8da457bc31afadc8",
    "wof:hierarchy": [
      {
        "building_id": 1159160869,
        "campus_id": 102527513,
        "continent_id": 102191575,
        "country_id": 85633793,
        "county_id": 102087579,
        "custom_id": 1729362065,
        "instagram_id": 1729362065,
        "locality_id": 85922583,
        "neighbourhood_id": -1,
        "region_id": 85688637
      }
    ],
    "wof:id": 1729362065,
    "wof:lastmodified": 1787777646,
    "wof:name": "..",
    "wof:parent_id": 1159160869,
    "wof:placetype": "custom",
    "wof:placetype_alt": [
      "instagram"
    ],
    "wof:repo": "sfomuseum-data-socialmedia-instagram",
    "wof:superseded_by": [],
    "wof:supersedes": []
  },
  "bbox": [
    -122.386166,
    37.616356,
    -122.386166,
    37.616356
  ],
  "geometry": {"type":"Point","coordinates":[-122.386166,37.616356]}
}
