{
  "id": 1729362475,
  "type": "Feature",
  "properties": {
    "date:cessation_lower": "2013-11-12",
    "date:cessation_upper": "2013-11-12",
    "date:inception_lower": "2013-11-12",
    "date:inception_upper": "2013-11-12",
    "edtf:cessation": "2013-11-12T08:37:00-08:00",
    "edtf:inception": "2013-11-12T08:37:00-08:00",
    "geom:area": 0,
    "geom:bbox": "-122.386166,37.616356,-122.386166,37.616356",
    "geom:latitude": 37.616356,
    "geom:longitude": -122.386166,
    "instagram:post": {
      "caption": {
        "body": "",
        "excerpt": "",
        "hashtags": [
          "avgeek"
        ],
        "users": []
      },
      "media_id": "816e787c6aeea982556692c43cb46041",
      "path": "media/other/1390236_407311319395933_1117195050_n_17842375567062499.jpg",
      "perceptual_hash": "p:81b22e4a7bdcfc03",
      "taken": 1384274220,
      "taken_at": "Nov 12, 2013 4:37 pm"
    },
    "millsfield:similar": {
      "google/siglip2-so400m-patch16-naflex": [
        {
          "distance": 0.1783573031425476,
          "id": 1729362373
        },
        {
          "distance": 0.2029973864555359,
          "id": 1729362721
        },
        {
          "distance": 0.21156924962997437,
          "id": 1729362373
        },
        {
          "distance": 0.23373472690582275,
          "id": 1729362721
        },
        {
          "distance": 0.2347773313522339,
          "id": 1729362617
        },
        {
          "distance": 0.2421736717224121,
          "id": 1729362655
        },
        {
          "distance": 0.2428033947944641,
          "id": 1729362229
        },
        {
          "distance": 0.26688969135284424,
          "id": 1729362655
        },
        {
          "distance": 0.2695537209510803,
          "id": 1729362617
        },
        {
          "distance": 0.2729909420013428,
          "id": 1729362259
        }
      ]
    },
    "sfomuseum:placetype": "instagram",
    "src:geom": "sfomuseum",
    "wof:belongsto": [
      1159160869,
      102527513,
      102191575,
      85633793,
      102087579,
      85922583,
      85688637
    ],
    "wof:country": "US",
    "wof:created": 1384274220,
    "wof:geomhash": "b6e33f47475d56bc8da457bc31afadc8",
    "wof:hierarchy": [
      {
        "building_id": 1159160869,
        "campus_id": 102527513,
        "continent_id": 102191575,
        "country_id": 85633793,
        "county_id": 102087579,
        "custom_id": 1729362475,
        "instagram_id": 1729362475,
        "locality_id": 85922583,
        "neighbourhood_id": -1,
        "region_id": 85688637
      }
    ],
    "wof:id": 1729362475,
    "wof:lastmodified": 1787777647,
    "wof:name": "..",
    "wof:parent_id": 1159160869,
    "wof:placetype": "custom",
    "wof:placetype_alt": [
      "instagram"
    ],
    "wof:repo": "sfomuseum-data-socialmedia-instagram",
    "wof:superseded_by": [],
    "wof:supersedes": []
  },
  "bbox": [
    -122.386166,
    37.616356,
    -122.386166,
    37.616356
  ],
  "geometry": {"type":"Point","coordinates":[-122.386166,37.616356]}
}
