{
  "id": 1880151333,
  "type": "Feature",
  "properties": {
    "date:cessation_lower": "2022-11-10",
    "date:cessation_upper": "2022-11-10",
    "date:inception_lower": "2022-11-10",
    "date:inception_upper": "2022-11-10",
    "edtf:cessation": "2022-11-10T09:06:00-08:00",
    "edtf:inception": "2022-11-10T09:06:00-08:00",
    "geom:area": 0,
    "geom:bbox": "-122.386166,37.616356,-122.386166,37.616356",
    "geom:latitude": 37.616356,
    "geom:longitude": -122.386166,
    "instagram:post": {
      "caption": {
        "body": "San Francisco and Oakland (SFO) Helicopter Airlines was founded in 1961. Offering local helicopter flights between San Francisco and Oakland airports and their downtown areas, service began with two leased Sikorsky S-62s. By the end of 1962, the service grew to 100 flights a day. In 1963, the company received the first permanent certificate issued by the C.A.B to any helicopter carrier. In 1965, the C.A.B. allowed SFO Helicopter to start operating hovercraft. The new transbay route was operated by a Saunders-Roe SR.N5, which held 15 passengers and could travel at speeds up to 70 knots. SFO Helicopter Airlines was the first American company to operate these vehicles. However, this commercial hovercraft test only lasted about a year. Financial troubles began to plague the company leading to bankruptcy in 1970, yet the airline was able to still operate until 1976. SFO Helicopter Airlines resumed scheduled passenger service around 1983, but operations only lasted until 1985.",
        "excerpt": "San Francisco and Oakland (SFO) Helicopter Airlines was founded in 1961.",
        "hashtags": [
          "DefunctThursday",
          "SFOHelicopter",
          "AvGeek",
          "AviationHistory",
          "SFOHistory"
        ],
        "users": []
      },
      "media_id": "03997a82095fb5d65a23122f7b2e93bd9b3907e2",
      "path": "media/posts/202211/314794817_173524358682604_733679762171828125_n_17946668882341657.jpg",
      "perceptual_hash": "p:87d8f907e26d1992",
      "taken": 1668099960,
      "taken_at": "Nov 10, 2022 5:06 pm"
    },
    "millsfield:similar": {
      "google/siglip2-so400m-patch16-naflex": [
        {
          "distance": 0.22495698928833008,
          "id": 1729361109
        },
        {
          "distance": 0.22944635152816772,
          "id": 1947425309
        },
        {
          "distance": 0.2311381697654724,
          "id": 1729361109
        },
        {
          "distance": 0.23285168409347534,
          "id": 1729359597
        },
        {
          "distance": 0.23940175771713257,
          "id": 1729355993
        },
        {
          "distance": 0.24294716119766235,
          "id": 1729356173
        },
        {
          "distance": 0.25008976459503174,
          "id": 1947425179
        },
        {
          "distance": 0.2511370778083801,
          "id": 1729356533
        },
        {
          "distance": 0.2535973787307739,
          "id": 1729359877
        },
        {
          "distance": 0.255622923374176,
          "id": 1729361603
        }
      ]
    },
    "sfomuseum:placetype": "instagram",
    "src:geom": "sfomuseum",
    "wof:belongsto": [
      1159160869,
      102527513,
      102191575,
      85633793,
      102087579,
      85922583,
      85688637
    ],
    "wof:country": "US",
    "wof:created": 1668099960,
    "wof:geomhash": "b6e33f47475d56bc8da457bc31afadc8",
    "wof:hierarchy": [
      {
        "building_id": 1159160869,
        "campus_id": 102527513,
        "continent_id": 102191575,
        "country_id": 85633793,
        "county_id": 102087579,
        "custom_id": 1880151333,
        "instagram_id": 1880151333,
        "locality_id": 85922583,
        "neighbourhood_id": -1,
        "region_id": 85688637
      }
    ],
    "wof:id": 1880151333,
    "wof:lastmodified": 1787777662,
    "wof:name": "San Francisco and Oakland (SFO) Helicopter Airlines was founded in 1961...",
    "wof:parent_id": 1159160869,
    "wof:placetype": "custom",
    "wof:placetype_alt": [
      "instagram"
    ],
    "wof:repo": "sfomuseum-data-socialmedia-instagram",
    "wof:superseded_by": [],
    "wof:supersedes": []
  },
  "bbox": [
    -122.386166,
    37.616356,
    -122.386166,
    37.616356
  ],
  "geometry": {"type":"Point","coordinates":[-122.386166,37.616356]}
}
