{
  "id": 1729362585,
  "type": "Feature",
  "properties": {
    "date:cessation_lower": "2013-08-15",
    "date:cessation_upper": "2013-08-15",
    "date:inception_lower": "2013-08-15",
    "date:inception_upper": "2013-08-15",
    "edtf:cessation": "2013-08-15T06:22:00-07:00",
    "edtf:inception": "2013-08-15T06:22:00-07:00",
    "geom:area": 0,
    "geom:bbox": "-122.386166,37.616356,-122.386166,37.616356",
    "geom:latitude": 37.616356,
    "geom:longitude": -122.386166,
    "instagram:post": {
      "caption": {
        "body": "Our #ThrowbackThursday offering: 1999's \"Out to Lunch,\" featuring over 100 lunch boxes from the collection of Ralph Persinger and shown in a former exhibition site in Terminal 1. Our crew made the oversized lunch box and thermos; the handle and lid are styrofoam, and the bodies are plywood!",
        "excerpt": "Our #ThrowbackThursday offering: 1999's \"Out to Lunch,\" featuring over 100 lunch boxes from the collection of Ralph Persinger and shown in a former exhibition site in Terminal 1.",
        "hashtags": [],
        "users": []
      },
      "media_id": "ac67dd980f025c3022a6cf8c9b56f431",
      "path": "media/other/11253254_796819417079859_1771377049_n_17842350697062499.jpg",
      "perceptual_hash": "p:ebecc9c1e41b901e",
      "taken": 1376572920,
      "taken_at": "Aug 15, 2013 1:22 pm"
    },
    "millsfield:similar": {
      "google/siglip2-so400m-patch16-naflex": [
        {
          "distance": 0.2579669952392578,
          "id": 1729362367
        },
        {
          "distance": 0.25972306728363037,
          "id": 1729361681
        },
        {
          "distance": 0.28595834970474243,
          "id": 1729362953
        },
        {
          "distance": 0.28656160831451416,
          "id": 1729360291
        },
        {
          "distance": 0.2868650555610657,
          "id": 1947425291
        },
        {
          "distance": 0.2897534966468811,
          "id": 1729362337
        },
        {
          "distance": 0.2927117943763733,
          "id": 1729361937
        },
        {
          "distance": 0.29506874084472656,
          "id": 1729362541
        },
        {
          "distance": 0.2955452799797058,
          "id": 1729362777
        },
        {
          "distance": 0.29811418056488037,
          "id": 1729362797
        }
      ]
    },
    "sfomuseum:placetype": "instagram",
    "src:geom": "sfomuseum",
    "wof:belongsto": [
      1159160869,
      102527513,
      102191575,
      85633793,
      102087579,
      85922583,
      85688637
    ],
    "wof:country": "US",
    "wof:created": 1376572920,
    "wof:geomhash": "b6e33f47475d56bc8da457bc31afadc8",
    "wof:hierarchy": [
      {
        "building_id": 1159160869,
        "campus_id": 102527513,
        "continent_id": 102191575,
        "country_id": 85633793,
        "county_id": 102087579,
        "custom_id": 1729362585,
        "instagram_id": 1729362585,
        "locality_id": 85922583,
        "neighbourhood_id": -1,
        "region_id": 85688637
      }
    ],
    "wof:id": 1729362585,
    "wof:lastmodified": 1787777647,
    "wof:name": "Our #ThrowbackThursday offering: 1999's \"Out to Lunch,\" featuring over 100 lunch boxes from the collection of Ralph Persinger and shown in a former exhibition site in Terminal 1...",
    "wof:parent_id": 1159160869,
    "wof:placetype": "custom",
    "wof:placetype_alt": [
      "instagram"
    ],
    "wof:repo": "sfomuseum-data-socialmedia-instagram",
    "wof:superseded_by": [],
    "wof:supersedes": []
  },
  "bbox": [
    -122.386166,
    37.616356,
    -122.386166,
    37.616356
  ],
  "geometry": {"type":"Point","coordinates":[-122.386166,37.616356]}
}
