{
  "id": 1763559363,
  "type": "Feature",
  "properties": {
    "date:cessation_lower": "2021-10-25",
    "date:cessation_upper": "2021-10-25",
    "date:inception_lower": "2021-10-25",
    "date:inception_upper": "2021-10-25",
    "edtf:cessation": "2021-10-25T09:25:00-07:00",
    "edtf:inception": "2021-10-25T09:25:00-07:00",
    "geom:area": 0,
    "geom:bbox": "-122.386166,37.616356,-122.386166,37.616356",
    "geom:latitude": 37.616356,
    "geom:longitude": -122.386166,
    "instagram:post": {
      "caption": {
        "body": "Intrigued by topology—the study of geometric properties that do not change when you stretch a shape— Bay Area physicist Cliff Stoll began making Klein bottles. Give a strip of paper a half-twist and tape the ends together— you get a Möbius loop, a one-sided shape with one edge. Make two Möbius loops and glue their edges together—you should get a Klein bottle. But this is impossible in our universe—you need four spatial dimensions! In our 3-D universe, every Klein bottle must have a self-intersection, where tubing crosses through a wall.  See “Mathematics: Modern and Vintage” is on display post-security in Terminal 2 and online at: https://bit.ly/MathAtSFO",
        "excerpt": "Intrigued by topology—the study of geometric properties that do not change when you stretch a shape— Bay Area physicist Cliff Stoll began making Klein bottles.",
        "hashtags": [
          "MathAtSFO",
          "Mathematics",
          "Math",
          "MöbiusLoop",
          "Kleinbottle"
        ],
        "users": []
      },
      "media_id": "dfe8e5a07623700791bf238ed9ac82ca8c7658f2",
      "path": "media/posts/202110/248252542_400701151536434_2428900279595899316_n_18111954655251363.jpg",
      "perceptual_hash": "p:fbc5aa20c47ab41e",
      "taken": 1635179100,
      "taken_at": "Oct 25, 2021 4:25 pm"
    },
    "millsfield:similar": {
      "google/siglip2-so400m-patch16-naflex": [
        {
          "distance": 0.22786855697631836,
          "id": 1763559431
        },
        {
          "distance": 0.2518634796142578,
          "id": 1729360823
        },
        {
          "distance": 0.25260424613952637,
          "id": 1763559295
        },
        {
          "distance": 0.2565615177154541,
          "id": 1763559295
        },
        {
          "distance": 0.26407694816589355,
          "id": 1763559395
        },
        {
          "distance": 0.26930588483810425,
          "id": 1763559431
        },
        {
          "distance": 0.2728056311607361,
          "id": 1729355937
        },
        {
          "distance": 0.2731437087059021,
          "id": 1947425257
        },
        {
          "distance": 0.2759472727775574,
          "id": 1947425291
        },
        {
          "distance": 0.2770170569419861,
          "id": 1729359343
        }
      ]
    },
    "sfomuseum:placetype": "instagram",
    "src:geom": "sfomuseum",
    "wof:belongsto": [
      1159160869,
      102527513,
      102191575,
      85633793,
      102087579,
      85922583,
      85688637
    ],
    "wof:country": "US",
    "wof:created": 1635179100,
    "wof:geomhash": "b6e33f47475d56bc8da457bc31afadc8",
    "wof:hierarchy": [
      {
        "building_id": 1159160869,
        "campus_id": 102527513,
        "continent_id": 102191575,
        "country_id": 85633793,
        "county_id": 102087579,
        "custom_id": 1763559363,
        "instagram_id": 1763559363,
        "locality_id": 85922583,
        "neighbourhood_id": -1,
        "region_id": 85688637
      }
    ],
    "wof:id": 1763559363,
    "wof:lastmodified": 1787777660,
    "wof:name": "Intrigued by topology—the study of geometric properties that do not change when you stretch a shape— Bay Area physicist Cliff Stoll began making Klein bottles...",
    "wof:parent_id": 1159160869,
    "wof:placetype": "custom",
    "wof:placetype_alt": [
      "instagram"
    ],
    "wof:repo": "sfomuseum-data-socialmedia-instagram",
    "wof:superseded_by": [],
    "wof:supersedes": []
  },
  "bbox": [
    -122.386166,
    37.616356,
    -122.386166,
    37.616356
  ],
  "geometry": {"type":"Point","coordinates":[-122.386166,37.616356]}
}
