{
  "id": 1729362485,
  "type": "Feature",
  "properties": {
    "date:cessation_lower": "2013-11-14",
    "date:cessation_upper": "2013-11-14",
    "date:inception_lower": "2013-11-14",
    "date:inception_upper": "2013-11-14",
    "edtf:cessation": "2013-11-14T07:56:00-08:00",
    "edtf:inception": "2013-11-14T07:56:00-08:00",
    "geom:area": 0,
    "geom:bbox": "-122.386166,37.616356,-122.386166,37.616356",
    "geom:latitude": 37.616356,
    "geom:longitude": -122.386166,
    "instagram:post": {
      "caption": {
        "body": "",
        "excerpt": "",
        "hashtags": [
          "throwbackthursday",
          "tbt"
        ],
        "users": []
      },
      "media_id": "38558e7700e50ac3bd090aa169f1edef",
      "path": "media/other/1389054_580506382028633_1794078495_n_17842375924062499.jpg",
      "perceptual_hash": "p:eeeb35189966c069",
      "taken": 1384444560,
      "taken_at": "Nov 14, 2013 3:56 pm"
    },
    "millsfield:similar": {
      "google/siglip2-so400m-patch16-naflex": [
        {
          "distance": 0.28516364097595215,
          "id": 1729362709
        },
        {
          "distance": 0.28681331872940063,
          "id": 1729362521
        },
        {
          "distance": 0.3057715892791748,
          "id": 1947424919
        },
        {
          "distance": 0.30668210983276367,
          "id": 1729361877
        },
        {
          "distance": 0.31609010696411133,
          "id": 1729362755
        },
        {
          "distance": 0.3163224458694458,
          "id": 1729362517
        },
        {
          "distance": 0.3167561888694763,
          "id": 1729362797
        },
        {
          "distance": 0.3194088339805603,
          "id": 1729362755
        },
        {
          "distance": 0.3207581639289856,
          "id": 1729362605
        },
        {
          "distance": 0.3210557699203491,
          "id": 1763558737
        }
      ]
    },
    "sfomuseum:placetype": "instagram",
    "src:geom": "sfomuseum",
    "wof:belongsto": [
      1159160869,
      102527513,
      102191575,
      85633793,
      102087579,
      85922583,
      85688637
    ],
    "wof:country": "US",
    "wof:created": 1384444560,
    "wof:geomhash": "b6e33f47475d56bc8da457bc31afadc8",
    "wof:hierarchy": [
      {
        "building_id": 1159160869,
        "campus_id": 102527513,
        "continent_id": 102191575,
        "country_id": 85633793,
        "county_id": 102087579,
        "custom_id": 1729362485,
        "instagram_id": 1729362485,
        "locality_id": 85922583,
        "neighbourhood_id": -1,
        "region_id": 85688637
      }
    ],
    "wof:id": 1729362485,
    "wof:lastmodified": 1787777647,
    "wof:name": "..",
    "wof:parent_id": 1159160869,
    "wof:placetype": "custom",
    "wof:placetype_alt": [
      "instagram"
    ],
    "wof:repo": "sfomuseum-data-socialmedia-instagram",
    "wof:superseded_by": [],
    "wof:supersedes": []
  },
  "bbox": [
    -122.386166,
    37.616356,
    -122.386166,
    37.616356
  ],
  "geometry": {"type":"Point","coordinates":[-122.386166,37.616356]}
}
