{
  "id": 1729356289,
  "type": "Feature",
  "properties": {
    "date:cessation_lower": "2019-07-24",
    "date:cessation_upper": "2019-07-24",
    "date:inception_lower": "2019-07-24",
    "date:inception_upper": "2019-07-24",
    "edtf:cessation": "2019-07-24T02:28:00-07:00",
    "edtf:inception": "2019-07-24T02:28:00-07:00",
    "geom:area": 0,
    "geom:bbox": "-122.386166,37.616356,-122.386166,37.616356",
    "geom:latitude": 37.616356,
    "geom:longitude": -122.386166,
    "instagram:post": {
      "caption": {
        "body": "Juan Trippe, founder of Pan American Airways, reportedly “discovered” Wake Island while scouring through 19th century clipper ship logs at the New York Public Library. Juan was searching for a stop between Midway Island and Guam for Pan Am’s proposed transpacific route. Wake was one of the islands the United States claimed after the annexation of Hawaii and the seizing of Guam during the Spanish-American War in 1898. When Pan Am was granted rights to use the island from the American government in 1935, the airline set up a hotel with 48 rooms and a village, nicknamed PAAville. Wake was used as a commercial airline stop until the 1970s, when jets began to have longer flight ranges. Now a military outpost for the US Air Force, the island is still used as an airfield and refueling stop.  Image: Pan American World Airways tourist information, Wake Island, 1962. Gift of Jon E. Krupnick. 2008.056.0134",
        "excerpt": "Juan Trippe, founder of Pan American Airways, reportedly “discovered” Wake Island while scouring through 19th century clipper ship logs at the New York Public Library.",
        "hashtags": [
          "wakeisland",
          "wake",
          "paa",
          "panam",
          "panamerican",
          "avgeek",
          "paxex"
        ],
        "users": []
      },
      "media_id": "afce56d0fd595bb740ef307cf8711021",
      "path": "media/other/67406962_2341415109269880_3752854885287082194_n_17990141758253740.jpg",
      "perceptual_hash": "p:e698b3e6649386c3",
      "taken": 1563960480,
      "taken_at": "Jul 24, 2019 9:28 am"
    },
    "millsfield:similar": {
      "google/siglip2-so400m-patch16-naflex": [
        {
          "distance": 0.2407621145248413,
          "id": 1729359875
        },
        {
          "distance": 0.24711591005325317,
          "id": 1729359217
        },
        {
          "distance": 0.24928289651870728,
          "id": 1729359339
        },
        {
          "distance": 0.25645387172698975,
          "id": 1729357769
        },
        {
          "distance": 0.25969815254211426,
          "id": 1880150923
        },
        {
          "distance": 0.26407337188720703,
          "id": 1729360397
        },
        {
          "distance": 0.2646796703338623,
          "id": 1729360479
        },
        {
          "distance": 0.2667112946510315,
          "id": 1729359489
        },
        {
          "distance": 0.2708381414413452,
          "id": 1729360475
        },
        {
          "distance": 0.2710157632827759,
          "id": 1880150923
        }
      ]
    },
    "sfomuseum:placetype": "instagram",
    "src:geom": "sfomuseum",
    "wof:belongsto": [
      1159160869,
      102527513,
      102191575,
      85633793,
      102087579,
      85922583,
      85688637
    ],
    "wof:country": "US",
    "wof:created": 1563960480,
    "wof:geomhash": "b6e33f47475d56bc8da457bc31afadc8",
    "wof:hierarchy": [
      {
        "building_id": 1159160869,
        "campus_id": 102527513,
        "continent_id": 102191575,
        "country_id": 85633793,
        "county_id": 102087579,
        "custom_id": 1729356289,
        "instagram_id": 1729356289,
        "locality_id": 85922583,
        "neighbourhood_id": -1,
        "region_id": 85688637
      }
    ],
    "wof:id": 1729356289,
    "wof:lastmodified": 1787777629,
    "wof:name": "Juan Trippe, founder of Pan American Airways, reportedly “discovered” Wake Island while scouring through 19th century clipper ship logs at the New York Public Library...",
    "wof:parent_id": 1159160869,
    "wof:placetype": "custom",
    "wof:placetype_alt": [
      "instagram"
    ],
    "wof:repo": "sfomuseum-data-socialmedia-instagram",
    "wof:superseded_by": [],
    "wof:supersedes": []
  },
  "bbox": [
    -122.386166,
    37.616356,
    -122.386166,
    37.616356
  ],
  "geometry": {"type":"Point","coordinates":[-122.386166,37.616356]}
}
