{
  "id": 1763558953,
  "type": "Feature",
  "properties": {
    "date:cessation_lower": "2020-12-25",
    "date:cessation_upper": "2020-12-25",
    "date:inception_lower": "2020-12-25",
    "date:inception_upper": "2020-12-25",
    "edtf:cessation": "2020-12-25T02:14:00-08:00",
    "edtf:inception": "2020-12-25T02:14:00-08:00",
    "geom:area": 0,
    "geom:bbox": "-122.386166,37.616356,-122.386166,37.616356",
    "geom:latitude": 37.616356,
    "geom:longitude": -122.386166,
    "instagram:post": {
      "caption": {
        "body": "Merry Christmas from SFO Museum. We hope that you’re having a fantastic holiday season!  Image: United Air Lines menu, 1959. Gift of United Airlines Archives. 2005.008.064",
        "excerpt": "Merry Christmas from SFO Museum.",
        "hashtags": [
          "MuseumFromHome",
          "MerryChristmas"
        ],
        "users": []
      },
      "media_id": "fc121053f10189310f26f07703890f53346deaa4",
      "path": "media/other/133398470_217435509881862_8296708204627808516_n_17872380107124369.jpg",
      "perceptual_hash": "p:f5c7c6302ccd3992",
      "taken": 1608891240,
      "taken_at": "Dec 25, 2020 10:14 am"
    },
    "millsfield:similar": {
      "google/siglip2-so400m-patch16-naflex": [
        {
          "distance": 0.29615992307662964,
          "id": 1880151277
        },
        {
          "distance": 0.30436116456985474,
          "id": 1880151277
        },
        {
          "distance": 0.3540762662887573,
          "id": 1729360535
        },
        {
          "distance": 0.36461687088012695,
          "id": 1729360535
        },
        {
          "distance": 0.37742310762405396,
          "id": 1729359835
        },
        {
          "distance": 0.40286076068878174,
          "id": 1947425191
        },
        {
          "distance": 0.4077093005180359,
          "id": 1880151431
        },
        {
          "distance": 0.41115230321884155,
          "id": 1729360075
        },
        {
          "distance": 0.4223107099533081,
          "id": 1763559609
        },
        {
          "distance": 0.4259348511695862,
          "id": 1947425191
        }
      ]
    },
    "sfomuseum:placetype": "instagram",
    "src:geom": "sfomuseum",
    "wof:belongsto": [
      1159160869,
      102527513,
      102191575,
      85633793,
      102087579,
      85922583,
      85688637
    ],
    "wof:country": "US",
    "wof:created": 1608891240,
    "wof:geomhash": "b6e33f47475d56bc8da457bc31afadc8",
    "wof:hierarchy": [
      {
        "building_id": 1159160869,
        "campus_id": 102527513,
        "continent_id": 102191575,
        "country_id": 85633793,
        "county_id": 102087579,
        "custom_id": 1763558953,
        "instagram_id": 1763558953,
        "locality_id": 85922583,
        "neighbourhood_id": -1,
        "region_id": 85688637
      }
    ],
    "wof:id": 1763558953,
    "wof:lastmodified": 1787777660,
    "wof:name": "Merry Christmas from SFO Museum...",
    "wof:parent_id": 1159160869,
    "wof:placetype": "custom",
    "wof:placetype_alt": [
      "instagram"
    ],
    "wof:repo": "sfomuseum-data-socialmedia-instagram",
    "wof:superseded_by": [],
    "wof:supersedes": []
  },
  "bbox": [
    -122.386166,
    37.616356,
    -122.386166,
    37.616356
  ],
  "geometry": {"type":"Point","coordinates":[-122.386166,37.616356]}
}
