{
  "id": 1729362553,
  "type": "Feature",
  "properties": {
    "date:cessation_lower": "2013-09-26",
    "date:cessation_upper": "2013-09-26",
    "date:inception_lower": "2013-09-26",
    "date:inception_upper": "2013-09-26",
    "edtf:cessation": "2013-09-26T07:25:00-07:00",
    "edtf:inception": "2013-09-26T07:25:00-07:00",
    "geom:area": 0,
    "geom:bbox": "-122.386166,37.616356,-122.386166,37.616356",
    "geom:latitude": 37.616356,
    "geom:longitude": -122.386166,
    "instagram:post": {
      "caption": {
        "body": "",
        "excerpt": "",
        "hashtags": [
          "magic,",
          "throwbackthursday",
          "tbt"
        ],
        "users": []
      },
      "media_id": "4740724eccb44ddccea9c4895e551d86",
      "path": "media/other/11334384_465871113579308_1231312042_n_17842362526062499.jpg",
      "perceptual_hash": "p:99d86666a99d59c1",
      "taken": 1380205500,
      "taken_at": "Sep 26, 2013 2:25 pm"
    },
    "millsfield:similar": {
      "google/siglip2-so400m-patch16-naflex": [
        {
          "distance": 0.3251844644546509,
          "id": 1729362953
        },
        {
          "distance": 0.3293461799621582,
          "id": 1729362019
        },
        {
          "distance": 0.33869749307632446,
          "id": 1729362797
        },
        {
          "distance": 0.3410053849220276,
          "id": 1729362579
        },
        {
          "distance": 0.3429661989212036,
          "id": 1729362115
        },
        {
          "distance": 0.3457533121109009,
          "id": 1729362709
        },
        {
          "distance": 0.35204827785491943,
          "id": 1729361885
        },
        {
          "distance": 0.35396522283554077,
          "id": 1729362795
        },
        {
          "distance": 0.3550161123275757,
          "id": 1729362521
        },
        {
          "distance": 0.3558058738708496,
          "id": 1729361669
        }
      ]
    },
    "sfomuseum:placetype": "instagram",
    "src:geom": "sfomuseum",
    "wof:belongsto": [
      1159160869,
      102527513,
      102191575,
      85633793,
      102087579,
      85922583,
      85688637
    ],
    "wof:country": "US",
    "wof:created": 1380205500,
    "wof:geomhash": "b6e33f47475d56bc8da457bc31afadc8",
    "wof:hierarchy": [
      {
        "building_id": 1159160869,
        "campus_id": 102527513,
        "continent_id": 102191575,
        "country_id": 85633793,
        "county_id": 102087579,
        "custom_id": 1729362553,
        "instagram_id": 1729362553,
        "locality_id": 85922583,
        "neighbourhood_id": -1,
        "region_id": 85688637
      }
    ],
    "wof:id": 1729362553,
    "wof:lastmodified": 1787777647,
    "wof:name": "..",
    "wof:parent_id": 1159160869,
    "wof:placetype": "custom",
    "wof:placetype_alt": [
      "instagram"
    ],
    "wof:repo": "sfomuseum-data-socialmedia-instagram",
    "wof:superseded_by": [],
    "wof:supersedes": []
  },
  "bbox": [
    -122.386166,
    37.616356,
    -122.386166,
    37.616356
  ],
  "geometry": {"type":"Point","coordinates":[-122.386166,37.616356]}
}
