{
  "id": 1729358609,
  "type": "Feature",
  "properties": {
    "date:cessation_lower": "2018-02-02",
    "date:cessation_upper": "2018-02-02",
    "date:inception_lower": "2018-02-02",
    "date:inception_upper": "2018-02-02",
    "edtf:cessation": "2018-02-02T06:41:00-08:00",
    "edtf:inception": "2018-02-02T06:41:00-08:00",
    "geom:area": 0,
    "geom:bbox": "-122.386166,37.616356,-122.386166,37.616356",
    "geom:latitude": 37.616356,
    "geom:longitude": -122.386166,
    "instagram:post": {
      "caption": {
        "body": "Talk about in-flight entertainment! On some Pan American flights in the 1950s, inflight fashion shows were offered to traveling passengers. What a look!  Image: Pan American World Airways, Pacific - Alaska Division, 1952. Gift of William E. Talbott. 2012.151.168",
        "excerpt": "Talk about in-flight entertainment!",
        "hashtags": [
          "FashionFriday",
          "panam",
          "panamerican",
          "avgeek",
          "avationgeek",
          "aviation",
          "aviationhistory",
          "vintageaviation",
          "history",
          "avhistory",
          "aviationgeeks",
          "avgeeks",
          "paxex",
          "fashion",
          "fashionshow"
        ],
        "users": []
      },
      "media_id": "8a31574f9a35d31e7e9f61798fb72a36",
      "path": "media/other/26287426_166031437364241_8823141433453051904_n_17862099922218710.jpg",
      "perceptual_hash": "p:dde066b6c919324d",
      "taken": 1517582460,
      "taken_at": "Feb 02, 2018 2:41 pm"
    },
    "millsfield:similar": {
      "google/siglip2-so400m-patch16-naflex": [
        {
          "distance": 0.2154904007911682,
          "id": 1729359899
        },
        {
          "distance": 0.22012847661972046,
          "id": 1763559125
        },
        {
          "distance": 0.22291499376296997,
          "id": 1729358463
        },
        {
          "distance": 0.22875815629959106,
          "id": 1729357679
        },
        {
          "distance": 0.2371295690536499,
          "id": 1729358225
        },
        {
          "distance": 0.24476736783981323,
          "id": 1729360723
        },
        {
          "distance": 0.2460489273071289,
          "id": 1729358221
        },
        {
          "distance": 0.2480553388595581,
          "id": 1763559125
        },
        {
          "distance": 0.24935615062713623,
          "id": 1729360785
        },
        {
          "distance": 0.2503259778022766,
          "id": 1729359113
        }
      ]
    },
    "sfomuseum:placetype": "instagram",
    "src:geom": "sfomuseum",
    "wof:belongsto": [
      1159160869,
      102527513,
      102191575,
      85633793,
      102087579,
      85922583,
      85688637
    ],
    "wof:country": "US",
    "wof:created": 1517582460,
    "wof:geomhash": "b6e33f47475d56bc8da457bc31afadc8",
    "wof:hierarchy": [
      {
        "building_id": 1159160869,
        "campus_id": 102527513,
        "continent_id": 102191575,
        "country_id": 85633793,
        "county_id": 102087579,
        "custom_id": 1729358609,
        "instagram_id": 1729358609,
        "locality_id": 85922583,
        "neighbourhood_id": -1,
        "region_id": 85688637
      }
    ],
    "wof:id": 1729358609,
    "wof:lastmodified": 1787777634,
    "wof:name": "Talk about in-flight entertainment!..",
    "wof:parent_id": 1159160869,
    "wof:placetype": "custom",
    "wof:placetype_alt": [
      "instagram"
    ],
    "wof:repo": "sfomuseum-data-socialmedia-instagram",
    "wof:superseded_by": [],
    "wof:supersedes": []
  },
  "bbox": [
    -122.386166,
    37.616356,
    -122.386166,
    37.616356
  ],
  "geometry": {"type":"Point","coordinates":[-122.386166,37.616356]}
}
