{
  "id": 1763559561,
  "type": "Feature",
  "properties": {
    "date:cessation_lower": "2022-03-09",
    "date:cessation_upper": "2022-03-09",
    "date:inception_lower": "2022-03-09",
    "date:inception_upper": "2022-03-09",
    "edtf:cessation": "2022-03-09T09:20:00-08:00",
    "edtf:inception": "2022-03-09T09:20:00-08:00",
    "geom:area": 0,
    "geom:bbox": "-122.386166,37.616356,-122.386166,37.616356",
    "geom:latitude": 37.616356,
    "geom:longitude": -122.386166,
    "instagram:post": {
      "caption": {
        "body": "#OnThisDay in 1923, fashion designer André Courrèges (1923–2016) was born in Pau, France. Courrèges joined the House of Balenciaga in 1949 and opened his own house in 1961. Credited with creating the miniskirt and the go-go style “Courrèges boot,” his trim, futuristic youth fashions embraced pant suits and synthetic materials. His 1973 uniform collection for UTA (Union de Transport Aériens) had a skirt or flared trousers option, a fitted sweater, and a short jacket in imitation leather. The pearlescent pink, powder blue, or red outfits came with white vinyl flat boots.",
        "excerpt": "#OnThisDay in 1923, fashion designer André Courrèges (1923–2016) was born in Pau, France.",
        "hashtags": [
          "AvGeek",
          "uniform",
          "AirFrance",
          "UTA",
          "fashion",
          "1970s"
        ],
        "users": []
      },
      "media_id": "de8823ef1db2a4ccb8220256f48cb39e049bd077",
      "path": "media/posts/202203/275417418_996424024322905_4090834808407288516_n_17853569546700130.jpg",
      "perceptual_hash": "p:ffbc38c86326c071",
      "taken": 1646846400,
      "taken_at": "Mar 09, 2022 5:20 pm"
    },
    "millsfield:similar": {
      "google/siglip2-so400m-patch16-naflex": [
        {
          "distance": 0.3201941251754761,
          "id": 1880151711
        },
        {
          "distance": 0.34041088819503784,
          "id": 1880151775
        },
        {
          "distance": 0.34567582607269287,
          "id": 1880151775
        },
        {
          "distance": 0.3569332957267761,
          "id": 1729360329
        },
        {
          "distance": 0.3620714545249939,
          "id": 1729360165
        },
        {
          "distance": 0.36400145292282104,
          "id": 1763559655
        },
        {
          "distance": 0.3651503324508667,
          "id": 1729360313
        },
        {
          "distance": 0.3680739402770996,
          "id": 1729360027
        },
        {
          "distance": 0.3681489825248718,
          "id": 1729361731
        },
        {
          "distance": 0.3732220530509949,
          "id": 1729360329
        }
      ]
    },
    "sfomuseum:placetype": "instagram",
    "src:geom": "sfomuseum",
    "wof:belongsto": [
      1159160869,
      102527513,
      102191575,
      85633793,
      102087579,
      85922583,
      85688637
    ],
    "wof:country": "US",
    "wof:created": 1646846400,
    "wof:geomhash": "b6e33f47475d56bc8da457bc31afadc8",
    "wof:hierarchy": [
      {
        "building_id": 1159160869,
        "campus_id": 102527513,
        "continent_id": 102191575,
        "country_id": 85633793,
        "county_id": 102087579,
        "custom_id": 1763559561,
        "instagram_id": 1763559561,
        "locality_id": 85922583,
        "neighbourhood_id": -1,
        "region_id": 85688637
      }
    ],
    "wof:id": 1763559561,
    "wof:lastmodified": 1787777660,
    "wof:name": "#OnThisDay in 1923, fashion designer André Courrèges (1923–2016) was born in Pau, France...",
    "wof:parent_id": 1159160869,
    "wof:placetype": "custom",
    "wof:placetype_alt": [
      "instagram"
    ],
    "wof:repo": "sfomuseum-data-socialmedia-instagram",
    "wof:superseded_by": [],
    "wof:supersedes": []
  },
  "bbox": [
    -122.386166,
    37.616356,
    -122.386166,
    37.616356
  ],
  "geometry": {"type":"Point","coordinates":[-122.386166,37.616356]}
}
