{
  "id": 1880151603,
  "type": "Feature",
  "properties": {
    "date:cessation_lower": "2022-07-04",
    "date:cessation_upper": "2022-07-04",
    "date:inception_lower": "2022-07-04",
    "date:inception_upper": "2022-07-04",
    "edtf:cessation": "2022-07-04T00:00:00-07:00",
    "edtf:inception": "2022-07-04T00:00:00-07:00",
    "geom:area": 0,
    "geom:bbox": "-122.386166,37.616356,-122.386166,37.616356",
    "geom:latitude": 37.616356,
    "geom:longitude": -122.386166,
    "instagram:post": {
      "caption": {
        "body": "Happy July Fourth! Happy Independence Day! In celebration of our country’s independence, the Aviation Museum and Library is closed today. All other exhibitions throughout the terminals are open. The Aviation Museum and Library will reopen tomorrow at 10am. http://bit.ly/SFOMExhibitions",
        "excerpt": "Happy July Fourth!",
        "hashtags": [
          "IndependenceDay",
          "julyfourth",
          "flag",
          "postcard"
        ],
        "users": []
      },
      "media_id": "967e9d0639e9470a9570ed89987c1aa129d827f5",
      "path": "media/other/291871626_1239763753445268_7835735894462282938_n_17969638189637578.jpg",
      "perceptual_hash": "p:bbdace3491c0cce2",
      "taken": 1656918000,
      "taken_at": "Jul 04, 2022 7:00 am"
    },
    "millsfield:similar": {
      "google/siglip2-so400m-patch16-naflex": [
        {
          "distance": 0.34633809328079224,
          "id": 1880150881
        },
        {
          "distance": 0.364679753780365,
          "id": 1880150881
        },
        {
          "distance": 0.37936919927597046,
          "id": 1729359345
        },
        {
          "distance": 0.3804563879966736,
          "id": 1729359345
        },
        {
          "distance": 0.39033764600753784,
          "id": 1729358321
        },
        {
          "distance": 0.3927176594734192,
          "id": 1763559451
        },
        {
          "distance": 0.400667667388916,
          "id": 1729359841
        },
        {
          "distance": 0.40861809253692627,
          "id": 1729360569
        },
        {
          "distance": 0.4097973108291626,
          "id": 1729358321
        },
        {
          "distance": 0.4154960513114929,
          "id": 1729358987
        }
      ]
    },
    "sfomuseum:placetype": "instagram",
    "src:geom": "sfomuseum",
    "wof:belongsto": [
      1159160869,
      102527513,
      102191575,
      85633793,
      102087579,
      85922583,
      85688637
    ],
    "wof:country": "US",
    "wof:created": 1656918000,
    "wof:geomhash": "b6e33f47475d56bc8da457bc31afadc8",
    "wof:hierarchy": [
      {
        "building_id": 1159160869,
        "campus_id": 102527513,
        "continent_id": 102191575,
        "country_id": 85633793,
        "county_id": 102087579,
        "custom_id": 1880151603,
        "instagram_id": 1880151603,
        "locality_id": 85922583,
        "neighbourhood_id": -1,
        "region_id": 85688637
      }
    ],
    "wof:id": 1880151603,
    "wof:lastmodified": 1787777662,
    "wof:name": "Happy July Fourth!..",
    "wof:parent_id": 1159160869,
    "wof:placetype": "custom",
    "wof:placetype_alt": [
      "instagram"
    ],
    "wof:repo": "sfomuseum-data-socialmedia-instagram",
    "wof:superseded_by": [],
    "wof:supersedes": []
  },
  "bbox": [
    -122.386166,
    37.616356,
    -122.386166,
    37.616356
  ],
  "geometry": {"type":"Point","coordinates":[-122.386166,37.616356]}
}
