{
  "id": 1763559429,
  "type": "Feature",
  "properties": {
    "date:cessation_lower": "2021-09-09",
    "date:cessation_upper": "2021-09-09",
    "date:inception_lower": "2021-09-09",
    "date:inception_upper": "2021-09-09",
    "edtf:cessation": "2021-09-09T08:51:00-07:00",
    "edtf:inception": "2021-09-09T08:51:00-07:00",
    "geom:area": 0,
    "geom:bbox": "-122.386166,37.616356,-122.386166,37.616356",
    "geom:latitude": 37.616356,
    "geom:longitude": -122.386166,
    "instagram:post": {
      "caption": {
        "body": "Happy Birthday, California! Our great state was admitted into the Union on this day in 1850. In 2015, we presented “Catch Our Style: California Regional Airlines 1950s–1980s” which featured objects from California Airlines such as PSA (Pacific Southwest Airlines), Air California (later AirCal), and Pacific Air Lines, Air West, and Hughes Airwest. Do you remember this exhibition? What’s your favorite California regional airline?  Relive the memories online at: https://bit.ly/3ffZIkU",
        "excerpt": "Happy Birthday, California!",
        "hashtags": [
          "California",
          "CatchOurStyle",
          "AirCalifornia",
          "HughesAirwest"
        ],
        "users": []
      },
      "media_id": "9f6a614480e3c08b8849d6a7ee55fd78cd37086c",
      "path": "media/posts/202109/241324997_379907060242723_4747541986332307043_n_17966746990451630.jpg",
      "perceptual_hash": "p:95cee2dde0c5e00e",
      "taken": 1631202660,
      "taken_at": "Sep 09, 2021 3:51 pm"
    },
    "millsfield:similar": {
      "google/siglip2-so400m-patch16-naflex": [
        {
          "distance": 0.1454121470451355,
          "id": 1763558977
        },
        {
          "distance": 0.17312884330749512,
          "id": 1763558977
        },
        {
          "distance": 0.17457282543182373,
          "id": 1880151473
        },
        {
          "distance": 0.19423967599868774,
          "id": 1880151473
        },
        {
          "distance": 0.20231735706329346,
          "id": 1763559049
        },
        {
          "distance": 0.20565122365951538,
          "id": 1947425209
        },
        {
          "distance": 0.20565950870513916,
          "id": 1947425237
        },
        {
          "distance": 0.20617890357971191,
          "id": 1880151191
        },
        {
          "distance": 0.20727193355560303,
          "id": 1763559049
        },
        {
          "distance": 0.20900434255599976,
          "id": 1880151061
        }
      ]
    },
    "sfomuseum:placetype": "instagram",
    "src:geom": "sfomuseum",
    "wof:belongsto": [
      1159160869,
      102527513,
      102191575,
      85633793,
      102087579,
      85922583,
      85688637
    ],
    "wof:country": "US",
    "wof:created": 1631202660,
    "wof:geomhash": "b6e33f47475d56bc8da457bc31afadc8",
    "wof:hierarchy": [
      {
        "building_id": 1159160869,
        "campus_id": 102527513,
        "continent_id": 102191575,
        "country_id": 85633793,
        "county_id": 102087579,
        "custom_id": 1763559429,
        "instagram_id": 1763559429,
        "locality_id": 85922583,
        "neighbourhood_id": -1,
        "region_id": 85688637
      }
    ],
    "wof:id": 1763559429,
    "wof:lastmodified": 1787777660,
    "wof:name": "Happy Birthday, California!..",
    "wof:parent_id": 1159160869,
    "wof:placetype": "custom",
    "wof:placetype_alt": [
      "instagram"
    ],
    "wof:repo": "sfomuseum-data-socialmedia-instagram",
    "wof:superseded_by": [],
    "wof:supersedes": []
  },
  "bbox": [
    -122.386166,
    37.616356,
    -122.386166,
    37.616356
  ],
  "geometry": {"type":"Point","coordinates":[-122.386166,37.616356]}
}
