{
  "id": 1729361083,
  "type": "Feature",
  "properties": {
    "date:cessation_lower": "2016-02-04",
    "date:cessation_upper": "2016-02-04",
    "date:inception_lower": "2016-02-04",
    "date:inception_upper": "2016-02-04",
    "edtf:cessation": "2016-02-04T01:57:00-08:00",
    "edtf:inception": "2016-02-04T01:57:00-08:00",
    "geom:area": 0,
    "geom:bbox": "-122.386166,37.616356,-122.386166,37.616356",
    "geom:latitude": 37.616356,
    "geom:longitude": -122.386166,
    "instagram:post": {
      "caption": {
        "body": "",
        "excerpt": "",
        "hashtags": [
          "Packers,",
          "TheNationsGame",
          "SuperBowl50",
          "SB50"
        ],
        "users": []
      },
      "media_id": "7ce4dd297e1cdfa92330a6d66892dcd2",
      "path": "media/other/12568346_937515529659955_180101828_n_17852994184034746.jpg",
      "perceptual_hash": "p:c5ff5b962a8053c1",
      "taken": 1454579820,
      "taken_at": "Feb 04, 2016 9:57 am"
    },
    "millsfield:similar": {
      "google/siglip2-so400m-patch16-naflex": [
        {
          "distance": 0.12029927968978882,
          "id": 1729361089
        },
        {
          "distance": 0.13084334135055542,
          "id": 1729361417
        },
        {
          "distance": 0.1421632170677185,
          "id": 1729361077
        },
        {
          "distance": 0.14716386795043945,
          "id": 1729361201
        },
        {
          "distance": 0.1708139181137085,
          "id": 1729361417
        },
        {
          "distance": 0.17414307594299316,
          "id": 1729361089
        },
        {
          "distance": 0.19305461645126343,
          "id": 1729361075
        },
        {
          "distance": 0.19356000423431396,
          "id": 1729361201
        },
        {
          "distance": 0.19402074813842773,
          "id": 1729361077
        },
        {
          "distance": 0.20540648698806763,
          "id": 1729361081
        }
      ]
    },
    "sfomuseum:placetype": "instagram",
    "src:geom": "sfomuseum",
    "wof:belongsto": [
      1159160869,
      102527513,
      102191575,
      85633793,
      102087579,
      85922583,
      85688637
    ],
    "wof:country": "US",
    "wof:created": 1454579820,
    "wof:geomhash": "b6e33f47475d56bc8da457bc31afadc8",
    "wof:hierarchy": [
      {
        "building_id": 1159160869,
        "campus_id": 102527513,
        "continent_id": 102191575,
        "country_id": 85633793,
        "county_id": 102087579,
        "custom_id": 1729361083,
        "instagram_id": 1729361083,
        "locality_id": 85922583,
        "neighbourhood_id": -1,
        "region_id": 85688637
      }
    ],
    "wof:id": 1729361083,
    "wof:lastmodified": 1787777643,
    "wof:name": "..",
    "wof:parent_id": 1159160869,
    "wof:placetype": "custom",
    "wof:placetype_alt": [
      "instagram"
    ],
    "wof:repo": "sfomuseum-data-socialmedia-instagram",
    "wof:superseded_by": [],
    "wof:supersedes": []
  },
  "bbox": [
    -122.386166,
    37.616356,
    -122.386166,
    37.616356
  ],
  "geometry": {"type":"Point","coordinates":[-122.386166,37.616356]}
}
