{
  "id": 1880151223,
  "type": "Feature",
  "properties": {
    "date:cessation_lower": "2023-01-23",
    "date:cessation_upper": "2023-01-23",
    "date:inception_lower": "2023-01-23",
    "date:inception_upper": "2023-01-23",
    "edtf:cessation": "2023-01-23T03:24:00-08:00",
    "edtf:inception": "2023-01-23T03:24:00-08:00",
    "geom:area": 0,
    "geom:bbox": "-122.386166,37.616356,-122.386166,37.616356",
    "geom:latitude": 37.616356,
    "geom:longitude": -122.386166,
    "instagram:post": {
      "caption": {
        "body": "Designed by Louis Blériot and Raymond Saulnier, the Blériot XI monoplane took off on its maiden flight #onthisday in 1909. On July 25, 1909, Blériot flew the aircraft over the English Channel from Calais, France, to Dover, England. This was the first successful crossing of the Channel in an airplane. The feat made Blériot a worldwide celebrity and earned him a £1,000 prize established by the British newspaper “Daily Mail” a year earlier. The design was highly successful, produced in numerous variants, and flown widely by early aviators, including Harriett Quimby and John and Matilde Moisant. In 1911, Earle Lewis Ovington carried the first U.S. airmail in a Blériot XI.  #avgeek #BlériotXI #Blériot   glass negative: Panama-Pacific International Exposition; 1915 Gift of Edwin I. Power, Jr. and Linda L. Liscom 2010.282.025 a b  http://bit.ly/3XDwulu",
        "excerpt": "Designed by Louis Blériot and Raymond Saulnier, the Blériot XI monoplane took off on its maiden flight #onthisday in 1909.",
        "hashtags": [],
        "users": []
      },
      "media_id": "8fba77c69408e252c313eb3d3975af60ceb63eb7",
      "path": "media/other/327316250_121871553940320_6011245133089719617_n_18008267617538925.jpg",
      "perceptual_hash": "p:eced97909a4a6836",
      "taken": 1674473040,
      "taken_at": "Jan 23, 2023 11:24 am"
    },
    "millsfield:similar": {
      "google/siglip2-so400m-patch16-naflex": [
        {
          "distance": 0.1375420093536377,
          "id": 1729361387
        },
        {
          "distance": 0.15106642246246338,
          "id": 1729361337
        },
        {
          "distance": 0.19383114576339722,
          "id": 1880151721
        },
        {
          "distance": 0.20245903730392456,
          "id": 1880151721
        },
        {
          "distance": 0.21363228559494019,
          "id": 1729361869
        },
        {
          "distance": 0.22202670574188232,
          "id": 1729361337
        },
        {
          "distance": 0.22353380918502808,
          "id": 1880151611
        },
        {
          "distance": 0.2344648241996765,
          "id": 1729361387
        },
        {
          "distance": 0.23476946353912354,
          "id": 1729361271
        },
        {
          "distance": 0.2363092303276062,
          "id": 1729361271
        }
      ]
    },
    "sfomuseum:placetype": "instagram",
    "src:geom": "sfomuseum",
    "wof:belongsto": [
      1159160869,
      102527513,
      102191575,
      85633793,
      102087579,
      85922583,
      85688637
    ],
    "wof:country": "US",
    "wof:created": 1674473040,
    "wof:geomhash": "b6e33f47475d56bc8da457bc31afadc8",
    "wof:hierarchy": [
      {
        "building_id": 1159160869,
        "campus_id": 102527513,
        "continent_id": 102191575,
        "country_id": 85633793,
        "county_id": 102087579,
        "custom_id": 1880151223,
        "instagram_id": 1880151223,
        "locality_id": 85922583,
        "neighbourhood_id": -1,
        "region_id": 85688637
      }
    ],
    "wof:id": 1880151223,
    "wof:lastmodified": 1787777662,
    "wof:name": "Designed by Louis Blériot and Raymond Saulnier, the Blériot XI monoplane took off on its maiden flight #onthisday in 1909...",
    "wof:parent_id": 1159160869,
    "wof:placetype": "custom",
    "wof:placetype_alt": [
      "instagram"
    ],
    "wof:repo": "sfomuseum-data-socialmedia-instagram",
    "wof:superseded_by": [],
    "wof:supersedes": []
  },
  "bbox": [
    -122.386166,
    37.616356,
    -122.386166,
    37.616356
  ],
  "geometry": {"type":"Point","coordinates":[-122.386166,37.616356]}
}
