{
  "id": 1729358923,
  "type": "Feature",
  "properties": {
    "date:cessation_lower": "2017-11-08",
    "date:cessation_upper": "2017-11-08",
    "date:inception_lower": "2017-11-08",
    "date:inception_upper": "2017-11-08",
    "edtf:cessation": "2017-11-08T04:20:00-08:00",
    "edtf:inception": "2017-11-08T04:20:00-08:00",
    "geom:area": 0,
    "geom:bbox": "-122.386166,37.616356,-122.386166,37.616356",
    "geom:latitude": 37.616356,
    "geom:longitude": -122.386166,
    "instagram:post": {
      "caption": {
        "body": "Theatricalizing life with dreams\" was how Mary Wells, a pioneering advertising executive for Jack Tinker Associates, recalled her greatest strength. Her dream for Braniff International in 1965 was an experience that was fun, youthful, and fashion-forward. It was an experience that started with the advertising and was carried straight through the ticket counters and airport lounges and onto the colorful aircraft served by air hostesses in radically designed uniforms. Launched in the midst of the creative, rebellious 1960s, the campaign was a runaway success. Almost overnight, Well’s campaign transformed Braniff International from a respectably conservative, mid-sized Texas airline to an international icon of American youthful creativity and prosperity that captured the age like no other campaign had done before. Her success with Braniff International gave Wells the professional clout to start her own agency, Wells, Rich, Greene, in 1966. When the company went public in 1968, Mary Wells became the first female CEO of a company traded on the New York Stock Exchange. \"When You Got it- Flaunt It: #AdvertisingBraniff International\" is on display, pre-security, in the Aviation Museum and Library. http://bit.ly/AdvertisingBraniff",
        "excerpt": "Theatricalizing life with dreams\" was how Mary Wells, a pioneering advertising executive for Jack Tinker Associates, recalled her greatest strength.",
        "hashtags": [
          "Aviation",
          "Braniff",
          "Advertising",
          "MaryWellsLawrence",
          "GeorgeLois",
          "AlexanderCalder",
          "avgeek",
          "avationgeek",
          "aviation",
          "aviationhistory",
          "aviationlovers",
          "vintageaviation",
          "history",
          "avhistory",
          "aviationgeeks",
          "airline",
          "avgeeks",
          "aviation4u",
          "aviationdaily",
          "MaryWells",
          "womeninaviation",
          "womeninhistory"
        ],
        "users": []
      },
      "media_id": "c52d37a7d7a640a246992b4b3106283c",
      "path": "media/other/23421198_126690231351856_1831372332732514304_n_17890451407094104.jpg",
      "perceptual_hash": "p:fd4dd12dc2231cd2",
      "taken": 1510143600,
      "taken_at": "Nov 08, 2017 12:20 pm"
    },
    "millsfield:similar": {
      "google/siglip2-so400m-patch16-naflex": [
        {
          "distance": 0.191936194896698,
          "id": 1729359935
        },
        {
          "distance": 0.2603411078453064,
          "id": 1763559655
        },
        {
          "distance": 0.2624983787536621,
          "id": 1729360325
        },
        {
          "distance": 0.26288139820098877,
          "id": 1729359935
        },
        {
          "distance": 0.2676429748535156,
          "id": 1729360461
        },
        {
          "distance": 0.2678673267364502,
          "id": 1729360211
        },
        {
          "distance": 0.27081298828125,
          "id": 1729360461
        },
        {
          "distance": 0.27426278591156006,
          "id": 1729355273
        },
        {
          "distance": 0.2845116853713989,
          "id": 1729360211
        },
        {
          "distance": 0.290128231048584,
          "id": 1729360325
        }
      ]
    },
    "sfomuseum:placetype": "instagram",
    "src:geom": "sfomuseum",
    "wof:belongsto": [
      1159160869,
      102527513,
      102191575,
      85633793,
      102087579,
      85922583,
      85688637
    ],
    "wof:country": "US",
    "wof:created": 1510143600,
    "wof:geomhash": "b6e33f47475d56bc8da457bc31afadc8",
    "wof:hierarchy": [
      {
        "building_id": 1159160869,
        "campus_id": 102527513,
        "continent_id": 102191575,
        "country_id": 85633793,
        "county_id": 102087579,
        "custom_id": 1729358923,
        "instagram_id": 1729358923,
        "locality_id": 85922583,
        "neighbourhood_id": -1,
        "region_id": 85688637
      }
    ],
    "wof:id": 1729358923,
    "wof:lastmodified": 1787777634,
    "wof:name": "Theatricalizing life with dreams\" was how Mary Wells, a pioneering advertising executive for Jack Tinker Associates, recalled her greatest strength...",
    "wof:parent_id": 1159160869,
    "wof:placetype": "custom",
    "wof:placetype_alt": [
      "instagram"
    ],
    "wof:repo": "sfomuseum-data-socialmedia-instagram",
    "wof:superseded_by": [],
    "wof:supersedes": []
  },
  "bbox": [
    -122.386166,
    37.616356,
    -122.386166,
    37.616356
  ],
  "geometry": {"type":"Point","coordinates":[-122.386166,37.616356]}
}
