{
  "id": 1763559455,
  "type": "Feature",
  "properties": {
    "date:cessation_lower": "2021-08-19",
    "date:cessation_upper": "2021-08-19",
    "date:inception_lower": "2021-08-19",
    "date:inception_upper": "2021-08-19",
    "edtf:cessation": "2021-08-19T08:50:00-07:00",
    "edtf:inception": "2021-08-19T08:50:00-07:00",
    "geom:area": 0,
    "geom:bbox": "-122.386166,37.616356,-122.386166,37.616356",
    "geom:latitude": 37.616356,
    "geom:longitude": -122.386166,
    "instagram:post": {
      "caption": {
        "body": "If you were flying high above the airport in 1930, this would have been your view. In this composite aerial photograph, created by Bay Area photographer George E. Russell, Burlingame, Millbrae, San Bruno, and South San Francisco are all recognizable - even the concrete lettering on Sign Hill, which was added the year before.",
        "excerpt": "If you were flying high above the airport in 1930, this would have been your view.",
        "hashtags": [
          "nationalaviationday",
          "throwbackthursday",
          "TBT",
          "SFOHistory"
        ],
        "users": []
      },
      "media_id": "beb60669bf16ea7ebbd4a844ae0c866ac30f9cbe",
      "path": "media/posts/202108/239572074_256548159631632_5656249786244904623_n_17908464446066792.jpg",
      "perceptual_hash": "p:d229138b613cde4f",
      "taken": 1629388200,
      "taken_at": "Aug 19, 2021 3:50 pm"
    },
    "millsfield:similar": {
      "google/siglip2-so400m-patch16-naflex": [
        {
          "distance": 0.16020047664642334,
          "id": 1729357323
        },
        {
          "distance": 0.17269736528396606,
          "id": 1880150909
        },
        {
          "distance": 0.17709052562713623,
          "id": 1729360531
        },
        {
          "distance": 0.18392151594161987,
          "id": 1729358457
        },
        {
          "distance": 0.1918044090270996,
          "id": 1729359145
        },
        {
          "distance": 0.19351357221603394,
          "id": 1729358135
        },
        {
          "distance": 0.19628006219863892,
          "id": 1729357737
        },
        {
          "distance": 0.1974853277206421,
          "id": 1729357727
        },
        {
          "distance": 0.20054584741592407,
          "id": 1880151063
        },
        {
          "distance": 0.20356589555740356,
          "id": 1729356859
        }
      ]
    },
    "sfomuseum:placetype": "instagram",
    "src:geom": "sfomuseum",
    "wof:belongsto": [
      1159160869,
      102527513,
      102191575,
      85633793,
      102087579,
      85922583,
      85688637
    ],
    "wof:country": "US",
    "wof:created": 1629388200,
    "wof:geomhash": "b6e33f47475d56bc8da457bc31afadc8",
    "wof:hierarchy": [
      {
        "building_id": 1159160869,
        "campus_id": 102527513,
        "continent_id": 102191575,
        "country_id": 85633793,
        "county_id": 102087579,
        "custom_id": 1763559455,
        "instagram_id": 1763559455,
        "locality_id": 85922583,
        "neighbourhood_id": -1,
        "region_id": 85688637
      }
    ],
    "wof:id": 1763559455,
    "wof:lastmodified": 1787777660,
    "wof:name": "If you were flying high above the airport in 1930, this would have been your view...",
    "wof:parent_id": 1159160869,
    "wof:placetype": "custom",
    "wof:placetype_alt": [
      "instagram"
    ],
    "wof:repo": "sfomuseum-data-socialmedia-instagram",
    "wof:superseded_by": [],
    "wof:supersedes": []
  },
  "bbox": [
    -122.386166,
    37.616356,
    -122.386166,
    37.616356
  ],
  "geometry": {"type":"Point","coordinates":[-122.386166,37.616356]}
}
