{
  "id": 1729362405,
  "type": "Feature",
  "properties": {
    "date:cessation_lower": "2014-02-12",
    "date:cessation_upper": "2014-02-12",
    "date:inception_lower": "2014-02-12",
    "date:inception_upper": "2014-02-12",
    "edtf:cessation": "2014-02-12T06:31:00-08:00",
    "edtf:inception": "2014-02-12T06:31:00-08:00",
    "geom:area": 0,
    "geom:bbox": "-122.386166,37.616356,-122.386166,37.616356",
    "geom:latitude": 37.616356,
    "geom:longitude": -122.386166,
    "instagram:post": {
      "caption": {
        "body": "",
        "excerpt": "",
        "hashtags": [
          "Continental",
          "Eastern",
          "Delta",
          "AirlineIdentity",
          "aviation",
          "avgeek"
        ],
        "users": []
      },
      "media_id": "3fa493c9cef459d7f571d9fdab8081ec",
      "path": "media/other/1741109_1407905032794388_1967456607_n_17842400665062499.jpg",
      "perceptual_hash": "p:c0d19d4e39e06f99",
      "taken": 1392215460,
      "taken_at": "Feb 12, 2014 2:31 pm"
    },
    "millsfield:similar": {
      "google/siglip2-so400m-patch16-naflex": [
        {
          "distance": 0.24508577585220337,
          "id": 1729362479
        },
        {
          "distance": 0.24812811613082886,
          "id": 1729362755
        },
        {
          "distance": 0.26612842082977295,
          "id": 1729362755
        },
        {
          "distance": 0.2735409736633301,
          "id": 1729355737
        },
        {
          "distance": 0.27782630920410156,
          "id": 1729362709
        },
        {
          "distance": 0.27850472927093506,
          "id": 1729362957
        },
        {
          "distance": 0.2803727984428406,
          "id": 1729362479
        },
        {
          "distance": 0.2815306782722473,
          "id": 1729362299
        },
        {
          "distance": 0.286693811416626,
          "id": 1729362165
        },
        {
          "distance": 0.2943481206893921,
          "id": 1729362957
        }
      ]
    },
    "sfomuseum:placetype": "instagram",
    "src:geom": "sfomuseum",
    "wof:belongsto": [
      1159160869,
      102527513,
      102191575,
      85633793,
      102087579,
      85922583,
      85688637
    ],
    "wof:country": "US",
    "wof:created": 1392215460,
    "wof:geomhash": "b6e33f47475d56bc8da457bc31afadc8",
    "wof:hierarchy": [
      {
        "building_id": 1159160869,
        "campus_id": 102527513,
        "continent_id": 102191575,
        "country_id": 85633793,
        "county_id": 102087579,
        "custom_id": 1729362405,
        "instagram_id": 1729362405,
        "locality_id": 85922583,
        "neighbourhood_id": -1,
        "region_id": 85688637
      }
    ],
    "wof:id": 1729362405,
    "wof:lastmodified": 1787777647,
    "wof:name": "..",
    "wof:parent_id": 1159160869,
    "wof:placetype": "custom",
    "wof:placetype_alt": [
      "instagram"
    ],
    "wof:repo": "sfomuseum-data-socialmedia-instagram",
    "wof:superseded_by": [],
    "wof:supersedes": []
  },
  "bbox": [
    -122.386166,
    37.616356,
    -122.386166,
    37.616356
  ],
  "geometry": {"type":"Point","coordinates":[-122.386166,37.616356]}
}
