{
  "id": 1729357409,
  "type": "Feature",
  "properties": {
    "date:cessation_lower": "2018-11-09",
    "date:cessation_upper": "2018-11-09",
    "date:inception_lower": "2018-11-09",
    "date:inception_upper": "2018-11-09",
    "edtf:cessation": "2018-11-09T14:50:55-08:00",
    "edtf:inception": "2018-11-09T14:50:55-08:00",
    "geom:area": 0,
    "geom:bbox": "-122.386166,37.616356,-122.386166,37.616356",
    "geom:latitude": 37.616356,
    "geom:longitude": -122.386166,
    "instagram:post": {
      "caption": {
        "body": "\"Behind the world of the artisan is…that desire to take an inanimate material, and bring it to life in a form or image that will sing out; that desire to pay homage to my surroundings, to my creativity; that thanksgiving to that first bite into the apple of awareness.\" - Michael Lloyd (b. 1950)  Thorn bowl  2012 Michael Lloyd (b. 1950) Edinburgh Britannia silver, parcel-gilt The Pearson Silver Collection L2018.1801.015  Special thanks to The Pearson Silver Collection. \"A Sterling Renaissance: British Silver Design 1957 to 2018\" is on display, pre-security, in the International Terminal. http://bit.ly/BritishSilver",
        "excerpt": "\"Behind the world of the artisan is…that desire to take an inanimate material, and bring it to life in a form or image that will sing out; that desire to pay homage to my surroundings, to my creativity; that thanksgiving to that first bite into the apple of awareness.\"",
        "hashtags": [
          "BritishSilver",
          "silver",
          "sterling",
          "sterlingsilver",
          "silverdesign",
          "silver",
          "silversmith",
          "silversmithing",
          "bowl",
          "handmade"
        ],
        "users": []
      },
      "location": "",
      "media_id": "96a4c8bb90b36316d447b55f32402e1e",
      "path": "photos/201811/96a4c8bb90b36316d447b55f32402e1e.jpg",
      "perceptual_hash": "p:b1d04c2fb1b86fd0",
      "taken": 1541775000,
      "taken_at": "Nov 9, 2018, 2:50 PM"
    },
    "millsfield:similar": {
      "google/siglip2-so400m-patch16-naflex": [
        {
          "distance": 0.000022649765014648438,
          "id": 1763558785
        },
        {
          "distance": 0.04839354753494263,
          "id": 1729357229
        },
        {
          "distance": 0.10289901494979858,
          "id": 1729357239
        },
        {
          "distance": 0.10463988780975342,
          "id": 1763558785
        },
        {
          "distance": 0.10549944639205933,
          "id": 1729357239
        },
        {
          "distance": 0.11478686332702637,
          "id": 1729357229
        },
        {
          "distance": 0.17047405242919922,
          "id": 1729356997
        },
        {
          "distance": 0.1728283166885376,
          "id": 1729357385
        },
        {
          "distance": 0.19187015295028687,
          "id": 1729356631
        },
        {
          "distance": 0.21163052320480347,
          "id": 1729357111
        }
      ]
    },
    "sfomuseum:placetype": "instagram",
    "src:geom": "sfomuseum",
    "wof:belongsto": [
      1159160869,
      102527513,
      102191575,
      85633793,
      102087579,
      85922583,
      85688637
    ],
    "wof:country": "US",
    "wof:created": 1541803855,
    "wof:geomhash": "b6e33f47475d56bc8da457bc31afadc8",
    "wof:hierarchy": [
      {
        "building_id": 1159160869,
        "campus_id": 102527513,
        "continent_id": 102191575,
        "country_id": 85633793,
        "county_id": 102087579,
        "custom_id": 1729357409,
        "instagram_id": 1729357409,
        "locality_id": 85922583,
        "neighbourhood_id": -1,
        "region_id": 85688637
      }
    ],
    "wof:id": 1729357409,
    "wof:lastmodified": 1787777631,
    "wof:name": "\"Behind the world of the artisan is…that desire to take an inanimate material, and bring it to life in a form or image that will sing out; that desire to pay homage to my surroundings, to my creativity; that thanksgiving to that first bite into the apple of awareness.\"..",
    "wof:parent_id": 1159160869,
    "wof:placetype": "custom",
    "wof:placetype_alt": [
      "instagram"
    ],
    "wof:repo": "sfomuseum-data-socialmedia-instagram",
    "wof:superseded_by": [],
    "wof:supersedes": []
  },
  "bbox": [
    -122.386166,
    37.616356,
    -122.386166,
    37.616356
  ],
  "geometry": {"type":"Point","coordinates":[-122.386166,37.616356]}
}
