{
  "id": 1729360533,
  "type": "Feature",
  "properties": {
    "date:cessation_lower": "2016-07-08",
    "date:cessation_upper": "2016-07-08",
    "date:inception_lower": "2016-07-08",
    "date:inception_upper": "2016-07-08",
    "edtf:cessation": "2016-07-08T03:19:00-07:00",
    "edtf:inception": "2016-07-08T03:19:00-07:00",
    "geom:area": 0,
    "geom:bbox": "-122.386166,37.616356,-122.386166,37.616356",
    "geom:latitude": 37.616356,
    "geom:longitude": -122.386166,
    "instagram:post": {
      "caption": {
        "body": "Ceramic decoration, glazing, and firing techniques were pursued with a new passion by manufactories, local workshops, and individual artist-potters working in the Art Nouveau style. France took the lead in creating ceramics in the new style, but was joined in ensuing decades by other European makers, as well as Louis Comfort Tiffany in the United States. The preference for porcelain, long considered Europe’s “white gold,” shifted during this period. Stoneware, viewed as a utilitarian form of ceramics, enjoyed newfound recognition at the close of the nineteenth century, particularly in France. They began crafting refined stoneware sculptures and vessels, which displayed a host of experimental glazes and organic forms that served as the focal point of the potter’s creativity.",
        "excerpt": "Ceramic decoration, glazing, and firing techniques were pursued with a new passion by manufactories, local workshops, and individual artist-potters working in the Art Nouveau style.",
        "hashtags": [
          "ArtNouveauSFO"
        ],
        "users": []
      },
      "media_id": "01effb47ac24feb0eb1d956d0d4f5a4d",
      "path": "media/other/13636185_287495518268760_1141948759_n_17858092441009057.jpg",
      "perceptual_hash": "p:ed1b131cc16ad273",
      "taken": 1467973140,
      "taken_at": "Jul 08, 2016 10:19 am"
    },
    "millsfield:similar": {
      "google/siglip2-so400m-patch16-naflex": [
        {
          "distance": 0.23234349489212036,
          "id": 1729360453
        },
        {
          "distance": 0.26173996925354004,
          "id": 1729356767
        },
        {
          "distance": 0.2790346145629883,
          "id": 1729361915
        },
        {
          "distance": 0.28451234102249146,
          "id": 1729355817
        },
        {
          "distance": 0.28971415758132935,
          "id": 1729359655
        },
        {
          "distance": 0.290057897567749,
          "id": 1729356767
        },
        {
          "distance": 0.2930065393447876,
          "id": 1729356659
        },
        {
          "distance": 0.29622018337249756,
          "id": 1729361441
        },
        {
          "distance": 0.3054845929145813,
          "id": 1729356621
        },
        {
          "distance": 0.308333158493042,
          "id": 1729360453
        }
      ]
    },
    "sfomuseum:placetype": "instagram",
    "src:geom": "sfomuseum",
    "wof:belongsto": [
      1159160869,
      102527513,
      102191575,
      85633793,
      102087579,
      85922583,
      85688637
    ],
    "wof:country": "US",
    "wof:created": 1467973140,
    "wof:geomhash": "b6e33f47475d56bc8da457bc31afadc8",
    "wof:hierarchy": [
      {
        "building_id": 1159160869,
        "campus_id": 102527513,
        "continent_id": 102191575,
        "country_id": 85633793,
        "county_id": 102087579,
        "custom_id": 1729360533,
        "instagram_id": 1729360533,
        "locality_id": 85922583,
        "neighbourhood_id": -1,
        "region_id": 85688637
      }
    ],
    "wof:id": 1729360533,
    "wof:lastmodified": 1787777640,
    "wof:name": "Ceramic decoration, glazing, and firing techniques were pursued with a new passion by manufactories, local workshops, and individual artist-potters working in the Art Nouveau style...",
    "wof:parent_id": 1159160869,
    "wof:placetype": "custom",
    "wof:placetype_alt": [
      "instagram"
    ],
    "wof:repo": "sfomuseum-data-socialmedia-instagram",
    "wof:superseded_by": [],
    "wof:supersedes": []
  },
  "bbox": [
    -122.386166,
    37.616356,
    -122.386166,
    37.616356
  ],
  "geometry": {"type":"Point","coordinates":[-122.386166,37.616356]}
}
