{
  "id": 1729357001,
  "type": "Feature",
  "properties": {
    "date:cessation_lower": "2019-02-04",
    "date:cessation_upper": "2019-02-04",
    "date:inception_lower": "2019-02-04",
    "date:inception_upper": "2019-02-04",
    "edtf:cessation": "2019-02-04T06:38:00-08:00",
    "edtf:inception": "2019-02-04T06:38:00-08:00",
    "geom:area": 0,
    "geom:bbox": "-122.386166,37.616356,-122.386166,37.616356",
    "geom:latitude": 37.616356,
    "geom:longitude": -122.386166,
    "instagram:post": {
      "caption": {
        "body": "The famous aviator Charles Lindbergh was born #onthisday in 1902 in Detroit, Michigan. In 1927, Lindbergh made history by completing the world’s first successful solo flight across the Atlantic, going from New York to Paris.  Image: Charles A. Lindbergh, c. 1930. Gift of Jon E. Krupnick. 2010.281.006.087",
        "excerpt": "The famous aviator Charles Lindbergh was born #onthisday in 1902 in Detroit, Michigan.",
        "hashtags": [
          "CharlesLindbergh",
          "Lindbergh",
          "avgeek",
          "aviationhistory"
        ],
        "users": []
      },
      "media_id": "97348ce69c84b5b701f72e4c20108f9b",
      "path": "media/other/50708442_2324544084489946_359580007660172937_n_18014131390104890.jpg",
      "perceptual_hash": "p:bafd25f883c69806",
      "taken": 1549291080,
      "taken_at": "Feb 04, 2019 2:38 pm"
    },
    "millsfield:similar": {
      "google/siglip2-so400m-patch16-naflex": [
        {
          "distance": 0.03559160232543945,
          "id": 1729361941
        },
        {
          "distance": 0.10138171911239624,
          "id": 1729361941
        },
        {
          "distance": 0.140042245388031,
          "id": 1729359671
        },
        {
          "distance": 0.14500969648361206,
          "id": 1729361581
        },
        {
          "distance": 0.14805448055267334,
          "id": 1729357331
        },
        {
          "distance": 0.16156017780303955,
          "id": 1729359671
        },
        {
          "distance": 0.16569632291793823,
          "id": 1729361581
        },
        {
          "distance": 0.1692354679107666,
          "id": 1729357331
        },
        {
          "distance": 0.17840576171875,
          "id": 1763559319
        },
        {
          "distance": 0.18288713693618774,
          "id": 1763559319
        }
      ]
    },
    "sfomuseum:placetype": "instagram",
    "src:geom": "sfomuseum",
    "wof:belongsto": [
      1159160869,
      102527513,
      102191575,
      85633793,
      102087579,
      85922583,
      85688637
    ],
    "wof:country": "US",
    "wof:created": 1549291080,
    "wof:geomhash": "b6e33f47475d56bc8da457bc31afadc8",
    "wof:hierarchy": [
      {
        "building_id": 1159160869,
        "campus_id": 102527513,
        "continent_id": 102191575,
        "country_id": 85633793,
        "county_id": 102087579,
        "custom_id": 1729357001,
        "instagram_id": 1729357001,
        "locality_id": 85922583,
        "neighbourhood_id": -1,
        "region_id": 85688637
      }
    ],
    "wof:id": 1729357001,
    "wof:lastmodified": 1787777629,
    "wof:name": "The famous aviator Charles Lindbergh was born #onthisday in 1902 in Detroit, Michigan...",
    "wof:parent_id": 1159160869,
    "wof:placetype": "custom",
    "wof:placetype_alt": [
      "instagram"
    ],
    "wof:repo": "sfomuseum-data-socialmedia-instagram",
    "wof:superseded_by": [],
    "wof:supersedes": []
  },
  "bbox": [
    -122.386166,
    37.616356,
    -122.386166,
    37.616356
  ],
  "geometry": {"type":"Point","coordinates":[-122.386166,37.616356]}
}
