{
  "id": 1729356545,
  "type": "Feature",
  "properties": {
    "date:cessation_lower": "2019-05-21",
    "date:cessation_upper": "2019-05-21",
    "date:inception_lower": "2019-05-21",
    "date:inception_upper": "2019-05-21",
    "edtf:cessation": "2019-05-21T08:14:00-07:00",
    "edtf:inception": "2019-05-21T08:14:00-07:00",
    "geom:area": 0,
    "geom:bbox": "-122.386166,37.616356,-122.386166,37.616356",
    "geom:latitude": 37.616356,
    "geom:longitude": -122.386166,
    "instagram:post": {
      "caption": {
        "body": "#OnThisDay in 1927, Charles A. Lindbergh landed in Paris, France, after completing his historic, first solo crossing of the Atlantic Ocean. In 1919, New York hotel owner Raymond Orteig, offered $25,000 to the first person to complete a non-stop transatlantic flight. On May 20, 1927, Lindbergh took off from New York in his \"Spirit of St. Louis\", a custom Ryan NYP (New York to Paris) single-engine aircraft. The 3,500-mile journey followed the circle route over the Canadian maritime provinces, then crossed more than 1,900 miles of open ocean. The next day, after thirty-three and a half hours, the 25-year-old pilot became an international star upon landing at Paris’ Le Bourget Field. This shocking achievement changed the course of history and brought aviation to the forefront of public attention.  Image: Charles Lindbergh postcard, 1927. Gift of Frank A. Norick. 2011.128.006 ",
        "excerpt": "#OnThisDay in 1927, Charles A. Lindbergh landed in Paris, France, after completing his historic, first solo crossing of the Atlantic Ocean.",
        "hashtags": [
          "CharlesLindbergh",
          "LuckyLindy",
          "Lindbergh",
          "RyanNYP",
          "SpiritofStLouis",
          "RyanAirlines",
          "Paris",
          "NewYork",
          "avgeek",
          "avationgeek",
          "aviation",
          "aviationhistory",
          "vintageaviation",
          "history",
          "avhistory",
          "aviationgeeks",
          "avgeeks",
          "airplane",
          "aircraft"
        ],
        "users": []
      },
      "media_id": "cc75e9ddcd36b30e34bfb9f15ba09385",
      "path": "media/other/59680525_437220703756852_238411556399130017_n_18069496633031729.jpg",
      "perceptual_hash": "p:accd863cc3399999",
      "taken": 1558451640,
      "taken_at": "May 21, 2019 3:14 pm"
    },
    "millsfield:similar": {
      "google/siglip2-so400m-patch16-naflex": [
        {
          "distance": 0.10825556516647339,
          "id": 1763558833
        },
        {
          "distance": 0.118899405002594,
          "id": 1729355233
        },
        {
          "distance": 0.13969099521636963,
          "id": 1763558833
        },
        {
          "distance": 0.14002209901809692,
          "id": 1729355233
        },
        {
          "distance": 0.2515157461166382,
          "id": 1729362189
        },
        {
          "distance": 0.2563283443450928,
          "id": 1729359483
        },
        {
          "distance": 0.25963830947875977,
          "id": 1729358607
        },
        {
          "distance": 0.26845717430114746,
          "id": 1763558961
        },
        {
          "distance": 0.2783825397491455,
          "id": 1880150903
        },
        {
          "distance": 0.2810068726539612,
          "id": 1729359843
        }
      ]
    },
    "sfomuseum:placetype": "instagram",
    "src:geom": "sfomuseum",
    "wof:belongsto": [
      1159160869,
      102527513,
      102191575,
      85633793,
      102087579,
      85922583,
      85688637
    ],
    "wof:country": "US",
    "wof:created": 1558451640,
    "wof:geomhash": "b6e33f47475d56bc8da457bc31afadc8",
    "wof:hierarchy": [
      {
        "building_id": 1159160869,
        "campus_id": 102527513,
        "continent_id": 102191575,
        "country_id": 85633793,
        "county_id": 102087579,
        "custom_id": 1729356545,
        "instagram_id": 1729356545,
        "locality_id": 85922583,
        "neighbourhood_id": -1,
        "region_id": 85688637
      }
    ],
    "wof:id": 1729356545,
    "wof:lastmodified": 1787777629,
    "wof:name": "#OnThisDay in 1927, Charles A. Lindbergh landed in Paris, France, after completing his historic, first solo crossing of the Atlantic Ocean...",
    "wof:parent_id": 1159160869,
    "wof:placetype": "custom",
    "wof:placetype_alt": [
      "instagram"
    ],
    "wof:repo": "sfomuseum-data-socialmedia-instagram",
    "wof:superseded_by": [],
    "wof:supersedes": []
  },
  "bbox": [
    -122.386166,
    37.616356,
    -122.386166,
    37.616356
  ],
  "geometry": {"type":"Point","coordinates":[-122.386166,37.616356]}
}
