{
  "id": 1729356941,
  "type": "Feature",
  "properties": {
    "date:cessation_lower": "2019-02-14",
    "date:cessation_upper": "2019-02-14",
    "date:inception_lower": "2019-02-14",
    "date:inception_upper": "2019-02-14",
    "edtf:cessation": "2019-02-14T02:34:00-08:00",
    "edtf:inception": "2019-02-14T02:34:00-08:00",
    "geom:area": 0,
    "geom:bbox": "-122.386166,37.616356,-122.386166,37.616356",
    "geom:latitude": 37.616356,
    "geom:longitude": -122.386166,
    "instagram:post": {
      "caption": {
        "body": "",
        "excerpt": "",
        "hashtags": [
          "VideoArtsSFOM",
          "valentinesday2019",
          "valentines",
          "valentinesday",
          "valentine",
          "happyvalentinesday",
          "happyvalentine",
          "happyvalentines"
        ],
        "users": []
      },
      "media_id": "3720c5bea395d585a78b84f5b69f080c",
      "path": "media/other/50873121_292946501390273_4262079921599332529_n_17998736563163395.jpg",
      "perceptual_hash": "p:d50b81c64f3d6cd1",
      "taken": 1550140440,
      "taken_at": "Feb 14, 2019 10:34 am"
    },
    "millsfield:similar": {
      "google/siglip2-so400m-patch16-naflex": [
        {
          "distance": 0.21991032361984253,
          "id": 1729358551
        },
        {
          "distance": 0.2347593903541565,
          "id": 1729358551
        },
        {
          "distance": 0.2569926381111145,
          "id": 1729355483
        },
        {
          "distance": 0.25906193256378174,
          "id": 1729355541
        },
        {
          "distance": 0.26707255840301514,
          "id": 1947425011
        },
        {
          "distance": 0.27002090215682983,
          "id": 1947425011
        },
        {
          "distance": 0.28179264068603516,
          "id": 1729355483
        },
        {
          "distance": 0.28461724519729614,
          "id": 1763559213
        },
        {
          "distance": 0.28571075201034546,
          "id": 1729355541
        },
        {
          "distance": 0.29230576753616333,
          "id": 1763559193
        }
      ]
    },
    "sfomuseum:placetype": "instagram",
    "src:geom": "sfomuseum",
    "wof:belongsto": [
      1159160869,
      102527513,
      102191575,
      85633793,
      102087579,
      85922583,
      85688637
    ],
    "wof:country": "US",
    "wof:created": 1550140440,
    "wof:geomhash": "b6e33f47475d56bc8da457bc31afadc8",
    "wof:hierarchy": [
      {
        "building_id": 1159160869,
        "campus_id": 102527513,
        "continent_id": 102191575,
        "country_id": 85633793,
        "county_id": 102087579,
        "custom_id": 1729356941,
        "instagram_id": 1729356941,
        "locality_id": 85922583,
        "neighbourhood_id": -1,
        "region_id": 85688637
      }
    ],
    "wof:id": 1729356941,
    "wof:lastmodified": 1787777629,
    "wof:name": "..",
    "wof:parent_id": 1159160869,
    "wof:placetype": "custom",
    "wof:placetype_alt": [
      "instagram"
    ],
    "wof:repo": "sfomuseum-data-socialmedia-instagram",
    "wof:superseded_by": [],
    "wof:supersedes": []
  },
  "bbox": [
    -122.386166,
    37.616356,
    -122.386166,
    37.616356
  ],
  "geometry": {"type":"Point","coordinates":[-122.386166,37.616356]}
}
