{
  "id": 1729362803,
  "type": "Feature",
  "properties": {
    "date:cessation_lower": "2013-02-08",
    "date:cessation_upper": "2013-02-08",
    "date:inception_lower": "2013-02-08",
    "date:inception_upper": "2013-02-08",
    "edtf:cessation": "2013-02-08T03:09:00-08:00",
    "edtf:inception": "2013-02-08T03:09:00-08:00",
    "geom:area": 0,
    "geom:bbox": "-122.386166,37.616356,-122.386166,37.616356",
    "geom:latitude": 37.616356,
    "geom:longitude": -122.386166,
    "instagram:post": {
      "caption": {
        "body": "",
        "excerpt": "",
        "hashtags": [
          "aviation",
          "avgeek"
        ],
        "users": []
      },
      "media_id": "976c25ebc5097f669646609086a02cad",
      "path": "media/other/11252896_810457659001509_738807900_n_17842299982062499.jpg",
      "perceptual_hash": "p:8444f9e1fb27c81b",
      "taken": 1360321740,
      "taken_at": "Feb 08, 2013 11:09 am"
    },
    "millsfield:similar": {
      "google/siglip2-so400m-patch16-naflex": [
        {
          "distance": 0.3046960234642029,
          "id": 1729359021
        },
        {
          "distance": 0.3046960234642029,
          "id": 1763558681
        },
        {
          "distance": 0.32440632581710815,
          "id": 1729359021
        },
        {
          "distance": 0.32440632581710815,
          "id": 1763558681
        },
        {
          "distance": 0.3524608016014099,
          "id": 1729362795
        },
        {
          "distance": 0.37582826614379883,
          "id": 1729362481
        },
        {
          "distance": 0.3834986686706543,
          "id": 1729362901
        },
        {
          "distance": 0.38719964027404785,
          "id": 1729362679
        },
        {
          "distance": 0.38989245891571045,
          "id": 1729362709
        },
        {
          "distance": 0.3931400179862976,
          "id": 1729362889
        }
      ]
    },
    "sfomuseum:placetype": "instagram",
    "src:geom": "sfomuseum",
    "wof:belongsto": [
      1159160869,
      102527513,
      102191575,
      85633793,
      102087579,
      85922583,
      85688637
    ],
    "wof:country": "US",
    "wof:created": 1360321740,
    "wof:geomhash": "b6e33f47475d56bc8da457bc31afadc8",
    "wof:hierarchy": [
      {
        "building_id": 1159160869,
        "campus_id": 102527513,
        "continent_id": 102191575,
        "country_id": 85633793,
        "county_id": 102087579,
        "custom_id": 1729362803,
        "instagram_id": 1729362803,
        "locality_id": 85922583,
        "neighbourhood_id": -1,
        "region_id": 85688637
      }
    ],
    "wof:id": 1729362803,
    "wof:lastmodified": 1787777648,
    "wof:name": "..",
    "wof:parent_id": 1159160869,
    "wof:placetype": "custom",
    "wof:placetype_alt": [
      "instagram"
    ],
    "wof:repo": "sfomuseum-data-socialmedia-instagram",
    "wof:superseded_by": [],
    "wof:supersedes": []
  },
  "bbox": [
    -122.386166,
    37.616356,
    -122.386166,
    37.616356
  ],
  "geometry": {"type":"Point","coordinates":[-122.386166,37.616356]}
}
