{
  "id": 1729362325,
  "type": "Feature",
  "properties": {
    "date:cessation_lower": "2014-04-17",
    "date:cessation_upper": "2014-04-17",
    "date:inception_lower": "2014-04-17",
    "date:inception_upper": "2014-04-17",
    "edtf:cessation": "2014-04-17T03:17:00-07:00",
    "edtf:inception": "2014-04-17T03:17:00-07:00",
    "geom:area": 0,
    "geom:bbox": "-122.386166,37.616356,-122.386166,37.616356",
    "geom:latitude": 37.616356,
    "geom:longitude": -122.386166,
    "instagram:post": {
      "caption": {
        "body": "",
        "excerpt": "",
        "hashtags": [
          "lace",
          "fashion",
          "design"
        ],
        "users": []
      },
      "media_id": "bb30794f117ed8b37d327f01f9c1956e",
      "path": "media/other/10249392_1583779555181414_2095128542_n_17842420924062499.jpg",
      "perceptual_hash": "p:eb36c07835c9d626",
      "taken": 1397729820,
      "taken_at": "Apr 17, 2014 10:17 am"
    },
    "millsfield:similar": {
      "google/siglip2-so400m-patch16-naflex": [
        {
          "distance": 0.19603484869003296,
          "id": 1729362233
        },
        {
          "distance": 0.20391380786895752,
          "id": 1729362403
        },
        {
          "distance": 0.23481065034866333,
          "id": 1729362233
        },
        {
          "distance": 0.2435704469680786,
          "id": 1729362289
        },
        {
          "distance": 0.25444674491882324,
          "id": 1729362335
        },
        {
          "distance": 0.25764918327331543,
          "id": 1729362221
        },
        {
          "distance": 0.2603992819786072,
          "id": 1729362263
        },
        {
          "distance": 0.2604072690010071,
          "id": 1729362349
        },
        {
          "distance": 0.26339173316955566,
          "id": 1729362263
        },
        {
          "distance": 0.26597505807876587,
          "id": 1729362281
        }
      ]
    },
    "sfomuseum:placetype": "instagram",
    "src:geom": "sfomuseum",
    "wof:belongsto": [
      1159160869,
      102527513,
      102191575,
      85633793,
      102087579,
      85922583,
      85688637
    ],
    "wof:country": "US",
    "wof:created": 1397729820,
    "wof:geomhash": "b6e33f47475d56bc8da457bc31afadc8",
    "wof:hierarchy": [
      {
        "building_id": 1159160869,
        "campus_id": 102527513,
        "continent_id": 102191575,
        "country_id": 85633793,
        "county_id": 102087579,
        "custom_id": 1729362325,
        "instagram_id": 1729362325,
        "locality_id": 85922583,
        "neighbourhood_id": -1,
        "region_id": 85688637
      }
    ],
    "wof:id": 1729362325,
    "wof:lastmodified": 1787777647,
    "wof:name": "..",
    "wof:parent_id": 1159160869,
    "wof:placetype": "custom",
    "wof:placetype_alt": [
      "instagram"
    ],
    "wof:repo": "sfomuseum-data-socialmedia-instagram",
    "wof:superseded_by": [],
    "wof:supersedes": []
  },
  "bbox": [
    -122.386166,
    37.616356,
    -122.386166,
    37.616356
  ],
  "geometry": {"type":"Point","coordinates":[-122.386166,37.616356]}
}
