{
  "id": 1729360489,
  "type": "Feature",
  "properties": {
    "date:cessation_lower": "2016-07-26",
    "date:cessation_upper": "2016-07-26",
    "date:inception_lower": "2016-07-26",
    "date:inception_upper": "2016-07-26",
    "edtf:cessation": "2016-07-26T12:20:00-07:00",
    "edtf:inception": "2016-07-26T12:20:00-07:00",
    "geom:area": 0,
    "geom:bbox": "-122.386166,37.616356,-122.386166,37.616356",
    "geom:latitude": 37.616356,
    "geom:longitude": -122.386166,
    "instagram:post": {
      "caption": {
        "body": "",
        "excerpt": "",
        "hashtags": [
          "TravelTuesday"
        ],
        "users": []
      },
      "media_id": "8d0eec34ddce9ee07b4801d2720c4315",
      "path": "media/other/13703007_1785336538370637_1623183046_n_17858521537034519.jpg",
      "perceptual_hash": "p:b899c3664cf06c9b",
      "taken": 1469560800,
      "taken_at": "Jul 26, 2016 7:20 pm"
    },
    "millsfield:similar": {
      "google/siglip2-so400m-patch16-naflex": [
        {
          "distance": 0.25760746002197266,
          "id": 1729360475
        },
        {
          "distance": 0.27596813440322876,
          "id": 1729360641
        },
        {
          "distance": 0.2802010774612427,
          "id": 1729360299
        },
        {
          "distance": 0.28044992685317993,
          "id": 1947424967
        },
        {
          "distance": 0.2908453345298767,
          "id": 1729355197
        },
        {
          "distance": 0.2928650379180908,
          "id": 1729356257
        },
        {
          "distance": 0.2990143895149231,
          "id": 1763559353
        },
        {
          "distance": 0.2993727922439575,
          "id": 1729359319
        },
        {
          "distance": 0.2997865080833435,
          "id": 1729357961
        },
        {
          "distance": 0.3014982342720032,
          "id": 1729360867
        }
      ]
    },
    "sfomuseum:placetype": "instagram",
    "src:geom": "sfomuseum",
    "wof:belongsto": [
      1159160869,
      102527513,
      102191575,
      85633793,
      102087579,
      85922583,
      85688637
    ],
    "wof:country": "US",
    "wof:created": 1469560800,
    "wof:geomhash": "b6e33f47475d56bc8da457bc31afadc8",
    "wof:hierarchy": [
      {
        "building_id": 1159160869,
        "campus_id": 102527513,
        "continent_id": 102191575,
        "country_id": 85633793,
        "county_id": 102087579,
        "custom_id": 1729360489,
        "instagram_id": 1729360489,
        "locality_id": 85922583,
        "neighbourhood_id": -1,
        "region_id": 85688637
      }
    ],
    "wof:id": 1729360489,
    "wof:lastmodified": 1787777640,
    "wof:name": "..",
    "wof:parent_id": 1159160869,
    "wof:placetype": "custom",
    "wof:placetype_alt": [
      "instagram"
    ],
    "wof:repo": "sfomuseum-data-socialmedia-instagram",
    "wof:superseded_by": [],
    "wof:supersedes": []
  },
  "bbox": [
    -122.386166,
    37.616356,
    -122.386166,
    37.616356
  ],
  "geometry": {"type":"Point","coordinates":[-122.386166,37.616356]}
}
