{
  "id": 1729361593,
  "type": "Feature",
  "properties": {
    "date:cessation_lower": "2015-08-20",
    "date:cessation_upper": "2015-08-20",
    "date:inception_lower": "2015-08-20",
    "date:inception_upper": "2015-08-20",
    "edtf:cessation": "2015-08-20T11:22:00-07:00",
    "edtf:inception": "2015-08-20T11:22:00-07:00",
    "geom:area": 0,
    "geom:bbox": "-122.386166,37.616356,-122.386166,37.616356",
    "geom:latitude": 37.616356,
    "geom:longitude": -122.386166,
    "instagram:post": {
      "caption": {
        "body": "",
        "excerpt": "",
        "hashtags": [
          "ThrowbackThursday"
        ],
        "users": []
      },
      "media_id": "bffab44ff4b95cb06d2e760adafcecae",
      "path": "media/other/11326143_745840338875261_1055886600_n_17842157257062499.jpg",
      "perceptual_hash": "p:d1108c4767aebfd0",
      "taken": 1440094920,
      "taken_at": "Aug 20, 2015 6:22 pm"
    },
    "millsfield:similar": {
      "google/siglip2-so400m-patch16-naflex": [
        {
          "distance": 0.0914495587348938,
          "id": 1729361615
        },
        {
          "distance": 0.10626649856567383,
          "id": 1729359719
        },
        {
          "distance": 0.13048166036605835,
          "id": 1729355091
        },
        {
          "distance": 0.14615726470947266,
          "id": 1729359159
        },
        {
          "distance": 0.15743470191955566,
          "id": 1763558661
        },
        {
          "distance": 0.15743470191955566,
          "id": 1729359633
        },
        {
          "distance": 0.15972089767456055,
          "id": 1729360619
        },
        {
          "distance": 0.16146135330200195,
          "id": 1729360637
        },
        {
          "distance": 0.1683306097984314,
          "id": 1729360279
        },
        {
          "distance": 0.17504572868347168,
          "id": 1729361615
        }
      ]
    },
    "sfomuseum:placetype": "instagram",
    "src:geom": "sfomuseum",
    "wof:belongsto": [
      1159160869,
      102527513,
      102191575,
      85633793,
      102087579,
      85922583,
      85688637
    ],
    "wof:country": "US",
    "wof:created": 1440094920,
    "wof:geomhash": "b6e33f47475d56bc8da457bc31afadc8",
    "wof:hierarchy": [
      {
        "building_id": 1159160869,
        "campus_id": 102527513,
        "continent_id": 102191575,
        "country_id": 85633793,
        "county_id": 102087579,
        "custom_id": 1729361593,
        "instagram_id": 1729361593,
        "locality_id": 85922583,
        "neighbourhood_id": -1,
        "region_id": 85688637
      }
    ],
    "wof:id": 1729361593,
    "wof:lastmodified": 1787777646,
    "wof:name": "..",
    "wof:parent_id": 1159160869,
    "wof:placetype": "custom",
    "wof:placetype_alt": [
      "instagram"
    ],
    "wof:repo": "sfomuseum-data-socialmedia-instagram",
    "wof:superseded_by": [],
    "wof:supersedes": []
  },
  "bbox": [
    -122.386166,
    37.616356,
    -122.386166,
    37.616356
  ],
  "geometry": {"type":"Point","coordinates":[-122.386166,37.616356]}
}
