{
  "id": 1729361833,
  "type": "Feature",
  "properties": {
    "date:cessation_lower": "2015-04-16",
    "date:cessation_upper": "2015-04-16",
    "date:inception_lower": "2015-04-16",
    "date:inception_upper": "2015-04-16",
    "edtf:cessation": "2015-04-16T08:52:00-07:00",
    "edtf:inception": "2015-04-16T08:52:00-07:00",
    "geom:area": 0,
    "geom:bbox": "-122.386166,37.616356,-122.386166,37.616356",
    "geom:latitude": 37.616356,
    "geom:longitude": -122.386166,
    "instagram:post": {
      "caption": {
        "body": "",
        "excerpt": "",
        "hashtags": [
          "PPIE100",
          "PPIE",
          "SFhistory",
          "avgeek",
          "throwbackthursday"
        ],
        "users": []
      },
      "media_id": "bfcfdcfd77f9190da19a7ccd572e1356",
      "path": "media/other/10729200_1587994811468812_390585761_n_17841574210062499.jpg",
      "perceptual_hash": "p:97a9cc4833b2ed4c",
      "taken": 1429199520,
      "taken_at": "Apr 16, 2015 3:52 pm"
    },
    "millsfield:similar": {
      "google/siglip2-so400m-patch16-naflex": [
        {
          "distance": 0.1934031844139099,
          "id": 1880151445
        },
        {
          "distance": 0.19710040092468262,
          "id": 1729356091
        },
        {
          "distance": 0.197401225566864,
          "id": 1729360319
        },
        {
          "distance": 0.20080864429473877,
          "id": 1729360319
        },
        {
          "distance": 0.20738083124160767,
          "id": 1763558839
        },
        {
          "distance": 0.20957475900650024,
          "id": 1729356091
        },
        {
          "distance": 0.2098950743675232,
          "id": 1729361881
        },
        {
          "distance": 0.2115078568458557,
          "id": 1880151445
        },
        {
          "distance": 0.21231573820114136,
          "id": 1729355287
        },
        {
          "distance": 0.21989130973815918,
          "id": 1729359577
        }
      ]
    },
    "sfomuseum:placetype": "instagram",
    "src:geom": "sfomuseum",
    "wof:belongsto": [
      1159160869,
      102527513,
      102191575,
      85633793,
      102087579,
      85922583,
      85688637
    ],
    "wof:country": "US",
    "wof:created": 1429199520,
    "wof:geomhash": "b6e33f47475d56bc8da457bc31afadc8",
    "wof:hierarchy": [
      {
        "building_id": 1159160869,
        "campus_id": 102527513,
        "continent_id": 102191575,
        "country_id": 85633793,
        "county_id": 102087579,
        "custom_id": 1729361833,
        "instagram_id": 1729361833,
        "locality_id": 85922583,
        "neighbourhood_id": -1,
        "region_id": 85688637
      }
    ],
    "wof:id": 1729361833,
    "wof:lastmodified": 1787777646,
    "wof:name": "..",
    "wof:parent_id": 1159160869,
    "wof:placetype": "custom",
    "wof:placetype_alt": [
      "instagram"
    ],
    "wof:repo": "sfomuseum-data-socialmedia-instagram",
    "wof:superseded_by": [],
    "wof:supersedes": []
  },
  "bbox": [
    -122.386166,
    37.616356,
    -122.386166,
    37.616356
  ],
  "geometry": {"type":"Point","coordinates":[-122.386166,37.616356]}
}
