{
  "id": 1880151097,
  "type": "Feature",
  "properties": {
    "date:cessation_lower": "2023-02-24",
    "date:cessation_upper": "2023-02-24",
    "date:inception_lower": "2023-02-24",
    "date:inception_upper": "2023-02-24",
    "edtf:cessation": "2023-02-24T09:00:00-08:00",
    "edtf:inception": "2023-02-24T09:00:00-08:00",
    "geom:area": 0,
    "geom:bbox": "-122.386166,37.616356,-122.386166,37.616356",
    "geom:latitude": 37.616356,
    "geom:longitude": -122.386166,
    "instagram:post": {
      "caption": {
        "body": "In the 1930s, as commercial aviation evolved into a more practical mode of transportation, San Francisco Airport launched a series of major improvements. Backed by funding and labor from President Franklin D. Roosevelt’s “New Deal” and the Works Progress Administration (WPA), by 1937, more than 790,000 square-feet of concrete runways, taxiways, and aircraft parking were in place, illuminated by modern, multicolored lighting and 45,700 feet of underground power lines.   A new administration and terminal building was also completed that year. Designed in the Spanish Colonial Revival style, the building included a four-story control tower, restaurant, cocktail lounge, and a grand passenger waiting room with terrazzo floors and a stenciled ceiling. A matching building for the complex airfield lighting system sat adjacent to the hangars, and by the end of the decade, two-way radio communications were required for all aircraft.   See “Mills Field and the San Francisco Airport” is on display in the SkyTerrace in Terminal 2 and online at: https://bit.ly/2XU7rAz   The SkyTerrace located pre-security in Terminal 2 and is open Friday to Monday from 10:00 a.m. to 6:00 p.m.",
        "excerpt": "In the 1930s, as commercial aviation evolved into a more practical mode of transportation, San Francisco Airport launched a series of major improvements.",
        "hashtags": [
          "MillsField",
          "SFOHistory",
          "AvGeek"
        ],
        "users": []
      },
      "media_id": "7d9205ff101db259376e0405f8b719c5b884d95e",
      "path": "media/posts/202302/333127136_900564674325018_4220568121213898514_n_18166912288277903.jpg",
      "perceptual_hash": "p:ff4a409a6d8a34cb",
      "taken": 1677258000,
      "taken_at": "Feb 24, 2023 5:00 pm"
    },
    "millsfield:similar": {
      "google/siglip2-so400m-patch16-naflex": [
        {
          "distance": 0.11733341217041016,
          "id": 1729360199
        },
        {
          "distance": 0.12213689088821411,
          "id": 1729358981
        },
        {
          "distance": 0.12443453073501587,
          "id": 1763559223
        },
        {
          "distance": 0.13139522075653076,
          "id": 1729361525
        },
        {
          "distance": 0.14326328039169312,
          "id": 1880151449
        },
        {
          "distance": 0.14589333534240723,
          "id": 1947425253
        },
        {
          "distance": 0.15331417322158813,
          "id": 1729358981
        },
        {
          "distance": 0.15779149532318115,
          "id": 1729360191
        },
        {
          "distance": 0.18337494134902954,
          "id": 1729360199
        },
        {
          "distance": 0.18360644578933716,
          "id": 1729359497
        }
      ]
    },
    "sfomuseum:placetype": "instagram",
    "src:geom": "sfomuseum",
    "wof:belongsto": [
      1159160869,
      102527513,
      102191575,
      85633793,
      102087579,
      85922583,
      85688637
    ],
    "wof:country": "US",
    "wof:created": 1677258000,
    "wof:geomhash": "b6e33f47475d56bc8da457bc31afadc8",
    "wof:hierarchy": [
      {
        "building_id": 1159160869,
        "campus_id": 102527513,
        "continent_id": 102191575,
        "country_id": 85633793,
        "county_id": 102087579,
        "custom_id": 1880151097,
        "instagram_id": 1880151097,
        "locality_id": 85922583,
        "neighbourhood_id": -1,
        "region_id": 85688637
      }
    ],
    "wof:id": 1880151097,
    "wof:lastmodified": 1787777662,
    "wof:name": "In the 1930s, as commercial aviation evolved into a more practical mode of transportation, San Francisco Airport launched a series of major improvements...",
    "wof:parent_id": 1159160869,
    "wof:placetype": "custom",
    "wof:placetype_alt": [
      "instagram"
    ],
    "wof:repo": "sfomuseum-data-socialmedia-instagram",
    "wof:superseded_by": [],
    "wof:supersedes": []
  },
  "bbox": [
    -122.386166,
    37.616356,
    -122.386166,
    37.616356
  ],
  "geometry": {"type":"Point","coordinates":[-122.386166,37.616356]}
}
