{
  "id": 1729358393,
  "type": "Feature",
  "properties": {
    "date:cessation_lower": "2018-04-02",
    "date:cessation_upper": "2018-04-02",
    "date:inception_lower": "2018-04-02",
    "date:inception_upper": "2018-04-02",
    "edtf:cessation": "2018-04-02T09:26:00-07:00",
    "edtf:inception": "2018-04-02T09:26:00-07:00",
    "geom:area": 0,
    "geom:bbox": "-122.386166,37.616356,-122.386166,37.616356",
    "geom:latitude": 37.616356,
    "geom:longitude": -122.386166,
    "instagram:post": {
      "caption": {
        "body": "A challenge when working with art in public spaces is how to clean objects on long-term display. #SFOMuseum's registration department performs regular night cleanings between 11pm and 3am, when the fewest number of passengers are present, for objects such this piece, \"¡Baile!\" by Carmen Lomas Garza",
        "excerpt": "A challenge when working with art in public spaces is how to clean objects on long-term display.",
        "hashtags": [
          "MuseumMonday",
          "BehindtheScenes",
          "publicart",
          "airportart",
          "paxex",
          "CarmenLomasGarza",
          "SFO"
        ],
        "users": []
      },
      "media_id": "84b74bc70cf2cb99dbcf144fc9c576dc",
      "path": "media/other/29716287_1659849827432986_1484382088097431552_n_17930399155070131.jpg",
      "perceptual_hash": "p:9c447191f363f658",
      "taken": 1522686360,
      "taken_at": "Apr 02, 2018 4:26 pm"
    },
    "millsfield:similar": {
      "google/siglip2-so400m-patch16-naflex": [
        {
          "distance": 0.261482298374176,
          "id": 1880151689
        },
        {
          "distance": 0.2661753296852112,
          "id": 1880151275
        },
        {
          "distance": 0.26698338985443115,
          "id": 1880151689
        },
        {
          "distance": 0.28278112411499023,
          "id": 1763558931
        },
        {
          "distance": 0.2843533158302307,
          "id": 1763559555
        },
        {
          "distance": 0.28790026903152466,
          "id": 1880151275
        },
        {
          "distance": 0.3045743703842163,
          "id": 1729355101
        },
        {
          "distance": 0.30475741624832153,
          "id": 1729355629
        },
        {
          "distance": 0.3061447739601135,
          "id": 1729357611
        },
        {
          "distance": 0.31199783086776733,
          "id": 1729357999
        }
      ]
    },
    "sfomuseum:placetype": "instagram",
    "src:geom": "sfomuseum",
    "wof:belongsto": [
      1159160869,
      102527513,
      102191575,
      85633793,
      102087579,
      85922583,
      85688637
    ],
    "wof:country": "US",
    "wof:created": 1522686360,
    "wof:geomhash": "b6e33f47475d56bc8da457bc31afadc8",
    "wof:hierarchy": [
      {
        "building_id": 1159160869,
        "campus_id": 102527513,
        "continent_id": 102191575,
        "country_id": 85633793,
        "county_id": 102087579,
        "custom_id": 1729358393,
        "instagram_id": 1729358393,
        "locality_id": 85922583,
        "neighbourhood_id": -1,
        "region_id": 85688637
      }
    ],
    "wof:id": 1729358393,
    "wof:lastmodified": 1787777633,
    "wof:name": "A challenge when working with art in public spaces is how to clean objects on long-term display...",
    "wof:parent_id": 1159160869,
    "wof:placetype": "custom",
    "wof:placetype_alt": [
      "instagram"
    ],
    "wof:repo": "sfomuseum-data-socialmedia-instagram",
    "wof:superseded_by": [],
    "wof:supersedes": []
  },
  "bbox": [
    -122.386166,
    37.616356,
    -122.386166,
    37.616356
  ],
  "geometry": {"type":"Point","coordinates":[-122.386166,37.616356]}
}
