{
  "id": 1729358529,
  "type": "Feature",
  "properties": {
    "date:cessation_lower": "2018-02-20",
    "date:cessation_upper": "2018-02-20",
    "date:inception_lower": "2018-02-20",
    "date:inception_upper": "2018-02-20",
    "edtf:cessation": "2018-02-20T14:51:09-08:00",
    "edtf:inception": "2018-02-20T14:51:09-08:00",
    "geom:area": 0,
    "geom:bbox": "-122.386166,37.616356,-122.386166,37.616356",
    "geom:latitude": 37.616356,
    "geom:longitude": -122.386166,
    "instagram:post": {
      "caption": {
        "body": "Developed behind the Iron Curtain by the Tupolev Design Bureau during the late 1950s, the massive Tu-114 Rossiya (Russia) turboprop airliner was introduced by the Soviet national airline Aeroflot in 1961. With a range of nearly 4,000 miles and a capacity of up to 220 passengers, the Tu-114 was an ideal aircraft for Aeroflot's long-distance domestic routes throughout the vast territories of the U.S.S.R, as well as international flights to Europe and transatlantic flights to North America and Cuba. In 1967, Tu-114 service was initiated to Japan under an agreement with Japan Air Lines in which the two airlines shared flight crew duties. Aeroflot operated the Tu-114 until the 1970s.  See \"Aviation Evolutions: The Jim Lund 1:72 Scale Model Airplane Collection\", which features more than 200 models, on display pre-security in the Aviation Museum. http://bit.ly/AviationEvolutions",
        "excerpt": "Developed behind the Iron Curtain by the Tupolev Design Bureau during the late 1950s, the massive Tu-114 Rossiya (Russia) turboprop airliner was introduced by the Soviet national airline Aeroflot in 1961.",
        "hashtags": [
          "AviationEvolutions",
          "jimlund",
          "avgeek",
          "avationgeek",
          "aviation",
          "aviationhistory",
          "aviationlovers",
          "vintageaviation",
          "history",
          "avhistory",
          "aviationgeeks",
          "instaplane",
          "flying",
          "modelplane",
          "flight",
          "airline",
          "avgeeks",
          "aviation4u",
          "aviationdaily",
          "modelaircraft",
          "airplane",
          "aircraft"
        ],
        "users": []
      },
      "location": "",
      "media_id": "4d3ca930480ebef5c60c0e6015a77bed",
      "path": "photos/201802/4d3ca930480ebef5c60c0e6015a77bed.jpg",
      "perceptual_hash": "p:ea089565699a5ee5",
      "taken": 1519138260,
      "taken_at": "Feb 20, 2018, 2:51 PM"
    },
    "millsfield:similar": {
      "google/siglip2-so400m-patch16-naflex": [
        {
          "distance": 0.1476925015449524,
          "id": 1729358687
        },
        {
          "distance": 0.16304123401641846,
          "id": 1763559101
        },
        {
          "distance": 0.1812189221382141,
          "id": 1729357673
        },
        {
          "distance": 0.18722772598266602,
          "id": 1729357673
        },
        {
          "distance": 0.19074982404708862,
          "id": 1729357619
        },
        {
          "distance": 0.19418823719024658,
          "id": 1729356909
        },
        {
          "distance": 0.19869625568389893,
          "id": 1729357207
        },
        {
          "distance": 0.20027494430541992,
          "id": 1729356909
        },
        {
          "distance": 0.20705407857894897,
          "id": 1729358687
        },
        {
          "distance": 0.21123254299163818,
          "id": 1729357837
        }
      ]
    },
    "sfomuseum:placetype": "instagram",
    "src:geom": "sfomuseum",
    "wof:belongsto": [
      1159160869,
      102527513,
      102191575,
      85633793,
      102087579,
      85922583,
      85688637
    ],
    "wof:country": "US",
    "wof:created": 1519167069,
    "wof:geomhash": "b6e33f47475d56bc8da457bc31afadc8",
    "wof:hierarchy": [
      {
        "building_id": 1159160869,
        "campus_id": 102527513,
        "continent_id": 102191575,
        "country_id": 85633793,
        "county_id": 102087579,
        "custom_id": 1729358529,
        "instagram_id": 1729358529,
        "locality_id": 85922583,
        "neighbourhood_id": -1,
        "region_id": 85688637
      }
    ],
    "wof:id": 1729358529,
    "wof:lastmodified": 1787777633,
    "wof:name": "Developed behind the Iron Curtain by the Tupolev Design Bureau during the late 1950s, the massive Tu-114 Rossiya (Russia) turboprop airliner was introduced by the Soviet national airline Aeroflot in 1961...",
    "wof:parent_id": 1159160869,
    "wof:placetype": "custom",
    "wof:placetype_alt": [
      "instagram"
    ],
    "wof:repo": "sfomuseum-data-socialmedia-instagram",
    "wof:superseded_by": [],
    "wof:supersedes": []
  },
  "bbox": [
    -122.386166,
    37.616356,
    -122.386166,
    37.616356
  ],
  "geometry": {"type":"Point","coordinates":[-122.386166,37.616356]}
}
