{
  "id": 1763558845,
  "type": "Feature",
  "properties": {
    "date:cessation_lower": "2020-04-15",
    "date:cessation_upper": "2020-04-15",
    "date:inception_lower": "2020-04-15",
    "date:inception_upper": "2020-04-15",
    "edtf:cessation": "2020-04-15T12:00:00-07:00",
    "edtf:inception": "2020-04-15T12:00:00-07:00",
    "geom:area": 0,
    "geom:bbox": "-122.386166,37.616356,-122.386166,37.616356",
    "geom:latitude": 37.616356,
    "geom:longitude": -122.386166,
    "instagram:post": {
      "caption": {
        "body": "Dubbed “The Uniform for the Superjet Era,” and created for the new wide-body jet service, this 1971 Pan American uniform marked a new direction in Pan Am’s approach to fashion. Designed by Frank Smith (1927–2007), chief designer at career wear manufacturer Evan-Picone, this uniform was meant to be “a functional and fashionable wardrobe that could be worn in all seasons, and of such quality that it would enhance the Pan Am image.” Image: Pan American World Airways, stewardesses and Boeing 747-100, c. 1971. Gift of the Pan Am Association. 2000.058.0503.009 ",
        "excerpt": "Dubbed “The Uniform for the Superjet Era,” and created for the new wide-body jet service, this 1971 Pan American uniform marked a new direction in Pan Am’s approach to fashion.",
        "hashtags": [
          "avgeek",
          "MuseumFromHome",
          "PanAm",
          "fashion",
          "crewlife"
        ],
        "users": []
      },
      "media_id": "b344bd48c7ef654c5a3909b4f02bfc201feef434",
      "path": "media/other/93192233_1717033101772727_6424741106282351276_n_17933203036367174.jpg",
      "perceptual_hash": "p:df912a365470e8cb",
      "taken": 1586977200,
      "taken_at": "Apr 15, 2020 7:00 pm"
    },
    "millsfield:similar": {
      "google/siglip2-so400m-patch16-naflex": [
        {
          "distance": 0.0020189881324768066,
          "id": 1729355335
        },
        {
          "distance": 0.054943978786468506,
          "id": 1729359201
        },
        {
          "distance": 0.06493973731994629,
          "id": 1729355335
        },
        {
          "distance": 0.07439661026000977,
          "id": 1729359201
        },
        {
          "distance": 0.10330086946487427,
          "id": 1729360365
        },
        {
          "distance": 0.1211930513381958,
          "id": 1729355261
        },
        {
          "distance": 0.12633514404296875,
          "id": 1729355261
        },
        {
          "distance": 0.1439821720123291,
          "id": 1729359489
        },
        {
          "distance": 0.15026944875717163,
          "id": 1729360365
        },
        {
          "distance": 0.1589127779006958,
          "id": 1729359489
        }
      ]
    },
    "sfomuseum:placetype": "instagram",
    "src:geom": "sfomuseum",
    "wof:belongsto": [
      1159160869,
      102527513,
      102191575,
      85633793,
      102087579,
      85922583,
      85688637
    ],
    "wof:country": "US",
    "wof:created": 1586977200,
    "wof:geomhash": "b6e33f47475d56bc8da457bc31afadc8",
    "wof:hierarchy": [
      {
        "building_id": 1159160869,
        "campus_id": 102527513,
        "continent_id": 102191575,
        "country_id": 85633793,
        "county_id": 102087579,
        "custom_id": 1763558845,
        "instagram_id": 1763558845,
        "locality_id": 85922583,
        "neighbourhood_id": -1,
        "region_id": 85688637
      }
    ],
    "wof:id": 1763558845,
    "wof:lastmodified": 1787777659,
    "wof:name": "Dubbed “The Uniform for the Superjet Era,” and created for the new wide-body jet service, this 1971 Pan American uniform marked a new direction in Pan Am’s approach to fashion...",
    "wof:parent_id": 1159160869,
    "wof:placetype": "custom",
    "wof:placetype_alt": [
      "instagram"
    ],
    "wof:repo": "sfomuseum-data-socialmedia-instagram",
    "wof:superseded_by": [],
    "wof:supersedes": []
  },
  "bbox": [
    -122.386166,
    37.616356,
    -122.386166,
    37.616356
  ],
  "geometry": {"type":"Point","coordinates":[-122.386166,37.616356]}
}
