{
  "id": 1729358723,
  "type": "Feature",
  "properties": {
    "date:cessation_lower": "2018-01-10",
    "date:cessation_upper": "2018-01-10",
    "date:inception_lower": "2018-01-10",
    "date:inception_upper": "2018-01-10",
    "edtf:cessation": "2018-01-10T12:30:00-08:00",
    "edtf:inception": "2018-01-10T12:30:00-08:00",
    "geom:area": 0,
    "geom:bbox": "-122.386166,37.616356,-122.386166,37.616356",
    "geom:latitude": 37.616356,
    "geom:longitude": -122.386166,
    "instagram:post": {
      "caption": {
        "body": "In 1782, Congress designated the bald eagle, unique to North America, as the national emblem. This imposing creature takes form in a variety of folk art, including wood carvings. In southeastern Pennsylvania, where wood was especially abundant, Wilhelm Schimmel (1817–90), a German immigrant who came to the United States in the 1860s, became the most famous—or perhaps infamous—carver in Cumberland County. Schimmel is particularly noted for his carved, painted eagles. In this large, outspread example, he carved the wings separately before dovetailing them to the creatures’ bodies.  Carved Wooden Eagle is courtesy of the collection of the Landis Valley Village and Farm Museum, Pennsylvania Historical and Museum Commission. See \"#AmericanFolkArt: An Enduring Legacy\", on display, pre-security, in the International Terminal. http://bit.ly/AmericanFolkArt",
        "excerpt": "In 1782, Congress designated the bald eagle, unique to North America, as the national emblem.",
        "hashtags": [
          "AmericanFolkArt",
          "wilhelmschimmel",
          "baldeagle",
          "woodworking",
          "birds",
          "eagles",
          "paintedeagles",
          "dovetail",
          "folkart",
          "PennsylvaniaGerman",
          "PennsylvaniaGermanfolkart",
          "Pennsylvania",
          "american",
          "history",
          "americana",
          "folkartfun",
          "antique",
          "vintage",
          "antiquefolkart",
          "vintagefolkart",
          "design",
          "folkartdesign",
          "folkarts",
          "folkartantiques",
          "folkartantique"
        ],
        "users": []
      },
      "media_id": "ec345e2ee3959eb3c31933b508799a3d",
      "path": "media/other/26071910_1834213063320565_3867702622249025536_n_17891436691155184.jpg",
      "perceptual_hash": "p:b2c3b62c499989db",
      "taken": 1515616200,
      "taken_at": "Jan 10, 2018 8:30 pm"
    },
    "millsfield:similar": {
      "google/siglip2-so400m-patch16-naflex": [
        {
          "distance": 0.24816566705703735,
          "id": 1729356551
        },
        {
          "distance": 0.27688270807266235,
          "id": 1729362197
        },
        {
          "distance": 0.28105252981185913,
          "id": 1947424939
        },
        {
          "distance": 0.2817307114601135,
          "id": 1729356539
        },
        {
          "distance": 0.28302669525146484,
          "id": 1729356315
        },
        {
          "distance": 0.300653874874115,
          "id": 1729356323
        },
        {
          "distance": 0.30357831716537476,
          "id": 1729356321
        },
        {
          "distance": 0.3142039179801941,
          "id": 1729356539
        },
        {
          "distance": 0.31872016191482544,
          "id": 1947425007
        },
        {
          "distance": 0.32083624601364136,
          "id": 1729362323
        }
      ]
    },
    "sfomuseum:placetype": "instagram",
    "src:geom": "sfomuseum",
    "wof:belongsto": [
      1159160869,
      102527513,
      102191575,
      85633793,
      102087579,
      85922583,
      85688637
    ],
    "wof:country": "US",
    "wof:created": 1515616200,
    "wof:geomhash": "b6e33f47475d56bc8da457bc31afadc8",
    "wof:hierarchy": [
      {
        "building_id": 1159160869,
        "campus_id": 102527513,
        "continent_id": 102191575,
        "country_id": 85633793,
        "county_id": 102087579,
        "custom_id": 1729358723,
        "instagram_id": 1729358723,
        "locality_id": 85922583,
        "neighbourhood_id": -1,
        "region_id": 85688637
      }
    ],
    "wof:id": 1729358723,
    "wof:lastmodified": 1787777634,
    "wof:name": "In 1782, Congress designated the bald eagle, unique to North America, as the national emblem...",
    "wof:parent_id": 1159160869,
    "wof:placetype": "custom",
    "wof:placetype_alt": [
      "instagram"
    ],
    "wof:repo": "sfomuseum-data-socialmedia-instagram",
    "wof:superseded_by": [],
    "wof:supersedes": []
  },
  "bbox": [
    -122.386166,
    37.616356,
    -122.386166,
    37.616356
  ],
  "geometry": {"type":"Point","coordinates":[-122.386166,37.616356]}
}
