{
  "id": 1729355741,
  "type": "Feature",
  "properties": {
    "date:cessation_lower": "2019-12-27",
    "date:cessation_upper": "2019-12-27",
    "date:inception_lower": "2019-12-27",
    "date:inception_upper": "2019-12-27",
    "edtf:cessation": "2019-12-27T10:44:39-08:00",
    "edtf:inception": "2019-12-27T10:44:39-08:00",
    "geom:area": 0,
    "geom:bbox": "-122.386166,37.616356,-122.386166,37.616356",
    "geom:latitude": 37.616356,
    "geom:longitude": -122.386166,
    "instagram:post": {
      "caption": {
        "body": "Designed by Jean-Julien Deltil (1791–1863), Zuber introduced “Les Vues d’Amérique du Nord (Views of North America),” in 1834. It requires 1,690 printing blocks, 223 colors, and thirty-two lengths totaling forty-nine feet. A French portrait of the New World in the 1830s, it features several idealized scenes beginning with New York Bay as seen from New Jersey and  culminates with a sublime natural wonder—Niagara Falls—the ultimate North American tourist destination. “Zuber: The Art of French Scenic Wallpaper” is on display, pre-security in the International Terminal. http://bit.ly/ZuberScenicWallpaper",
        "excerpt": "Designed by Jean-Julien Deltil (1791–1863), Zuber introduced “Les Vues d’Amérique du Nord (Views of North America),” in 1834.",
        "hashtags": [
          "ZuberScenicWallpaper",
          "wallpaper",
          "zuber",
          "scenicwallpaper",
          "interiordesign",
          "museum",
          "design",
          "northamerica"
        ],
        "users": []
      },
      "location": "",
      "media_id": "e6ffd781973d20fd27a4f00761acdca1",
      "path": "photos/201912/e6ffd781973d20fd27a4f00761acdca1.jpg",
      "perceptual_hash": "p:c0cb7d74d22d68a5",
      "taken": 1577443440,
      "taken_at": "Dec 27, 2019, 10:44 AM"
    },
    "millsfield:similar": {
      "google/siglip2-so400m-patch16-naflex": [
        {
          "distance": 0.12334531545639038,
          "id": 1729355727
        },
        {
          "distance": 0.15385079383850098,
          "id": 1729355721
        },
        {
          "distance": 0.17163020372390747,
          "id": 1729355721
        },
        {
          "distance": 0.18498307466506958,
          "id": 1729355727
        },
        {
          "distance": 0.18647503852844238,
          "id": 1729355981
        },
        {
          "distance": 0.19024503231048584,
          "id": 1729355713
        },
        {
          "distance": 0.19392168521881104,
          "id": 1729355719
        },
        {
          "distance": 0.23109441995620728,
          "id": 1729355713
        },
        {
          "distance": 0.24406671524047852,
          "id": 1729355719
        },
        {
          "distance": 0.2753034830093384,
          "id": 1763558877
        }
      ]
    },
    "sfomuseum:placetype": "instagram",
    "src:geom": "sfomuseum",
    "wof:belongsto": [
      1159160869,
      102527513,
      102191575,
      85633793,
      102087579,
      85922583,
      85688637
    ],
    "wof:country": "US",
    "wof:created": 1577472279,
    "wof:geomhash": "b6e33f47475d56bc8da457bc31afadc8",
    "wof:hierarchy": [
      {
        "building_id": 1159160869,
        "campus_id": 102527513,
        "continent_id": 102191575,
        "country_id": 85633793,
        "county_id": 102087579,
        "custom_id": 1729355741,
        "instagram_id": 1729355741,
        "locality_id": 85922583,
        "neighbourhood_id": -1,
        "region_id": 85688637
      }
    ],
    "wof:id": 1729355741,
    "wof:lastmodified": 1787777627,
    "wof:name": "Designed by Jean-Julien Deltil (1791–1863), Zuber introduced “Les Vues d’Amérique du Nord (Views of North America),” in 1834...",
    "wof:parent_id": 1159160869,
    "wof:placetype": "custom",
    "wof:placetype_alt": [
      "instagram"
    ],
    "wof:repo": "sfomuseum-data-socialmedia-instagram",
    "wof:superseded_by": [],
    "wof:supersedes": []
  },
  "bbox": [
    -122.386166,
    37.616356,
    -122.386166,
    37.616356
  ],
  "geometry": {"type":"Point","coordinates":[-122.386166,37.616356]}
}
