{
  "id": 1729361161,
  "type": "Feature",
  "properties": {
    "date:cessation_lower": "2016-01-14",
    "date:cessation_upper": "2016-01-14",
    "date:inception_lower": "2016-01-14",
    "date:inception_upper": "2016-01-14",
    "edtf:cessation": "2016-01-13T20:02:36-08:00",
    "edtf:inception": "2016-01-13T20:02:36-08:00",
    "geom:area": 0,
    "geom:bbox": "-122.386166,37.616356,-122.386166,37.616356",
    "geom:latitude": 37.616356,
    "geom:longitude": -122.386166,
    "instagram:post": {
      "caption": {
        "body": "",
        "excerpt": "",
        "hashtags": [
          "WomenInAviation"
        ],
        "users": []
      },
      "location": "SFO Museum",
      "media_id": "8b39922be5f92d9c1b37b6b6a3a88b4c",
      "path": "photos/201601/8b39922be5f92d9c1b37b6b6a3a88b4c.jpg",
      "perceptual_hash": "p:898586aa2eecd673",
      "taken": 1452715320,
      "taken_at": "Jan 13, 2016, 8:02 PM"
    },
    "millsfield:similar": {
      "google/siglip2-so400m-patch16-naflex": [
        {
          "distance": 0.000020802021026611328,
          "id": 1763558609
        },
        {
          "distance": 0.024267852306365967,
          "id": 1729357247
        },
        {
          "distance": 0.09664762020111084,
          "id": 1729356707
        },
        {
          "distance": 0.10544997453689575,
          "id": 1763558609
        },
        {
          "distance": 0.12754327058792114,
          "id": 1729357247
        },
        {
          "distance": 0.15068751573562622,
          "id": 1729357725
        },
        {
          "distance": 0.1803044080734253,
          "id": 1729357725
        },
        {
          "distance": 0.18474608659744263,
          "id": 1729357841
        },
        {
          "distance": 0.18520647287368774,
          "id": 1763559527
        },
        {
          "distance": 0.18537551164627075,
          "id": 1729360319
        }
      ]
    },
    "sfomuseum:placetype": "instagram",
    "src:geom": "sfomuseum",
    "wof:belongsto": [
      1159160869,
      102527513,
      102191575,
      85633793,
      102087579,
      85922583,
      85688637
    ],
    "wof:country": "US",
    "wof:created": 1452744156,
    "wof:geomhash": "b6e33f47475d56bc8da457bc31afadc8",
    "wof:hierarchy": [
      {
        "building_id": 1159160869,
        "campus_id": 102527513,
        "continent_id": 102191575,
        "country_id": 85633793,
        "county_id": 102087579,
        "custom_id": 1729361161,
        "instagram_id": 1729361161,
        "locality_id": 85922583,
        "neighbourhood_id": -1,
        "region_id": 85688637
      }
    ],
    "wof:id": 1729361161,
    "wof:lastmodified": 1787777645,
    "wof:name": "..",
    "wof:parent_id": 1159160869,
    "wof:placetype": "custom",
    "wof:placetype_alt": [
      "instagram"
    ],
    "wof:repo": "sfomuseum-data-socialmedia-instagram",
    "wof:superseded_by": [],
    "wof:supersedes": []
  },
  "bbox": [
    -122.386166,
    37.616356,
    -122.386166,
    37.616356
  ],
  "geometry": {"type":"Point","coordinates":[-122.386166,37.616356]}
}
