{
  "id": 1729360609,
  "type": "Feature",
  "properties": {
    "date:cessation_lower": "2016-06-19",
    "date:cessation_upper": "2016-06-19",
    "date:inception_lower": "2016-06-19",
    "date:inception_upper": "2016-06-19",
    "edtf:cessation": "2016-06-19T03:06:00-07:00",
    "edtf:inception": "2016-06-19T03:06:00-07:00",
    "geom:area": 0,
    "geom:bbox": "-122.386166,37.616356,-122.386166,37.616356",
    "geom:latitude": 37.616356,
    "geom:longitude": -122.386166,
    "instagram:post": {
      "caption": {
        "body": "The Ruth Asawa San Francisco School of the Arts (SOTA) located in the Diamond Heights neighborhood of San Francisco, is a four-year public high school serving students who excel in visual, performing, and creative arts. At SOTA, students majoring in visual arts complete an intensive four-year course of study that includes drawing, painting, sculpture, and photography and design. The graphite, charcoal, and color pencil drawings on display, created by tenth-grade students, are expressions of their daily life and surroundings, and are concerned with the effect of light and color on various surfaces. \"Ruth Asawa San Francisco School of the Arts: Studies From Life\" is on display, pre-security, on the arrivals level of Terminal 1. http://bit.ly/1rtD11Q",
        "excerpt": "The Ruth Asawa San Francisco School of the Arts (SOTA) located in the Diamond Heights neighborhood of San Francisco, is a four-year public high school serving students who excel in visual, performing, and creative arts.",
        "hashtags": [],
        "users": []
      },
      "media_id": "580e9790e52a25e6930d46c2ca876ea3",
      "path": "media/other/13388642_1038186059606938_1276457368_n_17848486939086849.jpg",
      "perceptual_hash": "p:8345bf7c9790c2d2",
      "taken": 1466330760,
      "taken_at": "Jun 19, 2016 10:06 am"
    },
    "millsfield:similar": {
      "google/siglip2-so400m-patch16-naflex": [
        {
          "distance": 0.3979155421257019,
          "id": 1729360695
        },
        {
          "distance": 0.4170265793800354,
          "id": 1947425183
        },
        {
          "distance": 0.4192653298377991,
          "id": 1729360993
        },
        {
          "distance": 0.4206885099411011,
          "id": 1729355999
        },
        {
          "distance": 0.42292630672454834,
          "id": 1729355561
        },
        {
          "distance": 0.4242439270019531,
          "id": 1729355367
        },
        {
          "distance": 0.43271052837371826,
          "id": 1729359923
        },
        {
          "distance": 0.43475550413131714,
          "id": 1729356743
        },
        {
          "distance": 0.43649327754974365,
          "id": 1729362613
        },
        {
          "distance": 0.4365200400352478,
          "id": 1729355561
        }
      ]
    },
    "sfomuseum:placetype": "instagram",
    "src:geom": "sfomuseum",
    "wof:belongsto": [
      1159160869,
      102527513,
      102191575,
      85633793,
      102087579,
      85922583,
      85688637
    ],
    "wof:country": "US",
    "wof:created": 1466330760,
    "wof:geomhash": "b6e33f47475d56bc8da457bc31afadc8",
    "wof:hierarchy": [
      {
        "building_id": 1159160869,
        "campus_id": 102527513,
        "continent_id": 102191575,
        "country_id": 85633793,
        "county_id": 102087579,
        "custom_id": 1729360609,
        "instagram_id": 1729360609,
        "locality_id": 85922583,
        "neighbourhood_id": -1,
        "region_id": 85688637
      }
    ],
    "wof:id": 1729360609,
    "wof:lastmodified": 1787777640,
    "wof:name": "The Ruth Asawa San Francisco School of the Arts (SOTA) located in the Diamond Heights neighborhood of San Francisco, is a four-year public high school serving students who excel in visual, performing, and creative arts...",
    "wof:parent_id": 1159160869,
    "wof:placetype": "custom",
    "wof:placetype_alt": [
      "instagram"
    ],
    "wof:repo": "sfomuseum-data-socialmedia-instagram",
    "wof:superseded_by": [],
    "wof:supersedes": []
  },
  "bbox": [
    -122.386166,
    37.616356,
    -122.386166,
    37.616356
  ],
  "geometry": {"type":"Point","coordinates":[-122.386166,37.616356]}
}
