{
  "id": 1729362287,
  "type": "Feature",
  "properties": {
    "date:cessation_lower": "2014-05-22",
    "date:cessation_upper": "2014-05-22",
    "date:inception_lower": "2014-05-22",
    "date:inception_upper": "2014-05-22",
    "edtf:cessation": "2014-05-22T07:11:00-07:00",
    "edtf:inception": "2014-05-22T07:11:00-07:00",
    "geom:area": 0,
    "geom:bbox": "-122.386166,37.616356,-122.386166,37.616356",
    "geom:latitude": 37.616356,
    "geom:longitude": -122.386166,
    "instagram:post": {
      "caption": {
        "body": "",
        "excerpt": "",
        "hashtags": [
          "maps",
          "sfmaps",
          "1906earthquake"
        ],
        "users": []
      },
      "media_id": "4b087e77db8b06654b973072798a9961",
      "path": "media/other/891365_1426495110954046_505352441_n_17842431397062499.jpg",
      "perceptual_hash": "p:bfd8ccc0e2c3b183",
      "taken": 1400767860,
      "taken_at": "May 22, 2014 2:11 pm"
    },
    "millsfield:similar": {
      "google/siglip2-so400m-patch16-naflex": [
        {
          "distance": 0.19588518142700195,
          "id": 1729362185
        },
        {
          "distance": 0.21543830633163452,
          "id": 1729362391
        },
        {
          "distance": 0.23086100816726685,
          "id": 1729362209
        },
        {
          "distance": 0.23155176639556885,
          "id": 1729362309
        },
        {
          "distance": 0.24756324291229248,
          "id": 1729357737
        },
        {
          "distance": 0.2514041066169739,
          "id": 1729361289
        },
        {
          "distance": 0.2516081929206848,
          "id": 1729357737
        },
        {
          "distance": 0.2534714341163635,
          "id": 1729355665
        },
        {
          "distance": 0.2549248933792114,
          "id": 1729362149
        },
        {
          "distance": 0.2614341974258423,
          "id": 1729362089
        }
      ]
    },
    "sfomuseum:placetype": "instagram",
    "src:geom": "sfomuseum",
    "wof:belongsto": [
      1159160869,
      102527513,
      102191575,
      85633793,
      102087579,
      85922583,
      85688637
    ],
    "wof:country": "US",
    "wof:created": 1400767860,
    "wof:geomhash": "b6e33f47475d56bc8da457bc31afadc8",
    "wof:hierarchy": [
      {
        "building_id": 1159160869,
        "campus_id": 102527513,
        "continent_id": 102191575,
        "country_id": 85633793,
        "county_id": 102087579,
        "custom_id": 1729362287,
        "instagram_id": 1729362287,
        "locality_id": 85922583,
        "neighbourhood_id": -1,
        "region_id": 85688637
      }
    ],
    "wof:id": 1729362287,
    "wof:lastmodified": 1787777646,
    "wof:name": "..",
    "wof:parent_id": 1159160869,
    "wof:placetype": "custom",
    "wof:placetype_alt": [
      "instagram"
    ],
    "wof:repo": "sfomuseum-data-socialmedia-instagram",
    "wof:superseded_by": [],
    "wof:supersedes": []
  },
  "bbox": [
    -122.386166,
    37.616356,
    -122.386166,
    37.616356
  ],
  "geometry": {"type":"Point","coordinates":[-122.386166,37.616356]}
}
