{
  "id": 1763558625,
  "type": "Feature",
  "properties": {
    "date:cessation_lower": "2016-04-29",
    "date:cessation_upper": "2016-04-29",
    "date:inception_lower": "2016-04-29",
    "date:inception_upper": "2016-04-29",
    "edtf:cessation": "2016-04-29T02:50:00-07:00",
    "edtf:inception": "2016-04-29T02:50:00-07:00",
    "geom:area": 0,
    "geom:bbox": "-122.386166,37.616356,-122.386166,37.616356",
    "geom:latitude": 37.616356,
    "geom:longitude": -122.386166,
    "instagram:post": {
      "caption": {
        "body": "",
        "excerpt": "",
        "hashtags": [
          "ToyStory20",
          "toystory",
          "disney",
          "pixar",
          "animation"
        ],
        "users": []
      },
      "media_id": "b3f0f9bcd58a24bfcf021d1755ffb072fc7d9baa",
      "path": "media/other/13129392_1134367726593964_1815241477_n_17847086386107105.jpg",
      "perceptual_hash": "p:bfcb8a8dc664944c",
      "taken": 1461923400,
      "taken_at": "Apr 29, 2016 9:50 am"
    },
    "millsfield:similar": {
      "google/siglip2-so400m-patch16-naflex": [
        {
          "distance": 0.00005918741226196289,
          "id": 1729360761
        },
        {
          "distance": 0.09202951192855835,
          "id": 1729360761
        },
        {
          "distance": 0.3729311227798462,
          "id": 1729361343
        },
        {
          "distance": 0.39519017934799194,
          "id": 1729361343
        },
        {
          "distance": 0.4075831174850464,
          "id": 1729361233
        },
        {
          "distance": 0.4171859622001648,
          "id": 1880151001
        },
        {
          "distance": 0.423984169960022,
          "id": 1729361155
        },
        {
          "distance": 0.42624253034591675,
          "id": 1729361361
        },
        {
          "distance": 0.4264504909515381,
          "id": 1729361073
        },
        {
          "distance": 0.4348599314689636,
          "id": 1729360993
        }
      ]
    },
    "sfomuseum:placetype": "instagram",
    "src:geom": "sfomuseum",
    "wof:belongsto": [
      1159160869,
      102527513,
      102191575,
      85633793,
      102087579,
      85922583,
      85688637
    ],
    "wof:country": "US",
    "wof:created": 1461923400,
    "wof:geomhash": "b6e33f47475d56bc8da457bc31afadc8",
    "wof:hierarchy": [
      {
        "building_id": 1159160869,
        "campus_id": 102527513,
        "continent_id": 102191575,
        "country_id": 85633793,
        "county_id": 102087579,
        "custom_id": 1763558625,
        "instagram_id": 1763558625,
        "locality_id": 85922583,
        "neighbourhood_id": -1,
        "region_id": 85688637
      }
    ],
    "wof:id": 1763558625,
    "wof:lastmodified": 1787777659,
    "wof:name": "..",
    "wof:parent_id": 1159160869,
    "wof:placetype": "custom",
    "wof:placetype_alt": [
      "instagram"
    ],
    "wof:repo": "sfomuseum-data-socialmedia-instagram",
    "wof:superseded_by": [],
    "wof:supersedes": []
  },
  "bbox": [
    -122.386166,
    37.616356,
    -122.386166,
    37.616356
  ],
  "geometry": {"type":"Point","coordinates":[-122.386166,37.616356]}
}
