{
  "id": 1729361881,
  "type": "Feature",
  "properties": {
    "date:cessation_lower": "2015-03-10",
    "date:cessation_upper": "2015-03-10",
    "date:inception_lower": "2015-03-10",
    "date:inception_upper": "2015-03-10",
    "edtf:cessation": "2015-03-10T04:59:00-07:00",
    "edtf:inception": "2015-03-10T04:59:00-07:00",
    "geom:area": 0,
    "geom:bbox": "-122.386166,37.616356,-122.386166,37.616356",
    "geom:latitude": 37.616356,
    "geom:longitude": -122.386166,
    "instagram:post": {
      "caption": {
        "body": "",
        "excerpt": "",
        "hashtags": [
          "PPIE100",
          "PPIE",
          "SFhistory",
          "TravelTuesday",
          "Avgeek"
        ],
        "users": []
      },
      "media_id": "10739a11c1d21abb0e60ecfadbbaab6e",
      "path": "media/other/11032970_751383598309562_2006994164_n_17841750988062499.jpg",
      "perceptual_hash": "p:b5ea831ceb44f708",
      "taken": 1425988740,
      "taken_at": "Mar 10, 2015 11:59 am"
    },
    "millsfield:similar": {
      "google/siglip2-so400m-patch16-naflex": [
        {
          "distance": 0.13540351390838623,
          "id": 1763559373
        },
        {
          "distance": 0.15126723051071167,
          "id": 1763559651
        },
        {
          "distance": 0.17466622591018677,
          "id": 1763559651
        },
        {
          "distance": 0.1776822805404663,
          "id": 1729357041
        },
        {
          "distance": 0.17855846881866455,
          "id": 1729361271
        },
        {
          "distance": 0.18024307489395142,
          "id": 1880151691
        },
        {
          "distance": 0.18161338567733765,
          "id": 1729357537
        },
        {
          "distance": 0.19207632541656494,
          "id": 1729356037
        },
        {
          "distance": 0.20038825273513794,
          "id": 1729361109
        },
        {
          "distance": 0.20097613334655762,
          "id": 1729361351
        }
      ]
    },
    "sfomuseum:placetype": "instagram",
    "src:geom": "sfomuseum",
    "wof:belongsto": [
      1159160869,
      102527513,
      102191575,
      85633793,
      102087579,
      85922583,
      85688637
    ],
    "wof:country": "US",
    "wof:created": 1425988740,
    "wof:geomhash": "b6e33f47475d56bc8da457bc31afadc8",
    "wof:hierarchy": [
      {
        "building_id": 1159160869,
        "campus_id": 102527513,
        "continent_id": 102191575,
        "country_id": 85633793,
        "county_id": 102087579,
        "custom_id": 1729361881,
        "instagram_id": 1729361881,
        "locality_id": 85922583,
        "neighbourhood_id": -1,
        "region_id": 85688637
      }
    ],
    "wof:id": 1729361881,
    "wof:lastmodified": 1787777646,
    "wof:name": "..",
    "wof:parent_id": 1159160869,
    "wof:placetype": "custom",
    "wof:placetype_alt": [
      "instagram"
    ],
    "wof:repo": "sfomuseum-data-socialmedia-instagram",
    "wof:superseded_by": [],
    "wof:supersedes": []
  },
  "bbox": [
    -122.386166,
    37.616356,
    -122.386166,
    37.616356
  ],
  "geometry": {"type":"Point","coordinates":[-122.386166,37.616356]}
}
