{
  "id": 1763558659,
  "type": "Feature",
  "properties": {
    "date:cessation_lower": "2017-04-18",
    "date:cessation_upper": "2017-04-18",
    "date:inception_lower": "2017-04-18",
    "date:inception_upper": "2017-04-18",
    "edtf:cessation": "2017-04-18T11:11:00-07:00",
    "edtf:inception": "2017-04-18T11:11:00-07:00",
    "geom:area": 0,
    "geom:bbox": "-122.386166,37.616356,-122.386166,37.616356",
    "geom:latitude": 37.616356,
    "geom:longitude": -122.386166,
    "instagram:post": {
      "caption": {
        "body": "Have you ever wondered how aircraft are painted? These photos of a World Airways McDonnell Douglas DC-10 show the process of painting such a large aircraft",
        "excerpt": "Have you ever wondered how aircraft are painted?",
        "hashtags": [
          "avgeek",
          "aviationhistory",
          "worldairways",
          "McDonnellDouglas",
          "DC10"
        ],
        "users": []
      },
      "media_id": "d97553da7a34f7129de49a2469305d2cb745f1ee",
      "path": "media/posts/201704/18011423_775025016007027_5820657958643564544_n_17864576593086642.jpg",
      "perceptual_hash": "p:ba8ad935a555c41e",
      "taken": 1492539060,
      "taken_at": "Apr 18, 2017 6:11 pm"
    },
    "millsfield:similar": {
      "google/siglip2-so400m-patch16-naflex": [
        {
          "distance": 0.000023424625396728516,
          "id": 1729359591
        },
        {
          "distance": 0.08068674802780151,
          "id": 1729359601
        },
        {
          "distance": 0.08379983901977539,
          "id": 1729359593
        },
        {
          "distance": 0.1151508092880249,
          "id": 1729359591
        },
        {
          "distance": 0.12484341859817505,
          "id": 1729359601
        },
        {
          "distance": 0.13361597061157227,
          "id": 1729359043
        },
        {
          "distance": 0.14245891571044922,
          "id": 1729359593
        },
        {
          "distance": 0.14725178480148315,
          "id": 1763559015
        },
        {
          "distance": 0.1539837121963501,
          "id": 1729357627
        },
        {
          "distance": 0.15921759605407715,
          "id": 1729359043
        }
      ]
    },
    "sfomuseum:placetype": "instagram",
    "src:geom": "sfomuseum",
    "wof:belongsto": [
      1159160869,
      102527513,
      102191575,
      85633793,
      102087579,
      85922583,
      85688637
    ],
    "wof:country": "US",
    "wof:created": 1492539060,
    "wof:geomhash": "b6e33f47475d56bc8da457bc31afadc8",
    "wof:hierarchy": [
      {
        "building_id": 1159160869,
        "campus_id": 102527513,
        "continent_id": 102191575,
        "country_id": 85633793,
        "county_id": 102087579,
        "custom_id": 1763558659,
        "instagram_id": 1763558659,
        "locality_id": 85922583,
        "neighbourhood_id": -1,
        "region_id": 85688637
      }
    ],
    "wof:id": 1763558659,
    "wof:lastmodified": 1787777659,
    "wof:name": "Have you ever wondered how aircraft are painted?..",
    "wof:parent_id": 1159160869,
    "wof:placetype": "custom",
    "wof:placetype_alt": [
      "instagram"
    ],
    "wof:repo": "sfomuseum-data-socialmedia-instagram",
    "wof:superseded_by": [],
    "wof:supersedes": []
  },
  "bbox": [
    -122.386166,
    37.616356,
    -122.386166,
    37.616356
  ],
  "geometry": {"type":"Point","coordinates":[-122.386166,37.616356]}
}
