{
  "id": 1729359213,
  "type": "Feature",
  "properties": {
    "date:cessation_lower": "2017-08-07",
    "date:cessation_upper": "2017-08-07",
    "date:inception_lower": "2017-08-07",
    "date:inception_upper": "2017-08-07",
    "edtf:cessation": "2017-08-07T09:17:00-07:00",
    "edtf:inception": "2017-08-07T09:17:00-07:00",
    "geom:area": 0,
    "geom:bbox": "-122.386166,37.616356,-122.386166,37.616356",
    "geom:latitude": 37.616356,
    "geom:longitude": -122.386166,
    "instagram:post": {
      "caption": {
        "body": "\"Wherever in the world you want to go...the world's largest fleet of over-ocean Jets is at your service...the Pan Am Jet Clipper Fleet\"  Pioneering jet travel with the Boeing 707, and later the 747, Pan American World Airways emphasized its position as the \"World's Most Experienced Airline\". Advertising their fleet of jets including the Douglas DC-8C and Boeing 707's, Pan Am claimed that \"nearly half of all the over-ocean jetliners in service are Pan Am Jet Clippers.\" Have you ever flown on a Pan Am Jet?  Image: Pan American World Airways advertisement, Saturday Evening Post, 1960s. Gift of Barnaby Conrad III. 2001.038.164.002.",
        "excerpt": "\"Wherever in the world you want to go...the world's largest fleet of over-ocean Jets is at your service...the Pan Am Jet Clipper Fleet\"  Pioneering jet travel with the Boeing 707, and later the 747, Pan American World Airways emphasized its position as the \"World's Most Experienced Airline\".",
        "hashtags": [],
        "users": []
      },
      "media_id": "4187dbc6a20ff29556fb2efdd94af6fb",
      "path": "media/posts/201708/20635182_139558259967044_8501410333867376640_n_17891968471011578.jpg",
      "perceptual_hash": "p:bbd39b0ec414db60",
      "taken": 1502122620,
      "taken_at": "Aug 07, 2017 4:17 pm"
    },
    "millsfield:similar": {
      "google/siglip2-so400m-patch16-naflex": [
        {
          "distance": 0.25343018770217896,
          "id": 1729355037
        },
        {
          "distance": 0.26838093996047974,
          "id": 1763558821
        },
        {
          "distance": 0.2719534635543823,
          "id": 1729356023
        },
        {
          "distance": 0.28511667251586914,
          "id": 1763558719
        },
        {
          "distance": 0.2862081527709961,
          "id": 1729358583
        },
        {
          "distance": 0.2869376540184021,
          "id": 1880151251
        },
        {
          "distance": 0.28846919536590576,
          "id": 1729359883
        },
        {
          "distance": 0.2894957661628723,
          "id": 1880151739
        },
        {
          "distance": 0.29663002490997314,
          "id": 1729358583
        },
        {
          "distance": 0.30045539140701294,
          "id": 1880151799
        }
      ]
    },
    "sfomuseum:placetype": "instagram",
    "src:geom": "sfomuseum",
    "wof:belongsto": [
      1159160869,
      102527513,
      102191575,
      85633793,
      102087579,
      85922583,
      85688637
    ],
    "wof:country": "US",
    "wof:created": 1502122620,
    "wof:geomhash": "b6e33f47475d56bc8da457bc31afadc8",
    "wof:hierarchy": [
      {
        "building_id": 1159160869,
        "campus_id": 102527513,
        "continent_id": 102191575,
        "country_id": 85633793,
        "county_id": 102087579,
        "custom_id": 1729359213,
        "instagram_id": 1729359213,
        "locality_id": 85922583,
        "neighbourhood_id": -1,
        "region_id": 85688637
      }
    ],
    "wof:id": 1729359213,
    "wof:lastmodified": 1787777635,
    "wof:name": "\"Wherever in the world you want to go...the world's largest fleet of over-ocean Jets is at your service...the Pan Am Jet Clipper Fleet\"  Pioneering jet travel with the Boeing 707, and later the 747, Pan American World Airways emphasized its position as the \"World's Most Experienced Airline\"...",
    "wof:parent_id": 1159160869,
    "wof:placetype": "custom",
    "wof:placetype_alt": [
      "instagram"
    ],
    "wof:repo": "sfomuseum-data-socialmedia-instagram",
    "wof:superseded_by": [],
    "wof:supersedes": []
  },
  "bbox": [
    -122.386166,
    37.616356,
    -122.386166,
    37.616356
  ],
  "geometry": {"type":"Point","coordinates":[-122.386166,37.616356]}
}
