{
  "id": 1729359577,
  "type": "Feature",
  "properties": {
    "date:cessation_lower": "2017-04-27",
    "date:cessation_upper": "2017-04-27",
    "date:inception_lower": "2017-04-27",
    "date:inception_upper": "2017-04-27",
    "edtf:cessation": "2017-04-27T09:20:00-07:00",
    "edtf:inception": "2017-04-27T09:20:00-07:00",
    "geom:area": 0,
    "geom:bbox": "-122.386166,37.616356,-122.386166,37.616356",
    "geom:latitude": 37.616356,
    "geom:longitude": -122.386166,
    "instagram:post": {
      "caption": {
        "body": "This year San Francisco International Airport is turning 90! From a humble, single dirt runway to bustling terminals serving over 50 million passengers annually, SFO has become an international gateway and one of the busiest airports in the country. Stay tuned for more SFO history as we celebrate this historic milestone!  Image:  Mills Field Municipal Airport of San Francisco, Hangar No. 1, 1927. SFO Museum Collection. 2011.032.0011",
        "excerpt": "This year San Francisco International Airport is turning 90!",
        "hashtags": [
          "TBT",
          "Throwbackthursday",
          "SFOHistory",
          "SFOat90",
          "SFO",
          "avgeek",
          "aviationhistory"
        ],
        "users": []
      },
      "media_id": "959b5a8ebba00c8240009b80960d938d",
      "path": "media/posts/201704/17934665_216066272218735_7740601429076738048_n_17854479931182582.jpg",
      "perceptual_hash": "p:8ed8f0672f90c06f",
      "taken": 1493310000,
      "taken_at": "Apr 27, 2017 4:20 pm"
    },
    "millsfield:similar": {
      "google/siglip2-so400m-patch16-naflex": [
        {
          "distance": 0.17901545763015747,
          "id": 1729361387
        },
        {
          "distance": 0.1886172890663147,
          "id": 1763558839
        },
        {
          "distance": 0.18924063444137573,
          "id": 1729361271
        },
        {
          "distance": 0.19111400842666626,
          "id": 1763558839
        },
        {
          "distance": 0.1927545666694641,
          "id": 1729360721
        },
        {
          "distance": 0.1933003067970276,
          "id": 1729355287
        },
        {
          "distance": 0.1954718828201294,
          "id": 1729356611
        },
        {
          "distance": 0.19606435298919678,
          "id": 1729355287
        },
        {
          "distance": 0.19985824823379517,
          "id": 1763559161
        },
        {
          "distance": 0.20139002799987793,
          "id": 1729362311
        }
      ]
    },
    "sfomuseum:placetype": "instagram",
    "src:geom": "sfomuseum",
    "wof:belongsto": [
      1159160869,
      102527513,
      102191575,
      85633793,
      102087579,
      85922583,
      85688637
    ],
    "wof:country": "US",
    "wof:created": 1493310000,
    "wof:geomhash": "b6e33f47475d56bc8da457bc31afadc8",
    "wof:hierarchy": [
      {
        "building_id": 1159160869,
        "campus_id": 102527513,
        "continent_id": 102191575,
        "country_id": 85633793,
        "county_id": 102087579,
        "custom_id": 1729359577,
        "instagram_id": 1729359577,
        "locality_id": 85922583,
        "neighbourhood_id": -1,
        "region_id": 85688637
      }
    ],
    "wof:id": 1729359577,
    "wof:lastmodified": 1787777636,
    "wof:name": "This year San Francisco International Airport is turning 90!..",
    "wof:parent_id": 1159160869,
    "wof:placetype": "custom",
    "wof:placetype_alt": [
      "instagram"
    ],
    "wof:repo": "sfomuseum-data-socialmedia-instagram",
    "wof:superseded_by": [],
    "wof:supersedes": []
  },
  "bbox": [
    -122.386166,
    37.616356,
    -122.386166,
    37.616356
  ],
  "geometry": {"type":"Point","coordinates":[-122.386166,37.616356]}
}
