{
  "id": 1729361107,
  "type": "Feature",
  "properties": {
    "date:cessation_lower": "2016-01-29",
    "date:cessation_upper": "2016-01-29",
    "date:inception_lower": "2016-01-29",
    "date:inception_upper": "2016-01-29",
    "edtf:cessation": "2016-01-29T10:10:00-08:00",
    "edtf:inception": "2016-01-29T10:10:00-08:00",
    "geom:area": 0,
    "geom:bbox": "-122.386166,37.616356,-122.386166,37.616356",
    "geom:latitude": 37.616356,
    "geom:longitude": -122.386166,
    "instagram:post": {
      "caption": {
        "body": "During the 1950s, flying on a commercial airliner was often a formal endeavor. Dressed up for the occasion, the Restani family of San Francisco prepares for a flight in a TWA (Trans World Airlines) Lockheed 049 Constellation posing with their TWA flight bags. Many passengers were first-time flyers during this era, when rail and oceanliner services were still heavily used. The new long-range airliners like the Constellation used on extended routes increased the time passengers spent in the cabin during flights. On transcontinental and transoceanic routes, passengers could expect to fly overnight, and be separated from their luggage. Thus, a bag to hold carry-on items became a necessity. Airlines like TWA regularly gave logo-embossed flight bags and amenity kits to passengers for functional purposes and for promotional opportunities.  Our exhibition dedicated to Lockheed, called “Queen of the Skies: The Legacy of the Lockheed Constellation”, is on display pre-security, in the Aviation Museum and Library in the International Terminal. The Aviation Museum and Library is open from Sunday through Friday, 10am to 4:30pm. See our online exhibition here: http://ow.ly/XHVJJ  The Restani family prepares for departure from San Francisco International Airport to Italy in a TWA (Trans World Airlines) Lockheed 049 Constellation  1952 SFO Museum Collection Gift of Edmond Zaro 1999.052.002",
        "excerpt": "During the 1950s, flying on a commercial airliner was often a formal endeavor.",
        "hashtags": [],
        "users": []
      },
      "media_id": "47301b723e9de0b48590846f766858d7",
      "path": "media/other/12598944_1557905537854355_701062940_n_17853989977001451.jpg",
      "perceptual_hash": "p:fbc484b13b66c859",
      "taken": 1454091000,
      "taken_at": "Jan 29, 2016 6:10 pm"
    },
    "millsfield:similar": {
      "google/siglip2-so400m-patch16-naflex": [
        {
          "distance": 0.1461893916130066,
          "id": 1763559527
        },
        {
          "distance": 0.16625714302062988,
          "id": 1729358009
        },
        {
          "distance": 0.16752833127975464,
          "id": 1729356979
        },
        {
          "distance": 0.17657625675201416,
          "id": 1729357267
        },
        {
          "distance": 0.17811304330825806,
          "id": 1729359361
        },
        {
          "distance": 0.17824965715408325,
          "id": 1729357841
        },
        {
          "distance": 0.1805536150932312,
          "id": 1729359251
        },
        {
          "distance": 0.1825505495071411,
          "id": 1880151589
        },
        {
          "distance": 0.18682652711868286,
          "id": 1763559505
        },
        {
          "distance": 0.19089967012405396,
          "id": 1729361213
        }
      ]
    },
    "sfomuseum:placetype": "instagram",
    "src:geom": "sfomuseum",
    "wof:belongsto": [
      1159160869,
      102527513,
      102191575,
      85633793,
      102087579,
      85922583,
      85688637
    ],
    "wof:country": "US",
    "wof:created": 1454091000,
    "wof:geomhash": "b6e33f47475d56bc8da457bc31afadc8",
    "wof:hierarchy": [
      {
        "building_id": 1159160869,
        "campus_id": 102527513,
        "continent_id": 102191575,
        "country_id": 85633793,
        "county_id": 102087579,
        "custom_id": 1729361107,
        "instagram_id": 1729361107,
        "locality_id": 85922583,
        "neighbourhood_id": -1,
        "region_id": 85688637
      }
    ],
    "wof:id": 1729361107,
    "wof:lastmodified": 1787777644,
    "wof:name": "During the 1950s, flying on a commercial airliner was often a formal endeavor...",
    "wof:parent_id": 1159160869,
    "wof:placetype": "custom",
    "wof:placetype_alt": [
      "instagram"
    ],
    "wof:repo": "sfomuseum-data-socialmedia-instagram",
    "wof:superseded_by": [],
    "wof:supersedes": []
  },
  "bbox": [
    -122.386166,
    37.616356,
    -122.386166,
    37.616356
  ],
  "geometry": {"type":"Point","coordinates":[-122.386166,37.616356]}
}
