{
  "id": 1763559503,
  "type": "Feature",
  "properties": {
    "date:cessation_lower": "2022-04-05",
    "date:cessation_upper": "2022-04-05",
    "date:inception_lower": "2022-04-05",
    "date:inception_upper": "2022-04-05",
    "edtf:cessation": "2022-04-05T07:56:00-07:00",
    "edtf:inception": "2022-04-05T07:56:00-07:00",
    "geom:area": 0,
    "geom:bbox": "-122.386166,37.616356,-122.386166,37.616356",
    "geom:latitude": 37.616356,
    "geom:longitude": -122.386166,
    "instagram:post": {
      "caption": {
        "body": "In the mid-1950s, foreseeing a great potential market, luggage manufacturers secured rights to produce airline-branded bags in large numbers. Sold through mail-order catalogs and at airport stores, and sometimes given out to first-class passengers and as promotional items at travel and tour agencies, this new type of hand luggage, with its vivid graphics, became a chic and desirable status symbol that identified its user as a member of the new globe-trotting jet set.   Browse through over three hundred airline bags on our collection website! https://bit.ly/3N6WuAB",
        "excerpt": "In the mid-1950s, foreseeing a great potential market, luggage manufacturers secured rights to produce airline-branded bags in large numbers.",
        "hashtags": [
          "collections",
          "flightbags",
          "airlinebags",
          "avgeek",
          "aviationhistory",
          "museumcollection"
        ],
        "users": []
      },
      "media_id": "625bba41f49abce932e325cadf01304f84e8b05f",
      "path": "media/posts/202204/277916194_1673999009602211_7679148886162951023_n_18289146433047847.jpg",
      "perceptual_hash": "p:a6989967d92cce25",
      "taken": 1649170560,
      "taken_at": "Apr 05, 2022 2:56 pm"
    },
    "millsfield:similar": {
      "google/siglip2-so400m-patch16-naflex": [
        {
          "distance": 0.26696038246154785,
          "id": 1729357809
        },
        {
          "distance": 0.28514784574508667,
          "id": 1729355731
        },
        {
          "distance": 0.2947240471839905,
          "id": 1729355737
        },
        {
          "distance": 0.2989633083343506,
          "id": 1729359415
        },
        {
          "distance": 0.3008068799972534,
          "id": 1729361059
        },
        {
          "distance": 0.3047061562538147,
          "id": 1729357809
        },
        {
          "distance": 0.3059135675430298,
          "id": 1729362319
        },
        {
          "distance": 0.3129226565361023,
          "id": 1729355731
        },
        {
          "distance": 0.3174697756767273,
          "id": 1729360759
        },
        {
          "distance": 0.32143527269363403,
          "id": 1729355737
        }
      ]
    },
    "sfomuseum:placetype": "instagram",
    "src:geom": "sfomuseum",
    "wof:belongsto": [
      1159160869,
      102527513,
      102191575,
      85633793,
      102087579,
      85922583,
      85688637
    ],
    "wof:country": "US",
    "wof:created": 1649170560,
    "wof:geomhash": "b6e33f47475d56bc8da457bc31afadc8",
    "wof:hierarchy": [
      {
        "building_id": 1159160869,
        "campus_id": 102527513,
        "continent_id": 102191575,
        "country_id": 85633793,
        "county_id": 102087579,
        "custom_id": 1763559503,
        "instagram_id": 1763559503,
        "locality_id": 85922583,
        "neighbourhood_id": -1,
        "region_id": 85688637
      }
    ],
    "wof:id": 1763559503,
    "wof:lastmodified": 1787777660,
    "wof:name": "In the mid-1950s, foreseeing a great potential market, luggage manufacturers secured rights to produce airline-branded bags in large numbers...",
    "wof:parent_id": 1159160869,
    "wof:placetype": "custom",
    "wof:placetype_alt": [
      "instagram"
    ],
    "wof:repo": "sfomuseum-data-socialmedia-instagram",
    "wof:superseded_by": [],
    "wof:supersedes": []
  },
  "bbox": [
    -122.386166,
    37.616356,
    -122.386166,
    37.616356
  ],
  "geometry": {"type":"Point","coordinates":[-122.386166,37.616356]}
}
