{
  "id": 1729355947,
  "type": "Feature",
  "properties": {
    "date:cessation_lower": "2019-10-31",
    "date:cessation_upper": "2019-10-31",
    "date:inception_lower": "2019-10-31",
    "date:inception_upper": "2019-10-31",
    "edtf:cessation": "2019-10-31T01:43:00-07:00",
    "edtf:inception": "2019-10-31T01:43:00-07:00",
    "geom:area": 0,
    "geom:bbox": "-122.386166,37.616356,-122.386166,37.616356",
    "geom:latitude": 37.616356,
    "geom:longitude": -122.386166,
    "instagram:post": {
      "caption": {
        "body": "In the 1920s, San Francisco Bay Area engineer Stanley Henry Page merged his love of flying with glass plate photography. Page’s images depict San Francisco Bay before its iconic bridges were built. Some of the locations he photographed, like north San Francisco, shown here, are still recognizable today.  See “Above the Bay: The Aerial Photography of Stanley Page” on display, pre-security, in the Aviation Museum and Library. ",
        "excerpt": "In the 1920s, San Francisco Bay Area engineer Stanley Henry Page merged his love of flying with glass plate photography.",
        "hashtags": [
          "AboveTheBay",
          "avgeek",
          "Aerial",
          "AerialPhotography",
          "photograph",
          "StanleyHPage",
          "SHPage",
          "SanFrancisco",
          "1920s",
          "SFHistory"
        ],
        "users": []
      },
      "media_id": "7e3b9ebb7de73231ac3ec41eb3a9aa87",
      "path": "media/other/71038996_161959065013096_7129989347819247377_n_18110889517045944.jpg",
      "perceptual_hash": "p:fa6691c0c03bad37",
      "taken": 1572511380,
      "taken_at": "Oct 31, 2019 8:43 am"
    },
    "millsfield:similar": {
      "google/siglip2-so400m-patch16-naflex": [
        {
          "distance": 0.1308801770210266,
          "id": 1729360009
        },
        {
          "distance": 0.13537704944610596,
          "id": 1729358729
        },
        {
          "distance": 0.15651839971542358,
          "id": 1729358729
        },
        {
          "distance": 0.15656781196594238,
          "id": 1729360009
        },
        {
          "distance": 0.19026392698287964,
          "id": 1880151063
        },
        {
          "distance": 0.1959325075149536,
          "id": 1729355647
        },
        {
          "distance": 0.1960483193397522,
          "id": 1763559173
        },
        {
          "distance": 0.20846432447433472,
          "id": 1729355647
        },
        {
          "distance": 0.20933735370635986,
          "id": 1729355339
        },
        {
          "distance": 0.21340864896774292,
          "id": 1880150909
        }
      ]
    },
    "sfomuseum:placetype": "instagram",
    "src:geom": "sfomuseum",
    "wof:belongsto": [
      1159160869,
      102527513,
      102191575,
      85633793,
      102087579,
      85922583,
      85688637
    ],
    "wof:country": "US",
    "wof:created": 1572511380,
    "wof:geomhash": "b6e33f47475d56bc8da457bc31afadc8",
    "wof:hierarchy": [
      {
        "building_id": 1159160869,
        "campus_id": 102527513,
        "continent_id": 102191575,
        "country_id": 85633793,
        "county_id": 102087579,
        "custom_id": 1729355947,
        "instagram_id": 1729355947,
        "locality_id": 85922583,
        "neighbourhood_id": -1,
        "region_id": 85688637
      }
    ],
    "wof:id": 1729355947,
    "wof:lastmodified": 1787777627,
    "wof:name": "In the 1920s, San Francisco Bay Area engineer Stanley Henry Page merged his love of flying with glass plate photography...",
    "wof:parent_id": 1159160869,
    "wof:placetype": "custom",
    "wof:placetype_alt": [
      "instagram"
    ],
    "wof:repo": "sfomuseum-data-socialmedia-instagram",
    "wof:superseded_by": [],
    "wof:supersedes": []
  },
  "bbox": [
    -122.386166,
    37.616356,
    -122.386166,
    37.616356
  ],
  "geometry": {"type":"Point","coordinates":[-122.386166,37.616356]}
}
