{
  "id": 1729362251,
  "type": "Feature",
  "properties": {
    "date:cessation_lower": "2014-06-24",
    "date:cessation_upper": "2014-06-24",
    "date:inception_lower": "2014-06-24",
    "date:inception_upper": "2014-06-24",
    "edtf:cessation": "2014-06-24T04:56:00-07:00",
    "edtf:inception": "2014-06-24T04:56:00-07:00",
    "geom:area": 0,
    "geom:bbox": "-122.386166,37.616356,-122.386166,37.616356",
    "geom:latitude": 37.616356,
    "geom:longitude": -122.386166,
    "instagram:post": {
      "caption": {
        "body": "",
        "excerpt": "",
        "hashtags": [
          "doors",
          "nigeria"
        ],
        "users": []
      },
      "media_id": "ceca7f0957f0cdcd2b3207132f206059",
      "path": "media/other/10448934_1493113974257133_480392592_n_17842444606062499.jpg",
      "perceptual_hash": "p:eac53ed95162164e",
      "taken": 1403610960,
      "taken_at": "Jun 24, 2014 11:56 am"
    },
    "millsfield:similar": {
      "google/siglip2-so400m-patch16-naflex": [
        {
          "distance": 0.2279474139213562,
          "id": 1729362381
        },
        {
          "distance": 0.23172682523727417,
          "id": 1729362197
        },
        {
          "distance": 0.2330116629600525,
          "id": 1729362323
        },
        {
          "distance": 0.25086450576782227,
          "id": 1729358835
        },
        {
          "distance": 0.27438098192214966,
          "id": 1729358835
        },
        {
          "distance": 0.2759583592414856,
          "id": 1729362347
        },
        {
          "distance": 0.2788435220718384,
          "id": 1729362187
        },
        {
          "distance": 0.2794567346572876,
          "id": 1729362323
        },
        {
          "distance": 0.2930184006690979,
          "id": 1729362197
        },
        {
          "distance": 0.2937995195388794,
          "id": 1729358521
        }
      ]
    },
    "sfomuseum:placetype": "instagram",
    "src:geom": "sfomuseum",
    "wof:belongsto": [
      1159160869,
      102527513,
      102191575,
      85633793,
      102087579,
      85922583,
      85688637
    ],
    "wof:country": "US",
    "wof:created": 1403610960,
    "wof:geomhash": "b6e33f47475d56bc8da457bc31afadc8",
    "wof:hierarchy": [
      {
        "building_id": 1159160869,
        "campus_id": 102527513,
        "continent_id": 102191575,
        "country_id": 85633793,
        "county_id": 102087579,
        "custom_id": 1729362251,
        "instagram_id": 1729362251,
        "locality_id": 85922583,
        "neighbourhood_id": -1,
        "region_id": 85688637
      }
    ],
    "wof:id": 1729362251,
    "wof:lastmodified": 1787777646,
    "wof:name": "..",
    "wof:parent_id": 1159160869,
    "wof:placetype": "custom",
    "wof:placetype_alt": [
      "instagram"
    ],
    "wof:repo": "sfomuseum-data-socialmedia-instagram",
    "wof:superseded_by": [],
    "wof:supersedes": []
  },
  "bbox": [
    -122.386166,
    37.616356,
    -122.386166,
    37.616356
  ],
  "geometry": {"type":"Point","coordinates":[-122.386166,37.616356]}
}
