{
  "id": 1729358147,
  "type": "Feature",
  "properties": {
    "date:cessation_lower": "2018-06-01",
    "date:cessation_upper": "2018-06-01",
    "date:inception_lower": "2018-06-01",
    "date:inception_upper": "2018-06-01",
    "edtf:cessation": "2018-06-01T07:45:00-07:00",
    "edtf:inception": "2018-06-01T07:45:00-07:00",
    "geom:area": 0,
    "geom:bbox": "-122.386166,37.616356,-122.386166,37.616356",
    "geom:latitude": 37.616356,
    "geom:longitude": -122.386166,
    "instagram:post": {
      "caption": {
        "body": "At the saloon? In a pinch and need some buttons? This coin-operated machine from around 1905 would have had you buttoned-up in no time and for only 5¢. A men’s fashion necessity in the 20th century, buttons kept celluloid collars in place on dress shirts.  All objects are courtesy of Joe Welch American Antique Museum in San Bruno, California. \"The Automatic Age: Coin-Operated Machines\" is on display, pre-security, in the International Terminal. http://bit.ly/CoinOperated",
        "excerpt": "At the saloon?",
        "hashtags": [
          "CoinOperated",
          "TheAutomaticAge",
          "coinop",
          "vintage",
          "antique",
          "gamemachines",
          "slotmachine",
          "slotmachines",
          "buttons",
          "mensfashion"
        ],
        "users": []
      },
      "media_id": "a4e826056bc2e149f8e2c51f98690f2d",
      "path": "media/other/33559688_177459712952964_7427225213407854592_n_17924329486191163.jpg",
      "perceptual_hash": "p:e7d6b6c728a41ea0",
      "taken": 1527864300,
      "taken_at": "Jun 01, 2018 2:45 pm"
    },
    "millsfield:similar": {
      "google/siglip2-so400m-patch16-naflex": [
        {
          "distance": 0.1638941764831543,
          "id": 1729358737
        },
        {
          "distance": 0.16489267349243164,
          "id": 1729358693
        },
        {
          "distance": 0.17044585943222046,
          "id": 1729358711
        },
        {
          "distance": 0.18090713024139404,
          "id": 1729357793
        },
        {
          "distance": 0.19785207509994507,
          "id": 1729358737
        },
        {
          "distance": 0.2000114917755127,
          "id": 1729358735
        },
        {
          "distance": 0.21352213621139526,
          "id": 1729358711
        },
        {
          "distance": 0.2252206802368164,
          "id": 1729358353
        },
        {
          "distance": 0.22608578205108643,
          "id": 1729357723
        },
        {
          "distance": 0.2293664813041687,
          "id": 1729357723
        }
      ]
    },
    "sfomuseum:placetype": "instagram",
    "src:geom": "sfomuseum",
    "wof:belongsto": [
      1159160869,
      102527513,
      102191575,
      85633793,
      102087579,
      85922583,
      85688637
    ],
    "wof:country": "US",
    "wof:created": 1527864300,
    "wof:geomhash": "b6e33f47475d56bc8da457bc31afadc8",
    "wof:hierarchy": [
      {
        "building_id": 1159160869,
        "campus_id": 102527513,
        "continent_id": 102191575,
        "country_id": 85633793,
        "county_id": 102087579,
        "custom_id": 1729358147,
        "instagram_id": 1729358147,
        "locality_id": 85922583,
        "neighbourhood_id": -1,
        "region_id": 85688637
      }
    ],
    "wof:id": 1729358147,
    "wof:lastmodified": 1787777633,
    "wof:name": "At the saloon?..",
    "wof:parent_id": 1159160869,
    "wof:placetype": "custom",
    "wof:placetype_alt": [
      "instagram"
    ],
    "wof:repo": "sfomuseum-data-socialmedia-instagram",
    "wof:superseded_by": [],
    "wof:supersedes": []
  },
  "bbox": [
    -122.386166,
    37.616356,
    -122.386166,
    37.616356
  ],
  "geometry": {"type":"Point","coordinates":[-122.386166,37.616356]}
}
