{
  "id": 1880150973,
  "type": "Feature",
  "properties": {
    "date:cessation_lower": "2023-04-13",
    "date:cessation_upper": "2023-04-13",
    "date:inception_lower": "2023-04-13",
    "date:inception_upper": "2023-04-13",
    "edtf:cessation": "2023-04-13T08:56:00-07:00",
    "edtf:inception": "2023-04-13T08:56:00-07:00",
    "geom:area": 0,
    "geom:bbox": "-122.386166,37.616356,-122.386166,37.616356",
    "geom:latitude": 37.616356,
    "geom:longitude": -122.386166,
    "instagram:post": {
      "caption": {
        "body": "Harvey Milk Terminal 1 passengers, have you seen “Hyper-Natural Bay Area” by artist Robert Minervini? The mosaic considers what defining characteristics make a city distinctive and offers a window onto Minervini’s version of San Francisco. The City’s familiar skyline includes the iconic Golden Gate Bridge and Transamerica Pyramid. However, they appear alongside newer towers and constructions of an imagined future. Native and exotic plant life, along with vessels and other forms represent the many cultures and people that shape the Bay Area as a unique place.   See “Hyper-Natural Bay Area” by Robert Minervini located post-security in Harvey Milk Terminal 1 and online at: https://bit.ly/3eu49Xm",
        "excerpt": "Harvey Milk Terminal 1 passengers, have you seen “Hyper-Natural Bay Area” by artist Robert Minervini?",
        "hashtags": [
          "PublicArt",
          "RobertMinervini",
          "SanFrancisco",
          "mosaic"
        ],
        "users": [
          "sf_arts_commission"
        ]
      },
      "media_id": "156621b8a7806fb521c8438c3304b48e1a45281b",
      "path": "media/posts/202304/341143544_244744031282974_3334854618873538598_n_17870773208891246.jpg",
      "perceptual_hash": "p:cef13294cbb5b023",
      "taken": 1681401360,
      "taken_at": "Apr 13, 2023 3:56 pm"
    },
    "millsfield:similar": {
      "google/siglip2-so400m-patch16-naflex": [
        {
          "distance": 0.15562671422958374,
          "id": 1729355195
        },
        {
          "distance": 0.19543206691741943,
          "id": 1729355195
        },
        {
          "distance": 0.216996431350708,
          "id": 1729361031
        },
        {
          "distance": 0.22617453336715698,
          "id": 1729355187
        },
        {
          "distance": 0.22908228635787964,
          "id": 1729357871
        },
        {
          "distance": 0.23040813207626343,
          "id": 1880151069
        },
        {
          "distance": 0.23400652408599854,
          "id": 1729359429
        },
        {
          "distance": 0.23546302318572998,
          "id": 1947425135
        },
        {
          "distance": 0.2405504584312439,
          "id": 1880150959
        },
        {
          "distance": 0.24133336544036865,
          "id": 1729355187
        }
      ]
    },
    "sfomuseum:placetype": "instagram",
    "src:geom": "sfomuseum",
    "wof:belongsto": [
      1159160869,
      102527513,
      102191575,
      85633793,
      102087579,
      85922583,
      85688637
    ],
    "wof:country": "US",
    "wof:created": 1681401360,
    "wof:geomhash": "b6e33f47475d56bc8da457bc31afadc8",
    "wof:hierarchy": [
      {
        "building_id": 1159160869,
        "campus_id": 102527513,
        "continent_id": 102191575,
        "country_id": 85633793,
        "county_id": 102087579,
        "custom_id": 1880150973,
        "instagram_id": 1880150973,
        "locality_id": 85922583,
        "neighbourhood_id": -1,
        "region_id": 85688637
      }
    ],
    "wof:id": 1880150973,
    "wof:lastmodified": 1787777661,
    "wof:name": "Harvey Milk Terminal 1 passengers, have you seen “Hyper-Natural Bay Area” by artist Robert Minervini?..",
    "wof:parent_id": 1159160869,
    "wof:placetype": "custom",
    "wof:placetype_alt": [
      "instagram"
    ],
    "wof:repo": "sfomuseum-data-socialmedia-instagram",
    "wof:superseded_by": [],
    "wof:supersedes": []
  },
  "bbox": [
    -122.386166,
    37.616356,
    -122.386166,
    37.616356
  ],
  "geometry": {"type":"Point","coordinates":[-122.386166,37.616356]}
}
