{
  "id": 1729360069,
  "type": "Feature",
  "properties": {
    "date:cessation_lower": "2016-11-28",
    "date:cessation_upper": "2016-11-28",
    "date:inception_lower": "2016-11-28",
    "date:inception_upper": "2016-11-28",
    "edtf:cessation": "2016-11-28T10:59:00-08:00",
    "edtf:inception": "2016-11-28T10:59:00-08:00",
    "geom:area": 0,
    "geom:bbox": "-122.386166,37.616356,-122.386166,37.616356",
    "geom:latitude": 37.616356,
    "geom:longitude": -122.386166,
    "instagram:post": {
      "caption": {
        "body": "",
        "excerpt": "",
        "hashtags": [
          "museummonday",
          "behindthescenes"
        ],
        "users": []
      },
      "media_id": "ca0249f4c99f67f1d9b8cf5b941a83c5",
      "path": "media/posts/201611/15251642_251389691944363_9218161429775908864_n_17846053993135969.jpg",
      "perceptual_hash": "p:85d25f883e9d51ca",
      "taken": 1480359540,
      "taken_at": "Nov 28, 2016 6:59 pm"
    },
    "millsfield:similar": {
      "google/siglip2-so400m-patch16-naflex": [
        {
          "distance": 0.1702183485031128,
          "id": 1729360455
        },
        {
          "distance": 0.20218956470489502,
          "id": 1729357609
        },
        {
          "distance": 0.2033100724220276,
          "id": 1729357069
        },
        {
          "distance": 0.20763248205184937,
          "id": 1729358313
        },
        {
          "distance": 0.20996427536010742,
          "id": 1729360455
        },
        {
          "distance": 0.21446406841278076,
          "id": 1763558763
        },
        {
          "distance": 0.21553289890289307,
          "id": 1729358143
        },
        {
          "distance": 0.21934348344802856,
          "id": 1729358531
        },
        {
          "distance": 0.221035897731781,
          "id": 1729357733
        },
        {
          "distance": 0.22588932514190674,
          "id": 1729358211
        }
      ]
    },
    "sfomuseum:placetype": "instagram",
    "src:geom": "sfomuseum",
    "wof:belongsto": [
      1159160869,
      102527513,
      102191575,
      85633793,
      102087579,
      85922583,
      85688637
    ],
    "wof:country": "US",
    "wof:created": 1480359540,
    "wof:geomhash": "b6e33f47475d56bc8da457bc31afadc8",
    "wof:hierarchy": [
      {
        "building_id": 1159160869,
        "campus_id": 102527513,
        "continent_id": 102191575,
        "country_id": 85633793,
        "county_id": 102087579,
        "custom_id": 1729360069,
        "instagram_id": 1729360069,
        "locality_id": 85922583,
        "neighbourhood_id": -1,
        "region_id": 85688637
      }
    ],
    "wof:id": 1729360069,
    "wof:lastmodified": 1787777639,
    "wof:name": "..",
    "wof:parent_id": 1159160869,
    "wof:placetype": "custom",
    "wof:placetype_alt": [
      "instagram"
    ],
    "wof:repo": "sfomuseum-data-socialmedia-instagram",
    "wof:superseded_by": [],
    "wof:supersedes": []
  },
  "bbox": [
    -122.386166,
    37.616356,
    -122.386166,
    37.616356
  ],
  "geometry": {"type":"Point","coordinates":[-122.386166,37.616356]}
}
