{
  "id": 1729359811,
  "type": "Feature",
  "properties": {
    "date:cessation_lower": "2017-02-14",
    "date:cessation_upper": "2017-02-14",
    "date:inception_lower": "2017-02-14",
    "date:inception_upper": "2017-02-14",
    "edtf:cessation": "2017-02-14T03:17:00-08:00",
    "edtf:inception": "2017-02-14T03:17:00-08:00",
    "geom:area": 0,
    "geom:bbox": "-122.386166,37.616356,-122.386166,37.616356",
    "geom:latitude": 37.616356,
    "geom:longitude": -122.386166,
    "instagram:post": {
      "caption": {
        "body": "This #Valentine card from c. 1915 reads, “I'm up in the air about you, dear valentine”. What are you doing for Valentine's Day? #ValentinesDay #HappyValentinesDay #avgeek #earlyaviation #punny  Image: early aviation valentine card, c. 1915, Gift of the Captain John B. Russell Family, 2012.149.0651",
        "excerpt": "This #Valentine card from c. 1915 reads, “I'm up in the air about you, dear valentine”.",
        "hashtags": [],
        "users": []
      },
      "media_id": "b5b41896c60f8ed5c2a313e3467c846e",
      "path": "media/posts/201702/16465242_637446279776987_1943127716781883392_n_17863573474118407.jpg",
      "perceptual_hash": "p:ffb0b4acc183c11d",
      "taken": 1487071020,
      "taken_at": "Feb 14, 2017 11:17 am"
    },
    "millsfield:similar": {
      "google/siglip2-so400m-patch16-naflex": [
        {
          "distance": 0.2511014938354492,
          "id": 1729361049
        },
        {
          "distance": 0.2761104702949524,
          "id": 1729355531
        },
        {
          "distance": 0.27809804677963257,
          "id": 1729355531
        },
        {
          "distance": 0.2805859446525574,
          "id": 1729355547
        },
        {
          "distance": 0.2906875014305115,
          "id": 1729361049
        },
        {
          "distance": 0.30661720037460327,
          "id": 1729356037
        },
        {
          "distance": 0.3085837960243225,
          "id": 1729357573
        },
        {
          "distance": 0.3145727515220642,
          "id": 1763559651
        },
        {
          "distance": 0.3165397047996521,
          "id": 1729359809
        },
        {
          "distance": 0.3210347890853882,
          "id": 1729356037
        }
      ]
    },
    "sfomuseum:placetype": "instagram",
    "src:geom": "sfomuseum",
    "wof:belongsto": [
      1159160869,
      102527513,
      102191575,
      85633793,
      102087579,
      85922583,
      85688637
    ],
    "wof:country": "US",
    "wof:created": 1487071020,
    "wof:geomhash": "b6e33f47475d56bc8da457bc31afadc8",
    "wof:hierarchy": [
      {
        "building_id": 1159160869,
        "campus_id": 102527513,
        "continent_id": 102191575,
        "country_id": 85633793,
        "county_id": 102087579,
        "custom_id": 1729359811,
        "instagram_id": 1729359811,
        "locality_id": 85922583,
        "neighbourhood_id": -1,
        "region_id": 85688637
      }
    ],
    "wof:id": 1729359811,
    "wof:lastmodified": 1787777637,
    "wof:name": "This #Valentine card from c. 1915 reads, “I'm up in the air about you, dear valentine”...",
    "wof:parent_id": 1159160869,
    "wof:placetype": "custom",
    "wof:placetype_alt": [
      "instagram"
    ],
    "wof:repo": "sfomuseum-data-socialmedia-instagram",
    "wof:superseded_by": [],
    "wof:supersedes": []
  },
  "bbox": [
    -122.386166,
    37.616356,
    -122.386166,
    37.616356
  ],
  "geometry": {"type":"Point","coordinates":[-122.386166,37.616356]}
}
