{
  "id": 1729360821,
  "type": "Feature",
  "properties": {
    "date:cessation_lower": "2016-04-15",
    "date:cessation_upper": "2016-04-15",
    "date:inception_lower": "2016-04-15",
    "date:inception_upper": "2016-04-15",
    "edtf:cessation": "2016-04-15T01:47:00-07:00",
    "edtf:inception": "2016-04-15T01:47:00-07:00",
    "geom:area": 0,
    "geom:bbox": "-122.386166,37.616356,-122.386166,37.616356",
    "geom:latitude": 37.616356,
    "geom:longitude": -122.386166,
    "instagram:post": {
      "caption": {
        "body": "We are very pleased to announce that the Aviation Museum and Library will be open daily starting tomorrow as we are adding Saturday hours. We will now be open daily from 10 am to 4:30pm. “China Clipper”, “Catch Our Style: California Regional Airlines 1950s-1980s”, “Queen of the Skies: The Legacy of the Lockheed Constellation”, “United States Coast Guard Air Station San Francisco Honoring the Guardians of the Golden Gate 75th”, and “Early Birds: Selections from the Tony Bill Aviation Library Collection, 1893–1914”, are currently on display in the Aviation Museum and Library in the International Terminal. See more on our website: http://bit.ly/SFOMuseum",
        "excerpt": "We are very pleased to announce that the Aviation Museum and Library will be open daily starting tomorrow as we are adding Saturday hours.",
        "hashtags": [],
        "users": []
      },
      "media_id": "b6d0c33b4416eb171aa629312c3e2661",
      "path": "media/other/12930686_1100866563307659_205653069_n_17846632375120074.jpg",
      "perceptual_hash": "p:e584ba1a936de686",
      "taken": 1460710020,
      "taken_at": "Apr 15, 2016 8:47 am"
    },
    "millsfield:similar": {
      "google/siglip2-so400m-patch16-naflex": [
        {
          "distance": 0.026431381702423096,
          "id": 1729355243
        },
        {
          "distance": 0.09604555368423462,
          "id": 1729360753
        },
        {
          "distance": 0.0961759090423584,
          "id": 1729360033
        },
        {
          "distance": 0.10961329936981201,
          "id": 1947425189
        },
        {
          "distance": 0.12129229307174683,
          "id": 1729355243
        },
        {
          "distance": 0.12371999025344849,
          "id": 1729360753
        },
        {
          "distance": 0.14681988954544067,
          "id": 1729360033
        },
        {
          "distance": 0.15425264835357666,
          "id": 1947425189
        },
        {
          "distance": 0.16532844305038452,
          "id": 1729360787
        },
        {
          "distance": 0.1721893548965454,
          "id": 1763558771
        }
      ]
    },
    "sfomuseum:placetype": "instagram",
    "src:geom": "sfomuseum",
    "wof:belongsto": [
      1159160869,
      102527513,
      102191575,
      85633793,
      102087579,
      85922583,
      85688637
    ],
    "wof:country": "US",
    "wof:created": 1460710020,
    "wof:geomhash": "b6e33f47475d56bc8da457bc31afadc8",
    "wof:hierarchy": [
      {
        "building_id": 1159160869,
        "campus_id": 102527513,
        "continent_id": 102191575,
        "country_id": 85633793,
        "county_id": 102087579,
        "custom_id": 1729360821,
        "instagram_id": 1729360821,
        "locality_id": 85922583,
        "neighbourhood_id": -1,
        "region_id": 85688637
      }
    ],
    "wof:id": 1729360821,
    "wof:lastmodified": 1787777640,
    "wof:name": "We are very pleased to announce that the Aviation Museum and Library will be open daily starting tomorrow as we are adding Saturday hours...",
    "wof:parent_id": 1159160869,
    "wof:placetype": "custom",
    "wof:placetype_alt": [
      "instagram"
    ],
    "wof:repo": "sfomuseum-data-socialmedia-instagram",
    "wof:superseded_by": [],
    "wof:supersedes": []
  },
  "bbox": [
    -122.386166,
    37.616356,
    -122.386166,
    37.616356
  ],
  "geometry": {"type":"Point","coordinates":[-122.386166,37.616356]}
}
