{
  "id": 1729361011,
  "type": "Feature",
  "properties": {
    "date:cessation_lower": "2016-02-22",
    "date:cessation_upper": "2016-02-22",
    "date:inception_lower": "2016-02-22",
    "date:inception_upper": "2016-02-22",
    "edtf:cessation": "2016-02-22T03:59:00-08:00",
    "edtf:inception": "2016-02-22T03:59:00-08:00",
    "geom:area": 0,
    "geom:bbox": "-122.386166,37.616356,-122.386166,37.616356",
    "geom:latitude": 37.616356,
    "geom:longitude": -122.386166,
    "instagram:post": {
      "caption": {
        "body": "",
        "excerpt": "",
        "hashtags": [
          "EssentialPurses",
          "fashion",
          "purse"
        ],
        "users": []
      },
      "media_id": "cf8d7ef091aabfdcf5b03679bdd96308",
      "path": "media/other/12748431_190318871333189_1884614606_n_17844617752103732.jpg",
      "perceptual_hash": "p:a9969e69656586cc",
      "taken": 1456142340,
      "taken_at": "Feb 22, 2016 11:59 am"
    },
    "millsfield:similar": {
      "google/siglip2-so400m-patch16-naflex": [
        {
          "distance": 0.10770457983016968,
          "id": 1729360505
        },
        {
          "distance": 0.10770457983016968,
          "id": 1763558635
        },
        {
          "distance": 0.16450494527816772,
          "id": 1763558635
        },
        {
          "distance": 0.16450494527816772,
          "id": 1729360505
        },
        {
          "distance": 0.23212271928787231,
          "id": 1729360601
        },
        {
          "distance": 0.2459966540336609,
          "id": 1729360947
        },
        {
          "distance": 0.25257694721221924,
          "id": 1729361849
        },
        {
          "distance": 0.26021039485931396,
          "id": 1729360635
        },
        {
          "distance": 0.2652699947357178,
          "id": 1729360895
        },
        {
          "distance": 0.2736297845840454,
          "id": 1729360793
        }
      ]
    },
    "sfomuseum:placetype": "instagram",
    "src:geom": "sfomuseum",
    "wof:belongsto": [
      1159160869,
      102527513,
      102191575,
      85633793,
      102087579,
      85922583,
      85688637
    ],
    "wof:country": "US",
    "wof:created": 1456142340,
    "wof:geomhash": "b6e33f47475d56bc8da457bc31afadc8",
    "wof:hierarchy": [
      {
        "building_id": 1159160869,
        "campus_id": 102527513,
        "continent_id": 102191575,
        "country_id": 85633793,
        "county_id": 102087579,
        "custom_id": 1729361011,
        "instagram_id": 1729361011,
        "locality_id": 85922583,
        "neighbourhood_id": -1,
        "region_id": 85688637
      }
    ],
    "wof:id": 1729361011,
    "wof:lastmodified": 1787777641,
    "wof:name": "..",
    "wof:parent_id": 1159160869,
    "wof:placetype": "custom",
    "wof:placetype_alt": [
      "instagram"
    ],
    "wof:repo": "sfomuseum-data-socialmedia-instagram",
    "wof:superseded_by": [],
    "wof:supersedes": []
  },
  "bbox": [
    -122.386166,
    37.616356,
    -122.386166,
    37.616356
  ],
  "geometry": {"type":"Point","coordinates":[-122.386166,37.616356]}
}
