{
  "id": 1729356767,
  "type": "Feature",
  "properties": {
    "date:cessation_lower": "2019-03-26",
    "date:cessation_upper": "2019-03-26",
    "date:inception_lower": "2019-03-26",
    "date:inception_upper": "2019-03-26",
    "edtf:cessation": "2019-03-26T12:05:46-07:00",
    "edtf:inception": "2019-03-26T12:05:46-07:00",
    "geom:area": 0,
    "geom:bbox": "-122.386166,37.616356,-122.386166,37.616356",
    "geom:latitude": 37.616356,
    "geom:longitude": -122.386166,
    "instagram:post": {
      "caption": {
        "body": "Ndidi Ekubia is a graduate of London’s Royal College of Art. She employs traditional silversmithing techniques to push sheet silver to its working limits in her Manchester studio. Of Nigerian descent, Ekubia cites inspiration from her African heritage to create flowing, sculptural, and highly expressive forms that range from small, domestic items to stunning centerpieces. The form of Ekubia’s Flamingo vase, hand-raised from a single sheet, appears liquid, as if the silver is flowing upward from the eye of a cyclone. Examples of Ekubia’s silver are held in such prestigious collections as the Victoria and Albert Museum and the Ashmolean Museum at the University of Oxford.  Special thanks to The Pearson Silver Collection. \"A Sterling Renaissance: British Silver Design 1957 to 2018\" is on display, pre-security, in the International Terminal. http://bit.ly/BritishSilver",
        "excerpt": "Ndidi Ekubia is a graduate of London’s Royal College of Art.",
        "hashtags": [
          "BritishSilver",
          "silver",
          "sterling",
          "sterlingsilver",
          "silverdesign",
          "silversmith",
          "silversmithing",
          "5womenartists",
          "womenshistorymonth",
          "vase"
        ],
        "users": []
      },
      "location": "",
      "media_id": "96411f1a68c225e72c7b0d336278dfd8",
      "path": "photos/201903/96411f1a68c225e72c7b0d336278dfd8.jpg",
      "perceptual_hash": "p:ca1a39e7c330c63e",
      "taken": 1553598300,
      "taken_at": "Mar 26, 2019, 11:05 AM"
    },
    "millsfield:similar": {
      "google/siglip2-so400m-patch16-naflex": [
        {
          "distance": 0.15437448024749756,
          "id": 1729356775
        },
        {
          "distance": 0.17146152257919312,
          "id": 1729356659
        },
        {
          "distance": 0.19940489530563354,
          "id": 1729356721
        },
        {
          "distance": 0.22169852256774902,
          "id": 1729356775
        },
        {
          "distance": 0.22416293621063232,
          "id": 1729356659
        },
        {
          "distance": 0.26175761222839355,
          "id": 1729360533
        },
        {
          "distance": 0.2621490955352783,
          "id": 1763559573
        },
        {
          "distance": 0.26298093795776367,
          "id": 1763559573
        },
        {
          "distance": 0.26364922523498535,
          "id": 1729356725
        },
        {
          "distance": 0.266573429107666,
          "id": 1729356665
        }
      ]
    },
    "sfomuseum:placetype": "instagram",
    "src:geom": "sfomuseum",
    "wof:belongsto": [
      1159160869,
      102527513,
      102191575,
      85633793,
      102087579,
      85922583,
      85688637
    ],
    "wof:country": "US",
    "wof:created": 1553627146,
    "wof:geomhash": "b6e33f47475d56bc8da457bc31afadc8",
    "wof:hierarchy": [
      {
        "building_id": 1159160869,
        "campus_id": 102527513,
        "continent_id": 102191575,
        "country_id": 85633793,
        "county_id": 102087579,
        "custom_id": 1729356767,
        "instagram_id": 1729356767,
        "locality_id": 85922583,
        "neighbourhood_id": -1,
        "region_id": 85688637
      }
    ],
    "wof:id": 1729356767,
    "wof:lastmodified": 1787777629,
    "wof:name": "Ndidi Ekubia is a graduate of London’s Royal College of Art...",
    "wof:parent_id": 1159160869,
    "wof:placetype": "custom",
    "wof:placetype_alt": [
      "instagram"
    ],
    "wof:repo": "sfomuseum-data-socialmedia-instagram",
    "wof:superseded_by": [],
    "wof:supersedes": []
  },
  "bbox": [
    -122.386166,
    37.616356,
    -122.386166,
    37.616356
  ],
  "geometry": {"type":"Point","coordinates":[-122.386166,37.616356]}
}
