{
  "id": 1880151699,
  "type": "Feature",
  "properties": {
    "date:cessation_lower": "2022-06-03",
    "date:cessation_upper": "2022-06-03",
    "date:inception_lower": "2022-06-03",
    "date:inception_upper": "2022-06-03",
    "edtf:cessation": "2022-06-03T04:15:00-07:00",
    "edtf:inception": "2022-06-03T04:15:00-07:00",
    "geom:area": 0,
    "geom:bbox": "-122.386166,37.616356,-122.386166,37.616356",
    "geom:latitude": 37.616356,
    "geom:longitude": -122.386166,
    "instagram:post": {
      "caption": {
        "body": "Happy National Donut Day! Virgin America began service to Portland International Airport (PDX) in 2012. This First-Class amenity kit features a cartoon illustration of a woman eating a Voodoo Doughnut in front of Mount Hood. What’s your favorite donut?",
        "excerpt": "Happy National Donut Day!",
        "hashtags": [
          "NationalDonutDay",
          "AvGeek",
          "AviationHistory"
        ],
        "users": []
      },
      "media_id": "78498b7d3a5f0d5a89db8aaff38ab6859464f14a",
      "path": "media/other/284933766_774233693987458_7776232725774141043_n_17931528017111367.jpg",
      "perceptual_hash": "p:e598c233dacecc8c",
      "taken": 1654254900,
      "taken_at": "Jun 03, 2022 11:15 am"
    },
    "millsfield:similar": {
      "google/siglip2-so400m-patch16-naflex": [
        {
          "distance": 0.5374517440795898,
          "id": 1729362131
        },
        {
          "distance": 0.5620747208595276,
          "id": 1729362247
        },
        {
          "distance": 0.5684482455253601,
          "id": 1729362131
        },
        {
          "distance": 0.5711748600006104,
          "id": 1729355731
        },
        {
          "distance": 0.5862479209899902,
          "id": 1729357937
        },
        {
          "distance": 0.5877281427383423,
          "id": 1880150929
        },
        {
          "distance": 0.5981234312057495,
          "id": 1763559503
        },
        {
          "distance": 0.5986204147338867,
          "id": 1880150929
        },
        {
          "distance": 0.6060240268707275,
          "id": 1880151787
        },
        {
          "distance": 0.6116431951522827,
          "id": 1763559503
        }
      ]
    },
    "sfomuseum:placetype": "instagram",
    "src:geom": "sfomuseum",
    "wof:belongsto": [
      1159160869,
      102527513,
      102191575,
      85633793,
      102087579,
      85922583,
      85688637
    ],
    "wof:country": "US",
    "wof:created": 1654254900,
    "wof:geomhash": "b6e33f47475d56bc8da457bc31afadc8",
    "wof:hierarchy": [
      {
        "building_id": 1159160869,
        "campus_id": 102527513,
        "continent_id": 102191575,
        "country_id": 85633793,
        "county_id": 102087579,
        "custom_id": 1880151699,
        "instagram_id": 1880151699,
        "locality_id": 85922583,
        "neighbourhood_id": -1,
        "region_id": 85688637
      }
    ],
    "wof:id": 1880151699,
    "wof:lastmodified": 1787777663,
    "wof:name": "Happy National Donut Day!..",
    "wof:parent_id": 1159160869,
    "wof:placetype": "custom",
    "wof:placetype_alt": [
      "instagram"
    ],
    "wof:repo": "sfomuseum-data-socialmedia-instagram",
    "wof:superseded_by": [],
    "wof:supersedes": []
  },
  "bbox": [
    -122.386166,
    37.616356,
    -122.386166,
    37.616356
  ],
  "geometry": {"type":"Point","coordinates":[-122.386166,37.616356]}
}
