{
  "id": 1729360707,
  "type": "Feature",
  "properties": {
    "date:cessation_lower": "2016-05-17",
    "date:cessation_upper": "2016-05-17",
    "date:inception_lower": "2016-05-17",
    "date:inception_upper": "2016-05-17",
    "edtf:cessation": "2016-05-17T02:18:00-07:00",
    "edtf:inception": "2016-05-17T02:18:00-07:00",
    "geom:area": 0,
    "geom:bbox": "-122.386166,37.616356,-122.386166,37.616356",
    "geom:latitude": 37.616356,
    "geom:longitude": -122.386166,
    "instagram:post": {
      "caption": {
        "body": "Sanaz Mazinani's series of photographic montages \"Forever in the Sky\", takes as its subject clouds over San Francisco. The photographs of San Francisco’s skies are intermingled with iconic San Francisco landmarks, and infused with Persian motifs to make complex portraits of the city’s sky-scape. Mazinani states, \"I was always really interested in borders and issues around land and landlessness, and being an immigrant, and I found it really rewarding to look up at the sky and see these beautiful clouds moving — without any limitations, without checkpoints, without passports.\"",
        "excerpt": "Sanaz Mazinani's series of photographic montages \"Forever in the Sky\", takes as its subject clouds over San Francisco.",
        "hashtags": [
          "airportart"
        ],
        "users": []
      },
      "media_id": "6c731a4f16a095d06ebdf2825c3dee23",
      "path": "media/other/13108507_1029355163796666_718882916_n_17857277728034556.jpg",
      "perceptual_hash": "p:81e55e5afca0e499",
      "taken": 1463476680,
      "taken_at": "May 17, 2016 9:18 am"
    },
    "millsfield:similar": {
      "google/siglip2-so400m-patch16-naflex": [
        {
          "distance": 0.10928308963775635,
          "id": 1729356865
        },
        {
          "distance": 0.11276251077651978,
          "id": 1729355437
        },
        {
          "distance": 0.12285482883453369,
          "id": 1729355437
        },
        {
          "distance": 0.12573659420013428,
          "id": 1729356865
        },
        {
          "distance": 0.167397141456604,
          "id": 1729356853
        },
        {
          "distance": 0.16995739936828613,
          "id": 1729359847
        },
        {
          "distance": 0.16999763250350952,
          "id": 1729359847
        },
        {
          "distance": 0.17086052894592285,
          "id": 1729356853
        },
        {
          "distance": 0.18442410230636597,
          "id": 1729356861
        },
        {
          "distance": 0.1848682165145874,
          "id": 1729355453
        }
      ]
    },
    "sfomuseum:placetype": "instagram",
    "src:geom": "sfomuseum",
    "wof:belongsto": [
      1159160869,
      102527513,
      102191575,
      85633793,
      102087579,
      85922583,
      85688637
    ],
    "wof:country": "US",
    "wof:created": 1463476680,
    "wof:geomhash": "b6e33f47475d56bc8da457bc31afadc8",
    "wof:hierarchy": [
      {
        "building_id": 1159160869,
        "campus_id": 102527513,
        "continent_id": 102191575,
        "country_id": 85633793,
        "county_id": 102087579,
        "custom_id": 1729360707,
        "instagram_id": 1729360707,
        "locality_id": 85922583,
        "neighbourhood_id": -1,
        "region_id": 85688637
      }
    ],
    "wof:id": 1729360707,
    "wof:lastmodified": 1787777640,
    "wof:name": "Sanaz Mazinani's series of photographic montages \"Forever in the Sky\", takes as its subject clouds over San Francisco...",
    "wof:parent_id": 1159160869,
    "wof:placetype": "custom",
    "wof:placetype_alt": [
      "instagram"
    ],
    "wof:repo": "sfomuseum-data-socialmedia-instagram",
    "wof:superseded_by": [],
    "wof:supersedes": []
  },
  "bbox": [
    -122.386166,
    37.616356,
    -122.386166,
    37.616356
  ],
  "geometry": {"type":"Point","coordinates":[-122.386166,37.616356]}
}
