{
  "id": 1947425011,
  "type": "Feature",
  "properties": {
    "date:cessation_lower": "2024-05-30",
    "date:cessation_upper": "2024-05-30",
    "date:inception_lower": "2024-05-30",
    "date:inception_upper": "2024-05-30",
    "edtf:cessation": "2024-05-30T08:08:00-07:00",
    "edtf:inception": "2024-05-30T08:08:00-07:00",
    "geom:area": 0,
    "geom:bbox": "-122.386166,37.616356,-122.386166,37.616356",
    "geom:latitude": 37.616356,
    "geom:longitude": -122.386166,
    "instagram:post": {
      "caption": {
        "body": "CALL FOR ARTISTS!  Are you a filmmaker? Interested in screening your film for an international audience? SFO Museum reviews exhibition proposals from artists and filmmakers on a rolling basis. Video Arts is currently programming four new films each month that are 20 minutes or less in duration. Due to our operation in a public space, Video Arts does not program work that features overt sexual or violent content. Those who are interested in participating may submit their work via our online form: https://bit.ly/3WlE0mV  The Video Arts Gallery is located pre-security in the Mayor Edwin M. Lee International Terminal Departures Hall and is open daily from 8:00am to 10:00pm. Learn more about this month’s films at: https://bit.ly/Video-Arts",
        "excerpt": "CALL FOR ARTISTS!",
        "hashtags": [
          "VideoArts",
          "VideoArtsSFO"
        ],
        "users": []
      },
      "media_id": "212e06fdc9baa5a911086bb43e08edec0da595ee",
      "path": "media/other/442427087_951262767010653_3905007987544191845_n_18005674160313371.jpg",
      "perceptual_hash": "p:d2ea12038f87adcd",
      "taken": 1717081680,
      "taken_at": "May 30, 2024 3:08 pm"
    },
    "millsfield:similar": {
      "google/siglip2-so400m-patch16-naflex": [
        {
          "distance": 0.2571033835411072,
          "id": 1729358551
        },
        {
          "distance": 0.26427704095840454,
          "id": 1729355483
        },
        {
          "distance": 0.2669333815574646,
          "id": 1729356941
        },
        {
          "distance": 0.27092796564102173,
          "id": 1729355541
        },
        {
          "distance": 0.2830340266227722,
          "id": 1763559271
        },
        {
          "distance": 0.28742820024490356,
          "id": 1729355483
        },
        {
          "distance": 0.2995228171348572,
          "id": 1763559271
        },
        {
          "distance": 0.300376296043396,
          "id": 1763559193
        },
        {
          "distance": 0.3035678267478943,
          "id": 1763559091
        },
        {
          "distance": 0.30406755208969116,
          "id": 1729356941
        }
      ]
    },
    "sfomuseum:placetype": "instagram",
    "src:geom": "sfomuseum",
    "wof:belongsto": [
      1159160869,
      102527513,
      102191575,
      85633793,
      102087579,
      85922583,
      85688637
    ],
    "wof:country": "US",
    "wof:created": 1717081680,
    "wof:geomhash": "b6e33f47475d56bc8da457bc31afadc8",
    "wof:hierarchy": [
      {
        "building_id": 1159160869,
        "campus_id": 102527513,
        "continent_id": 102191575,
        "country_id": 85633793,
        "county_id": 102087579,
        "custom_id": 1947425011,
        "locality_id": 85922583,
        "neighbourhood_id": -1,
        "region_id": 85688637
      }
    ],
    "wof:id": 1947425011,
    "wof:lastmodified": 1787777664,
    "wof:name": "CALL FOR ARTISTS!..",
    "wof:parent_id": 1159160869,
    "wof:placetype": "custom",
    "wof:repo": "sfomuseum-data-socialmedia-instagram",
    "wof:superseded_by": [],
    "wof:supersedes": []
  },
  "bbox": [
    -122.386166,
    37.616356,
    -122.386166,
    37.616356
  ],
  "geometry": {"type":"Point","coordinates":[-122.386166,37.616356]}
}
