{
  "id": 1729360113,
  "type": "Feature",
  "properties": {
    "date:cessation_lower": "2016-11-18",
    "date:cessation_upper": "2016-11-18",
    "date:inception_lower": "2016-11-18",
    "date:inception_upper": "2016-11-18",
    "edtf:cessation": "2016-11-18T11:40:00-08:00",
    "edtf:inception": "2016-11-18T11:40:00-08:00",
    "geom:area": 0,
    "geom:bbox": "-122.386166,37.616356,-122.386166,37.616356",
    "geom:latitude": 37.616356,
    "geom:longitude": -122.386166,
    "instagram:post": {
      "caption": {
        "body": "A view of Green Street on San Francisco’s Telegraph Hill is featured on this United Airlines menu from circa 1975 by American painter Peter Hayward.  Peter Hayward United Airlines menu c. 1975 SFO Museum Collection Gift of David A. Abercrombie, in memory of Stanley A. Abercrombie 2001.039.160",
        "excerpt": "A view of Green Street on San Francisco’s Telegraph Hill is featured on this United Airlines menu from circa 1975 by American painter Peter Hayward.",
        "hashtags": [],
        "users": []
      },
      "media_id": "4222a98d425fb14c4861d7d365e32f0a",
      "path": "media/posts/201611/15035687_1523138251046581_3270096955673411584_n_17844505225175840.jpg",
      "perceptual_hash": "p:af8bc67a8578d085",
      "taken": 1479498000,
      "taken_at": "Nov 18, 2016 7:40 pm"
    },
    "millsfield:similar": {
      "google/siglip2-so400m-patch16-naflex": [
        {
          "distance": 0.24856454133987427,
          "id": 1729359269
        },
        {
          "distance": 0.27243489027023315,
          "id": 1947424819
        },
        {
          "distance": 0.2757483720779419,
          "id": 1947424819
        },
        {
          "distance": 0.2927424907684326,
          "id": 1729359877
        },
        {
          "distance": 0.2929273247718811,
          "id": 1729359269
        },
        {
          "distance": 0.296040415763855,
          "id": 1729356099
        },
        {
          "distance": 0.305258572101593,
          "id": 1729358229
        },
        {
          "distance": 0.30763208866119385,
          "id": 1729360057
        },
        {
          "distance": 0.3087300658226013,
          "id": 1729358175
        },
        {
          "distance": 0.3106604218482971,
          "id": 1729355015
        }
      ]
    },
    "sfomuseum:placetype": "instagram",
    "src:geom": "sfomuseum",
    "wof:belongsto": [
      1159160869,
      102527513,
      102191575,
      85633793,
      102087579,
      85922583,
      85688637
    ],
    "wof:country": "US",
    "wof:created": 1479498000,
    "wof:geomhash": "b6e33f47475d56bc8da457bc31afadc8",
    "wof:hierarchy": [
      {
        "building_id": 1159160869,
        "campus_id": 102527513,
        "continent_id": 102191575,
        "country_id": 85633793,
        "county_id": 102087579,
        "custom_id": 1729360113,
        "instagram_id": 1729360113,
        "locality_id": 85922583,
        "neighbourhood_id": -1,
        "region_id": 85688637
      }
    ],
    "wof:id": 1729360113,
    "wof:lastmodified": 1787777639,
    "wof:name": "A view of Green Street on San Francisco’s Telegraph Hill is featured on this United Airlines menu from circa 1975 by American painter Peter Hayward...",
    "wof:parent_id": 1159160869,
    "wof:placetype": "custom",
    "wof:placetype_alt": [
      "instagram"
    ],
    "wof:repo": "sfomuseum-data-socialmedia-instagram",
    "wof:superseded_by": [],
    "wof:supersedes": []
  },
  "bbox": [
    -122.386166,
    37.616356,
    -122.386166,
    37.616356
  ],
  "geometry": {"type":"Point","coordinates":[-122.386166,37.616356]}
}
