{
  "id": 1729355315,
  "type": "Feature",
  "properties": {
    "date:cessation_lower": "2020-05-01",
    "date:cessation_upper": "2020-05-01",
    "date:inception_lower": "2020-05-01",
    "date:inception_upper": "2020-05-01",
    "edtf:cessation": "2020-05-01T13:34:41-07:00",
    "edtf:inception": "2020-05-01T13:34:41-07:00",
    "geom:area": 0,
    "geom:bbox": "-122.386166,37.616356,-122.386166,37.616356",
    "geom:latitude": 37.616356,
    "geom:longitude": -122.386166,
    "instagram:post": {
      "caption": {
        "body": "Pan American Airways pioneered commercial airline service to Latin America and the Caribbean in the late 1920s and early 1930s, when air travel was first developing into a viable form of transportation. By 1930, the airline linked twenty-nine Latin American and Caribbean countries and territories with regularly scheduled airmail, passenger, and cargo flights. Pan Am’s public relations and advertising manager Daniel Rochford (1900–89) traveled extensively throughout Central America in the winter of 1930–31 and helped document Pan America’s operations from Cristóbal in the Panama Canal Zone to Guatemala, photographing PAA’s service in Costa Rica, Nicaragua, Honduras, and El Salvador.  See Daniel Rochford’s photographs in “Pan American Airways in Central America,” online at: http://bit.ly/PAAinCA",
        "excerpt": "Pan American Airways pioneered commercial airline service to Latin America and the Caribbean in the late 1920s and early 1930s, when air travel was first developing into a viable form of transportation.",
        "hashtags": [
          "PAAinCA",
          "PAA",
          "CentralAmerica",
          "PanAm",
          "MuseumFromHome"
        ],
        "users": []
      },
      "location": "",
      "media_id": "9ff1a64ff97feb2ec7aab3e467d5dd4e",
      "path": "photos/202005/9ff1a64ff97feb2ec7aab3e467d5dd4e.jpg",
      "perceptual_hash": "p:c6e1fe7d7e060380",
      "taken": 1588336440,
      "taken_at": "May 1, 2020, 12:34 PM"
    },
    "millsfield:similar": {
      "google/siglip2-so400m-patch16-naflex": [
        {
          "distance": 0.14221161603927612,
          "id": 1729355793
        },
        {
          "distance": 0.16507768630981445,
          "id": 1729355793
        },
        {
          "distance": 0.17103958129882812,
          "id": 1729355313
        },
        {
          "distance": 0.18985331058502197,
          "id": 1729355307
        },
        {
          "distance": 0.23238295316696167,
          "id": 1729361289
        },
        {
          "distance": 0.2328580617904663,
          "id": 1729357747
        },
        {
          "distance": 0.23408472537994385,
          "id": 1729357231
        },
        {
          "distance": 0.24074625968933105,
          "id": 1729357545
        },
        {
          "distance": 0.24743735790252686,
          "id": 1729360639
        },
        {
          "distance": 0.2501187324523926,
          "id": 1729360235
        }
      ]
    },
    "sfomuseum:placetype": "instagram",
    "src:geom": "sfomuseum",
    "wof:belongsto": [
      1159160869,
      102527513,
      102191575,
      85633793,
      102087579,
      85922583,
      85688637
    ],
    "wof:country": "US",
    "wof:created": 1588365281,
    "wof:geomhash": "b6e33f47475d56bc8da457bc31afadc8",
    "wof:hierarchy": [
      {
        "building_id": 1159160869,
        "campus_id": 102527513,
        "continent_id": 102191575,
        "country_id": 85633793,
        "county_id": 102087579,
        "custom_id": 1729355315,
        "instagram_id": 1729355315,
        "locality_id": 85922583,
        "neighbourhood_id": -1,
        "region_id": 85688637
      }
    ],
    "wof:id": 1729355315,
    "wof:lastmodified": 1787777623,
    "wof:name": "Pan American Airways pioneered commercial airline service to Latin America and the Caribbean in the late 1920s and early 1930s, when air travel was first developing into a viable form of transportation...",
    "wof:parent_id": 1159160869,
    "wof:placetype": "custom",
    "wof:placetype_alt": [
      "instagram"
    ],
    "wof:repo": "sfomuseum-data-socialmedia-instagram",
    "wof:superseded_by": [],
    "wof:supersedes": []
  },
  "bbox": [
    -122.386166,
    37.616356,
    -122.386166,
    37.616356
  ],
  "geometry": {"type":"Point","coordinates":[-122.386166,37.616356]}
}
