{
  "id": 1763559127,
  "type": "Feature",
  "properties": {
    "date:cessation_lower": "2021-05-27",
    "date:cessation_upper": "2021-05-27",
    "date:inception_lower": "2021-05-27",
    "date:inception_upper": "2021-05-27",
    "edtf:cessation": "2021-05-27T09:28:00-07:00",
    "edtf:inception": "2021-05-27T09:28:00-07:00",
    "geom:area": 0,
    "geom:bbox": "-122.386166,37.616356,-122.386166,37.616356",
    "geom:latitude": 37.616356,
    "geom:longitude": -122.386166,
    "instagram:post": {
      "caption": {
        "body": "Look who's back! Pohina, by Deborah Butterfield, a favorite of passengers in Terminal 1, has a new home in the AirTrain station of the long-term parking garage. While it looks like it's made of driftwood, the sculpture is actually cast bronze with a patina that mimics the look of wood.",
        "excerpt": "Look who's back!",
        "hashtags": [
          "PublicArt",
          "DeborahButterfield",
          "horse",
          "sculpture"
        ],
        "users": []
      },
      "media_id": "c8bbe06dba124838c9f980599d8f1899552aa93d",
      "path": "media/posts/202105/190930851_4483323971679352_4201356414633448435_n_17895867530078283.jpg",
      "perceptual_hash": "p:e77e500143a7e5b4",
      "taken": 1622132880,
      "taken_at": "May 27, 2021 4:28 pm"
    },
    "millsfield:similar": {
      "google/siglip2-so400m-patch16-naflex": [
        {
          "distance": 0.14433467388153076,
          "id": 1729359993
        },
        {
          "distance": 0.1924799084663391,
          "id": 1729359993
        },
        {
          "distance": 0.23576343059539795,
          "id": 1729361653
        },
        {
          "distance": 0.2558996081352234,
          "id": 1729355635
        },
        {
          "distance": 0.2630908489227295,
          "id": 1880151609
        },
        {
          "distance": 0.27196192741394043,
          "id": 1729355461
        },
        {
          "distance": 0.27388572692871094,
          "id": 1729355461
        },
        {
          "distance": 0.27411186695098877,
          "id": 1880151621
        },
        {
          "distance": 0.28105849027633667,
          "id": 1880150939
        },
        {
          "distance": 0.2838594317436218,
          "id": 1880151091
        }
      ]
    },
    "sfomuseum:placetype": "instagram",
    "src:geom": "sfomuseum",
    "wof:belongsto": [
      1159160869,
      102527513,
      102191575,
      85633793,
      102087579,
      85922583,
      85688637
    ],
    "wof:country": "US",
    "wof:created": 1622132880,
    "wof:geomhash": "b6e33f47475d56bc8da457bc31afadc8",
    "wof:hierarchy": [
      {
        "building_id": 1159160869,
        "campus_id": 102527513,
        "continent_id": 102191575,
        "country_id": 85633793,
        "county_id": 102087579,
        "custom_id": 1763559127,
        "instagram_id": 1763559127,
        "locality_id": 85922583,
        "neighbourhood_id": -1,
        "region_id": 85688637
      }
    ],
    "wof:id": 1763559127,
    "wof:lastmodified": 1787777660,
    "wof:name": "Look who's back!..",
    "wof:parent_id": 1159160869,
    "wof:placetype": "custom",
    "wof:placetype_alt": [
      "instagram"
    ],
    "wof:repo": "sfomuseum-data-socialmedia-instagram",
    "wof:superseded_by": [],
    "wof:supersedes": []
  },
  "bbox": [
    -122.386166,
    37.616356,
    -122.386166,
    37.616356
  ],
  "geometry": {"type":"Point","coordinates":[-122.386166,37.616356]}
}
