{
  "id": 1729355623,
  "type": "Feature",
  "properties": {
    "date:cessation_lower": "2020-01-30",
    "date:cessation_upper": "2020-01-30",
    "date:inception_lower": "2020-01-30",
    "date:inception_upper": "2020-01-30",
    "edtf:cessation": "2020-01-30T13:29:00-08:00",
    "edtf:inception": "2020-01-30T13:29:00-08:00",
    "geom:area": 0,
    "geom:bbox": "-122.386166,37.616356,-122.386166,37.616356",
    "geom:latitude": 37.616356,
    "geom:longitude": -122.386166,
    "instagram:post": {
      "caption": {
        "body": "In honor of our 40th anniversary, every week this year we are highlighting one of our past exhibitions. In 1999, we presented \"Beauty and Culture: From the Collection of the POLA Research Institute of Beauty and Culture, Tokyo, Japan,\" which featured the history, method, and utensils of Japanese makeup during the late Edo period (1784-1867) and the Meiji period (1867-1912). Do you remember this exhibition?",
        "excerpt": "In honor of our 40th anniversary, every week this year we are highlighting one of our past exhibitions.",
        "hashtags": [
          "TBTSFOM",
          "SFOMat40",
          "Japan",
          "makeup",
          "japanese",
          "beauty",
          "culture"
        ],
        "users": []
      },
      "media_id": "d03fa1c37175b9d00d89fe65dc786994",
      "path": "media/other/82902862_178838400134477_1402191450748922214_n_18091093228086316.jpg",
      "perceptual_hash": "p:c8931589bb387c67",
      "taken": 1580419740,
      "taken_at": "Jan 30, 2020 9:29 pm"
    },
    "millsfield:similar": {
      "google/siglip2-so400m-patch16-naflex": [
        {
          "distance": 0.2236337661743164,
          "id": 1763559129
        },
        {
          "distance": 0.2262161374092102,
          "id": 1763558925
        },
        {
          "distance": 0.2308986783027649,
          "id": 1729360245
        },
        {
          "distance": 0.23192530870437622,
          "id": 1880151401
        },
        {
          "distance": 0.23321735858917236,
          "id": 1947425087
        },
        {
          "distance": 0.24001914262771606,
          "id": 1729358347
        },
        {
          "distance": 0.24088293313980103,
          "id": 1729355019
        },
        {
          "distance": 0.24225789308547974,
          "id": 1947425115
        },
        {
          "distance": 0.2457892894744873,
          "id": 1947425291
        },
        {
          "distance": 0.24604785442352295,
          "id": 1729357693
        }
      ]
    },
    "sfomuseum:placetype": "instagram",
    "src:geom": "sfomuseum",
    "wof:belongsto": [
      1159160869,
      102527513,
      102191575,
      85633793,
      102087579,
      85922583,
      85688637
    ],
    "wof:country": "US",
    "wof:created": 1580419740,
    "wof:geomhash": "b6e33f47475d56bc8da457bc31afadc8",
    "wof:hierarchy": [
      {
        "building_id": 1159160869,
        "campus_id": 102527513,
        "continent_id": 102191575,
        "country_id": 85633793,
        "county_id": 102087579,
        "custom_id": 1729355623,
        "instagram_id": 1729355623,
        "locality_id": 85922583,
        "neighbourhood_id": -1,
        "region_id": 85688637
      }
    ],
    "wof:id": 1729355623,
    "wof:lastmodified": 1787777627,
    "wof:name": "In honor of our 40th anniversary, every week this year we are highlighting one of our past exhibitions...",
    "wof:parent_id": 1159160869,
    "wof:placetype": "custom",
    "wof:placetype_alt": [
      "instagram"
    ],
    "wof:repo": "sfomuseum-data-socialmedia-instagram",
    "wof:superseded_by": [],
    "wof:supersedes": []
  },
  "bbox": [
    -122.386166,
    37.616356,
    -122.386166,
    37.616356
  ],
  "geometry": {"type":"Point","coordinates":[-122.386166,37.616356]}
}
