{
  "id": 1729356145,
  "type": "Feature",
  "properties": {
    "date:cessation_lower": "2019-08-29",
    "date:cessation_upper": "2019-08-29",
    "date:inception_lower": "2019-08-29",
    "date:inception_upper": "2019-08-29",
    "edtf:cessation": "2019-08-29T09:25:00-07:00",
    "edtf:inception": "2019-08-29T09:25:00-07:00",
    "geom:area": 0,
    "geom:bbox": "-122.386166,37.616356,-122.386166,37.616356",
    "geom:latitude": 37.616356,
    "geom:longitude": -122.386166,
    "instagram:post": {
      "caption": {
        "body": "On August 27, 1954, the new Central Terminal (now Terminal 2) at San Francisco International Airport was dedicated during a three-day ceremony. The event drew hundreds of thousands of visitors.  As SFO had reached two million annual passengers by 1952, this new facility could accommodate several million additional passengers. The upper level was for departures and the lower level was for arrivals, each with its own roadway. A spacious restaurant named the International Room provided panoramic views of the airfield. Later called the Central Terminal, the building has been modified several times over the years. It is now named Terminal 2 and is still part of SFO.  Image: San Francisco International Airport (SFO), dedication of Terminal Building, 1954. Gift of United Airlines Archives. 1999.047.251",
        "excerpt": "On August 27, 1954, the new Central Terminal (now Terminal 2) at San Francisco International Airport was dedicated during a three-day ceremony.",
        "hashtags": [
          "SFO",
          "SFOHistory",
          "SFHistory",
          "airport"
        ],
        "users": []
      },
      "media_id": "7345bfe139ea735777256cbd7b8f4fc3",
      "path": "media/other/67123366_969897080014476_3001954419615913135_n_17844612127608223.jpg",
      "perceptual_hash": "p:f6a7b2e30a489bc8",
      "taken": 1567095900,
      "taken_at": "Aug 29, 2019 4:25 pm"
    },
    "millsfield:similar": {
      "google/siglip2-so400m-patch16-naflex": [
        {
          "distance": 0.13024652004241943,
          "id": 1729359947
        },
        {
          "distance": 0.15995407104492188,
          "id": 1729357593
        },
        {
          "distance": 0.16949647665023804,
          "id": 1729359149
        },
        {
          "distance": 0.17038178443908691,
          "id": 1880151675
        },
        {
          "distance": 0.18068313598632812,
          "id": 1729360429
        },
        {
          "distance": 0.18581104278564453,
          "id": 1880151675
        },
        {
          "distance": 0.18951725959777832,
          "id": 1729359947
        },
        {
          "distance": 0.19357508420944214,
          "id": 1729355115
        },
        {
          "distance": 0.19680345058441162,
          "id": 1729359523
        },
        {
          "distance": 0.20133739709854126,
          "id": 1729361227
        }
      ]
    },
    "sfomuseum:placetype": "instagram",
    "src:geom": "sfomuseum",
    "wof:belongsto": [
      1159160869,
      102527513,
      102191575,
      85633793,
      102087579,
      85922583,
      85688637
    ],
    "wof:country": "US",
    "wof:created": 1567095900,
    "wof:geomhash": "b6e33f47475d56bc8da457bc31afadc8",
    "wof:hierarchy": [
      {
        "building_id": 1159160869,
        "campus_id": 102527513,
        "continent_id": 102191575,
        "country_id": 85633793,
        "county_id": 102087579,
        "custom_id": 1729356145,
        "instagram_id": 1729356145,
        "locality_id": 85922583,
        "neighbourhood_id": -1,
        "region_id": 85688637
      }
    ],
    "wof:id": 1729356145,
    "wof:lastmodified": 1787777628,
    "wof:name": "On August 27, 1954, the new Central Terminal (now Terminal 2) at San Francisco International Airport was dedicated during a three-day ceremony...",
    "wof:parent_id": 1159160869,
    "wof:placetype": "custom",
    "wof:placetype_alt": [
      "instagram"
    ],
    "wof:repo": "sfomuseum-data-socialmedia-instagram",
    "wof:superseded_by": [],
    "wof:supersedes": []
  },
  "bbox": [
    -122.386166,
    37.616356,
    -122.386166,
    37.616356
  ],
  "geometry": {"type":"Point","coordinates":[-122.386166,37.616356]}
}
