{
  "id": 1729362979,
  "type": "Feature",
  "properties": {
    "date:cessation_lower": "2012-06-13",
    "date:cessation_upper": "2012-06-13",
    "date:inception_lower": "2012-06-13",
    "date:inception_upper": "2012-06-13",
    "edtf:cessation": "2012-06-13T07:13:00-07:00",
    "edtf:inception": "2012-06-13T07:13:00-07:00",
    "geom:area": 0,
    "geom:bbox": "-122.386166,37.616356,-122.386166,37.616356",
    "geom:latitude": 37.616356,
    "geom:longitude": -122.386166,
    "instagram:post": {
      "caption": {
        "body": "It's a bird! It's a plane! Oh, it actually IS a plane. Goosedale Collection models in the T3 hub.",
        "excerpt": "It's a bird!",
        "hashtags": [],
        "users": []
      },
      "media_id": "e36f7234a8edb33a691620df458227cf",
      "path": "media/other/11192838_863746967012682_1960898644_n_17842253503062499.jpg",
      "perceptual_hash": "p:d0f5c639eaf19a04",
      "taken": 1339596780,
      "taken_at": "Jun 13, 2012 2:13 pm"
    },
    "millsfield:similar": {
      "google/siglip2-so400m-patch16-naflex": [
        {
          "distance": 0.1953355073928833,
          "id": 1729361937
        },
        {
          "distance": 0.19813013076782227,
          "id": 1729361937
        },
        {
          "distance": 0.21115964651107788,
          "id": 1729362935
        },
        {
          "distance": 0.22674375772476196,
          "id": 1729362935
        },
        {
          "distance": 0.23780453205108643,
          "id": 1729361585
        },
        {
          "distance": 0.24407219886779785,
          "id": 1729362997
        },
        {
          "distance": 0.25664645433425903,
          "id": 1729360497
        },
        {
          "distance": 0.2569400668144226,
          "id": 1729361651
        },
        {
          "distance": 0.26269829273223877,
          "id": 1729360497
        },
        {
          "distance": 0.26547014713287354,
          "id": 1729362487
        }
      ]
    },
    "sfomuseum:placetype": "instagram",
    "src:geom": "sfomuseum",
    "wof:belongsto": [
      1159160869,
      102527513,
      102191575,
      85633793,
      102087579,
      85922583,
      85688637
    ],
    "wof:country": "US",
    "wof:created": 1339596780,
    "wof:geomhash": "b6e33f47475d56bc8da457bc31afadc8",
    "wof:hierarchy": [
      {
        "building_id": 1159160869,
        "campus_id": 102527513,
        "continent_id": 102191575,
        "country_id": 85633793,
        "county_id": 102087579,
        "custom_id": 1729362979,
        "instagram_id": 1729362979,
        "locality_id": 85922583,
        "neighbourhood_id": -1,
        "region_id": 85688637
      }
    ],
    "wof:id": 1729362979,
    "wof:lastmodified": 1787777657,
    "wof:name": "It's a bird!..",
    "wof:parent_id": 1159160869,
    "wof:placetype": "custom",
    "wof:placetype_alt": [
      "instagram"
    ],
    "wof:repo": "sfomuseum-data-socialmedia-instagram",
    "wof:superseded_by": [],
    "wof:supersedes": []
  },
  "bbox": [
    -122.386166,
    37.616356,
    -122.386166,
    37.616356
  ],
  "geometry": {"type":"Point","coordinates":[-122.386166,37.616356]}
}
