{
  "id": 1729358501,
  "type": "Feature",
  "properties": {
    "date:cessation_lower": "2018-02-26",
    "date:cessation_upper": "2018-02-26",
    "date:inception_lower": "2018-02-26",
    "date:inception_upper": "2018-02-26",
    "edtf:cessation": "2018-02-26T06:57:00-08:00",
    "edtf:inception": "2018-02-26T06:57:00-08:00",
    "geom:area": 0,
    "geom:bbox": "-122.386166,37.616356,-122.386166,37.616356",
    "geom:latitude": 37.616356,
    "geom:longitude": -122.386166,
    "instagram:post": {
      "caption": {
        "body": "#HappyBirthday to Philippine Airlines (PAL), which was founded #onthisday in 1941. PAL was established by various businessmen, including Andrés Soriano. Soriano, a Spanish Filipino businessman, was president of the San Miguel Brewery and loaned his personal Beech 18 for PAL's launch. Have you ever flown on Philippine Airlines?  Image:  Philippine Air Lines timetable, 1952. Gift of Thomas G. Dragges. 2015.167.612",
        "excerpt": "#HappyBirthday to Philippine Airlines (PAL), which was founded #onthisday in 1941.",
        "hashtags": [
          "HBD",
          "Aviationhistory",
          "Avgeek",
          "PhilippineAirlines",
          "avationgeek",
          "aviation",
          "aviationhistory",
          "vintageaviation",
          "history",
          "avhistory",
          "aviationgeeks",
          "avgeeks"
        ],
        "users": []
      },
      "media_id": "cabfd8b18b5c6e95d5b391dc095b43f8",
      "path": "media/other/28427120_2059485017603780_5198959943603978240_n_17855442478226764.jpg",
      "perceptual_hash": "p:ef941bc11ec76a84",
      "taken": 1519657020,
      "taken_at": "Feb 26, 2018 2:57 pm"
    },
    "millsfield:similar": {
      "google/siglip2-so400m-patch16-naflex": [
        {
          "distance": 0.19124531745910645,
          "id": 1729356907
        },
        {
          "distance": 0.1935020089149475,
          "id": 1729355167
        },
        {
          "distance": 0.21758872270584106,
          "id": 1729359247
        },
        {
          "distance": 0.22697848081588745,
          "id": 1729360457
        },
        {
          "distance": 0.23208153247833252,
          "id": 1729355167
        },
        {
          "distance": 0.23750746250152588,
          "id": 1947424801
        },
        {
          "distance": 0.24846655130386353,
          "id": 1729359701
        },
        {
          "distance": 0.2486845850944519,
          "id": 1729360011
        },
        {
          "distance": 0.25076305866241455,
          "id": 1763559155
        },
        {
          "distance": 0.25420618057250977,
          "id": 1729359247
        }
      ]
    },
    "sfomuseum:placetype": "instagram",
    "src:geom": "sfomuseum",
    "wof:belongsto": [
      1159160869,
      102527513,
      102191575,
      85633793,
      102087579,
      85922583,
      85688637
    ],
    "wof:country": "US",
    "wof:created": 1519657020,
    "wof:geomhash": "b6e33f47475d56bc8da457bc31afadc8",
    "wof:hierarchy": [
      {
        "building_id": 1159160869,
        "campus_id": 102527513,
        "continent_id": 102191575,
        "country_id": 85633793,
        "county_id": 102087579,
        "custom_id": 1729358501,
        "instagram_id": 1729358501,
        "locality_id": 85922583,
        "neighbourhood_id": -1,
        "region_id": 85688637
      }
    ],
    "wof:id": 1729358501,
    "wof:lastmodified": 1787777633,
    "wof:name": "#HappyBirthday to Philippine Airlines (PAL), which was founded #onthisday in 1941...",
    "wof:parent_id": 1159160869,
    "wof:placetype": "custom",
    "wof:placetype_alt": [
      "instagram"
    ],
    "wof:repo": "sfomuseum-data-socialmedia-instagram",
    "wof:superseded_by": [],
    "wof:supersedes": []
  },
  "bbox": [
    -122.386166,
    37.616356,
    -122.386166,
    37.616356
  ],
  "geometry": {"type":"Point","coordinates":[-122.386166,37.616356]}
}
