{
  "id": 1729362005,
  "type": "Feature",
  "properties": {
    "date:cessation_lower": "2014-12-29",
    "date:cessation_upper": "2014-12-29",
    "date:inception_lower": "2014-12-29",
    "date:inception_upper": "2014-12-29",
    "edtf:cessation": "2014-12-29T06:06:00-08:00",
    "edtf:inception": "2014-12-29T06:06:00-08:00",
    "geom:area": 0,
    "geom:bbox": "-122.386166,37.616356,-122.386166,37.616356",
    "geom:latitude": 37.616356,
    "geom:longitude": -122.386166,
    "instagram:post": {
      "caption": {
        "body": "",
        "excerpt": "",
        "hashtags": [
          "SneakPeek",
          "JoseffOfHollywood",
          "tiara"
        ],
        "users": []
      },
      "media_id": "b4807fe38c2710181d57838e3e0a3b0d",
      "path": "media/other/10848135_336181963241662_1885935023_n_17841868201062499.jpg",
      "perceptual_hash": "p:de72b36d819fc005",
      "taken": 1419861960,
      "taken_at": "Dec 29, 2014 2:06 pm"
    },
    "millsfield:similar": {
      "google/siglip2-so400m-patch16-naflex": [
        {
          "distance": 0.2177618145942688,
          "id": 1729361733
        },
        {
          "distance": 0.27106761932373047,
          "id": 1729361839
        },
        {
          "distance": 0.2745911478996277,
          "id": 1729362561
        },
        {
          "distance": 0.28128981590270996,
          "id": 1729361733
        },
        {
          "distance": 0.307648241519928,
          "id": 1880151155
        },
        {
          "distance": 0.3112591505050659,
          "id": 1729362281
        },
        {
          "distance": 0.3118348717689514,
          "id": 1729362651
        },
        {
          "distance": 0.3160209059715271,
          "id": 1729362403
        },
        {
          "distance": 0.31639719009399414,
          "id": 1947425303
        },
        {
          "distance": 0.3186655044555664,
          "id": 1729362521
        }
      ]
    },
    "sfomuseum:placetype": "instagram",
    "src:geom": "sfomuseum",
    "wof:belongsto": [
      1159160869,
      102527513,
      102191575,
      85633793,
      102087579,
      85922583,
      85688637
    ],
    "wof:country": "US",
    "wof:created": 1419861960,
    "wof:geomhash": "b6e33f47475d56bc8da457bc31afadc8",
    "wof:hierarchy": [
      {
        "building_id": 1159160869,
        "campus_id": 102527513,
        "continent_id": 102191575,
        "country_id": 85633793,
        "county_id": 102087579,
        "custom_id": 1729362005,
        "instagram_id": 1729362005,
        "locality_id": 85922583,
        "neighbourhood_id": -1,
        "region_id": 85688637
      }
    ],
    "wof:id": 1729362005,
    "wof:lastmodified": 1787777646,
    "wof:name": "..",
    "wof:parent_id": 1159160869,
    "wof:placetype": "custom",
    "wof:placetype_alt": [
      "instagram"
    ],
    "wof:repo": "sfomuseum-data-socialmedia-instagram",
    "wof:superseded_by": [],
    "wof:supersedes": []
  },
  "bbox": [
    -122.386166,
    37.616356,
    -122.386166,
    37.616356
  ],
  "geometry": {"type":"Point","coordinates":[-122.386166,37.616356]}
}
