{
  "id": 1729362889,
  "type": "Feature",
  "properties": {
    "date:cessation_lower": "2012-09-21",
    "date:cessation_upper": "2012-09-21",
    "date:inception_lower": "2012-09-21",
    "date:inception_upper": "2012-09-21",
    "edtf:cessation": "2012-09-21T02:32:00-07:00",
    "edtf:inception": "2012-09-21T02:32:00-07:00",
    "geom:area": 0,
    "geom:bbox": "-122.386166,37.616356,-122.386166,37.616356",
    "geom:latitude": 37.616356,
    "geom:longitude": -122.386166,
    "instagram:post": {
      "caption": {
        "body": "",
        "excerpt": "",
        "hashtags": [
          "Endeavor!"
        ],
        "users": []
      },
      "media_id": "f39a52cd58ee6b0293a527d402fb51fa",
      "path": "media/other/11192606_978348352206154_391238870_n_17842271356062499.jpg",
      "perceptual_hash": "p:857b155a2d1ae59a",
      "taken": 1348219920,
      "taken_at": "Sep 21, 2012 9:32 am"
    },
    "millsfield:similar": {
      "google/siglip2-so400m-patch16-naflex": [
        {
          "distance": 0.14278167486190796,
          "id": 1729362307
        },
        {
          "distance": 0.14934110641479492,
          "id": 1729362901
        },
        {
          "distance": 0.15305036306381226,
          "id": 1729362901
        },
        {
          "distance": 0.1533297300338745,
          "id": 1729362487
        },
        {
          "distance": 0.17965316772460938,
          "id": 1729362307
        },
        {
          "distance": 0.19192934036254883,
          "id": 1729362705
        },
        {
          "distance": 0.19550585746765137,
          "id": 1729362487
        },
        {
          "distance": 0.20707625150680542,
          "id": 1763559183
        },
        {
          "distance": 0.21796965599060059,
          "id": 1729362705
        },
        {
          "distance": 0.22122979164123535,
          "id": 1763559183
        }
      ]
    },
    "sfomuseum:placetype": "instagram",
    "src:geom": "sfomuseum",
    "wof:belongsto": [
      1159160869,
      102527513,
      102191575,
      85633793,
      102087579,
      85922583,
      85688637
    ],
    "wof:country": "US",
    "wof:created": 1348219920,
    "wof:geomhash": "b6e33f47475d56bc8da457bc31afadc8",
    "wof:hierarchy": [
      {
        "building_id": 1159160869,
        "campus_id": 102527513,
        "continent_id": 102191575,
        "country_id": 85633793,
        "county_id": 102087579,
        "custom_id": 1729362889,
        "instagram_id": 1729362889,
        "locality_id": 85922583,
        "neighbourhood_id": -1,
        "region_id": 85688637
      }
    ],
    "wof:id": 1729362889,
    "wof:lastmodified": 1787777654,
    "wof:name": "..",
    "wof:parent_id": 1159160869,
    "wof:placetype": "custom",
    "wof:placetype_alt": [
      "instagram"
    ],
    "wof:repo": "sfomuseum-data-socialmedia-instagram",
    "wof:superseded_by": [],
    "wof:supersedes": []
  },
  "bbox": [
    -122.386166,
    37.616356,
    -122.386166,
    37.616356
  ],
  "geometry": {"type":"Point","coordinates":[-122.386166,37.616356]}
}
