{
  "id": 1729362533,
  "type": "Feature",
  "properties": {
    "date:cessation_lower": "2013-09-30",
    "date:cessation_upper": "2013-09-30",
    "date:inception_lower": "2013-09-30",
    "date:inception_upper": "2013-09-30",
    "edtf:cessation": "2013-09-30T06:31:00-07:00",
    "edtf:inception": "2013-09-30T06:31:00-07:00",
    "geom:area": 0,
    "geom:bbox": "-122.386166,37.616356,-122.386166,37.616356",
    "geom:latitude": 37.616356,
    "geom:longitude": -122.386166,
    "instagram:post": {
      "caption": {
        "body": "",
        "excerpt": "",
        "hashtags": [
          "aviation",
          "plastics",
          "design"
        ],
        "users": []
      },
      "media_id": "9fd61fe25a603d30ec6e16e91976394f",
      "path": "media/other/11374670_1591559031118598_1806260301_n_17842363663062499.jpg",
      "perceptual_hash": "p:c56b2a9615952f39",
      "taken": 1380547860,
      "taken_at": "Sep 30, 2013 1:31 pm"
    },
    "millsfield:similar": {
      "google/siglip2-so400m-patch16-naflex": [
        {
          "distance": 0.3013055920600891,
          "id": 1729362401
        },
        {
          "distance": 0.33311325311660767,
          "id": 1729362401
        },
        {
          "distance": 0.3362691402435303,
          "id": 1729357835
        },
        {
          "distance": 0.34069114923477173,
          "id": 1729362343
        },
        {
          "distance": 0.3478575348854065,
          "id": 1729361845
        },
        {
          "distance": 0.3484343886375427,
          "id": 1729362431
        },
        {
          "distance": 0.35203540325164795,
          "id": 1729361967
        },
        {
          "distance": 0.3531339168548584,
          "id": 1729362297
        },
        {
          "distance": 0.3537396192550659,
          "id": 1729361917
        },
        {
          "distance": 0.3558397889137268,
          "id": 1729357417
        }
      ]
    },
    "sfomuseum:placetype": "instagram",
    "src:geom": "sfomuseum",
    "wof:belongsto": [
      1159160869,
      102527513,
      102191575,
      85633793,
      102087579,
      85922583,
      85688637
    ],
    "wof:country": "US",
    "wof:created": 1380547860,
    "wof:geomhash": "b6e33f47475d56bc8da457bc31afadc8",
    "wof:hierarchy": [
      {
        "building_id": 1159160869,
        "campus_id": 102527513,
        "continent_id": 102191575,
        "country_id": 85633793,
        "county_id": 102087579,
        "custom_id": 1729362533,
        "instagram_id": 1729362533,
        "locality_id": 85922583,
        "neighbourhood_id": -1,
        "region_id": 85688637
      }
    ],
    "wof:id": 1729362533,
    "wof:lastmodified": 1787777647,
    "wof:name": "..",
    "wof:parent_id": 1159160869,
    "wof:placetype": "custom",
    "wof:placetype_alt": [
      "instagram"
    ],
    "wof:repo": "sfomuseum-data-socialmedia-instagram",
    "wof:superseded_by": [],
    "wof:supersedes": []
  },
  "bbox": [
    -122.386166,
    37.616356,
    -122.386166,
    37.616356
  ],
  "geometry": {"type":"Point","coordinates":[-122.386166,37.616356]}
}
