{
  "id": 1729361879,
  "type": "Feature",
  "properties": {
    "date:cessation_lower": "2015-03-13",
    "date:cessation_upper": "2015-03-13",
    "date:inception_lower": "2015-03-13",
    "date:inception_upper": "2015-03-13",
    "edtf:cessation": "2015-03-13T05:03:00-07:00",
    "edtf:inception": "2015-03-13T05:03:00-07:00",
    "geom:area": 0,
    "geom:bbox": "-122.386166,37.616356,-122.386166,37.616356",
    "geom:latitude": 37.616356,
    "geom:longitude": -122.386166,
    "instagram:post": {
      "caption": {
        "body": "",
        "excerpt": "",
        "hashtags": [
          "AgeOfDeco",
          "ArtDeco",
          "glamour",
          "design"
        ],
        "users": []
      },
      "media_id": "c1a724c4a08f8049d8cf1edc2c2a947d",
      "path": "media/other/10954953_1556499237962252_1158015199_n_17841792880062499.jpg",
      "perceptual_hash": "p:eab58d66a559d00d",
      "taken": 1426248180,
      "taken_at": "Mar 13, 2015 12:03 pm"
    },
    "millsfield:similar": {
      "google/siglip2-so400m-patch16-naflex": [
        {
          "distance": 0.22971266508102417,
          "id": 1729361843
        },
        {
          "distance": 0.2707051634788513,
          "id": 1729361843
        },
        {
          "distance": 0.29431313276290894,
          "id": 1729360635
        },
        {
          "distance": 0.31108182668685913,
          "id": 1729362561
        },
        {
          "distance": 0.324211061000824,
          "id": 1729361783
        },
        {
          "distance": 0.3273038864135742,
          "id": 1729361903
        },
        {
          "distance": 0.33527296781539917,
          "id": 1729362605
        },
        {
          "distance": 0.3388463854789734,
          "id": 1729362235
        },
        {
          "distance": 0.3429955244064331,
          "id": 1729358359
        },
        {
          "distance": 0.34371834993362427,
          "id": 1729362651
        }
      ]
    },
    "sfomuseum:placetype": "instagram",
    "src:geom": "sfomuseum",
    "wof:belongsto": [
      1159160869,
      102527513,
      102191575,
      85633793,
      102087579,
      85922583,
      85688637
    ],
    "wof:country": "US",
    "wof:created": 1426248180,
    "wof:geomhash": "b6e33f47475d56bc8da457bc31afadc8",
    "wof:hierarchy": [
      {
        "building_id": 1159160869,
        "campus_id": 102527513,
        "continent_id": 102191575,
        "country_id": 85633793,
        "county_id": 102087579,
        "custom_id": 1729361879,
        "instagram_id": 1729361879,
        "locality_id": 85922583,
        "neighbourhood_id": -1,
        "region_id": 85688637
      }
    ],
    "wof:id": 1729361879,
    "wof:lastmodified": 1787777646,
    "wof:name": "..",
    "wof:parent_id": 1159160869,
    "wof:placetype": "custom",
    "wof:placetype_alt": [
      "instagram"
    ],
    "wof:repo": "sfomuseum-data-socialmedia-instagram",
    "wof:superseded_by": [],
    "wof:supersedes": []
  },
  "bbox": [
    -122.386166,
    37.616356,
    -122.386166,
    37.616356
  ],
  "geometry": {"type":"Point","coordinates":[-122.386166,37.616356]}
}
