{
  "id": 1729359071,
  "type": "Feature",
  "properties": {
    "date:cessation_lower": "2017-09-21",
    "date:cessation_upper": "2017-09-21",
    "date:inception_lower": "2017-09-21",
    "date:inception_upper": "2017-09-21",
    "edtf:cessation": "2017-09-21T08:41:00-07:00",
    "edtf:inception": "2017-09-21T08:41:00-07:00",
    "geom:area": 0,
    "geom:bbox": "-122.386166,37.616356,-122.386166,37.616356",
    "geom:latitude": 37.616356,
    "geom:longitude": -122.386166,
    "instagram:post": {
      "caption": {
        "body": "Built in 1954, a spacious restaurant named the International Room provided panoramic views of the airfield at SFO. Located in the Central Terminal Building (now Terminal 2), the International Room was situated to overlook Pier D and the airfield. Do you remember The International Room?  Image: San Francisco International Airport (SFO) postcard, The International Room 1950s. Gift of Thomas G. Dragges. 2015.166.2288",
        "excerpt": "Built in 1954, a spacious restaurant named the International Room provided panoramic views of the airfield at SFO.",
        "hashtags": [
          "SFOHistory",
          "ThrowbackThursday",
          "avgeek",
          "avationgeek",
          "aviation",
          "aviationhistory",
          "aviationlovers",
          "vintageaviation",
          "history",
          "avhistory",
          "aviationgeeks",
          "instaplane",
          "flying",
          "plane",
          "flight",
          "airline",
          "avgeeks",
          "aviation4u",
          "aviationdaily"
        ],
        "users": []
      },
      "media_id": "1e5e15fb52e31ab65e018a7d8f0da8e6",
      "path": "media/posts/201709/21879463_1478927985560458_3725879911622115328_n_17874068026159546.jpg",
      "perceptual_hash": "p:834363ed3e2b6b42",
      "taken": 1506008460,
      "taken_at": "Sep 21, 2017 3:41 pm"
    },
    "millsfield:similar": {
      "google/siglip2-so400m-patch16-naflex": [
        {
          "distance": 0.16417092084884644,
          "id": 1729355115
        },
        {
          "distance": 0.1723020076751709,
          "id": 1729355115
        },
        {
          "distance": 0.19206899404525757,
          "id": 1729361577
        },
        {
          "distance": 0.19427382946014404,
          "id": 1729361577
        },
        {
          "distance": 0.20647597312927246,
          "id": 1729360411
        },
        {
          "distance": 0.2099010944366455,
          "id": 1729360411
        },
        {
          "distance": 0.21148371696472168,
          "id": 1880151727
        },
        {
          "distance": 0.21675509214401245,
          "id": 1729357593
        },
        {
          "distance": 0.21745586395263672,
          "id": 1729357789
        },
        {
          "distance": 0.2179155945777893,
          "id": 1729360541
        }
      ]
    },
    "sfomuseum:placetype": "instagram",
    "src:geom": "sfomuseum",
    "wof:belongsto": [
      1159160869,
      102527513,
      102191575,
      85633793,
      102087579,
      85922583,
      85688637
    ],
    "wof:country": "US",
    "wof:created": 1506008460,
    "wof:geomhash": "b6e33f47475d56bc8da457bc31afadc8",
    "wof:hierarchy": [
      {
        "building_id": 1159160869,
        "campus_id": 102527513,
        "continent_id": 102191575,
        "country_id": 85633793,
        "county_id": 102087579,
        "custom_id": 1729359071,
        "instagram_id": 1729359071,
        "locality_id": 85922583,
        "neighbourhood_id": -1,
        "region_id": 85688637
      }
    ],
    "wof:id": 1729359071,
    "wof:lastmodified": 1787777635,
    "wof:name": "Built in 1954, a spacious restaurant named the International Room provided panoramic views of the airfield at SFO...",
    "wof:parent_id": 1159160869,
    "wof:placetype": "custom",
    "wof:placetype_alt": [
      "instagram"
    ],
    "wof:repo": "sfomuseum-data-socialmedia-instagram",
    "wof:superseded_by": [],
    "wof:supersedes": []
  },
  "bbox": [
    -122.386166,
    37.616356,
    -122.386166,
    37.616356
  ],
  "geometry": {"type":"Point","coordinates":[-122.386166,37.616356]}
}
