{
  "id": 1729355881,
  "type": "Feature",
  "properties": {
    "date:cessation_lower": "2019-11-15",
    "date:cessation_upper": "2019-11-15",
    "date:inception_lower": "2019-11-15",
    "date:inception_upper": "2019-11-15",
    "edtf:cessation": "2019-11-14T17:39:35-08:00",
    "edtf:inception": "2019-11-14T17:39:35-08:00",
    "geom:area": 0,
    "geom:bbox": "-122.386166,37.616356,-122.386166,37.616356",
    "geom:latitude": 37.616356,
    "geom:longitude": -122.386166,
    "instagram:post": {
      "caption": {
        "body": "SFO Museum would like to offer a heartfelt thank you to all of the service members and families of the United States military. Our exhibition “Flying the Freedom Birds: Airlines and the Vietnam War” highlights the stories of commercial flight crew who were chartered to provide flights for servicemen in and out of combat zones. Despite the intensity of the operations, many flight attendants found the military contract flights rewarding and continued to serve on them for years. “I wouldn’t trade the experience for a million dollars,” stated Julie Kane, a flight attendant for Seaboard World Airlines.  See “Flying the Freedom Birds: Airlines and the Vietnam War,” on display, pre-security, in the Aviation Museum and Library. http://bit.ly/FreedomBirds",
        "excerpt": "SFO Museum would like to offer a heartfelt thank you to all of the service members and families of the United States military.",
        "hashtags": [
          "FreedomBird",
          "avgeek",
          "veterans",
          "vietnamwar",
          "airlines",
          "airline",
          "crewlife"
        ],
        "users": []
      },
      "location": "",
      "media_id": "ac13af32c8c274b81d33959f654697e8",
      "path": "photos/201911/ac13af32c8c274b81d33959f654697e8.jpg",
      "perceptual_hash": "p:f089dbfc2341cccc",
      "taken": 1573753140,
      "taken_at": "Nov 14, 2019, 5:39 PM"
    },
    "millsfield:similar": {
      "google/siglip2-so400m-patch16-naflex": [
        {
          "distance": 0.10635524988174438,
          "id": 1729356115
        },
        {
          "distance": 0.14325743913650513,
          "id": 1729355893
        },
        {
          "distance": 0.16235578060150146,
          "id": 1729355387
        },
        {
          "distance": 0.1663055419921875,
          "id": 1729355893
        },
        {
          "distance": 0.1675897240638733,
          "id": 1729355897
        },
        {
          "distance": 0.17721468210220337,
          "id": 1729356115
        },
        {
          "distance": 0.18987029790878296,
          "id": 1729355387
        },
        {
          "distance": 0.1902679204940796,
          "id": 1729355897
        },
        {
          "distance": 0.2049596905708313,
          "id": 1729355699
        },
        {
          "distance": 0.2050815224647522,
          "id": 1729355891
        }
      ]
    },
    "sfomuseum:placetype": "instagram",
    "src:geom": "sfomuseum",
    "wof:belongsto": [
      1159160869,
      102527513,
      102191575,
      85633793,
      102087579,
      85922583,
      85688637
    ],
    "wof:country": "US",
    "wof:created": 1573781975,
    "wof:geomhash": "b6e33f47475d56bc8da457bc31afadc8",
    "wof:hierarchy": [
      {
        "building_id": 1159160869,
        "campus_id": 102527513,
        "continent_id": 102191575,
        "country_id": 85633793,
        "county_id": 102087579,
        "custom_id": 1729355881,
        "instagram_id": 1729355881,
        "locality_id": 85922583,
        "neighbourhood_id": -1,
        "region_id": 85688637
      }
    ],
    "wof:id": 1729355881,
    "wof:lastmodified": 1787777627,
    "wof:name": "SFO Museum would like to offer a heartfelt thank you to all of the service members and families of the United States military...",
    "wof:parent_id": 1159160869,
    "wof:placetype": "custom",
    "wof:placetype_alt": [
      "instagram"
    ],
    "wof:repo": "sfomuseum-data-socialmedia-instagram",
    "wof:superseded_by": [],
    "wof:supersedes": []
  },
  "bbox": [
    -122.386166,
    37.616356,
    -122.386166,
    37.616356
  ],
  "geometry": {"type":"Point","coordinates":[-122.386166,37.616356]}
}
