{
  "id": 1729355021,
  "type": "Feature",
  "properties": {
    "date:cessation_lower": "2020-09-28",
    "date:cessation_upper": "2020-09-28",
    "date:inception_lower": "2020-09-28",
    "date:inception_upper": "2020-09-28",
    "edtf:cessation": "2020-09-28T15:59:56-07:00",
    "edtf:inception": "2020-09-28T15:59:56-07:00",
    "geom:area": 0,
    "geom:bbox": "-122.386166,37.616356,-122.386166,37.616356",
    "geom:latitude": 37.616356,
    "geom:longitude": -122.386166,
    "instagram:post": {
      "caption": {
        "body": "During the 1850s, the Meriden Britannia Company of Meriden, Connecticut, perfected mass-manufacturing techniques for electroplating metal items with silver plate. The company advertised a range of electroplated silver that had “all the advantages of silver in durability and beauty at one-fifth the cost.” One of the many offerings by Meriden, this fanciful card receiver features a fairy driving a chariot that is being pulled by a robin and includes a glass vase for an additional floral decoration.  See “Eclectic Taste: Victorian Silver Plate” online at https://bit.ly/VictorianSP",
        "excerpt": "During the 1850s, the Meriden Britannia Company of Meriden, Connecticut, perfected mass-manufacturing techniques for electroplating metal items with silver plate.",
        "hashtags": [
          "VictorianSilverPlate",
          "silverplate",
          "silver",
          "victorian",
          "MuseumFromHome"
        ],
        "users": []
      },
      "location": "",
      "media_id": "439d43f4dabed116dc78a6c4e43df63e",
      "path": "photos/202009/439d43f4dabed116dc78a6c4e43df63e.jpg",
      "perceptual_hash": "p:ac592d13996637a3",
      "taken": 1601305140,
      "taken_at": "Sep 28, 2020, 2:59 PM"
    },
    "millsfield:similar": {
      "google/siglip2-so400m-patch16-naflex": [
        {
          "distance": 0.21927416324615479,
          "id": 1729355051
        },
        {
          "distance": 0.21989870071411133,
          "id": 1729355077
        },
        {
          "distance": 0.23523253202438354,
          "id": 1729355081
        },
        {
          "distance": 0.2641250491142273,
          "id": 1729355039
        },
        {
          "distance": 0.27690577507019043,
          "id": 1729355077
        },
        {
          "distance": 0.2838829755783081,
          "id": 1729355051
        },
        {
          "distance": 0.28518176078796387,
          "id": 1729355081
        },
        {
          "distance": 0.30180180072784424,
          "id": 1729355069
        },
        {
          "distance": 0.3042606711387634,
          "id": 1729355039
        },
        {
          "distance": 0.34337449073791504,
          "id": 1729355069
        }
      ]
    },
    "sfomuseum:placetype": "instagram",
    "src:geom": "sfomuseum",
    "wof:belongsto": [
      1159160869,
      102527513,
      102191575,
      85633793,
      102087579,
      85922583,
      85688637
    ],
    "wof:country": "US",
    "wof:created": 1601333996,
    "wof:geomhash": "b6e33f47475d56bc8da457bc31afadc8",
    "wof:hierarchy": [
      {
        "building_id": 1159160869,
        "campus_id": 102527513,
        "continent_id": 102191575,
        "country_id": 85633793,
        "county_id": 102087579,
        "custom_id": 1729355021,
        "instagram_id": 1729355021,
        "locality_id": 85922583,
        "neighbourhood_id": -1,
        "region_id": 85688637
      }
    ],
    "wof:id": 1729355021,
    "wof:lastmodified": 1787777614,
    "wof:name": "During the 1850s, the Meriden Britannia Company of Meriden, Connecticut, perfected mass-manufacturing techniques for electroplating metal items with silver plate...",
    "wof:parent_id": 1159160869,
    "wof:placetype": "custom",
    "wof:placetype_alt": [
      "instagram"
    ],
    "wof:repo": "sfomuseum-data-socialmedia-instagram",
    "wof:superseded_by": [],
    "wof:supersedes": []
  },
  "bbox": [
    -122.386166,
    37.616356,
    -122.386166,
    37.616356
  ],
  "geometry": {"type":"Point","coordinates":[-122.386166,37.616356]}
}
