{
  "id": 1729362541,
  "type": "Feature",
  "properties": {
    "date:cessation_lower": "2013-09-18",
    "date:cessation_upper": "2013-09-18",
    "date:inception_lower": "2013-09-18",
    "date:inception_upper": "2013-09-18",
    "edtf:cessation": "2013-09-18T08:50:00-07:00",
    "edtf:inception": "2013-09-18T08:50:00-07:00",
    "geom:area": 0,
    "geom:bbox": "-122.386166,37.616356,-122.386166,37.616356",
    "geom:latitude": 37.616356,
    "geom:longitude": -122.386166,
    "instagram:post": {
      "caption": {
        "body": "",
        "excerpt": "",
        "hashtags": [
          "Aviation",
          "AirportPlay"
        ],
        "users": []
      },
      "media_id": "5206741ce67ca8f795d78e8af3decc67",
      "path": "media/other/11327210_495902593893644_1970202625_n_17842360276062499.jpg",
      "perceptual_hash": "p:dee5e23b9402e16c",
      "taken": 1379519400,
      "taken_at": "Sep 18, 2013 3:50 pm"
    },
    "millsfield:similar": {
      "google/siglip2-so400m-patch16-naflex": [
        {
          "distance": 0.18010008335113525,
          "id": 1729362617
        },
        {
          "distance": 0.18533122539520264,
          "id": 1729362495
        },
        {
          "distance": 0.21676266193389893,
          "id": 1729362817
        },
        {
          "distance": 0.21689951419830322,
          "id": 1729362581
        },
        {
          "distance": 0.22527986764907837,
          "id": 1729362817
        },
        {
          "distance": 0.22647947072982788,
          "id": 1729362655
        },
        {
          "distance": 0.22743892669677734,
          "id": 1729362617
        },
        {
          "distance": 0.2281113862991333,
          "id": 1729362655
        },
        {
          "distance": 0.22992479801177979,
          "id": 1729362495
        },
        {
          "distance": 0.23173290491104126,
          "id": 1729362373
        }
      ]
    },
    "sfomuseum:placetype": "instagram",
    "src:geom": "sfomuseum",
    "wof:belongsto": [
      1159160869,
      102527513,
      102191575,
      85633793,
      102087579,
      85922583,
      85688637
    ],
    "wof:country": "US",
    "wof:created": 1379519400,
    "wof:geomhash": "b6e33f47475d56bc8da457bc31afadc8",
    "wof:hierarchy": [
      {
        "building_id": 1159160869,
        "campus_id": 102527513,
        "continent_id": 102191575,
        "country_id": 85633793,
        "county_id": 102087579,
        "custom_id": 1729362541,
        "instagram_id": 1729362541,
        "locality_id": 85922583,
        "neighbourhood_id": -1,
        "region_id": 85688637
      }
    ],
    "wof:id": 1729362541,
    "wof:lastmodified": 1787777647,
    "wof:name": "..",
    "wof:parent_id": 1159160869,
    "wof:placetype": "custom",
    "wof:placetype_alt": [
      "instagram"
    ],
    "wof:repo": "sfomuseum-data-socialmedia-instagram",
    "wof:superseded_by": [],
    "wof:supersedes": []
  },
  "bbox": [
    -122.386166,
    37.616356,
    -122.386166,
    37.616356
  ],
  "geometry": {"type":"Point","coordinates":[-122.386166,37.616356]}
}
