{
  "id": 1729362577,
  "type": "Feature",
  "properties": {
    "date:cessation_lower": "2013-08-22",
    "date:cessation_upper": "2013-08-22",
    "date:inception_lower": "2013-08-22",
    "date:inception_upper": "2013-08-22",
    "edtf:cessation": "2013-08-22T04:02:00-07:00",
    "edtf:inception": "2013-08-22T04:02:00-07:00",
    "geom:area": 0,
    "geom:bbox": "-122.386166,37.616356,-122.386166,37.616356",
    "geom:latitude": 37.616356,
    "geom:longitude": -122.386166,
    "instagram:post": {
      "caption": {
        "body": "",
        "excerpt": "",
        "hashtags": [
          "ThrowbackThursday"
        ],
        "users": []
      },
      "media_id": "5beff8f940d5f8d0ee745337aed35bea",
      "path": "media/other/11378592_1453465768299775_952873813_n_17842353079062499.jpg",
      "perceptual_hash": "p:d4d07ae40b2de3ca",
      "taken": 1377169320,
      "taken_at": "Aug 22, 2013 11:02 am"
    },
    "millsfield:similar": {
      "google/siglip2-so400m-patch16-naflex": [
        {
          "distance": 0.2819821834564209,
          "id": 1729355375
        },
        {
          "distance": 0.336290180683136,
          "id": 1729355375
        },
        {
          "distance": 0.36008167266845703,
          "id": 1729355297
        },
        {
          "distance": 0.36428022384643555,
          "id": 1729355129
        },
        {
          "distance": 0.3675541877746582,
          "id": 1729362269
        },
        {
          "distance": 0.36895251274108887,
          "id": 1763559025
        },
        {
          "distance": 0.3741578459739685,
          "id": 1729362463
        },
        {
          "distance": 0.38565361499786377,
          "id": 1729363055
        },
        {
          "distance": 0.3862147331237793,
          "id": 1729355129
        },
        {
          "distance": 0.3964383602142334,
          "id": 1729355123
        }
      ]
    },
    "sfomuseum:placetype": "instagram",
    "src:geom": "sfomuseum",
    "wof:belongsto": [
      1159160869,
      102527513,
      102191575,
      85633793,
      102087579,
      85922583,
      85688637
    ],
    "wof:country": "US",
    "wof:created": 1377169320,
    "wof:geomhash": "b6e33f47475d56bc8da457bc31afadc8",
    "wof:hierarchy": [
      {
        "building_id": 1159160869,
        "campus_id": 102527513,
        "continent_id": 102191575,
        "country_id": 85633793,
        "county_id": 102087579,
        "custom_id": 1729362577,
        "instagram_id": 1729362577,
        "locality_id": 85922583,
        "neighbourhood_id": -1,
        "region_id": 85688637
      }
    ],
    "wof:id": 1729362577,
    "wof:lastmodified": 1787777647,
    "wof:name": "..",
    "wof:parent_id": 1159160869,
    "wof:placetype": "custom",
    "wof:placetype_alt": [
      "instagram"
    ],
    "wof:repo": "sfomuseum-data-socialmedia-instagram",
    "wof:superseded_by": [],
    "wof:supersedes": []
  },
  "bbox": [
    -122.386166,
    37.616356,
    -122.386166,
    37.616356
  ],
  "geometry": {"type":"Point","coordinates":[-122.386166,37.616356]}
}
