{
  "id": 1729358885,
  "type": "Feature",
  "properties": {
    "date:cessation_lower": "2017-11-21",
    "date:cessation_upper": "2017-11-21",
    "date:inception_lower": "2017-11-21",
    "date:inception_upper": "2017-11-21",
    "edtf:cessation": "2017-11-21T03:46:00-08:00",
    "edtf:inception": "2017-11-21T03:46:00-08:00",
    "geom:area": 0,
    "geom:bbox": "-122.386166,37.616356,-122.386166,37.616356",
    "geom:latitude": 37.616356,
    "geom:longitude": -122.386166,
    "instagram:post": {
      "caption": {
        "body": "In the 1950s, people weren't the only airplane passengers! Animals were taken on trips all over the world, including this adorable Persian cat named Chucky traveling from Honolulu to Los Angeles.  Image: Pan American World Airways, Pacific - Alaska Division, 1950. Gift of William E. Talbott. 2012.151.212",
        "excerpt": "In the 1950s, people weren't the only airplane passengers!",
        "hashtags": [
          "catsgiving",
          "catsofinstagram",
          "cats",
          "panam",
          "avgeek",
          "aviation",
          "persian",
          "persiancat",
          "fuffycat",
          "avationgeek",
          "aviationhistory",
          "aviationlovers",
          "vintageaviation",
          "history",
          "avhistory",
          "aviationgeeks",
          "instaplane",
          "avgeeks",
          "aviationdaily"
        ],
        "users": []
      },
      "media_id": "8f6142743d630a635acda9c7bb8f8895",
      "path": "media/other/23733959_354616854966315_755185409620705280_n_17892334021090668.jpg",
      "perceptual_hash": "p:df6320aed9834ae4",
      "taken": 1511264760,
      "taken_at": "Nov 21, 2017 11:46 am"
    },
    "millsfield:similar": {
      "google/siglip2-so400m-patch16-naflex": [
        {
          "distance": 0.16069430112838745,
          "id": 1729362073
        },
        {
          "distance": 0.18894058465957642,
          "id": 1729362073
        },
        {
          "distance": 0.25021976232528687,
          "id": 1729356825
        },
        {
          "distance": 0.25021976232528687,
          "id": 1729356823
        },
        {
          "distance": 0.26745766401290894,
          "id": 1729360785
        },
        {
          "distance": 0.27402371168136597,
          "id": 1729357679
        },
        {
          "distance": 0.2784860134124756,
          "id": 1729357293
        },
        {
          "distance": 0.2818523645401001,
          "id": 1729360513
        },
        {
          "distance": 0.2836151719093323,
          "id": 1880150903
        },
        {
          "distance": 0.28729790449142456,
          "id": 1729360811
        }
      ]
    },
    "sfomuseum:placetype": "instagram",
    "src:geom": "sfomuseum",
    "wof:belongsto": [
      1159160869,
      102527513,
      102191575,
      85633793,
      102087579,
      85922583,
      85688637
    ],
    "wof:country": "US",
    "wof:created": 1511264760,
    "wof:geomhash": "b6e33f47475d56bc8da457bc31afadc8",
    "wof:hierarchy": [
      {
        "building_id": 1159160869,
        "campus_id": 102527513,
        "continent_id": 102191575,
        "country_id": 85633793,
        "county_id": 102087579,
        "custom_id": 1729358885,
        "instagram_id": 1729358885,
        "locality_id": 85922583,
        "neighbourhood_id": -1,
        "region_id": 85688637
      }
    ],
    "wof:id": 1729358885,
    "wof:lastmodified": 1787777634,
    "wof:name": "In the 1950s, people weren't the only airplane passengers!..",
    "wof:parent_id": 1159160869,
    "wof:placetype": "custom",
    "wof:placetype_alt": [
      "instagram"
    ],
    "wof:repo": "sfomuseum-data-socialmedia-instagram",
    "wof:superseded_by": [],
    "wof:supersedes": []
  },
  "bbox": [
    -122.386166,
    37.616356,
    -122.386166,
    37.616356
  ],
  "geometry": {"type":"Point","coordinates":[-122.386166,37.616356]}
}
