{
  "id": 1729360291,
  "type": "Feature",
  "properties": {
    "date:cessation_lower": "2016-09-26",
    "date:cessation_upper": "2016-09-26",
    "date:inception_lower": "2016-09-26",
    "date:inception_upper": "2016-09-26",
    "edtf:cessation": "2016-09-26T09:09:00-07:00",
    "edtf:inception": "2016-09-26T09:09:00-07:00",
    "geom:area": 0,
    "geom:bbox": "-122.386166,37.616356,-122.386166,37.616356",
    "geom:latitude": 37.616356,
    "geom:longitude": -122.386166,
    "instagram:post": {
      "caption": {
        "body": "",
        "excerpt": "",
        "hashtags": [
          "PondFarm\"",
          "ArtAndDisability\"?",
          "PondFarm\"",
          "ArtAndDisability\".",
          "MuseumMonday"
        ],
        "users": []
      },
      "media_id": "19c654eb951f983d9f451fd990216cdb",
      "path": "media/other/14350433_342063972798251_2348548324304355328_n_17856646939065899.jpg",
      "perceptual_hash": "p:c4f41b0b374c263f",
      "taken": 1474906140,
      "taken_at": "Sep 26, 2016 4:09 pm"
    },
    "millsfield:similar": {
      "google/siglip2-so400m-patch16-naflex": [
        {
          "distance": 0.23476779460906982,
          "id": 1729362367
        },
        {
          "distance": 0.23868703842163086,
          "id": 1729362773
        },
        {
          "distance": 0.24375253915786743,
          "id": 1729361861
        },
        {
          "distance": 0.2474845051765442,
          "id": 1729361681
        },
        {
          "distance": 0.2625391483306885,
          "id": 1729362153
        },
        {
          "distance": 0.26470690965652466,
          "id": 1729359757
        },
        {
          "distance": 0.27246522903442383,
          "id": 1729355777
        },
        {
          "distance": 0.27340614795684814,
          "id": 1729362369
        },
        {
          "distance": 0.27546989917755127,
          "id": 1729361679
        },
        {
          "distance": 0.27822089195251465,
          "id": 1729356467
        }
      ]
    },
    "sfomuseum:placetype": "instagram",
    "src:geom": "sfomuseum",
    "wof:belongsto": [
      1159160869,
      102527513,
      102191575,
      85633793,
      102087579,
      85922583,
      85688637
    ],
    "wof:country": "US",
    "wof:created": 1474906140,
    "wof:geomhash": "b6e33f47475d56bc8da457bc31afadc8",
    "wof:hierarchy": [
      {
        "building_id": 1159160869,
        "campus_id": 102527513,
        "continent_id": 102191575,
        "country_id": 85633793,
        "county_id": 102087579,
        "custom_id": 1729360291,
        "instagram_id": 1729360291,
        "locality_id": 85922583,
        "neighbourhood_id": -1,
        "region_id": 85688637
      }
    ],
    "wof:id": 1729360291,
    "wof:lastmodified": 1787777639,
    "wof:name": "..",
    "wof:parent_id": 1159160869,
    "wof:placetype": "custom",
    "wof:placetype_alt": [
      "instagram"
    ],
    "wof:repo": "sfomuseum-data-socialmedia-instagram",
    "wof:superseded_by": [],
    "wof:supersedes": []
  },
  "bbox": [
    -122.386166,
    37.616356,
    -122.386166,
    37.616356
  ],
  "geometry": {"type":"Point","coordinates":[-122.386166,37.616356]}
}
