{
  "id": 1729357789,
  "type": "Feature",
  "properties": {
    "date:cessation_lower": "2018-08-19",
    "date:cessation_upper": "2018-08-19",
    "date:inception_lower": "2018-08-19",
    "date:inception_upper": "2018-08-19",
    "edtf:cessation": "2018-08-19T03:50:00-07:00",
    "edtf:inception": "2018-08-19T03:50:00-07:00",
    "geom:area": 0,
    "geom:bbox": "-122.386166,37.616356,-122.386166,37.616356",
    "geom:latitude": 37.616356,
    "geom:longitude": -122.386166,
    "instagram:post": {
      "caption": {
        "body": "It's National Aviation Day! What are your favorite aviation memories?  Image: San Francisco International Airport (SFO), Hughes Airwest, Fairchild F-27A, 1970s. Gift of Nadine McKinney. 2016.136.002",
        "excerpt": "It's National Aviation Day!",
        "hashtags": [
          "NationalAviationDay",
          "Aviation",
          "avgeek",
          "avationgeek",
          "sfo",
          "hughesairwest"
        ],
        "users": []
      },
      "media_id": "e8d110419373b907e8eb759bcde2fcf7",
      "path": "media/other/38673618_547776475655266_1359634402207858688_n_17950239769091760.jpg",
      "perceptual_hash": "p:b5d1c9cc644e0f36",
      "taken": 1534675800,
      "taken_at": "Aug 19, 2018 10:50 am"
    },
    "millsfield:similar": {
      "google/siglip2-so400m-patch16-naflex": [
        {
          "distance": 0.15466243028640747,
          "id": 1729355115
        },
        {
          "distance": 0.1709790825843811,
          "id": 1729355115
        },
        {
          "distance": 0.17874634265899658,
          "id": 1729357593
        },
        {
          "distance": 0.18536096811294556,
          "id": 1729356439
        },
        {
          "distance": 0.18743306398391724,
          "id": 1729360541
        },
        {
          "distance": 0.1880248785018921,
          "id": 1729361577
        },
        {
          "distance": 0.18889552354812622,
          "id": 1729357593
        },
        {
          "distance": 0.18968355655670166,
          "id": 1729361577
        },
        {
          "distance": 0.19088512659072876,
          "id": 1729361735
        },
        {
          "distance": 0.19472241401672363,
          "id": 1729360411
        }
      ]
    },
    "sfomuseum:placetype": "instagram",
    "src:geom": "sfomuseum",
    "wof:belongsto": [
      1159160869,
      102527513,
      102191575,
      85633793,
      102087579,
      85922583,
      85688637
    ],
    "wof:country": "US",
    "wof:created": 1534675800,
    "wof:geomhash": "b6e33f47475d56bc8da457bc31afadc8",
    "wof:hierarchy": [
      {
        "building_id": 1159160869,
        "campus_id": 102527513,
        "continent_id": 102191575,
        "country_id": 85633793,
        "county_id": 102087579,
        "custom_id": 1729357789,
        "instagram_id": 1729357789,
        "locality_id": 85922583,
        "neighbourhood_id": -1,
        "region_id": 85688637
      }
    ],
    "wof:id": 1729357789,
    "wof:lastmodified": 1787777632,
    "wof:name": "It's National Aviation Day!..",
    "wof:parent_id": 1159160869,
    "wof:placetype": "custom",
    "wof:placetype_alt": [
      "instagram"
    ],
    "wof:repo": "sfomuseum-data-socialmedia-instagram",
    "wof:superseded_by": [],
    "wof:supersedes": []
  },
  "bbox": [
    -122.386166,
    37.616356,
    -122.386166,
    37.616356
  ],
  "geometry": {"type":"Point","coordinates":[-122.386166,37.616356]}
}
