{
  "id": 1729361113,
  "type": "Feature",
  "properties": {
    "date:cessation_lower": "2016-01-28",
    "date:cessation_upper": "2016-01-28",
    "date:inception_lower": "2016-01-28",
    "date:inception_upper": "2016-01-28",
    "edtf:cessation": "2016-01-28T09:29:00-08:00",
    "edtf:inception": "2016-01-28T09:29:00-08:00",
    "geom:area": 0,
    "geom:bbox": "-122.386166,37.616356,-122.386166,37.616356",
    "geom:latitude": 37.616356,
    "geom:longitude": -122.386166,
    "instagram:post": {
      "caption": {
        "body": "",
        "excerpt": "",
        "hashtags": [
          "ThrowbackThursday",
          "TBT"
        ],
        "users": []
      },
      "media_id": "e0938e9b63a48fbe4bb0231f3653dda0",
      "path": "media/other/916502_166040633766375_1026564192_n_17844120535096673.jpg",
      "perceptual_hash": "p:edaab0156b6a8d91",
      "taken": 1454002140,
      "taken_at": "Jan 28, 2016 5:29 pm"
    },
    "millsfield:similar": {
      "google/siglip2-so400m-patch16-naflex": [
        {
          "distance": 0.12923061847686768,
          "id": 1729359555
        },
        {
          "distance": 0.16006940603256226,
          "id": 1729362257
        },
        {
          "distance": 0.1628488302230835,
          "id": 1763559233
        },
        {
          "distance": 0.1731601357460022,
          "id": 1763559449
        },
        {
          "distance": 0.17320764064788818,
          "id": 1729361143
        },
        {
          "distance": 0.1823216676712036,
          "id": 1729359515
        },
        {
          "distance": 0.1896609663963318,
          "id": 1729362257
        },
        {
          "distance": 0.19460564851760864,
          "id": 1729361143
        },
        {
          "distance": 0.1976708173751831,
          "id": 1729360877
        },
        {
          "distance": 0.20019066333770752,
          "id": 1729359555
        }
      ]
    },
    "sfomuseum:placetype": "instagram",
    "src:geom": "sfomuseum",
    "wof:belongsto": [
      1159160869,
      102527513,
      102191575,
      85633793,
      102087579,
      85922583,
      85688637
    ],
    "wof:country": "US",
    "wof:created": 1454002140,
    "wof:geomhash": "b6e33f47475d56bc8da457bc31afadc8",
    "wof:hierarchy": [
      {
        "building_id": 1159160869,
        "campus_id": 102527513,
        "continent_id": 102191575,
        "country_id": 85633793,
        "county_id": 102087579,
        "custom_id": 1729361113,
        "instagram_id": 1729361113,
        "locality_id": 85922583,
        "neighbourhood_id": -1,
        "region_id": 85688637
      }
    ],
    "wof:id": 1729361113,
    "wof:lastmodified": 1787777644,
    "wof:name": "..",
    "wof:parent_id": 1159160869,
    "wof:placetype": "custom",
    "wof:placetype_alt": [
      "instagram"
    ],
    "wof:repo": "sfomuseum-data-socialmedia-instagram",
    "wof:superseded_by": [],
    "wof:supersedes": []
  },
  "bbox": [
    -122.386166,
    37.616356,
    -122.386166,
    37.616356
  ],
  "geometry": {"type":"Point","coordinates":[-122.386166,37.616356]}
}
