{
  "id": 1729356565,
  "type": "Feature",
  "properties": {
    "date:cessation_lower": "2019-05-16",
    "date:cessation_upper": "2019-05-16",
    "date:inception_lower": "2019-05-16",
    "date:inception_upper": "2019-05-16",
    "edtf:cessation": "2019-05-16T09:39:00-07:00",
    "edtf:inception": "2019-05-16T09:39:00-07:00",
    "geom:area": 0,
    "geom:bbox": "-122.386166,37.616356,-122.386166,37.616356",
    "geom:latitude": 37.616356,
    "geom:longitude": -122.386166,
    "instagram:post": {
      "caption": {
        "body": "The first Airbus A380, the world's largest capacity commercial passenger jet, took off on its maiden flight on April 27, 2005. The double decker aircraft has a wingspan of 261 feet (79 meters), nearly the length of a football field! It has a maximum seating capacity of 853 passengers -- though airlines usually have their cabins configured to accommodate around 500 passengers. Emirates has the largest A380 fleet in the world, with 108 aircraft. Have you ever flown on an Airbus A380?  Image: Airbus A380 model aircraft, c. 2005. Gift of David Laudenat. 2012.033.002 a b ",
        "excerpt": "The first Airbus A380, the world's largest capacity commercial passenger jet, took off on its maiden flight on April 27, 2005.",
        "hashtags": [
          "Airbus",
          "A380",
          "jumbojet",
          "jetage",
          "avgeek",
          "modelairplane",
          "aviationhistory"
        ],
        "users": []
      },
      "media_id": "c921c7097257af1fac5500ca2a4ae928",
      "path": "media/other/59829361_2332604850311700_6299960060798908775_n_18049895383098163.jpg",
      "perceptual_hash": "p:baca35a5296bc2d2",
      "taken": 1558024740,
      "taken_at": "May 16, 2019 4:39 pm"
    },
    "millsfield:similar": {
      "google/siglip2-so400m-patch16-naflex": [
        {
          "distance": 0.003670990467071533,
          "id": 1729359579
        },
        {
          "distance": 0.03334999084472656,
          "id": 1729358315
        },
        {
          "distance": 0.06742960214614868,
          "id": 1729359579
        },
        {
          "distance": 0.07233566045761108,
          "id": 1729358315
        },
        {
          "distance": 0.08110475540161133,
          "id": 1763559329
        },
        {
          "distance": 0.08687102794647217,
          "id": 1763559329
        },
        {
          "distance": 0.09551495313644409,
          "id": 1729359769
        },
        {
          "distance": 0.10152006149291992,
          "id": 1880150957
        },
        {
          "distance": 0.10289931297302246,
          "id": 1729355303
        },
        {
          "distance": 0.10389715433120728,
          "id": 1729358993
        }
      ]
    },
    "sfomuseum:placetype": "instagram",
    "src:geom": "sfomuseum",
    "wof:belongsto": [
      1159160869,
      102527513,
      102191575,
      85633793,
      102087579,
      85922583,
      85688637
    ],
    "wof:country": "US",
    "wof:created": 1558024740,
    "wof:geomhash": "b6e33f47475d56bc8da457bc31afadc8",
    "wof:hierarchy": [
      {
        "building_id": 1159160869,
        "campus_id": 102527513,
        "continent_id": 102191575,
        "country_id": 85633793,
        "county_id": 102087579,
        "custom_id": 1729356565,
        "instagram_id": 1729356565,
        "locality_id": 85922583,
        "neighbourhood_id": -1,
        "region_id": 85688637
      }
    ],
    "wof:id": 1729356565,
    "wof:lastmodified": 1787777629,
    "wof:name": "The first Airbus A380, the world's largest capacity commercial passenger jet, took off on its maiden flight on April 27, 2005...",
    "wof:parent_id": 1159160869,
    "wof:placetype": "custom",
    "wof:placetype_alt": [
      "instagram"
    ],
    "wof:repo": "sfomuseum-data-socialmedia-instagram",
    "wof:superseded_by": [],
    "wof:supersedes": []
  },
  "bbox": [
    -122.386166,
    37.616356,
    -122.386166,
    37.616356
  ],
  "geometry": {"type":"Point","coordinates":[-122.386166,37.616356]}
}
