{
  "id": 1729356737,
  "type": "Feature",
  "properties": {
    "date:cessation_lower": "2019-04-01",
    "date:cessation_upper": "2019-04-01",
    "date:inception_lower": "2019-04-01",
    "date:inception_upper": "2019-04-01",
    "edtf:cessation": "2019-04-01T04:40:00-07:00",
    "edtf:inception": "2019-04-01T04:40:00-07:00",
    "geom:area": 0,
    "geom:bbox": "-122.386166,37.616356,-122.386166,37.616356",
    "geom:latitude": 37.616356,
    "geom:longitude": -122.386166,
    "instagram:post": {
      "caption": {
        "body": "We'd like to hear from you! What do you think of our museum, our social media content, and/or programs? Please let us know by filling out our visitor survey! Link in bio: bit.ly/SFOMsurvey",
        "excerpt": "We'd like to hear from you!",
        "hashtags": [],
        "users": []
      },
      "media_id": "b79fd94956ad0676bef0ce8622850a1a",
      "path": "media/other/54425518_338195580376107_1084560579794294790_n_18015271219162787.jpg",
      "perceptual_hash": "p:e3bf9c15988c5896",
      "taken": 1554118800,
      "taken_at": "Apr 01, 2019 11:40 am"
    },
    "millsfield:similar": {
      "google/siglip2-so400m-patch16-naflex": [
        {
          "distance": 0.006161749362945557,
          "id": 1729356521
        },
        {
          "distance": 0.11413490772247314,
          "id": 1729356521
        },
        {
          "distance": 0.1851797103881836,
          "id": 1729356275
        },
        {
          "distance": 0.19374167919158936,
          "id": 1729356925
        },
        {
          "distance": 0.19961941242218018,
          "id": 1729356925
        },
        {
          "distance": 0.22954994440078735,
          "id": 1729356751
        },
        {
          "distance": 0.25709372758865356,
          "id": 1729356275
        },
        {
          "distance": 0.26304739713668823,
          "id": 1729356751
        },
        {
          "distance": 0.27342939376831055,
          "id": 1763558925
        },
        {
          "distance": 0.279158353805542,
          "id": 1729355529
        }
      ]
    },
    "sfomuseum:placetype": "instagram",
    "src:geom": "sfomuseum",
    "wof:belongsto": [
      1159160869,
      102527513,
      102191575,
      85633793,
      102087579,
      85922583,
      85688637
    ],
    "wof:country": "US",
    "wof:created": 1554118800,
    "wof:geomhash": "b6e33f47475d56bc8da457bc31afadc8",
    "wof:hierarchy": [
      {
        "building_id": 1159160869,
        "campus_id": 102527513,
        "continent_id": 102191575,
        "country_id": 85633793,
        "county_id": 102087579,
        "custom_id": 1729356737,
        "instagram_id": 1729356737,
        "locality_id": 85922583,
        "neighbourhood_id": -1,
        "region_id": 85688637
      }
    ],
    "wof:id": 1729356737,
    "wof:lastmodified": 1787777629,
    "wof:name": "We'd like to hear from you!..",
    "wof:parent_id": 1159160869,
    "wof:placetype": "custom",
    "wof:placetype_alt": [
      "instagram"
    ],
    "wof:repo": "sfomuseum-data-socialmedia-instagram",
    "wof:superseded_by": [],
    "wof:supersedes": []
  },
  "bbox": [
    -122.386166,
    37.616356,
    -122.386166,
    37.616356
  ],
  "geometry": {"type":"Point","coordinates":[-122.386166,37.616356]}
}
