{
  "id": 1729362319,
  "type": "Feature",
  "properties": {
    "date:cessation_lower": "2014-04-23",
    "date:cessation_upper": "2014-04-23",
    "date:inception_lower": "2014-04-23",
    "date:inception_upper": "2014-04-23",
    "edtf:cessation": "2014-04-23T08:13:00-07:00",
    "edtf:inception": "2014-04-23T08:13:00-07:00",
    "geom:area": 0,
    "geom:bbox": "-122.386166,37.616356,-122.386166,37.616356",
    "geom:latitude": 37.616356,
    "geom:longitude": -122.386166,
    "instagram:post": {
      "caption": {
        "body": "",
        "excerpt": "",
        "hashtags": [
          "MuseumDragons",
          "airlinebag",
          "avgeek",
          "dragons"
        ],
        "users": []
      },
      "media_id": "0775c7b7103923c1f8e0debac840242d",
      "path": "media/other/10299801_718879684801742_240952355_n_17842422829062499.jpg",
      "perceptual_hash": "p:c5703f6e9a8c343c",
      "taken": 1398265980,
      "taken_at": "Apr 23, 2014 3:13 pm"
    },
    "millsfield:similar": {
      "google/siglip2-so400m-patch16-naflex": [
        {
          "distance": 0.2334517240524292,
          "id": 1729357809
        },
        {
          "distance": 0.23804843425750732,
          "id": 1729361059
        },
        {
          "distance": 0.24094295501708984,
          "id": 1729360759
        },
        {
          "distance": 0.26298218965530396,
          "id": 1729359415
        },
        {
          "distance": 0.2676200270652771,
          "id": 1729362445
        },
        {
          "distance": 0.26833993196487427,
          "id": 1729355737
        },
        {
          "distance": 0.26835471391677856,
          "id": 1729358965
        },
        {
          "distance": 0.2700962424278259,
          "id": 1729359415
        },
        {
          "distance": 0.27243560552597046,
          "id": 1729360759
        },
        {
          "distance": 0.2762390971183777,
          "id": 1729356937
        }
      ]
    },
    "sfomuseum:placetype": "instagram",
    "src:geom": "sfomuseum",
    "wof:belongsto": [
      1159160869,
      102527513,
      102191575,
      85633793,
      102087579,
      85922583,
      85688637
    ],
    "wof:country": "US",
    "wof:created": 1398265980,
    "wof:geomhash": "b6e33f47475d56bc8da457bc31afadc8",
    "wof:hierarchy": [
      {
        "building_id": 1159160869,
        "campus_id": 102527513,
        "continent_id": 102191575,
        "country_id": 85633793,
        "county_id": 102087579,
        "custom_id": 1729362319,
        "instagram_id": 1729362319,
        "locality_id": 85922583,
        "neighbourhood_id": -1,
        "region_id": 85688637
      }
    ],
    "wof:id": 1729362319,
    "wof:lastmodified": 1787777646,
    "wof:name": "..",
    "wof:parent_id": 1159160869,
    "wof:placetype": "custom",
    "wof:placetype_alt": [
      "instagram"
    ],
    "wof:repo": "sfomuseum-data-socialmedia-instagram",
    "wof:superseded_by": [],
    "wof:supersedes": []
  },
  "bbox": [
    -122.386166,
    37.616356,
    -122.386166,
    37.616356
  ],
  "geometry": {"type":"Point","coordinates":[-122.386166,37.616356]}
}
