{
  "id": 1729358409,
  "type": "Feature",
  "properties": {
    "date:cessation_lower": "2018-03-31",
    "date:cessation_upper": "2018-03-31",
    "date:inception_lower": "2018-03-31",
    "date:inception_upper": "2018-03-31",
    "edtf:cessation": "2018-03-31T08:44:00-07:00",
    "edtf:inception": "2018-03-31T08:44:00-07:00",
    "geom:area": 0,
    "geom:bbox": "-122.386166,37.616356,-122.386166,37.616356",
    "geom:latitude": 37.616356,
    "geom:longitude": -122.386166,
    "instagram:post": {
      "caption": {
        "body": "In 1973, Bonnie Tiburzi became the first woman pilot hired by a major U.S. commercial airline since Helen Richey was briefly hired by Central Airlines in 1934. She began at American Airlines as part of its Boeing 727 flight crew, and in 1988 was promoted to captain. She retired in 1999, after 26 years at American Airlines.  Image: American Airlines Flight Officer Bonnie Tiburzi, c. 1973. SFO Museum Collection. 1994.37.01",
        "excerpt": "In 1973, Bonnie Tiburzi became the first woman pilot hired by a major U.S. commercial airline since Helen Richey was briefly hired by Central Airlines in 1934.",
        "hashtags": [
          "womenshistorymonth",
          "womeninaviation",
          "americanairlines",
          "BonnieTiburzi",
          "avgeek",
          "avationgeek",
          "aviation",
          "aviationhistory",
          "vintageaviation",
          "history",
          "avhistory",
          "aviationgeeks",
          "avgeeks"
        ],
        "users": []
      },
      "media_id": "ce7cfe26edb41562c0c0aa5694730085",
      "path": "media/other/29401117_222423915169887_230694556167831552_n_17861653018232614.jpg",
      "perceptual_hash": "p:aa92ad2a1533b2ed",
      "taken": 1522511040,
      "taken_at": "Mar 31, 2018 3:44 pm"
    },
    "millsfield:similar": {
      "google/siglip2-so400m-patch16-naflex": [
        {
          "distance": 0.002245604991912842,
          "id": 1729359019
        },
        {
          "distance": 0.06862223148345947,
          "id": 1763559539
        },
        {
          "distance": 0.12691730260849,
          "id": 1763559539
        },
        {
          "distance": 0.15277057886123657,
          "id": 1729359019
        },
        {
          "distance": 0.1583290696144104,
          "id": 1880151085
        },
        {
          "distance": 0.16384482383728027,
          "id": 1729357751
        },
        {
          "distance": 0.16981327533721924,
          "id": 1729361573
        },
        {
          "distance": 0.19375008344650269,
          "id": 1729357679
        },
        {
          "distance": 0.19973617792129517,
          "id": 1729357189
        },
        {
          "distance": 0.2035951018333435,
          "id": 1729355471
        }
      ]
    },
    "sfomuseum:placetype": "instagram",
    "src:geom": "sfomuseum",
    "wof:belongsto": [
      1159160869,
      102527513,
      102191575,
      85633793,
      102087579,
      85922583,
      85688637
    ],
    "wof:country": "US",
    "wof:created": 1522511040,
    "wof:geomhash": "b6e33f47475d56bc8da457bc31afadc8",
    "wof:hierarchy": [
      {
        "building_id": 1159160869,
        "campus_id": 102527513,
        "continent_id": 102191575,
        "country_id": 85633793,
        "county_id": 102087579,
        "custom_id": 1729358409,
        "instagram_id": 1729358409,
        "locality_id": 85922583,
        "neighbourhood_id": -1,
        "region_id": 85688637
      }
    ],
    "wof:id": 1729358409,
    "wof:lastmodified": 1787777633,
    "wof:name": "In 1973, Bonnie Tiburzi became the first woman pilot hired by a major U.S. commercial airline since Helen Richey was briefly hired by Central Airlines in 1934...",
    "wof:parent_id": 1159160869,
    "wof:placetype": "custom",
    "wof:placetype_alt": [
      "instagram"
    ],
    "wof:repo": "sfomuseum-data-socialmedia-instagram",
    "wof:superseded_by": [],
    "wof:supersedes": []
  },
  "bbox": [
    -122.386166,
    37.616356,
    -122.386166,
    37.616356
  ],
  "geometry": {"type":"Point","coordinates":[-122.386166,37.616356]}
}
