{
  "id": 1880151179,
  "type": "Feature",
  "properties": {
    "date:cessation_lower": "2023-01-19",
    "date:cessation_upper": "2023-01-19",
    "date:inception_lower": "2023-01-19",
    "date:inception_upper": "2023-01-19",
    "edtf:cessation": "2023-01-19T08:52:00-08:00",
    "edtf:inception": "2023-01-19T08:52:00-08:00",
    "geom:area": 0,
    "geom:bbox": "-122.386166,37.616356,-122.386166,37.616356",
    "geom:latitude": 37.616356,
    "geom:longitude": -122.386166,
    "instagram:post": {
      "caption": {
        "body": "The Concorde’s Rolls-Royce/SNECMA Olympus 593 afterburning turbojet engines— a turbine-driven compressor that thrusts heated, compressed air through a propelling nozzle—were atypical. During the time of the Concorde’s operation, the Olympus engines were the only afterburning turbojets to power a commercial airliner; typically, these types of engines were installed in high-performance military aircraft. The Olympus 593 was developed jointly by Rolls-Royce of England and SNECMA (Société Nationale d'Études et de Construction de Moteurs d'Aviation) of France. The engine featured low- and high-pressure compressors, which comprised seven stages driven by a single-stage turbine. For effective operation over Mach 1, they required a special intake ramp system to slow incoming supersonic air to subsonic speeds. Because of the heat caused by friction of incoming air at Mach 2 speeds, which could reach 250 degrees Fahrenheit, titanium was used to produce the compressor drums and blades, except for the last four high-pressure stages, which were made of a nickel alloy.  See “Supersonic Transport: The First Generation” on display, pre-security, in the Aviation Museum and Library and online at: https://bit.ly/SSTFirstGeneration",
        "excerpt": "The Concorde’s Rolls-Royce/SNECMA Olympus 593 afterburning turbojet engines— a turbine-driven compressor that thrusts heated, compressed air through a propelling nozzle—were atypical.",
        "hashtags": [
          "SSTFirstGeneration",
          "AvGeek",
          "Concorde"
        ],
        "users": []
      },
      "media_id": "e6768f3ab79aad7560b29470666ffc7b7f5df560",
      "path": "media/posts/202301/326189361_539786864780635_1750173304627730016_n_18003609847570195.jpg",
      "perceptual_hash": "p:9fd1e428cb63c4cc",
      "taken": 1674147120,
      "taken_at": "Jan 19, 2023 4:52 pm"
    },
    "millsfield:similar": {
      "google/siglip2-so400m-patch16-naflex": [
        {
          "distance": 0.13216596841812134,
          "id": 1947425201
        },
        {
          "distance": 0.14192551374435425,
          "id": 1880151337
        },
        {
          "distance": 0.1699388027191162,
          "id": 1880151049
        },
        {
          "distance": 0.17138272523880005,
          "id": 1880151047
        },
        {
          "distance": 0.18590915203094482,
          "id": 1947425187
        },
        {
          "distance": 0.18899160623550415,
          "id": 1880151047
        },
        {
          "distance": 0.19136738777160645,
          "id": 1880151337
        },
        {
          "distance": 0.19289588928222656,
          "id": 1880151643
        },
        {
          "distance": 0.19452792406082153,
          "id": 1729360547
        },
        {
          "distance": 0.19974756240844727,
          "id": 1880151643
        }
      ]
    },
    "sfomuseum:placetype": "instagram",
    "src:geom": "sfomuseum",
    "wof:belongsto": [
      1159160869,
      102527513,
      102191575,
      85633793,
      102087579,
      85922583,
      85688637
    ],
    "wof:country": "US",
    "wof:created": 1674147120,
    "wof:geomhash": "b6e33f47475d56bc8da457bc31afadc8",
    "wof:hierarchy": [
      {
        "building_id": 1159160869,
        "campus_id": 102527513,
        "continent_id": 102191575,
        "country_id": 85633793,
        "county_id": 102087579,
        "custom_id": 1880151179,
        "instagram_id": 1880151179,
        "locality_id": 85922583,
        "neighbourhood_id": -1,
        "region_id": 85688637
      }
    ],
    "wof:id": 1880151179,
    "wof:lastmodified": 1787777662,
    "wof:name": "The Concorde’s Rolls-Royce/SNECMA Olympus 593 afterburning turbojet engines— a turbine-driven compressor that thrusts heated, compressed air through a propelling nozzle—were atypical...",
    "wof:parent_id": 1159160869,
    "wof:placetype": "custom",
    "wof:placetype_alt": [
      "instagram"
    ],
    "wof:repo": "sfomuseum-data-socialmedia-instagram",
    "wof:superseded_by": [],
    "wof:supersedes": []
  },
  "bbox": [
    -122.386166,
    37.616356,
    -122.386166,
    37.616356
  ],
  "geometry": {"type":"Point","coordinates":[-122.386166,37.616356]}
}
