{
  "id": 1729357829,
  "type": "Feature",
  "properties": {
    "date:cessation_lower": "2018-08-07",
    "date:cessation_upper": "2018-08-07",
    "date:inception_lower": "2018-08-07",
    "date:inception_upper": "2018-08-07",
    "edtf:cessation": "2018-08-06T17:15:00-07:00",
    "edtf:inception": "2018-08-06T17:15:00-07:00",
    "geom:area": 0,
    "geom:bbox": "-122.386166,37.616356,-122.386166,37.616356",
    "geom:latitude": 37.616356,
    "geom:longitude": -122.386166,
    "instagram:post": {
      "caption": {
        "body": "Whoo HOO! SFO Museum’s move is well underway! Our new shiny collections storage is ready for our objects. This state-of-the-art storage room was constructed with our collection in mind and will house much of our 3D items. Stay tuned for more updates about SFO Museum’s move. ",
        "excerpt": "Whoo HOO!",
        "hashtags": [
          "museummonday",
          "behindthescenes",
          "museumlife"
        ],
        "users": []
      },
      "location": "",
      "media_id": "721d6f73e57653c3936ec53b1185d04e",
      "path": "photos/201808/721d6f73e57653c3936ec53b1185d04e.jpg",
      "perceptual_hash": "p:b0fc7979c223b312",
      "taken": 1533572100,
      "taken_at": "Aug 6, 2018, 4:15 PM"
    },
    "millsfield:similar": {
      "google/siglip2-so400m-patch16-naflex": [
        {
          "distance": 0.08022767305374146,
          "id": 1729357819
        },
        {
          "distance": 0.15141546726226807,
          "id": 1729358093
        },
        {
          "distance": 0.15526670217514038,
          "id": 1729357819
        },
        {
          "distance": 0.17661744356155396,
          "id": 1729357313
        },
        {
          "distance": 0.17720258235931396,
          "id": 1729358093
        },
        {
          "distance": 0.19341367483139038,
          "id": 1763558747
        },
        {
          "distance": 0.19341367483139038,
          "id": 1729357823
        },
        {
          "distance": 0.21257168054580688,
          "id": 1729357313
        },
        {
          "distance": 0.24756604433059692,
          "id": 1763558747
        },
        {
          "distance": 0.24756604433059692,
          "id": 1729357823
        }
      ]
    },
    "sfomuseum:placetype": "instagram",
    "src:geom": "sfomuseum",
    "wof:belongsto": [
      1159160869,
      102527513,
      102191575,
      85633793,
      102087579,
      85922583,
      85688637
    ],
    "wof:country": "US",
    "wof:created": 1533600900,
    "wof:geomhash": "b6e33f47475d56bc8da457bc31afadc8",
    "wof:hierarchy": [
      {
        "building_id": 1159160869,
        "campus_id": 102527513,
        "continent_id": 102191575,
        "country_id": 85633793,
        "county_id": 102087579,
        "custom_id": 1729357829,
        "instagram_id": 1729357829,
        "locality_id": 85922583,
        "neighbourhood_id": -1,
        "region_id": 85688637
      }
    ],
    "wof:id": 1729357829,
    "wof:lastmodified": 1787777632,
    "wof:name": "Whoo HOO!..",
    "wof:parent_id": 1159160869,
    "wof:placetype": "custom",
    "wof:placetype_alt": [
      "instagram"
    ],
    "wof:repo": "sfomuseum-data-socialmedia-instagram",
    "wof:superseded_by": [],
    "wof:supersedes": []
  },
  "bbox": [
    -122.386166,
    37.616356,
    -122.386166,
    37.616356
  ],
  "geometry": {"type":"Point","coordinates":[-122.386166,37.616356]}
}
