{
  "id": 1729361027,
  "type": "Feature",
  "properties": {
    "date:cessation_lower": "2016-02-19",
    "date:cessation_upper": "2016-02-19",
    "date:inception_lower": "2016-02-19",
    "date:inception_upper": "2016-02-19",
    "edtf:cessation": "2016-02-19T02:16:00-08:00",
    "edtf:inception": "2016-02-19T02:16:00-08:00",
    "geom:area": 0,
    "geom:bbox": "-122.386166,37.616356,-122.386166,37.616356",
    "geom:latitude": 37.616356,
    "geom:longitude": -122.386166,
    "instagram:post": {
      "caption": {
        "body": "",
        "excerpt": "",
        "hashtags": [
          "SFOArtNouveau"
        ],
        "users": []
      },
      "media_id": "8ad5ab92d5e5b853a936b3efb7064994",
      "path": "media/other/12729510_1564240173867358_25556057_n_17844477358116168.jpg",
      "perceptual_hash": "p:eb25b21864b63973",
      "taken": 1455876960,
      "taken_at": "Feb 19, 2016 10:16 am"
    },
    "millsfield:similar": {
      "google/siglip2-so400m-patch16-naflex": [
        {
          "distance": 0.31322288513183594,
          "id": 1729360941
        },
        {
          "distance": 0.3183051347732544,
          "id": 1729360775
        },
        {
          "distance": 0.3216117024421692,
          "id": 1729360941
        },
        {
          "distance": 0.3482457995414734,
          "id": 1729360725
        },
        {
          "distance": 0.35217487812042236,
          "id": 1729361879
        },
        {
          "distance": 0.35619860887527466,
          "id": 1729357867
        },
        {
          "distance": 0.3580043315887451,
          "id": 1880151605
        },
        {
          "distance": 0.3586741089820862,
          "id": 1729360775
        },
        {
          "distance": 0.35972458124160767,
          "id": 1729356457
        },
        {
          "distance": 0.3619454503059387,
          "id": 1729357917
        }
      ]
    },
    "sfomuseum:placetype": "instagram",
    "src:geom": "sfomuseum",
    "wof:belongsto": [
      1159160869,
      102527513,
      102191575,
      85633793,
      102087579,
      85922583,
      85688637
    ],
    "wof:country": "US",
    "wof:created": 1455876960,
    "wof:geomhash": "b6e33f47475d56bc8da457bc31afadc8",
    "wof:hierarchy": [
      {
        "building_id": 1159160869,
        "campus_id": 102527513,
        "continent_id": 102191575,
        "country_id": 85633793,
        "county_id": 102087579,
        "custom_id": 1729361027,
        "instagram_id": 1729361027,
        "locality_id": 85922583,
        "neighbourhood_id": -1,
        "region_id": 85688637
      }
    ],
    "wof:id": 1729361027,
    "wof:lastmodified": 1787777643,
    "wof:name": "..",
    "wof:parent_id": 1159160869,
    "wof:placetype": "custom",
    "wof:placetype_alt": [
      "instagram"
    ],
    "wof:repo": "sfomuseum-data-socialmedia-instagram",
    "wof:superseded_by": [],
    "wof:supersedes": []
  },
  "bbox": [
    -122.386166,
    37.616356,
    -122.386166,
    37.616356
  ],
  "geometry": {"type":"Point","coordinates":[-122.386166,37.616356]}
}
