{
  "id": 1729356077,
  "type": "Feature",
  "properties": {
    "date:cessation_lower": "2019-09-20",
    "date:cessation_upper": "2019-09-20",
    "date:inception_lower": "2019-09-20",
    "date:inception_upper": "2019-09-20",
    "edtf:cessation": "2019-09-19T17:48:17-07:00",
    "edtf:inception": "2019-09-19T17:48:17-07:00",
    "geom:area": 0,
    "geom:bbox": "-122.386166,37.616356,-122.386166,37.616356",
    "geom:latitude": 37.616356,
    "geom:longitude": -122.386166,
    "instagram:post": {
      "caption": {
        "body": "Insects have exoskeletons—which, along with jointed legs, are the defining characteristics of insects and other arthropods. For most adult insects, the exoskeleton is very rigid and holds its shape even after they die. Hence, many specimens are preserved indefinitely by simply letting them dry. Entomologists usually use pins to handle specimens without damaging them and as a means to attach labels. But insects do not always die in a position convenient for viewing all their features. Because of this, entomologists use “spreading boards” to hold the wings of butterflies, moths, and other insects in place while they dry.  See “The Intriguing World of Insects” on display, pre-security, in the International Terminal. http://bit.ly/IntriguingInsects",
        "excerpt": "Insects have exoskeletons—which, along with jointed legs, are the defining characteristics of insects and other arthropods.",
        "hashtags": [
          "IntriguingInsects",
          "WorldofInsects",
          "insects",
          "Entomology",
          "preservation",
          "exoskeleton"
        ],
        "users": []
      },
      "location": "",
      "media_id": "4626f1892c8af22775ea6444a1b9f95e",
      "path": "photos/201909/4626f1892c8af22775ea6444a1b9f95e.jpg",
      "perceptual_hash": "p:de5e61576107612d",
      "taken": 1568911680,
      "taken_at": "Sep 19, 2019, 4:48 PM"
    },
    "millsfield:similar": {
      "google/siglip2-so400m-patch16-naflex": [
        {
          "distance": 0.21986687183380127,
          "id": 1729356181
        },
        {
          "distance": 0.2376144528388977,
          "id": 1729356241
        },
        {
          "distance": 0.23931145668029785,
          "id": 1729356063
        },
        {
          "distance": 0.24852216243743896,
          "id": 1729356181
        },
        {
          "distance": 0.256298303604126,
          "id": 1729356593
        },
        {
          "distance": 0.2571481466293335,
          "id": 1729356179
        },
        {
          "distance": 0.2618420124053955,
          "id": 1729356171
        },
        {
          "distance": 0.2679705023765564,
          "id": 1729356063
        },
        {
          "distance": 0.2727518677711487,
          "id": 1729356141
        },
        {
          "distance": 0.2751370668411255,
          "id": 1729356141
        }
      ]
    },
    "sfomuseum:placetype": "instagram",
    "src:geom": "sfomuseum",
    "wof:belongsto": [
      1159160869,
      102527513,
      102191575,
      85633793,
      102087579,
      85922583,
      85688637
    ],
    "wof:country": "US",
    "wof:created": 1568940497,
    "wof:geomhash": "b6e33f47475d56bc8da457bc31afadc8",
    "wof:hierarchy": [
      {
        "building_id": 1159160869,
        "campus_id": 102527513,
        "continent_id": 102191575,
        "country_id": 85633793,
        "county_id": 102087579,
        "custom_id": 1729356077,
        "instagram_id": 1729356077,
        "locality_id": 85922583,
        "neighbourhood_id": -1,
        "region_id": 85688637
      }
    ],
    "wof:id": 1729356077,
    "wof:lastmodified": 1787777628,
    "wof:name": "Insects have exoskeletons—which, along with jointed legs, are the defining characteristics of insects and other arthropods...",
    "wof:parent_id": 1159160869,
    "wof:placetype": "custom",
    "wof:placetype_alt": [
      "instagram"
    ],
    "wof:repo": "sfomuseum-data-socialmedia-instagram",
    "wof:superseded_by": [],
    "wof:supersedes": []
  },
  "bbox": [
    -122.386166,
    37.616356,
    -122.386166,
    37.616356
  ],
  "geometry": {"type":"Point","coordinates":[-122.386166,37.616356]}
}
