{
  "id": 1729358105,
  "type": "Feature",
  "properties": {
    "date:cessation_lower": "2018-06-19",
    "date:cessation_upper": "2018-06-19",
    "date:inception_lower": "2018-06-19",
    "date:inception_upper": "2018-06-19",
    "edtf:cessation": "2018-06-19T09:26:00-07:00",
    "edtf:inception": "2018-06-19T09:26:00-07:00",
    "geom:area": 0,
    "geom:bbox": "-122.386166,37.616356,-122.386166,37.616356",
    "geom:latitude": 37.616356,
    "geom:longitude": -122.386166,
    "instagram:post": {
      "caption": {
        "body": "Icelandair, the flag carrier of Iceland, was established in 1937 as Flugfélag Akureyrar and began operating as Icelandair in 1940. Icelandair began international service to Scotland and Denmark in 1945. Have you ever flown on Icelandair?  Image:  IcelandAir postcard, Boeing 757-208ER, late 1990s. Gift of the William Hough Collection. 2008.055.382",
        "excerpt": "Icelandair, the flag carrier of Iceland, was established in 1937 as Flugfélag Akureyrar and began operating as Icelandair in 1940.",
        "hashtags": [
          "avgeek",
          "avationgeek",
          "aviation",
          "aviationhistory",
          "vintageaviation",
          "history",
          "avhistory",
          "aviationgeeks",
          "avgeeks",
          "Icelandair"
        ],
        "users": []
      },
      "media_id": "d5ba52fdb5472ae60fe61312f90aefe6",
      "path": "media/other/34983011_938318329626383_6957166692405346304_n_17880846454231972.jpg",
      "perceptual_hash": "p:da85af6ad0952fc0",
      "taken": 1529425560,
      "taken_at": "Jun 19, 2018 4:26 pm"
    },
    "millsfield:similar": {
      "google/siglip2-so400m-patch16-naflex": [
        {
          "distance": 0.1693401336669922,
          "id": 1729359793
        },
        {
          "distance": 0.19298243522644043,
          "id": 1729359793
        },
        {
          "distance": 0.19659972190856934,
          "id": 1729355509
        },
        {
          "distance": 0.2000691294670105,
          "id": 1729355509
        },
        {
          "distance": 0.2072685956954956,
          "id": 1729359057
        },
        {
          "distance": 0.20740872621536255,
          "id": 1729360353
        },
        {
          "distance": 0.2077288031578064,
          "id": 1763558957
        },
        {
          "distance": 0.209658682346344,
          "id": 1729358563
        },
        {
          "distance": 0.21259665489196777,
          "id": 1729356121
        },
        {
          "distance": 0.21311157941818237,
          "id": 1729357689
        }
      ]
    },
    "sfomuseum:placetype": "instagram",
    "src:geom": "sfomuseum",
    "wof:belongsto": [
      1159160869,
      102527513,
      102191575,
      85633793,
      102087579,
      85922583,
      85688637
    ],
    "wof:country": "US",
    "wof:created": 1529425560,
    "wof:geomhash": "b6e33f47475d56bc8da457bc31afadc8",
    "wof:hierarchy": [
      {
        "building_id": 1159160869,
        "campus_id": 102527513,
        "continent_id": 102191575,
        "country_id": 85633793,
        "county_id": 102087579,
        "custom_id": 1729358105,
        "instagram_id": 1729358105,
        "locality_id": 85922583,
        "neighbourhood_id": -1,
        "region_id": 85688637
      }
    ],
    "wof:id": 1729358105,
    "wof:lastmodified": 1787777632,
    "wof:name": "Icelandair, the flag carrier of Iceland, was established in 1937 as Flugfélag Akureyrar and began operating as Icelandair in 1940...",
    "wof:parent_id": 1159160869,
    "wof:placetype": "custom",
    "wof:placetype_alt": [
      "instagram"
    ],
    "wof:repo": "sfomuseum-data-socialmedia-instagram",
    "wof:superseded_by": [],
    "wof:supersedes": []
  },
  "bbox": [
    -122.386166,
    37.616356,
    -122.386166,
    37.616356
  ],
  "geometry": {"type":"Point","coordinates":[-122.386166,37.616356]}
}
