{
  "id": 1729357961,
  "type": "Feature",
  "properties": {
    "date:cessation_lower": "2018-07-14",
    "date:cessation_upper": "2018-07-14",
    "date:inception_lower": "2018-07-14",
    "date:inception_upper": "2018-07-14",
    "edtf:cessation": "2018-07-14T07:57:00-07:00",
    "edtf:inception": "2018-07-14T07:57:00-07:00",
    "geom:area": 0,
    "geom:bbox": "-122.386166,37.616356,-122.386166,37.616356",
    "geom:latitude": 37.616356,
    "geom:longitude": -122.386166,
    "instagram:post": {
      "caption": {
        "body": "Happy Bastille Day! Bastille Day, the national day of France, commemorates the Storming of the Bastille in 1789, the flashpoint of the French Revolution. Have you ever traveled to France?  Image: Air France, Paris poster, 1947 (reproduced 1993). Gift of Air France. 2005.119.006",
        "excerpt": "Happy Bastille Day!",
        "hashtags": [
          "france",
          "bastilleday",
          "airfrance",
          "avgeek",
          "avationgeek",
          "aviation",
          "aviationhistory",
          "vintageaviation",
          "history",
          "avhistory",
          "aviationgeeks"
        ],
        "users": []
      },
      "media_id": "8627f00fff8d56c34e4a091989f67309",
      "path": "media/other/36772901_220283311949004_2246746307920134144_n_17852530198272613.jpg",
      "perceptual_hash": "p:b894c73a3cc5933c",
      "taken": 1531580220,
      "taken_at": "Jul 14, 2018 2:57 pm"
    },
    "millsfield:similar": {
      "google/siglip2-so400m-patch16-naflex": [
        {
          "distance": 0.0009752511978149414,
          "id": 1729359319
        },
        {
          "distance": 0.001965761184692383,
          "id": 1729360867
        },
        {
          "distance": 0.007898032665252686,
          "id": 1729355197
        },
        {
          "distance": 0.12085342407226562,
          "id": 1729360867
        },
        {
          "distance": 0.1276983618736267,
          "id": 1729359319
        },
        {
          "distance": 0.13368666172027588,
          "id": 1729355197
        },
        {
          "distance": 0.14413923025131226,
          "id": 1729359015
        },
        {
          "distance": 0.18393611907958984,
          "id": 1729359015
        },
        {
          "distance": 0.19368857145309448,
          "id": 1947425097
        },
        {
          "distance": 0.21091604232788086,
          "id": 1729359281
        }
      ]
    },
    "sfomuseum:placetype": "instagram",
    "src:geom": "sfomuseum",
    "wof:belongsto": [
      1159160869,
      102527513,
      102191575,
      85633793,
      102087579,
      85922583,
      85688637
    ],
    "wof:country": "US",
    "wof:created": 1531580220,
    "wof:geomhash": "b6e33f47475d56bc8da457bc31afadc8",
    "wof:hierarchy": [
      {
        "building_id": 1159160869,
        "campus_id": 102527513,
        "continent_id": 102191575,
        "country_id": 85633793,
        "county_id": 102087579,
        "custom_id": 1729357961,
        "instagram_id": 1729357961,
        "locality_id": 85922583,
        "neighbourhood_id": -1,
        "region_id": 85688637
      }
    ],
    "wof:id": 1729357961,
    "wof:lastmodified": 1787777632,
    "wof:name": "Happy Bastille Day!..",
    "wof:parent_id": 1159160869,
    "wof:placetype": "custom",
    "wof:placetype_alt": [
      "instagram"
    ],
    "wof:repo": "sfomuseum-data-socialmedia-instagram",
    "wof:superseded_by": [],
    "wof:supersedes": []
  },
  "bbox": [
    -122.386166,
    37.616356,
    -122.386166,
    37.616356
  ],
  "geometry": {"type":"Point","coordinates":[-122.386166,37.616356]}
}
