{
  "id": 1880151541,
  "type": "Feature",
  "properties": {
    "date:cessation_lower": "2022-07-27",
    "date:cessation_upper": "2022-07-27",
    "date:inception_lower": "2022-07-27",
    "date:inception_upper": "2022-07-27",
    "edtf:cessation": "2022-07-27T04:07:00-07:00",
    "edtf:inception": "2022-07-27T04:07:00-07:00",
    "geom:area": 0,
    "geom:bbox": "-122.386166,37.616356,-122.386166,37.616356",
    "geom:latitude": 37.616356,
    "geom:longitude": -122.386166,
    "instagram:post": {
      "caption": {
        "body": "“Why not then, have beautiful ceilings, especially as they can be seen complete, while the wall is part hidden by furniture and pictures?….We glory in a clear blue sky overhead, and we speak of the sky as increasing in beauty as it becomes deeper in tint…Why then make our ceilings white?” -Christopher Dresser (1834–1904)  Christopher Dresser realized a future in which high-quality design could merge with machine production. He also believed and instructed that more color should adorn ceilings as they did not serve as a background like the walls or floor. He enjoyed a prolific career, designing everything from wallpaper to furniture, metalwork, ceramics, and textiles. Like other Victorians of his era, Dresser absorbed historical styles, though he believed that a designer should “study the ornament of bygone eras till he understands it and feels its spirit, and then...strive to produce new forms and new combinations” reflecting the present era.   Special thank you to Bradbury \u0026 Bradbury Art Wallpapers for making this exhibition possible. “The Victorian Papered Wall” is on display pre-security in the International Terminal and online at: https://bit.ly/VictorianPaperedWall",
        "excerpt": "“Why not then, have beautiful ceilings, especially as they can be seen complete, while the wall is part hidden by furniture and pictures?….We glory in a clear blue sky overhead, and we speak of the sky as increasing in beauty as it becomes deeper in tint…Why then make our ceilings white?” -Christopher Dresser (1834–1904)  Christopher Dresser realized a future in which high-quality design could merge with machine production.",
        "hashtags": [
          "victorianpaperedwall",
          "wallpaper",
          "WallpaperWednesday",
          "design"
        ],
        "users": []
      },
      "media_id": "7c363d4ffcd246e7d30c1db13b2ddde42d5a85d6",
      "path": "media/posts/202207/296142257_608785063919158_7352879353672863952_n_17934827909185339.jpg",
      "perceptual_hash": "p:e4e48b1294f96bc3",
      "taken": 1658920020,
      "taken_at": "Jul 27, 2022 11:07 am"
    },
    "millsfield:similar": {
      "google/siglip2-so400m-patch16-naflex": [
        {
          "distance": 0.18210554122924805,
          "id": 1880151745
        },
        {
          "distance": 0.18554681539535522,
          "id": 1880151245
        },
        {
          "distance": 0.18896418809890747,
          "id": 1880151745
        },
        {
          "distance": 0.1974901556968689,
          "id": 1763559523
        },
        {
          "distance": 0.19966787099838257,
          "id": 1880151337
        },
        {
          "distance": 0.19997090101242065,
          "id": 1763559523
        },
        {
          "distance": 0.20242607593536377,
          "id": 1880151515
        },
        {
          "distance": 0.20414525270462036,
          "id": 1763558925
        },
        {
          "distance": 0.20481747388839722,
          "id": 1880151493
        },
        {
          "distance": 0.20978671312332153,
          "id": 1880151179
        }
      ]
    },
    "sfomuseum:placetype": "instagram",
    "src:geom": "sfomuseum",
    "wof:belongsto": [
      1159160869,
      102527513,
      102191575,
      85633793,
      102087579,
      85922583,
      85688637
    ],
    "wof:country": "US",
    "wof:created": 1658920020,
    "wof:geomhash": "b6e33f47475d56bc8da457bc31afadc8",
    "wof:hierarchy": [
      {
        "building_id": 1159160869,
        "campus_id": 102527513,
        "continent_id": 102191575,
        "country_id": 85633793,
        "county_id": 102087579,
        "custom_id": 1880151541,
        "instagram_id": 1880151541,
        "locality_id": 85922583,
        "neighbourhood_id": -1,
        "region_id": 85688637
      }
    ],
    "wof:id": 1880151541,
    "wof:lastmodified": 1787777662,
    "wof:name": "“Why not then, have beautiful ceilings, especially as they can be seen complete, while the wall is part hidden by furniture and pictures?….We glory in a clear blue sky overhead, and we speak of the sky as increasing in beauty as it becomes deeper in tint…Why then make our ceilings white?” -Christopher Dresser (1834–1904)  Christopher Dresser realized a future in which high-quality design could merge with machine production...",
    "wof:parent_id": 1159160869,
    "wof:placetype": "custom",
    "wof:placetype_alt": [
      "instagram"
    ],
    "wof:repo": "sfomuseum-data-socialmedia-instagram",
    "wof:superseded_by": [],
    "wof:supersedes": []
  },
  "bbox": [
    -122.386166,
    37.616356,
    -122.386166,
    37.616356
  ],
  "geometry": {"type":"Point","coordinates":[-122.386166,37.616356]}
}
