{
  "id": 1729358389,
  "type": "Feature",
  "properties": {
    "date:cessation_lower": "2018-04-04",
    "date:cessation_upper": "2018-04-04",
    "date:inception_lower": "2018-04-04",
    "date:inception_upper": "2018-04-04",
    "edtf:cessation": "2018-04-04T04:17:00-07:00",
    "edtf:inception": "2018-04-04T04:17:00-07:00",
    "geom:area": 0,
    "geom:bbox": "-122.386166,37.616356,-122.386166,37.616356",
    "geom:latitude": 37.616356,
    "geom:longitude": -122.386166,
    "instagram:post": {
      "caption": {
        "body": "",
        "excerpt": "",
        "hashtags": [
          "behindthescenes",
          "sneakpeek",
          "NoguchiSFO",
          "IsamuNoguchi",
          "Akari"
        ],
        "users": []
      },
      "media_id": "4df1f79dff5344cb3b43e0d3926dedb8",
      "path": "media/other/29716904_598513863835502_8600627613163061248_n_17909752198135501.jpg",
      "perceptual_hash": "p:9393c4e4e4cb4b4b",
      "taken": 1522840620,
      "taken_at": "Apr 04, 2018 11:17 am"
    },
    "millsfield:similar": {
      "google/siglip2-so400m-patch16-naflex": [
        {
          "distance": 0.22667169570922852,
          "id": 1729360795
        },
        {
          "distance": 0.24452060461044312,
          "id": 1729360765
        },
        {
          "distance": 0.2639496326446533,
          "id": 1729360795
        },
        {
          "distance": 0.26595497131347656,
          "id": 1729362515
        },
        {
          "distance": 0.2723601460456848,
          "id": 1729362515
        },
        {
          "distance": 0.2744373083114624,
          "id": 1729361293
        },
        {
          "distance": 0.28135210275650024,
          "id": 1729357625
        },
        {
          "distance": 0.28151530027389526,
          "id": 1729357625
        },
        {
          "distance": 0.29399263858795166,
          "id": 1763559265
        },
        {
          "distance": 0.29988259077072144,
          "id": 1729362719
        }
      ]
    },
    "sfomuseum:placetype": "instagram",
    "src:geom": "sfomuseum",
    "wof:belongsto": [
      1159160869,
      102527513,
      102191575,
      85633793,
      102087579,
      85922583,
      85688637
    ],
    "wof:country": "US",
    "wof:created": 1522840620,
    "wof:geomhash": "b6e33f47475d56bc8da457bc31afadc8",
    "wof:hierarchy": [
      {
        "building_id": 1159160869,
        "campus_id": 102527513,
        "continent_id": 102191575,
        "country_id": 85633793,
        "county_id": 102087579,
        "custom_id": 1729358389,
        "instagram_id": 1729358389,
        "locality_id": 85922583,
        "neighbourhood_id": -1,
        "region_id": 85688637
      }
    ],
    "wof:id": 1729358389,
    "wof:lastmodified": 1787777633,
    "wof:name": "..",
    "wof:parent_id": 1159160869,
    "wof:placetype": "custom",
    "wof:placetype_alt": [
      "instagram"
    ],
    "wof:repo": "sfomuseum-data-socialmedia-instagram",
    "wof:superseded_by": [],
    "wof:supersedes": []
  },
  "bbox": [
    -122.386166,
    37.616356,
    -122.386166,
    37.616356
  ],
  "geometry": {"type":"Point","coordinates":[-122.386166,37.616356]}
}
