{
  "id": 1729359857,
  "type": "Feature",
  "properties": {
    "date:cessation_lower": "2017-02-02",
    "date:cessation_upper": "2017-02-02",
    "date:inception_lower": "2017-02-02",
    "date:inception_upper": "2017-02-02",
    "edtf:cessation": "2017-02-02T01:50:00-08:00",
    "edtf:inception": "2017-02-02T01:50:00-08:00",
    "geom:area": 0,
    "geom:bbox": "-122.386166,37.616356,-122.386166,37.616356",
    "geom:latitude": 37.616356,
    "geom:longitude": -122.386166,
    "instagram:post": {
      "caption": {
        "body": "The Skyway Cafe was a restaurant at SFO in the 1950s. On the back of this postcard is a note that could have been written today: \"Dear Mrs. Hurdle, We are very sorry but matches are not to be sent thru the mails. If you think of some way to send them, or if you are up this way some-time, we would be very happy to give you a box of our matches. Sincerely, Skyway Cafe.\" Did you ever eat at the Skyway Cafe? #ThrowbackThursday #TBT #SFOHistory  Image: San Francisco Airport postcard, Skyway Café 1951 2001.013.022",
        "excerpt": "The Skyway Cafe was a restaurant at SFO in the 1950s.",
        "hashtags": [],
        "users": []
      },
      "media_id": "1ca0c9ea1c733857be5be9de262372ca",
      "path": "media/posts/201702/16465701_824210831051198_2443401749323579392_n_17859869473120598.jpg",
      "perceptual_hash": "p:992558ee43986fd4",
      "taken": 1486029000,
      "taken_at": "Feb 02, 2017 9:50 am"
    },
    "millsfield:similar": {
      "google/siglip2-so400m-patch16-naflex": [
        {
          "distance": 0.25222498178482056,
          "id": 1729359071
        },
        {
          "distance": 0.30076444149017334,
          "id": 1729359071
        },
        {
          "distance": 0.31638288497924805,
          "id": 1729355115
        },
        {
          "distance": 0.3276504874229431,
          "id": 1729359645
        },
        {
          "distance": 0.33201736211776733,
          "id": 1729355115
        },
        {
          "distance": 0.33204466104507446,
          "id": 1729357593
        },
        {
          "distance": 0.3391651511192322,
          "id": 1729358283
        },
        {
          "distance": 0.34569668769836426,
          "id": 1763559211
        },
        {
          "distance": 0.34638458490371704,
          "id": 1729359645
        },
        {
          "distance": 0.3465820550918579,
          "id": 1947425205
        }
      ]
    },
    "sfomuseum:placetype": "instagram",
    "src:geom": "sfomuseum",
    "wof:belongsto": [
      1159160869,
      102527513,
      102191575,
      85633793,
      102087579,
      85922583,
      85688637
    ],
    "wof:country": "US",
    "wof:created": 1486029000,
    "wof:geomhash": "b6e33f47475d56bc8da457bc31afadc8",
    "wof:hierarchy": [
      {
        "building_id": 1159160869,
        "campus_id": 102527513,
        "continent_id": 102191575,
        "country_id": 85633793,
        "county_id": 102087579,
        "custom_id": 1729359857,
        "instagram_id": 1729359857,
        "locality_id": 85922583,
        "neighbourhood_id": -1,
        "region_id": 85688637
      }
    ],
    "wof:id": 1729359857,
    "wof:lastmodified": 1787777637,
    "wof:name": "The Skyway Cafe was a restaurant at SFO in the 1950s...",
    "wof:parent_id": 1159160869,
    "wof:placetype": "custom",
    "wof:placetype_alt": [
      "instagram"
    ],
    "wof:repo": "sfomuseum-data-socialmedia-instagram",
    "wof:superseded_by": [],
    "wof:supersedes": []
  },
  "bbox": [
    -122.386166,
    37.616356,
    -122.386166,
    37.616356
  ],
  "geometry": {"type":"Point","coordinates":[-122.386166,37.616356]}
}
