{
  "id": 1729356113,
  "type": "Feature",
  "properties": {
    "date:cessation_lower": "2019-09-12",
    "date:cessation_upper": "2019-09-12",
    "date:inception_lower": "2019-09-12",
    "date:inception_upper": "2019-09-12",
    "edtf:cessation": "2019-09-12T06:17:00-07:00",
    "edtf:inception": "2019-09-12T06:17:00-07:00",
    "geom:area": 0,
    "geom:bbox": "-122.386166,37.616356,-122.386166,37.616356",
    "geom:latitude": 37.616356,
    "geom:longitude": -122.386166,
    "instagram:post": {
      "caption": {
        "body": "What was going on at the airport in September of 1998? The International Terminal was under construction and here you can see the framework of its iconic façade.  Image: San Francisco International Airport (SFO), International Terminal construction, 1998. Gift of Edith Lauterbach. 2006.028.176.010 ",
        "excerpt": "What was going on at the airport in September of 1998?",
        "hashtags": [
          "SFOHistory",
          "SFHistory",
          "avgeek",
          "airport",
          "throwbackThursday",
          "TBT"
        ],
        "users": []
      },
      "media_id": "7ef321a418adaf4c24955dfd0826490d",
      "path": "media/other/69537155_2111028959199837_8163833366226542007_n_18099347305045475.jpg",
      "perceptual_hash": "p:bfc0b2c1fdb4600b",
      "taken": 1568294220,
      "taken_at": "Sep 12, 2019 1:17 pm"
    },
    "millsfield:similar": {
      "google/siglip2-so400m-patch16-naflex": [
        {
          "distance": 0.12322276830673218,
          "id": 1729360077
        },
        {
          "distance": 0.13872629404067993,
          "id": 1729360689
        },
        {
          "distance": 0.16768139600753784,
          "id": 1729355041
        },
        {
          "distance": 0.16911250352859497,
          "id": 1729360337
        },
        {
          "distance": 0.1735631823539734,
          "id": 1729360689
        },
        {
          "distance": 0.17896920442581177,
          "id": 1729355041
        },
        {
          "distance": 0.18417561054229736,
          "id": 1729359077
        },
        {
          "distance": 0.19097745418548584,
          "id": 1729361129
        },
        {
          "distance": 0.19355368614196777,
          "id": 1729355161
        },
        {
          "distance": 0.19492173194885254,
          "id": 1729360247
        }
      ]
    },
    "sfomuseum:placetype": "instagram",
    "src:geom": "sfomuseum",
    "wof:belongsto": [
      1159160869,
      102527513,
      102191575,
      85633793,
      102087579,
      85922583,
      85688637
    ],
    "wof:country": "US",
    "wof:created": 1568294220,
    "wof:geomhash": "b6e33f47475d56bc8da457bc31afadc8",
    "wof:hierarchy": [
      {
        "building_id": 1159160869,
        "campus_id": 102527513,
        "continent_id": 102191575,
        "country_id": 85633793,
        "county_id": 102087579,
        "custom_id": 1729356113,
        "instagram_id": 1729356113,
        "locality_id": 85922583,
        "neighbourhood_id": -1,
        "region_id": 85688637
      }
    ],
    "wof:id": 1729356113,
    "wof:lastmodified": 1787777628,
    "wof:name": "What was going on at the airport in September of 1998?..",
    "wof:parent_id": 1159160869,
    "wof:placetype": "custom",
    "wof:placetype_alt": [
      "instagram"
    ],
    "wof:repo": "sfomuseum-data-socialmedia-instagram",
    "wof:superseded_by": [],
    "wof:supersedes": []
  },
  "bbox": [
    -122.386166,
    37.616356,
    -122.386166,
    37.616356
  ],
  "geometry": {"type":"Point","coordinates":[-122.386166,37.616356]}
}
