{
  "id": 1729356361,
  "type": "Feature",
  "properties": {
    "date:cessation_lower": "2019-07-03",
    "date:cessation_upper": "2019-07-03",
    "date:inception_lower": "2019-07-03",
    "date:inception_upper": "2019-07-03",
    "edtf:cessation": "2019-07-03T16:29:59-07:00",
    "edtf:inception": "2019-07-03T16:29:59-07:00",
    "geom:area": 0,
    "geom:bbox": "-122.386166,37.616356,-122.386166,37.616356",
    "geom:latitude": 37.616356,
    "geom:longitude": -122.386166,
    "instagram:post": {
      "caption": {
        "body": "This Renaissance Revival pedestal exhibits both veneering and marquetry. A veneer consists of a very fine sheet of wood applied to the surface of furniture. Marquetry entails cutting wood veneers, in various colors and grain patterns, into decorative designs and adhering them to a piece of furniture or decorative art object. Materials such as mother-of-pearl, ivory, tortoise shell, and fine metals might also be applied. “The Style of Display: Victorian Pedestals” is on display pre-security in the International Terminal. http://bit.ly/VictorianPedestals",
        "excerpt": "This Renaissance Revival pedestal exhibits both veneering and marquetry.",
        "hashtags": [
          "VictorianPedestals",
          "victorian",
          "pedestals",
          "victorianfurniture",
          "victoriana",
          "design",
          "decorativeart",
          "interiorstyle"
        ],
        "users": []
      },
      "location": "",
      "media_id": "44d957ee1bfa1c77e6190dea996f4fc1",
      "path": "photos/201907/44d957ee1bfa1c77e6190dea996f4fc1.jpg",
      "perceptual_hash": "p:b05c6c932cd3cf4c",
      "taken": 1562167740,
      "taken_at": "Jul 3, 2019, 3:29 PM"
    },
    "millsfield:similar": {
      "google/siglip2-so400m-patch16-naflex": [
        {
          "distance": 0.0064247846603393555,
          "id": 1729355853
        },
        {
          "distance": 0.09272819757461548,
          "id": 1729355853
        },
        {
          "distance": 0.10373735427856445,
          "id": 1729356343
        },
        {
          "distance": 0.1402137279510498,
          "id": 1729356353
        },
        {
          "distance": 0.1484796404838562,
          "id": 1729355855
        },
        {
          "distance": 0.14878839254379272,
          "id": 1729356343
        },
        {
          "distance": 0.196383535861969,
          "id": 1729356465
        },
        {
          "distance": 0.19640040397644043,
          "id": 1729355835
        },
        {
          "distance": 0.19693607091903687,
          "id": 1729355835
        },
        {
          "distance": 0.20234805345535278,
          "id": 1729356469
        }
      ]
    },
    "sfomuseum:placetype": "instagram",
    "src:geom": "sfomuseum",
    "wof:belongsto": [
      1159160869,
      102527513,
      102191575,
      85633793,
      102087579,
      85922583,
      85688637
    ],
    "wof:country": "US",
    "wof:created": 1562196599,
    "wof:geomhash": "b6e33f47475d56bc8da457bc31afadc8",
    "wof:hierarchy": [
      {
        "building_id": 1159160869,
        "campus_id": 102527513,
        "continent_id": 102191575,
        "country_id": 85633793,
        "county_id": 102087579,
        "custom_id": 1729356361,
        "instagram_id": 1729356361,
        "locality_id": 85922583,
        "neighbourhood_id": -1,
        "region_id": 85688637
      }
    ],
    "wof:id": 1729356361,
    "wof:lastmodified": 1787777629,
    "wof:name": "This Renaissance Revival pedestal exhibits both veneering and marquetry...",
    "wof:parent_id": 1159160869,
    "wof:placetype": "custom",
    "wof:placetype_alt": [
      "instagram"
    ],
    "wof:repo": "sfomuseum-data-socialmedia-instagram",
    "wof:superseded_by": [],
    "wof:supersedes": []
  },
  "bbox": [
    -122.386166,
    37.616356,
    -122.386166,
    37.616356
  ],
  "geometry": {"type":"Point","coordinates":[-122.386166,37.616356]}
}
