{
  "id": 1729356881,
  "type": "Feature",
  "properties": {
    "date:cessation_lower": "2019-03-04",
    "date:cessation_upper": "2019-03-04",
    "date:inception_lower": "2019-03-04",
    "date:inception_upper": "2019-03-04",
    "edtf:cessation": "2019-03-04T06:15:00-08:00",
    "edtf:inception": "2019-03-04T06:15:00-08:00",
    "geom:area": 0,
    "geom:bbox": "-122.386166,37.616356,-122.386166,37.616356",
    "geom:latitude": 37.616356,
    "geom:longitude": -122.386166,
    "instagram:post": {
      "caption": {
        "body": "Rell Sunn (1950–98) was the most prominent female Hawaiian surfer during the early shortboard era. Dubbed the “Queen of Makaha,” she was an ambassador of the native Hawaiian style of surfing and rode shortboards and longboards with prowess and ease. \"Reflections in Wood — Surfboards and Shapers\" is on display, pre-security, in the International Terminal! http://bit.ly/SurfboardsAndShapers 📸: Jeff Divine #SurfboardsandShapers",
        "excerpt": "Rell Sunn (1950–98) was the most prominent female Hawaiian surfer during the early shortboard era.",
        "hashtags": [
          "SurfboardsandShapers",
          "surfers",
          "shapers",
          "surf",
          "surfing",
          "surflife",
          "surfer",
          "Surfboards",
          "Surfboard",
          "rellsunn"
        ],
        "users": [
          "jeffdivinephotographer"
        ]
      },
      "media_id": "eaf7f7a5ae55938afdb628a01fee41b4",
      "path": "media/other/51945355_608810986211264_8462169830945850447_n_18041494759014542.jpg",
      "perceptual_hash": "p:c485090f265fb72f",
      "taken": 1551708900,
      "taken_at": "Mar 04, 2019 2:15 pm"
    },
    "millsfield:similar": {
      "google/siglip2-so400m-patch16-naflex": [
        {
          "distance": 0.1296253800392151,
          "id": 1729359751
        },
        {
          "distance": 0.1495097279548645,
          "id": 1729357023
        },
        {
          "distance": 0.169050931930542,
          "id": 1729359751
        },
        {
          "distance": 0.16966289281845093,
          "id": 1729357023
        },
        {
          "distance": 0.24324053525924683,
          "id": 1729358367
        },
        {
          "distance": 0.2867698073387146,
          "id": 1729356789
        },
        {
          "distance": 0.2984016537666321,
          "id": 1729356943
        },
        {
          "distance": 0.30723005533218384,
          "id": 1729360159
        },
        {
          "distance": 0.3074039816856384,
          "id": 1729358367
        },
        {
          "distance": 0.317538857460022,
          "id": 1880151595
        }
      ]
    },
    "sfomuseum:placetype": "instagram",
    "src:geom": "sfomuseum",
    "wof:belongsto": [
      1159160869,
      102527513,
      102191575,
      85633793,
      102087579,
      85922583,
      85688637
    ],
    "wof:country": "US",
    "wof:created": 1551708900,
    "wof:geomhash": "b6e33f47475d56bc8da457bc31afadc8",
    "wof:hierarchy": [
      {
        "building_id": 1159160869,
        "campus_id": 102527513,
        "continent_id": 102191575,
        "country_id": 85633793,
        "county_id": 102087579,
        "custom_id": 1729356881,
        "instagram_id": 1729356881,
        "locality_id": 85922583,
        "neighbourhood_id": -1,
        "region_id": 85688637
      }
    ],
    "wof:id": 1729356881,
    "wof:lastmodified": 1787777629,
    "wof:name": "Rell Sunn (1950–98) was the most prominent female Hawaiian surfer during the early shortboard era...",
    "wof:parent_id": 1159160869,
    "wof:placetype": "custom",
    "wof:placetype_alt": [
      "instagram"
    ],
    "wof:repo": "sfomuseum-data-socialmedia-instagram",
    "wof:superseded_by": [],
    "wof:supersedes": []
  },
  "bbox": [
    -122.386166,
    37.616356,
    -122.386166,
    37.616356
  ],
  "geometry": {"type":"Point","coordinates":[-122.386166,37.616356]}
}
