{
  "id": 1729357309,
  "type": "Feature",
  "properties": {
    "date:cessation_lower": "2018-11-27",
    "date:cessation_upper": "2018-11-27",
    "date:inception_lower": "2018-11-27",
    "date:inception_upper": "2018-11-27",
    "edtf:cessation": "2018-11-26T18:21:45-08:00",
    "edtf:inception": "2018-11-26T18:21:45-08:00",
    "geom:area": 0,
    "geom:bbox": "-122.386166,37.616356,-122.386166,37.616356",
    "geom:latitude": 37.616356,
    "geom:longitude": -122.386166,
    "instagram:post": {
      "caption": {
        "body": "This is your last week to catch all the tunes in \"On The Radio.\" The halcyon days of sitting by the wireless and listening to your favorite radio program may be in the past but these beautiful radios live on in our exhibition. The radio is one of the great technological triumphs of the 20th century. Radio became a universal mass media and captivated audiences around the world. Radio was the most exciting and accessible technology of its time and galvanized the imagination of countless listeners. What is your favorite radio memory? \"On the Radio\" is on display, post-security, in Terminal 3. http://bit.ly/RadioSFO",
        "excerpt": "This is your last week to catch all the tunes in \"On The Radio.\"",
        "hashtags": [
          "radioSFO",
          "ontheradio",
          "radio",
          "radios",
          "wireless",
          "vintage",
          "antique",
          "vintageradios",
          "transistorradio",
          "portableradio",
          "retroradio",
          "retro"
        ],
        "users": []
      },
      "location": "",
      "media_id": "eb93dd083a9aa3789fd603e22b05ee53",
      "path": "photos/201811/eb93dd083a9aa3789fd603e22b05ee53.jpg",
      "perceptual_hash": "p:b378d4347a93319c",
      "taken": 1543256460,
      "taken_at": "Nov 26, 2018, 6:21 PM"
    },
    "millsfield:similar": {
      "google/siglip2-so400m-patch16-naflex": [
        {
          "distance": 0.1299363374710083,
          "id": 1729358007
        },
        {
          "distance": 0.17791283130645752,
          "id": 1729358007
        },
        {
          "distance": 0.18044805526733398,
          "id": 1729357693
        },
        {
          "distance": 0.18612051010131836,
          "id": 1729357325
        },
        {
          "distance": 0.19546526670455933,
          "id": 1763558761
        },
        {
          "distance": 0.21069437265396118,
          "id": 1947425291
        },
        {
          "distance": 0.21170896291732788,
          "id": 1763558925
        },
        {
          "distance": 0.21171718835830688,
          "id": 1729357951
        },
        {
          "distance": 0.2118052840232849,
          "id": 1763558907
        },
        {
          "distance": 0.2166956663131714,
          "id": 1729355059
        }
      ]
    },
    "sfomuseum:placetype": "instagram",
    "src:geom": "sfomuseum",
    "wof:belongsto": [
      1159160869,
      102527513,
      102191575,
      85633793,
      102087579,
      85922583,
      85688637
    ],
    "wof:country": "US",
    "wof:created": 1543285305,
    "wof:geomhash": "b6e33f47475d56bc8da457bc31afadc8",
    "wof:hierarchy": [
      {
        "building_id": 1159160869,
        "campus_id": 102527513,
        "continent_id": 102191575,
        "country_id": 85633793,
        "county_id": 102087579,
        "custom_id": 1729357309,
        "instagram_id": 1729357309,
        "locality_id": 85922583,
        "neighbourhood_id": -1,
        "region_id": 85688637
      }
    ],
    "wof:id": 1729357309,
    "wof:lastmodified": 1787777631,
    "wof:name": "This is your last week to catch all the tunes in \"On The Radio.\"..",
    "wof:parent_id": 1159160869,
    "wof:placetype": "custom",
    "wof:placetype_alt": [
      "instagram"
    ],
    "wof:repo": "sfomuseum-data-socialmedia-instagram",
    "wof:superseded_by": [],
    "wof:supersedes": []
  },
  "bbox": [
    -122.386166,
    37.616356,
    -122.386166,
    37.616356
  ],
  "geometry": {"type":"Point","coordinates":[-122.386166,37.616356]}
}
