{
  "id": 1729360733,
  "type": "Feature",
  "properties": {
    "date:cessation_lower": "2016-05-11",
    "date:cessation_upper": "2016-05-11",
    "date:inception_lower": "2016-05-11",
    "date:inception_upper": "2016-05-11",
    "edtf:cessation": "2016-05-11T10:27:00-07:00",
    "edtf:inception": "2016-05-11T10:27:00-07:00",
    "geom:area": 0,
    "geom:bbox": "-122.386166,37.616356,-122.386166,37.616356",
    "geom:latitude": 37.616356,
    "geom:longitude": -122.386166,
    "instagram:post": {
      "caption": {
        "body": "",
        "excerpt": "",
        "hashtags": [
          "FashionInFlight",
          "BehindTheScenes",
          "WomeninAviation",
          "uniforms",
          "AVGeek"
        ],
        "users": []
      },
      "media_id": "4a286a323e271ea53798c132224574fa",
      "path": "media/other/13129719_399666783491086_1503839782_n_17856866458025066.jpg",
      "perceptual_hash": "p:8fc1c2e08d633f3c",
      "taken": 1462987620,
      "taken_at": "May 11, 2016 5:27 pm"
    },
    "millsfield:similar": {
      "google/siglip2-so400m-patch16-naflex": [
        {
          "distance": 0.19973450899124146,
          "id": 1763559049
        },
        {
          "distance": 0.23561179637908936,
          "id": 1763559113
        },
        {
          "distance": 0.2437281608581543,
          "id": 1729358079
        },
        {
          "distance": 0.24685394763946533,
          "id": 1729359685
        },
        {
          "distance": 0.25210630893707275,
          "id": 1729360547
        },
        {
          "distance": 0.25691407918930054,
          "id": 1763558977
        },
        {
          "distance": 0.25966382026672363,
          "id": 1729360551
        },
        {
          "distance": 0.2610982656478882,
          "id": 1729355691
        },
        {
          "distance": 0.2613358497619629,
          "id": 1729359989
        },
        {
          "distance": 0.2654791474342346,
          "id": 1729359901
        }
      ]
    },
    "sfomuseum:placetype": "instagram",
    "src:geom": "sfomuseum",
    "wof:belongsto": [
      1159160869,
      102527513,
      102191575,
      85633793,
      102087579,
      85922583,
      85688637
    ],
    "wof:country": "US",
    "wof:created": 1462987620,
    "wof:geomhash": "b6e33f47475d56bc8da457bc31afadc8",
    "wof:hierarchy": [
      {
        "building_id": 1159160869,
        "campus_id": 102527513,
        "continent_id": 102191575,
        "country_id": 85633793,
        "county_id": 102087579,
        "custom_id": 1729360733,
        "instagram_id": 1729360733,
        "locality_id": 85922583,
        "neighbourhood_id": -1,
        "region_id": 85688637
      }
    ],
    "wof:id": 1729360733,
    "wof:lastmodified": 1787777640,
    "wof:name": "..",
    "wof:parent_id": 1159160869,
    "wof:placetype": "custom",
    "wof:placetype_alt": [
      "instagram"
    ],
    "wof:repo": "sfomuseum-data-socialmedia-instagram",
    "wof:superseded_by": [],
    "wof:supersedes": []
  },
  "bbox": [
    -122.386166,
    37.616356,
    -122.386166,
    37.616356
  ],
  "geometry": {"type":"Point","coordinates":[-122.386166,37.616356]}
}
