{
  "id": 1729358083,
  "type": "Feature",
  "properties": {
    "date:cessation_lower": "2018-06-23",
    "date:cessation_upper": "2018-06-23",
    "date:inception_lower": "2018-06-23",
    "date:inception_upper": "2018-06-23",
    "edtf:cessation": "2018-06-23T05:40:00-07:00",
    "edtf:inception": "2018-06-23T05:40:00-07:00",
    "geom:area": 0,
    "geom:bbox": "-122.386166,37.616356,-122.386166,37.616356",
    "geom:latitude": 37.616356,
    "geom:longitude": -122.386166,
    "instagram:post": {
      "caption": {
        "body": "Our newest exhibition, \"Into the Ether: Published Works on Ballooning and Atmospheric Studies, 1783–1910,\" will be opening in the Aviation Museum and Library tomorrow. This exhibition presents a selection of literary works on ballooning and atmospheric studies from the late eighteenth century to the early twentieth century from special collections at the SFO Museum aviation library. First created in France during the Age of Enlightenment (1685–1789) by brothers Joseph-Michel and Jacques-Étienne Montgolfier between 1782–1783, the hot air (and later hydrogen-filled) balloon’s influence on society and culture, as well as the advancement of technology and science, was profound. Not only was it the first aircraft to voyage with human passengers into the upper atmosphere, but it also set the stage for later advances in aeronautics. For more than a hundred years, until the introduction of airships, gliders, and the airplane, the balloon remained the prevalent form of aviation",
        "excerpt": "Our newest exhibition, \"Into the Ether: Published Works on Ballooning and Atmospheric Studies, 1783–1910,\" will be opening in the Aviation Museum and Library tomorrow.",
        "hashtags": [
          "IntoTheEther",
          "aeronauts",
          "balloons",
          "balloning",
          "avgeek",
          "avationgeek",
          "aviation",
          "aviationhistory",
          "vintageaviation",
          "history",
          "avhistory",
          "aviationgeeks",
          "avgeeks"
        ],
        "users": []
      },
      "media_id": "3431bba956b08a3d46168919891cd3ea",
      "path": "media/other/35000635_258544568214330_8574825094621167616_n_17940374743117532.jpg",
      "perceptual_hash": "p:b2b031bc1c9d0e5f",
      "taken": 1529757600,
      "taken_at": "Jun 23, 2018 12:40 pm"
    },
    "millsfield:similar": {
      "google/siglip2-so400m-patch16-naflex": [
        {
          "distance": 0.3313637375831604,
          "id": 1729359493
        },
        {
          "distance": 0.3328927159309387,
          "id": 1729357535
        },
        {
          "distance": 0.3335733413696289,
          "id": 1763559427
        },
        {
          "distance": 0.3485446572303772,
          "id": 1729358761
        },
        {
          "distance": 0.3485446572303772,
          "id": 1763558727
        },
        {
          "distance": 0.3521403670310974,
          "id": 1947424971
        },
        {
          "distance": 0.3547402024269104,
          "id": 1729357771
        },
        {
          "distance": 0.3617022633552551,
          "id": 1729360897
        },
        {
          "distance": 0.3642581105232239,
          "id": 1947425053
        },
        {
          "distance": 0.3721175193786621,
          "id": 1729359093
        }
      ]
    },
    "sfomuseum:placetype": "instagram",
    "src:geom": "sfomuseum",
    "wof:belongsto": [
      1159160869,
      102527513,
      102191575,
      85633793,
      102087579,
      85922583,
      85688637
    ],
    "wof:country": "US",
    "wof:created": 1529757600,
    "wof:geomhash": "b6e33f47475d56bc8da457bc31afadc8",
    "wof:hierarchy": [
      {
        "building_id": 1159160869,
        "campus_id": 102527513,
        "continent_id": 102191575,
        "country_id": 85633793,
        "county_id": 102087579,
        "custom_id": 1729358083,
        "instagram_id": 1729358083,
        "locality_id": 85922583,
        "neighbourhood_id": -1,
        "region_id": 85688637
      }
    ],
    "wof:id": 1729358083,
    "wof:lastmodified": 1787777632,
    "wof:name": "Our newest exhibition, \"Into the Ether: Published Works on Ballooning and Atmospheric Studies, 1783–1910,\" will be opening in the Aviation Museum and Library tomorrow...",
    "wof:parent_id": 1159160869,
    "wof:placetype": "custom",
    "wof:placetype_alt": [
      "instagram"
    ],
    "wof:repo": "sfomuseum-data-socialmedia-instagram",
    "wof:superseded_by": [],
    "wof:supersedes": []
  },
  "bbox": [
    -122.386166,
    37.616356,
    -122.386166,
    37.616356
  ],
  "geometry": {"type":"Point","coordinates":[-122.386166,37.616356]}
}
