{
  "id": 1729362841,
  "type": "Feature",
  "properties": {
    "date:cessation_lower": "2012-10-31",
    "date:cessation_upper": "2012-10-31",
    "date:inception_lower": "2012-10-31",
    "date:inception_upper": "2012-10-31",
    "edtf:cessation": "2012-10-31T03:20:00-07:00",
    "edtf:inception": "2012-10-31T03:20:00-07:00",
    "geom:area": 0,
    "geom:bbox": "-122.386166,37.616356,-122.386166,37.616356",
    "geom:latitude": 37.616356,
    "geom:longitude": -122.386166,
    "instagram:post": {
      "caption": {
        "body": "",
        "excerpt": "",
        "hashtags": [
          "Halloween!"
        ],
        "users": []
      },
      "media_id": "2dfece29d8ca1d6a8b7b9d9347b81df6",
      "path": "media/other/11236315_360335357510845_354426142_n_17842278463062499.jpg",
      "perceptual_hash": "p:ea94326a3e95c1d6",
      "taken": 1351678800,
      "taken_at": "Oct 31, 2012 10:20 am"
    },
    "millsfield:similar": {
      "google/siglip2-so400m-patch16-naflex": [
        {
          "distance": 0.47097092866897583,
          "id": 1729362317
        },
        {
          "distance": 0.47623389959335327,
          "id": 1729362479
        },
        {
          "distance": 0.4829433560371399,
          "id": 1729362317
        },
        {
          "distance": 0.4883822202682495,
          "id": 1729362259
        },
        {
          "distance": 0.4911693334579468,
          "id": 1729362991
        },
        {
          "distance": 0.4968636631965637,
          "id": 1729361995
        },
        {
          "distance": 0.4993937611579895,
          "id": 1729362553
        },
        {
          "distance": 0.49985748529434204,
          "id": 1729362803
        },
        {
          "distance": 0.4999843239784241,
          "id": 1729362269
        },
        {
          "distance": 0.5015628933906555,
          "id": 1729362831
        }
      ]
    },
    "sfomuseum:placetype": "instagram",
    "src:geom": "sfomuseum",
    "wof:belongsto": [
      1159160869,
      102527513,
      102191575,
      85633793,
      102087579,
      85922583,
      85688637
    ],
    "wof:country": "US",
    "wof:created": 1351678800,
    "wof:geomhash": "b6e33f47475d56bc8da457bc31afadc8",
    "wof:hierarchy": [
      {
        "building_id": 1159160869,
        "campus_id": 102527513,
        "continent_id": 102191575,
        "country_id": 85633793,
        "county_id": 102087579,
        "custom_id": 1729362841,
        "instagram_id": 1729362841,
        "locality_id": 85922583,
        "neighbourhood_id": -1,
        "region_id": 85688637
      }
    ],
    "wof:id": 1729362841,
    "wof:lastmodified": 1787777651,
    "wof:name": "..",
    "wof:parent_id": 1159160869,
    "wof:placetype": "custom",
    "wof:placetype_alt": [
      "instagram"
    ],
    "wof:repo": "sfomuseum-data-socialmedia-instagram",
    "wof:superseded_by": [],
    "wof:supersedes": []
  },
  "bbox": [
    -122.386166,
    37.616356,
    -122.386166,
    37.616356
  ],
  "geometry": {"type":"Point","coordinates":[-122.386166,37.616356]}
}
