{
  "id": 1729360211,
  "type": "Feature",
  "properties": {
    "date:cessation_lower": "2016-10-19",
    "date:cessation_upper": "2016-10-19",
    "date:inception_lower": "2016-10-19",
    "date:inception_upper": "2016-10-19",
    "edtf:cessation": "2016-10-19T11:25:00-07:00",
    "edtf:inception": "2016-10-19T11:25:00-07:00",
    "geom:area": 0,
    "geom:bbox": "-122.386166,37.616356,-122.386166,37.616356",
    "geom:latitude": 37.616356,
    "geom:longitude": -122.386166,
    "instagram:post": {
      "caption": {
        "body": "Early airline uniforms were worn with shoes that complied with a designated type of footwear, and they were purchased individually. In the 1930s and ‘40s, sensible lace-up oxfords with low block heels provided stable footing in the cabins of the low-flying, unpressurized aircraft that often encountered turbulence. With post-War pressurized aircraft flying above the weather, and new fashion-designer outfits, slip-on shoes became a more stylish accessory. High-heel pumps were issued or designated for purchase by the 1950s, particularly the popular two-tone “spectator” shoe. Custom colored pumps and platform shoes, and modish knee-high boots completed many of the more daring uniform fashions of the 1960s and ‘70s. Such attention to footwear is still practiced by designers like Vivienne Westwood, whose Virgin Atlantic uniform offers heels in three heights. #crewlife #fashion #shoes  See more fashion in \"#FashionInFlight: A History of Airline Uniform Design\" located, pre-security, in the International Terminal. http://bit.ly/fashioninflight  United Air Lines stewardesses  1960s photograph Collection of United Airlines Archive R2016.0307.010",
        "excerpt": "Early airline uniforms were worn with shoes that complied with a designated type of footwear, and they were purchased individually.",
        "hashtags": [],
        "users": []
      },
      "media_id": "60773fa9f6b0bb301ee811c11f78fc1e",
      "path": "media/other/14677422_1875250429376440_1544373285049860096_n_17863620934020836.jpg",
      "perceptual_hash": "p:eddb96b48f8c4244",
      "taken": 1476901500,
      "taken_at": "Oct 19, 2016 6:25 pm"
    },
    "millsfield:similar": {
      "google/siglip2-so400m-patch16-naflex": [
        {
          "distance": 0.1455613374710083,
          "id": 1729359743
        },
        {
          "distance": 0.15111929178237915,
          "id": 1729360551
        },
        {
          "distance": 0.15947169065475464,
          "id": 1729361795
        },
        {
          "distance": 0.1652998924255371,
          "id": 1729359113
        },
        {
          "distance": 0.16598498821258545,
          "id": 1729359985
        },
        {
          "distance": 0.16655373573303223,
          "id": 1729360261
        },
        {
          "distance": 0.1734776496887207,
          "id": 1729360261
        },
        {
          "distance": 0.17421013116836548,
          "id": 1729359743
        },
        {
          "distance": 0.17627012729644775,
          "id": 1729360551
        },
        {
          "distance": 0.1778712272644043,
          "id": 1729360253
        }
      ]
    },
    "sfomuseum:placetype": "instagram",
    "src:geom": "sfomuseum",
    "wof:belongsto": [
      1159160869,
      102527513,
      102191575,
      85633793,
      102087579,
      85922583,
      85688637
    ],
    "wof:country": "US",
    "wof:created": 1476901500,
    "wof:geomhash": "b6e33f47475d56bc8da457bc31afadc8",
    "wof:hierarchy": [
      {
        "building_id": 1159160869,
        "campus_id": 102527513,
        "continent_id": 102191575,
        "country_id": 85633793,
        "county_id": 102087579,
        "custom_id": 1729360211,
        "instagram_id": 1729360211,
        "locality_id": 85922583,
        "neighbourhood_id": -1,
        "region_id": 85688637
      }
    ],
    "wof:id": 1729360211,
    "wof:lastmodified": 1787777639,
    "wof:name": "Early airline uniforms were worn with shoes that complied with a designated type of footwear, and they were purchased individually...",
    "wof:parent_id": 1159160869,
    "wof:placetype": "custom",
    "wof:placetype_alt": [
      "instagram"
    ],
    "wof:repo": "sfomuseum-data-socialmedia-instagram",
    "wof:superseded_by": [],
    "wof:supersedes": []
  },
  "bbox": [
    -122.386166,
    37.616356,
    -122.386166,
    37.616356
  ],
  "geometry": {"type":"Point","coordinates":[-122.386166,37.616356]}
}
