{
  "id": 1729359931,
  "type": "Feature",
  "properties": {
    "date:cessation_lower": "2017-01-10",
    "date:cessation_upper": "2017-01-10",
    "date:inception_lower": "2017-01-10",
    "date:inception_upper": "2017-01-10",
    "edtf:cessation": "2017-01-10T12:12:00-08:00",
    "edtf:inception": "2017-01-10T12:12:00-08:00",
    "geom:area": 0,
    "geom:bbox": "-122.386166,37.616356,-122.386166,37.616356",
    "geom:latitude": 37.616356,
    "geom:longitude": -122.386166,
    "instagram:post": {
      "caption": {
        "body": "",
        "excerpt": "",
        "hashtags": [
          "TravelTuesday",
          "AvGeek",
          "AviationHistory",
          "London",
          "BOAC",
          "BEA",
          "BritishAirways"
        ],
        "users": []
      },
      "media_id": "1992bc804396919a739d5dc8ce473195",
      "path": "media/posts/201701/15877242_407101209681395_7471100056683151360_n_17846887090193864.jpg",
      "perceptual_hash": "p:bd694c67d3926990",
      "taken": 1484079120,
      "taken_at": "Jan 10, 2017 8:12 pm"
    },
    "millsfield:similar": {
      "google/siglip2-so400m-patch16-naflex": [
        {
          "distance": 0.3048953413963318,
          "id": 1763558989
        },
        {
          "distance": 0.31747889518737793,
          "id": 1729361989
        },
        {
          "distance": 0.34169429540634155,
          "id": 1729355197
        },
        {
          "distance": 0.34464454650878906,
          "id": 1729359015
        },
        {
          "distance": 0.3458966612815857,
          "id": 1729360099
        },
        {
          "distance": 0.3499619960784912,
          "id": 1729360867
        },
        {
          "distance": 0.3502814769744873,
          "id": 1729359319
        },
        {
          "distance": 0.350502073764801,
          "id": 1729357961
        },
        {
          "distance": 0.35529589653015137,
          "id": 1729361989
        },
        {
          "distance": 0.3651268482208252,
          "id": 1729358193
        }
      ]
    },
    "sfomuseum:placetype": "instagram",
    "src:geom": "sfomuseum",
    "wof:belongsto": [
      1159160869,
      102527513,
      102191575,
      85633793,
      102087579,
      85922583,
      85688637
    ],
    "wof:country": "US",
    "wof:created": 1484079120,
    "wof:geomhash": "b6e33f47475d56bc8da457bc31afadc8",
    "wof:hierarchy": [
      {
        "building_id": 1159160869,
        "campus_id": 102527513,
        "continent_id": 102191575,
        "country_id": 85633793,
        "county_id": 102087579,
        "custom_id": 1729359931,
        "instagram_id": 1729359931,
        "locality_id": 85922583,
        "neighbourhood_id": -1,
        "region_id": 85688637
      }
    ],
    "wof:id": 1729359931,
    "wof:lastmodified": 1787777637,
    "wof:name": "..",
    "wof:parent_id": 1159160869,
    "wof:placetype": "custom",
    "wof:placetype_alt": [
      "instagram"
    ],
    "wof:repo": "sfomuseum-data-socialmedia-instagram",
    "wof:superseded_by": [],
    "wof:supersedes": []
  },
  "bbox": [
    -122.386166,
    37.616356,
    -122.386166,
    37.616356
  ],
  "geometry": {"type":"Point","coordinates":[-122.386166,37.616356]}
}
