{
  "id": 1880150937,
  "type": "Feature",
  "properties": {
    "date:cessation_lower": "2023-05-01",
    "date:cessation_upper": "2023-05-01",
    "date:inception_lower": "2023-05-01",
    "date:inception_upper": "2023-05-01",
    "edtf:cessation": "2023-05-01T08:57:00-07:00",
    "edtf:inception": "2023-05-01T08:57:00-07:00",
    "geom:area": 0,
    "geom:bbox": "-122.386166,37.616356,-122.386166,37.616356",
    "geom:latitude": 37.616356,
    "geom:longitude": -122.386166,
    "instagram:post": {
      "caption": {
        "body": "Colombian-Belgian Annabelle Lopez Ochoa (b. 1973) trained at the Royal Ballet School of Antwerp, Belgium. She danced for twelve years before becoming a choreographer in 2003. Her varied repertoire includes short conceptual pieces, full-length narratives, and dance films. Lopez Ochoa has created works for over seventy dance companies worldwide, including 𝘍𝘳𝘪𝘥𝘢 for the Dutch National Ballet (2020), which explores the life of Mexican painter Frida Kahlo. She is currently working on her first evening-length work for Ballet Hispánico in New York, 𝘋𝘰𝘯̃𝘢 𝘗𝘦𝘳𝘰́𝘯, which portrays the life of Argentinean former First Lady Eva Perón. In 2019, she received the prestigious Jacob’s Pillow Dance Award; she currently lives in Amsterdam.  In the choreography for her ballet, 𝘎𝘶𝘦𝘳𝘯𝘪𝘤𝘢, Lopez Ochoa sought to answer the question “How do you put cubism into movement?” She created cubist effects by arranging dancers into poses, so that the brain appears to see four heads and only two legs.  Special thank you to San Francisco Ballet for making this exhibition possible. See “San Francisco Ballet at 90” on display, pre-security, in the International Terminal and online at: https://bit.ly/SFBalletAt90",
        "excerpt": "Colombian-Belgian Annabelle Lopez Ochoa (b.",
        "hashtags": [
          "SFBalletAt90",
          "ballet",
          "AnnabelleLopezOchoa"
        ],
        "users": [
          "[17841400636420223:@sfballet]"
        ]
      },
      "media_id": "3b4101e3925c18addd91cacfe8bc64e5ceaf95b0",
      "path": "media/posts/202305/344054102_129993773397102_1145704866813393702_n_17854487264959682.jpg",
      "perceptual_hash": "p:d89986acfcd2922d",
      "taken": 1682956620,
      "taken_at": "May 01, 2023 3:57 pm"
    },
    "millsfield:similar": {
      "google/siglip2-so400m-patch16-naflex": [
        {
          "distance": 0.07192385196685791,
          "id": 1880150971
        },
        {
          "distance": 0.1091681718826294,
          "id": 1880150907
        },
        {
          "distance": 0.12893974781036377,
          "id": 1880150971
        },
        {
          "distance": 0.1456546187400818,
          "id": 1947425261
        },
        {
          "distance": 0.15447109937667847,
          "id": 1880150907
        },
        {
          "distance": 0.15493261814117432,
          "id": 1947425219
        },
        {
          "distance": 0.1567506194114685,
          "id": 1947425307
        },
        {
          "distance": 0.15896570682525635,
          "id": 1880150997
        },
        {
          "distance": 0.16811609268188477,
          "id": 1947425261
        },
        {
          "distance": 0.17725515365600586,
          "id": 1947425219
        }
      ]
    },
    "sfomuseum:placetype": "instagram",
    "src:geom": "sfomuseum",
    "wof:belongsto": [
      1159160869,
      102527513,
      102191575,
      85633793,
      102087579,
      85922583,
      85688637
    ],
    "wof:country": "US",
    "wof:created": 1682956620,
    "wof:geomhash": "b6e33f47475d56bc8da457bc31afadc8",
    "wof:hierarchy": [
      {
        "building_id": 1159160869,
        "campus_id": 102527513,
        "continent_id": 102191575,
        "country_id": 85633793,
        "county_id": 102087579,
        "custom_id": 1880150937,
        "instagram_id": 1880150937,
        "locality_id": 85922583,
        "neighbourhood_id": -1,
        "region_id": 85688637
      }
    ],
    "wof:id": 1880150937,
    "wof:lastmodified": 1787777661,
    "wof:name": "Colombian-Belgian Annabelle Lopez Ochoa (b...",
    "wof:parent_id": 1159160869,
    "wof:placetype": "custom",
    "wof:placetype_alt": [
      "instagram"
    ],
    "wof:repo": "sfomuseum-data-socialmedia-instagram",
    "wof:superseded_by": [],
    "wof:supersedes": []
  },
  "bbox": [
    -122.386166,
    37.616356,
    -122.386166,
    37.616356
  ],
  "geometry": {"type":"Point","coordinates":[-122.386166,37.616356]}
}
