{
  "id": 1729361787,
  "type": "Feature",
  "properties": {
    "date:cessation_lower": "2015-05-11",
    "date:cessation_upper": "2015-05-11",
    "date:inception_lower": "2015-05-11",
    "date:inception_upper": "2015-05-11",
    "edtf:cessation": "2015-05-11T07:29:00-07:00",
    "edtf:inception": "2015-05-11T07:29:00-07:00",
    "geom:area": 0,
    "geom:bbox": "-122.386166,37.616356,-122.386166,37.616356",
    "geom:latitude": 37.616356,
    "geom:longitude": -122.386166,
    "instagram:post": {
      "caption": {
        "body": "",
        "excerpt": "",
        "hashtags": [
          "Tushanwan",
          "pagoda"
        ],
        "users": []
      },
      "media_id": "8028c78538cf90e40a60b93258244989",
      "path": "media/other/11226787_1647022882194715_1694025447_n_17841612733062499.jpg",
      "perceptual_hash": "p:be7a630cc790e0ec",
      "taken": 1431354540,
      "taken_at": "May 11, 2015 2:29 pm"
    },
    "millsfield:similar": {
      "google/siglip2-so400m-patch16-naflex": [
        {
          "distance": 0.2382083535194397,
          "id": 1729361473
        },
        {
          "distance": 0.2508317232131958,
          "id": 1729361683
        },
        {
          "distance": 0.2798256278038025,
          "id": 1729362113
        },
        {
          "distance": 0.3047438859939575,
          "id": 1729362207
        },
        {
          "distance": 0.30736976861953735,
          "id": 1729359915
        },
        {
          "distance": 0.30752402544021606,
          "id": 1729361705
        },
        {
          "distance": 0.3146821856498718,
          "id": 1729361771
        },
        {
          "distance": 0.31878674030303955,
          "id": 1729361683
        },
        {
          "distance": 0.31987255811691284,
          "id": 1729362613
        },
        {
          "distance": 0.32106178998947144,
          "id": 1729361755
        }
      ]
    },
    "sfomuseum:placetype": "instagram",
    "src:geom": "sfomuseum",
    "wof:belongsto": [
      1159160869,
      102527513,
      102191575,
      85633793,
      102087579,
      85922583,
      85688637
    ],
    "wof:country": "US",
    "wof:created": 1431354540,
    "wof:geomhash": "b6e33f47475d56bc8da457bc31afadc8",
    "wof:hierarchy": [
      {
        "building_id": 1159160869,
        "campus_id": 102527513,
        "continent_id": 102191575,
        "country_id": 85633793,
        "county_id": 102087579,
        "custom_id": 1729361787,
        "instagram_id": 1729361787,
        "locality_id": 85922583,
        "neighbourhood_id": -1,
        "region_id": 85688637
      }
    ],
    "wof:id": 1729361787,
    "wof:lastmodified": 1787777646,
    "wof:name": "..",
    "wof:parent_id": 1159160869,
    "wof:placetype": "custom",
    "wof:placetype_alt": [
      "instagram"
    ],
    "wof:repo": "sfomuseum-data-socialmedia-instagram",
    "wof:superseded_by": [],
    "wof:supersedes": []
  },
  "bbox": [
    -122.386166,
    37.616356,
    -122.386166,
    37.616356
  ],
  "geometry": {"type":"Point","coordinates":[-122.386166,37.616356]}
}
