{
  "id": 1729358877,
  "type": "Feature",
  "properties": {
    "date:cessation_lower": "2017-11-30",
    "date:cessation_upper": "2017-11-30",
    "date:inception_lower": "2017-11-30",
    "date:inception_upper": "2017-11-30",
    "edtf:cessation": "2017-11-30T07:36:00-08:00",
    "edtf:inception": "2017-11-30T07:36:00-08:00",
    "geom:area": 0,
    "geom:bbox": "-122.386166,37.616356,-122.386166,37.616356",
    "geom:latitude": 37.616356,
    "geom:longitude": -122.386166,
    "instagram:post": {
      "caption": {
        "body": "Among the early photos of SFO is this picture of United Air Lines' modest ticket counter in the airport's original administrative building.  See more photos from United Airlines' beginnings in \"Flying the Main Line: A History of United Airlines\", on display, post-security, in Terminal 3. http://bit.ly/TheMainLine  Image: San Francisco Airport, United Air Lines desk, 1934. Collection of the San Francisco Public Library, San Francisco, California. 1995.87.31 a ",
        "excerpt": "Among the early photos of SFO is this picture of United Air Lines' modest ticket counter in the airport's original administrative building.",
        "hashtags": [
          "FlyingTheMainLine",
          "ThrowbackThursday",
          "TheMainLine",
          "avgeek",
          "united",
          "aviationhistory",
          "unitedairlines",
          "aviationgeek",
          "aviation",
          "sfohistory"
        ],
        "users": []
      },
      "media_id": "ddd88836dc6e0b3de51c468a46197292",
      "path": "media/other/24174840_777135895830503_1106284589338329088_n_17886349669132615.jpg",
      "perceptual_hash": "p:ba94cda990d4d547",
      "taken": 1512056160,
      "taken_at": "Nov 30, 2017 3:36 pm"
    },
    "millsfield:similar": {
      "google/siglip2-so400m-patch16-naflex": [
        {
          "distance": 0.21844017505645752,
          "id": 1729358405
        },
        {
          "distance": 0.2223469614982605,
          "id": 1729355419
        },
        {
          "distance": 0.2282857894897461,
          "id": 1729360279
        },
        {
          "distance": 0.236922025680542,
          "id": 1729360607
        },
        {
          "distance": 0.23867082595825195,
          "id": 1729357969
        },
        {
          "distance": 0.24053287506103516,
          "id": 1763559241
        },
        {
          "distance": 0.24550098180770874,
          "id": 1729355165
        },
        {
          "distance": 0.24696266651153564,
          "id": 1763559505
        },
        {
          "distance": 0.247103750705719,
          "id": 1763559131
        },
        {
          "distance": 0.24766206741333008,
          "id": 1729355091
        }
      ]
    },
    "sfomuseum:placetype": "instagram",
    "src:geom": "sfomuseum",
    "wof:belongsto": [
      1159160869,
      102527513,
      102191575,
      85633793,
      102087579,
      85922583,
      85688637
    ],
    "wof:country": "US",
    "wof:created": 1512056160,
    "wof:geomhash": "b6e33f47475d56bc8da457bc31afadc8",
    "wof:hierarchy": [
      {
        "building_id": 1159160869,
        "campus_id": 102527513,
        "continent_id": 102191575,
        "country_id": 85633793,
        "county_id": 102087579,
        "custom_id": 1729358877,
        "instagram_id": 1729358877,
        "locality_id": 85922583,
        "neighbourhood_id": -1,
        "region_id": 85688637
      }
    ],
    "wof:id": 1729358877,
    "wof:lastmodified": 1787777634,
    "wof:name": "Among the early photos of SFO is this picture of United Air Lines' modest ticket counter in the airport's original administrative building...",
    "wof:parent_id": 1159160869,
    "wof:placetype": "custom",
    "wof:placetype_alt": [
      "instagram"
    ],
    "wof:repo": "sfomuseum-data-socialmedia-instagram",
    "wof:superseded_by": [],
    "wof:supersedes": []
  },
  "bbox": [
    -122.386166,
    37.616356,
    -122.386166,
    37.616356
  ],
  "geometry": {"type":"Point","coordinates":[-122.386166,37.616356]}
}
