{
  "id": 1729355289,
  "type": "Feature",
  "properties": {
    "date:cessation_lower": "2020-05-04",
    "date:cessation_upper": "2020-05-04",
    "date:inception_lower": "2020-05-04",
    "date:inception_upper": "2020-05-04",
    "edtf:cessation": "2020-05-04T05:17:00-07:00",
    "edtf:inception": "2020-05-04T05:17:00-07:00",
    "geom:area": 0,
    "geom:bbox": "-122.386166,37.616356,-122.386166,37.616356",
    "geom:latitude": 37.616356,
    "geom:longitude": -122.386166,
    "instagram:post": {
      "caption": {
        "body": "Happy #BirdDay from our public art collection! The work featured here is by the artists Bob Zoell, Walter Kitundu, Hung Liu, and Rupert Garcia. Check out our website for locations and more information: https://bit.ly/2ygLHCx",
        "excerpt": "Happy #BirdDay from our public art collection!",
        "hashtags": [],
        "users": []
      },
      "media_id": "60a5b204da12e399fba9040d16e13452",
      "path": "media/posts/202005/95489440_828617817546568_783807147060935458_n_17860987207870010.jpg",
      "perceptual_hash": "p:f9a01f86855b87c6",
      "taken": 1588594620,
      "taken_at": "May 04, 2020 12:17 pm"
    },
    "millsfield:similar": {
      "google/siglip2-so400m-patch16-naflex": [
        {
          "distance": 0.010886788368225098,
          "id": 1729357759
        },
        {
          "distance": 0.10554385185241699,
          "id": 1729357759
        },
        {
          "distance": 0.21655571460723877,
          "id": 1880151713
        },
        {
          "distance": 0.23612254858016968,
          "id": 1729357999
        },
        {
          "distance": 0.24904972314834595,
          "id": 1729355707
        },
        {
          "distance": 0.2534661293029785,
          "id": 1880151713
        },
        {
          "distance": 0.2564215064048767,
          "id": 1763558931
        },
        {
          "distance": 0.2569854259490967,
          "id": 1763559555
        },
        {
          "distance": 0.2617930769920349,
          "id": 1729355723
        },
        {
          "distance": 0.2651457190513611,
          "id": 1729359429
        }
      ]
    },
    "sfomuseum:placetype": "instagram",
    "src:geom": "sfomuseum",
    "wof:belongsto": [
      1159160869,
      102527513,
      102191575,
      85633793,
      102087579,
      85922583,
      85688637
    ],
    "wof:country": "US",
    "wof:created": 1588594620,
    "wof:geomhash": "b6e33f47475d56bc8da457bc31afadc8",
    "wof:hierarchy": [
      {
        "building_id": 1159160869,
        "campus_id": 102527513,
        "continent_id": 102191575,
        "country_id": 85633793,
        "county_id": 102087579,
        "custom_id": 1729355289,
        "instagram_id": 1729355289,
        "locality_id": 85922583,
        "neighbourhood_id": -1,
        "region_id": 85688637
      }
    ],
    "wof:id": 1729355289,
    "wof:lastmodified": 1787777622,
    "wof:name": "Happy #BirdDay from our public art collection!..",
    "wof:parent_id": 1159160869,
    "wof:placetype": "custom",
    "wof:placetype_alt": [
      "instagram"
    ],
    "wof:repo": "sfomuseum-data-socialmedia-instagram",
    "wof:superseded_by": [],
    "wof:supersedes": []
  },
  "bbox": [
    -122.386166,
    37.616356,
    -122.386166,
    37.616356
  ],
  "geometry": {"type":"Point","coordinates":[-122.386166,37.616356]}
}
