{
  "id": 1763558611,
  "type": "Feature",
  "properties": {
    "date:cessation_lower": "2015-12-31",
    "date:cessation_upper": "2015-12-31",
    "date:inception_lower": "2015-12-31",
    "date:inception_upper": "2015-12-31",
    "edtf:cessation": "2015-12-31T03:02:00-08:00",
    "edtf:inception": "2015-12-31T03:02:00-08:00",
    "geom:area": 0,
    "geom:bbox": "-122.386166,37.616356,-122.386166,37.616356",
    "geom:latitude": 37.616356,
    "geom:longitude": -122.386166,
    "instagram:post": {
      "caption": {
        "body": "Happy New Year! We hope you have a sparkling start to the new year! The Aviation Museum and Library will be closed tomorrow, but all other exhibits around the airport are open!  TranStar Airlines brochure c. 1986  SFO Museum Collection Gift of David Winckoski 2011.195.075",
        "excerpt": "Happy New Year!",
        "hashtags": [],
        "users": []
      },
      "media_id": "0379deee192af1051397d047481bdcde9af3973e",
      "path": "media/other/12393758_102735850105076_640906759_n_17844091834091512.jpg",
      "perceptual_hash": "p:9ecc316163999ace",
      "taken": 1451559720,
      "taken_at": "Dec 31, 2015 11:02 am"
    },
    "millsfield:similar": {
      "google/siglip2-so400m-patch16-naflex": [
        {
          "distance": 0.000023126602172851562,
          "id": 1729361207
        },
        {
          "distance": 0.03895300626754761,
          "id": 1763558941
        },
        {
          "distance": 0.16739845275878906,
          "id": 1729361207
        },
        {
          "distance": 0.16765213012695312,
          "id": 1763558941
        },
        {
          "distance": 0.4505194425582886,
          "id": 1729360181
        },
        {
          "distance": 0.4831976294517517,
          "id": 1729360075
        },
        {
          "distance": 0.4869508743286133,
          "id": 1729358765
        },
        {
          "distance": 0.4878517985343933,
          "id": 1763558679
        },
        {
          "distance": 0.48931384086608887,
          "id": 1729360075
        },
        {
          "distance": 0.49544090032577515,
          "id": 1947425177
        }
      ]
    },
    "sfomuseum:placetype": "instagram",
    "src:geom": "sfomuseum",
    "wof:belongsto": [
      1159160869,
      102527513,
      102191575,
      85633793,
      102087579,
      85922583,
      85688637
    ],
    "wof:country": "US",
    "wof:created": 1451559720,
    "wof:geomhash": "b6e33f47475d56bc8da457bc31afadc8",
    "wof:hierarchy": [
      {
        "building_id": 1159160869,
        "campus_id": 102527513,
        "continent_id": 102191575,
        "country_id": 85633793,
        "county_id": 102087579,
        "custom_id": 1763558611,
        "instagram_id": 1763558611,
        "locality_id": 85922583,
        "neighbourhood_id": -1,
        "region_id": 85688637
      }
    ],
    "wof:id": 1763558611,
    "wof:lastmodified": 1787777658,
    "wof:name": "Happy New Year!..",
    "wof:parent_id": 1159160869,
    "wof:placetype": "custom",
    "wof:placetype_alt": [
      "instagram"
    ],
    "wof:repo": "sfomuseum-data-socialmedia-instagram",
    "wof:superseded_by": [],
    "wof:supersedes": []
  },
  "bbox": [
    -122.386166,
    37.616356,
    -122.386166,
    37.616356
  ],
  "geometry": {"type":"Point","coordinates":[-122.386166,37.616356]}
}
