{
  "id": 1763559613,
  "type": "Feature",
  "properties": {
    "date:cessation_lower": "2022-02-09",
    "date:cessation_upper": "2022-02-09",
    "date:inception_lower": "2022-02-09",
    "date:inception_upper": "2022-02-09",
    "edtf:cessation": "2022-02-09T08:25:00-08:00",
    "edtf:inception": "2022-02-09T08:25:00-08:00",
    "geom:area": 0,
    "geom:bbox": "-122.386166,37.616356,-122.386166,37.616356",
    "geom:latitude": 37.616356,
    "geom:longitude": -122.386166,
    "instagram:post": {
      "caption": {
        "body": "Have you visited our new aviation collections website? With over 35,000 objects available to browse, our online database features a selection of digitized materials from our museum, archive, and library collections. More objects are added on an ongoing basis. Check out over 100 model airplanes on our online database!  https://bit.ly/34laJ2T",
        "excerpt": "Have you visited our new aviation collections website?",
        "hashtags": [
          "museumlife",
          "avgeek"
        ],
        "users": []
      },
      "media_id": "4d8bc4944d75c88e5df438637026b3573a02d98e",
      "path": "media/other/273466497_1669388690071875_4132012082391407220_n_17914873715337162.jpg",
      "perceptual_hash": "p:e70d59361be62619",
      "taken": 1644423900,
      "taken_at": "Feb 09, 2022 4:25 pm"
    },
    "millsfield:similar": {
      "google/siglip2-so400m-patch16-naflex": [
        {
          "distance": 0.10167652368545532,
          "id": 1729357673
        },
        {
          "distance": 0.12608027458190918,
          "id": 1729357945
        },
        {
          "distance": 0.13312280178070068,
          "id": 1729357673
        },
        {
          "distance": 0.13358408212661743,
          "id": 1729357183
        },
        {
          "distance": 0.14103561639785767,
          "id": 1729358869
        },
        {
          "distance": 0.14688611030578613,
          "id": 1763558711
        },
        {
          "distance": 0.14688611030578613,
          "id": 1729359003
        },
        {
          "distance": 0.14733314514160156,
          "id": 1729357183
        },
        {
          "distance": 0.15292781591415405,
          "id": 1729358011
        },
        {
          "distance": 0.15647244453430176,
          "id": 1729357395
        }
      ]
    },
    "sfomuseum:placetype": "instagram",
    "src:geom": "sfomuseum",
    "wof:belongsto": [
      1159160869,
      102527513,
      102191575,
      85633793,
      102087579,
      85922583,
      85688637
    ],
    "wof:country": "US",
    "wof:created": 1644423900,
    "wof:geomhash": "b6e33f47475d56bc8da457bc31afadc8",
    "wof:hierarchy": [
      {
        "building_id": 1159160869,
        "campus_id": 102527513,
        "continent_id": 102191575,
        "country_id": 85633793,
        "county_id": 102087579,
        "custom_id": 1763559613,
        "instagram_id": 1763559613,
        "locality_id": 85922583,
        "neighbourhood_id": -1,
        "region_id": 85688637
      }
    ],
    "wof:id": 1763559613,
    "wof:lastmodified": 1787777660,
    "wof:name": "Have you visited our new aviation collections website?..",
    "wof:parent_id": 1159160869,
    "wof:placetype": "custom",
    "wof:placetype_alt": [
      "instagram"
    ],
    "wof:repo": "sfomuseum-data-socialmedia-instagram",
    "wof:superseded_by": [],
    "wof:supersedes": []
  },
  "bbox": [
    -122.386166,
    37.616356,
    -122.386166,
    37.616356
  ],
  "geometry": {"type":"Point","coordinates":[-122.386166,37.616356]}
}
