{
  "id": 1880151155,
  "type": "Feature",
  "properties": {
    "date:cessation_lower": "2023-02-01",
    "date:cessation_upper": "2023-02-01",
    "date:inception_lower": "2023-02-01",
    "date:inception_upper": "2023-02-01",
    "edtf:cessation": "2023-02-01T04:57:00-08:00",
    "edtf:inception": "2023-02-01T04:57:00-08:00",
    "geom:area": 0,
    "geom:bbox": "-122.386166,37.616356,-122.386166,37.616356",
    "geom:latitude": 37.616356,
    "geom:longitude": -122.386166,
    "instagram:post": {
      "caption": {
        "body": "American soprano Leontyne Price (b. 1927) is beloved for her extraordinary voice and radiant charm. Born in Laurel, Mississippi, Price is an internationally renowned opera performer, concert singer, and Grammy Award-winning recording artist. Price debuted on the stage of a major opera house in September 1957 during a stunning performance as Madame Lidoine in the San Francisco Opera production of French composer Francis Jean Marcel Poulenc's (1899–1963) 𝘋𝘪𝘢𝘭𝘰𝘨𝘶𝘦𝘴 𝘥𝘦𝘴 𝘊𝘢𝘳𝘮é𝘭𝘪𝘵𝘦𝘴 In October, Price sang Italian composer Giuseppe Verdi’s (1813–1901) 𝘈𝘪𝘥𝘢 for the first time in San Francisco, a role that she practiced in the late 1940s as a student at The Julliard School in New York. 𝘈𝘪𝘥𝘢 became one of Price’s famed operas in San Francisco and at the Metropolitan Opera in New York. When she sang at Teatro alla Scala, the legendary opera house in Milan, Italy, for the first time in 1960, Price made her debut with 𝘈𝘪𝘥𝘢. She rescued a San Francisco Opera production of 𝘈𝘪𝘥𝘢 on November 18, 1981, as a last-minute stand-in, and then returned in 1984 for four nights of 𝘈𝘪𝘥𝘢—the final performances of her famous role in San Francisco.  Learn more about San Francisco Opera’s history in our exhibition “San Francisco Opera: A Centennial Celebration” on display, post-security, in Harvey Milk Terminal 1 and online at: https://bit.ly/SFOperaCentennial",
        "excerpt": "American soprano Leontyne Price (b.",
        "hashtags": [
          "BlackHistoryMonth",
          "LeontynePrice"
        ],
        "users": [
          "sfopera"
        ]
      },
      "media_id": "02b0ac74630f64d4fc4b3058031757eaad9f89db",
      "path": "media/posts/202302/328308075_1226960121526240_4469462938544729853_n_17855241422905392.jpg",
      "perceptual_hash": "p:9265ed9a9385ac33",
      "taken": 1675256220,
      "taken_at": "Feb 01, 2023 12:57 pm"
    },
    "millsfield:similar": {
      "google/siglip2-so400m-patch16-naflex": [
        {
          "distance": 0.04251796007156372,
          "id": 1880150883
        },
        {
          "distance": 0.04935795068740845,
          "id": 1947425243
        },
        {
          "distance": 0.05356377363204956,
          "id": 1880151157
        },
        {
          "distance": 0.0640406608581543,
          "id": 1947425303
        },
        {
          "distance": 0.10484302043914795,
          "id": 1880150979
        },
        {
          "distance": 0.12247514724731445,
          "id": 1880150883
        },
        {
          "distance": 0.12579894065856934,
          "id": 1947425243
        },
        {
          "distance": 0.13090091943740845,
          "id": 1947425303
        },
        {
          "distance": 0.13098323345184326,
          "id": 1880151157
        },
        {
          "distance": 0.16183996200561523,
          "id": 1880151011
        }
      ]
    },
    "sfomuseum:placetype": "instagram",
    "src:geom": "sfomuseum",
    "wof:belongsto": [
      1159160869,
      102527513,
      102191575,
      85633793,
      102087579,
      85922583,
      85688637
    ],
    "wof:country": "US",
    "wof:created": 1675256220,
    "wof:geomhash": "b6e33f47475d56bc8da457bc31afadc8",
    "wof:hierarchy": [
      {
        "building_id": 1159160869,
        "campus_id": 102527513,
        "continent_id": 102191575,
        "country_id": 85633793,
        "county_id": 102087579,
        "custom_id": 1880151155,
        "instagram_id": 1880151155,
        "locality_id": 85922583,
        "neighbourhood_id": -1,
        "region_id": 85688637
      }
    ],
    "wof:id": 1880151155,
    "wof:lastmodified": 1787777662,
    "wof:name": "American soprano Leontyne Price (b...",
    "wof:parent_id": 1159160869,
    "wof:placetype": "custom",
    "wof:placetype_alt": [
      "instagram"
    ],
    "wof:repo": "sfomuseum-data-socialmedia-instagram",
    "wof:superseded_by": [],
    "wof:supersedes": []
  },
  "bbox": [
    -122.386166,
    37.616356,
    -122.386166,
    37.616356
  ],
  "geometry": {"type":"Point","coordinates":[-122.386166,37.616356]}
}
