{
  "id": 1729356017,
  "type": "Feature",
  "properties": {
    "date:cessation_lower": "2019-10-08",
    "date:cessation_upper": "2019-10-08",
    "date:inception_lower": "2019-10-08",
    "date:inception_upper": "2019-10-08",
    "edtf:cessation": "2019-10-08T05:18:00-07:00",
    "edtf:inception": "2019-10-08T05:18:00-07:00",
    "geom:area": 0,
    "geom:bbox": "-122.386166,37.616356,-122.386166,37.616356",
    "geom:latitude": 37.616356,
    "geom:longitude": -122.386166,
    "instagram:post": {
      "caption": {
        "body": "Pan American World Airways’ 1948 advertisement in the Saturday Evening Post promoted the luxury of Sleeperette service to Australia and New Zealand with a color illustration of a woman holding a koala. Always read the small print though: the first stop after leaving San Francisco is Hawaii! Have you ever been to Australia or New Zealand?  Image: Pan American World Airways advertisement, Saturday Evening Post, 1948. Gift of Barnaby Conrad III. 2001.038.164.034",
        "excerpt": "Pan American World Airways’ 1948 advertisement in the Saturday Evening Post promoted the luxury of Sleeperette service to Australia and New Zealand with a color illustration of a woman holding a koala.",
        "hashtags": [
          "avgeek",
          "PAA",
          "PanAm",
          "Sleeperette",
          "TravelTuesday",
          "1940s"
        ],
        "users": []
      },
      "media_id": "4794f7d00327fbe3c33c7592e5ba0703",
      "path": "media/other/71774224_528032967962264_4337404169487846046_n_17982064501284707.jpg",
      "perceptual_hash": "p:ea4e9799d4a1c3c2",
      "taken": 1570537080,
      "taken_at": "Oct 08, 2019 12:18 pm"
    },
    "millsfield:similar": {
      "google/siglip2-so400m-patch16-naflex": [
        {
          "distance": 0.1807258129119873,
          "id": 1729357105
        },
        {
          "distance": 0.22941112518310547,
          "id": 1729357105
        },
        {
          "distance": 0.23557806015014648,
          "id": 1729359833
        },
        {
          "distance": 0.27054929733276367,
          "id": 1729360785
        },
        {
          "distance": 0.28151583671569824,
          "id": 1729357279
        },
        {
          "distance": 0.28362345695495605,
          "id": 1729359833
        },
        {
          "distance": 0.2855744957923889,
          "id": 1729360479
        },
        {
          "distance": 0.2951732277870178,
          "id": 1729359527
        },
        {
          "distance": 0.30251115560531616,
          "id": 1729359609
        },
        {
          "distance": 0.30672889947891235,
          "id": 1880150923
        }
      ]
    },
    "sfomuseum:placetype": "instagram",
    "src:geom": "sfomuseum",
    "wof:belongsto": [
      1159160869,
      102527513,
      102191575,
      85633793,
      102087579,
      85922583,
      85688637
    ],
    "wof:country": "US",
    "wof:created": 1570537080,
    "wof:geomhash": "b6e33f47475d56bc8da457bc31afadc8",
    "wof:hierarchy": [
      {
        "building_id": 1159160869,
        "campus_id": 102527513,
        "continent_id": 102191575,
        "country_id": 85633793,
        "county_id": 102087579,
        "custom_id": 1729356017,
        "instagram_id": 1729356017,
        "locality_id": 85922583,
        "neighbourhood_id": -1,
        "region_id": 85688637
      }
    ],
    "wof:id": 1729356017,
    "wof:lastmodified": 1787777627,
    "wof:name": "Pan American World Airways’ 1948 advertisement in the Saturday Evening Post promoted the luxury of Sleeperette service to Australia and New Zealand with a color illustration of a woman holding a koala...",
    "wof:parent_id": 1159160869,
    "wof:placetype": "custom",
    "wof:placetype_alt": [
      "instagram"
    ],
    "wof:repo": "sfomuseum-data-socialmedia-instagram",
    "wof:superseded_by": [],
    "wof:supersedes": []
  },
  "bbox": [
    -122.386166,
    37.616356,
    -122.386166,
    37.616356
  ],
  "geometry": {"type":"Point","coordinates":[-122.386166,37.616356]}
}
