{
  "id": 1729356347,
  "type": "Feature",
  "properties": {
    "date:cessation_lower": "2019-07-11",
    "date:cessation_upper": "2019-07-11",
    "date:inception_lower": "2019-07-11",
    "date:inception_upper": "2019-07-11",
    "edtf:cessation": "2019-07-10T17:28:23-07:00",
    "edtf:inception": "2019-07-10T17:28:23-07:00",
    "geom:area": 0,
    "geom:bbox": "-122.386166,37.616356,-122.386166,37.616356",
    "geom:latitude": 37.616356,
    "geom:longitude": -122.386166,
    "instagram:post": {
      "caption": {
        "body": "During the late 1930s, appliances for the office and home underwent a major transformation. Typewriters, once boxy with sharp edges and protruding parts, metamorphosed into machines with smooth, flowing appearances. The Remington Rand Streamliner was designed by John Adam Zellers (1873–1954) and Herbert E. Bridgewater (1878–1970) with an external rounded housing reminiscent of a streamlined plane or train, as its name suggests. \"Streamlines: Air Age Aesthetics for Industrial Design\" is on display, pre-security, in the Aviation Museum and Library in the International Terminal. http://bit.ly/Streamlines",
        "excerpt": "During the late 1930s, appliances for the office and home underwent a major transformation.",
        "hashtags": [
          "StreamlinesAesthetics",
          "streamline",
          "design",
          "industrialdesign",
          "avgeek",
          "typewriter",
          "1940s",
          "typewriters"
        ],
        "users": []
      },
      "location": "",
      "media_id": "7a6a067f743fece3084644d6ae21ec18",
      "path": "photos/201907/7a6a067f743fece3084644d6ae21ec18.jpg",
      "perceptual_hash": "p:af58842fda704d63",
      "taken": 1562776080,
      "taken_at": "Jul 10, 2019, 4:28 PM"
    },
    "millsfield:similar": {
      "google/siglip2-so400m-patch16-naflex": [
        {
          "distance": 0.04768294095993042,
          "id": 1729356339
        },
        {
          "distance": 0.10617810487747192,
          "id": 1729358859
        },
        {
          "distance": 0.12060302495956421,
          "id": 1729358939
        },
        {
          "distance": 0.12075179815292358,
          "id": 1729356339
        },
        {
          "distance": 0.13600367307662964,
          "id": 1729356331
        },
        {
          "distance": 0.1417759656906128,
          "id": 1729359001
        },
        {
          "distance": 0.15378683805465698,
          "id": 1729358989
        },
        {
          "distance": 0.1611132025718689,
          "id": 1729359485
        },
        {
          "distance": 0.17744731903076172,
          "id": 1729359231
        },
        {
          "distance": 0.1804531216621399,
          "id": 1729359179
        }
      ]
    },
    "sfomuseum:placetype": "instagram",
    "src:geom": "sfomuseum",
    "wof:belongsto": [
      1159160869,
      102527513,
      102191575,
      85633793,
      102087579,
      85922583,
      85688637
    ],
    "wof:country": "US",
    "wof:created": 1562804903,
    "wof:geomhash": "b6e33f47475d56bc8da457bc31afadc8",
    "wof:hierarchy": [
      {
        "building_id": 1159160869,
        "campus_id": 102527513,
        "continent_id": 102191575,
        "country_id": 85633793,
        "county_id": 102087579,
        "custom_id": 1729356347,
        "instagram_id": 1729356347,
        "locality_id": 85922583,
        "neighbourhood_id": -1,
        "region_id": 85688637
      }
    ],
    "wof:id": 1729356347,
    "wof:lastmodified": 1787777629,
    "wof:name": "During the late 1930s, appliances for the office and home underwent a major transformation...",
    "wof:parent_id": 1159160869,
    "wof:placetype": "custom",
    "wof:placetype_alt": [
      "instagram"
    ],
    "wof:repo": "sfomuseum-data-socialmedia-instagram",
    "wof:superseded_by": [],
    "wof:supersedes": []
  },
  "bbox": [
    -122.386166,
    37.616356,
    -122.386166,
    37.616356
  ],
  "geometry": {"type":"Point","coordinates":[-122.386166,37.616356]}
}
