{
  "id": 1729359487,
  "type": "Feature",
  "properties": {
    "date:cessation_lower": "2017-05-22",
    "date:cessation_upper": "2017-05-22",
    "date:inception_lower": "2017-05-22",
    "date:inception_upper": "2017-05-22",
    "edtf:cessation": "2017-05-22T01:24:00-07:00",
    "edtf:inception": "2017-05-22T01:24:00-07:00",
    "geom:area": 0,
    "geom:bbox": "-122.386166,37.616356,-122.386166,37.616356",
    "geom:latitude": 37.616356,
    "geom:longitude": -122.386166,
    "instagram:post": {
      "caption": {
        "body": "In Hong Kong, buildings are wrapped in colorful nylon mesh to protect the streets below from the dust and debris generated by construction. While this construction technique serves as a practical safety measure, it also produces an aesthetically appealing result: under a cloak of scrim, buildings that will soon fit neatly into their ubiquitous surroundings transform into shockingly visible, candy-colored monoliths. Choosing to work only on cloudy days, the artist uses the soft light of an overcast sky to intensify the various hues of the colorful structures. In his series \"Cocoons\", photographer #PeterSteinhauer catalogs these monochromatic sites of transformation.  See \"Cocoons\" by #PeterSteinhauer, post-security, in Terminal 1. http://bit.ly/2p5nEAq",
        "excerpt": "In Hong Kong, buildings are wrapped in colorful nylon mesh to protect the streets below from the dust and debris generated by construction.",
        "hashtags": [],
        "users": []
      },
      "media_id": "e104f7ff0a3cc3987b7daaf09b534886",
      "path": "media/posts/201705/18645595_463249500680950_724729276833726464_n_17868033277086340.jpg",
      "perceptual_hash": "p:97d781482c5a3f93",
      "taken": 1495441440,
      "taken_at": "May 22, 2017 8:24 am"
    },
    "millsfield:similar": {
      "google/siglip2-so400m-patch16-naflex": [
        {
          "distance": 0.2930932641029358,
          "id": 1729357237
        },
        {
          "distance": 0.2964531183242798,
          "id": 1729357237
        },
        {
          "distance": 0.30246323347091675,
          "id": 1729356113
        },
        {
          "distance": 0.3032070994377136,
          "id": 1729360049
        },
        {
          "distance": 0.3085232377052307,
          "id": 1729360049
        },
        {
          "distance": 0.3118894100189209,
          "id": 1729357233
        },
        {
          "distance": 0.3215019702911377,
          "id": 1729360865
        },
        {
          "distance": 0.3245490789413452,
          "id": 1729357231
        },
        {
          "distance": 0.3300037384033203,
          "id": 1729357231
        },
        {
          "distance": 0.3301529288291931,
          "id": 1729360873
        }
      ]
    },
    "sfomuseum:placetype": "instagram",
    "src:geom": "sfomuseum",
    "wof:belongsto": [
      1159160869,
      102527513,
      102191575,
      85633793,
      102087579,
      85922583,
      85688637
    ],
    "wof:country": "US",
    "wof:created": 1495441440,
    "wof:geomhash": "b6e33f47475d56bc8da457bc31afadc8",
    "wof:hierarchy": [
      {
        "building_id": 1159160869,
        "campus_id": 102527513,
        "continent_id": 102191575,
        "country_id": 85633793,
        "county_id": 102087579,
        "custom_id": 1729359487,
        "instagram_id": 1729359487,
        "locality_id": 85922583,
        "neighbourhood_id": -1,
        "region_id": 85688637
      }
    ],
    "wof:id": 1729359487,
    "wof:lastmodified": 1787777636,
    "wof:name": "In Hong Kong, buildings are wrapped in colorful nylon mesh to protect the streets below from the dust and debris generated by construction...",
    "wof:parent_id": 1159160869,
    "wof:placetype": "custom",
    "wof:placetype_alt": [
      "instagram"
    ],
    "wof:repo": "sfomuseum-data-socialmedia-instagram",
    "wof:superseded_by": [],
    "wof:supersedes": []
  },
  "bbox": [
    -122.386166,
    37.616356,
    -122.386166,
    37.616356
  ],
  "geometry": {"type":"Point","coordinates":[-122.386166,37.616356]}
}
