{
  "id": 1729358061,
  "type": "Feature",
  "properties": {
    "date:cessation_lower": "2018-06-28",
    "date:cessation_upper": "2018-06-28",
    "date:inception_lower": "2018-06-28",
    "date:inception_upper": "2018-06-28",
    "edtf:cessation": "2018-06-27T19:41:27-07:00",
    "edtf:inception": "2018-06-27T19:41:27-07:00",
    "geom:area": 0,
    "geom:bbox": "-122.386166,37.616356,-122.386166,37.616356",
    "geom:latitude": 37.616356,
    "geom:longitude": -122.386166,
    "instagram:post": {
      "caption": {
        "body": "In recognition of the sixty-fifth anniversary of the Korean Armistice Agreement, which led to the cessation of hostilities on the Korean Peninsula, San Francisco International Airport is proud to present a photographic survey of the San Francisco Korean War Memorial. In 2009, the Korean War Memorial Foundation, a non-profit organization, undertook the mission to design and build a Korean War memorial in San Francisco to commemorate the sacrifices made by those who fought in the so-called “Forgotten War,” educate future generations about those sacrifices, and ensure that those generations never forget the true cost of war. The memorial was completed and officially opened to the public in August of 2016. Have you ever been to the Korean War Memorial in San Francisco?  See photographs from \"San Francisco Korean War Memorial\" on display, pre-security, on the departures level of Terminal 3. http://bit.ly/2ymCPdF",
        "excerpt": "In recognition of the sixty-fifth anniversary of the Korean Armistice Agreement, which led to the cessation of hostilities on the Korean Peninsula, San Francisco International Airport is proud to present a photographic survey of the San Francisco Korean War Memorial.",
        "hashtags": [
          "koreanwar",
          "koreanwarmemorial",
          "memorial",
          "photography",
          "SanFrancisco"
        ],
        "users": []
      },
      "location": "",
      "media_id": "b1c26b4aa0d1d080a3fae3d30505ad8a",
      "path": "photos/201806/b1c26b4aa0d1d080a3fae3d30505ad8a.jpg",
      "perceptual_hash": "p:c078fc7e7280817f",
      "taken": 1530124860,
      "taken_at": "Jun 27, 2018, 6:41 PM"
    },
    "millsfield:similar": {
      "google/siglip2-so400m-patch16-naflex": [
        {
          "distance": 0.19943374395370483,
          "id": 1729358059
        },
        {
          "distance": 0.25045275688171387,
          "id": 1729358053
        },
        {
          "distance": 0.2509903311729431,
          "id": 1729358053
        },
        {
          "distance": 0.34897518157958984,
          "id": 1729359523
        },
        {
          "distance": 0.354736864566803,
          "id": 1729361227
        },
        {
          "distance": 0.36334460973739624,
          "id": 1729357989
        },
        {
          "distance": 0.36394405364990234,
          "id": 1880151719
        },
        {
          "distance": 0.36627453565597534,
          "id": 1729355087
        },
        {
          "distance": 0.36814767122268677,
          "id": 1729360235
        },
        {
          "distance": 0.37040454149246216,
          "id": 1729357593
        }
      ]
    },
    "sfomuseum:placetype": "instagram",
    "src:geom": "sfomuseum",
    "wof:belongsto": [
      1159160869,
      102527513,
      102191575,
      85633793,
      102087579,
      85922583,
      85688637
    ],
    "wof:country": "US",
    "wof:created": 1530153687,
    "wof:geomhash": "b6e33f47475d56bc8da457bc31afadc8",
    "wof:hierarchy": [
      {
        "building_id": 1159160869,
        "campus_id": 102527513,
        "continent_id": 102191575,
        "country_id": 85633793,
        "county_id": 102087579,
        "custom_id": 1729358061,
        "instagram_id": 1729358061,
        "locality_id": 85922583,
        "neighbourhood_id": -1,
        "region_id": 85688637
      }
    ],
    "wof:id": 1729358061,
    "wof:lastmodified": 1787777632,
    "wof:name": "In recognition of the sixty-fifth anniversary of the Korean Armistice Agreement, which led to the cessation of hostilities on the Korean Peninsula, San Francisco International Airport is proud to present a photographic survey of the San Francisco Korean War Memorial...",
    "wof:parent_id": 1159160869,
    "wof:placetype": "custom",
    "wof:placetype_alt": [
      "instagram"
    ],
    "wof:repo": "sfomuseum-data-socialmedia-instagram",
    "wof:superseded_by": [],
    "wof:supersedes": []
  },
  "bbox": [
    -122.386166,
    37.616356,
    -122.386166,
    37.616356
  ],
  "geometry": {"type":"Point","coordinates":[-122.386166,37.616356]}
}
