{
  "id": 1880151321,
  "type": "Feature",
  "properties": {
    "date:cessation_lower": "2022-11-18",
    "date:cessation_upper": "2022-11-18",
    "date:inception_lower": "2022-11-18",
    "date:inception_upper": "2022-11-18",
    "edtf:cessation": "2022-11-18T04:00:00-08:00",
    "edtf:inception": "2022-11-18T04:00:00-08:00",
    "geom:area": 0,
    "geom:bbox": "-122.386166,37.616356,-122.386166,37.616356",
    "geom:latitude": 37.616356,
    "geom:longitude": -122.386166,
    "instagram:post": {
      "caption": {
        "body": "Under construction for three years, the 1954 San Francisco International Airport Terminal building was extensively documented. Browse over one hundred and fifty photos from its construction in our online database: https://bit.ly/3Epbb0a",
        "excerpt": "Under construction for three years, the 1954 San Francisco International Airport Terminal building was extensively documented.",
        "hashtags": [
          "AvGeek",
          "SFOHistory",
          "SFO",
          "MillsFieldSFO"
        ],
        "users": []
      },
      "media_id": "dc233f0a41c1bb83b429a6209150afe5dd759cb8",
      "path": "media/posts/202211/316031346_835395514377842_4825466535369880215_n_17914411433557145.jpg",
      "perceptual_hash": "p:d6e997e20e336419",
      "taken": 1668772800,
      "taken_at": "Nov 18, 2022 12:00 pm"
    },
    "millsfield:similar": {
      "google/siglip2-so400m-patch16-naflex": [
        {
          "distance": 0.2627831697463989,
          "id": 1729357599
        },
        {
          "distance": 0.274030864238739,
          "id": 1729361019
        },
        {
          "distance": 0.27451199293136597,
          "id": 1729356113
        },
        {
          "distance": 0.28860485553741455,
          "id": 1729355799
        },
        {
          "distance": 0.2944774031639099,
          "id": 1729360247
        },
        {
          "distance": 0.29791754484176636,
          "id": 1729355041
        },
        {
          "distance": 0.29950159788131714,
          "id": 1729360077
        },
        {
          "distance": 0.2999759316444397,
          "id": 1729356113
        },
        {
          "distance": 0.3038431406021118,
          "id": 1729360689
        },
        {
          "distance": 0.30416691303253174,
          "id": 1729361129
        }
      ]
    },
    "sfomuseum:placetype": "instagram",
    "src:geom": "sfomuseum",
    "wof:belongsto": [
      1159160869,
      102527513,
      102191575,
      85633793,
      102087579,
      85922583,
      85688637
    ],
    "wof:country": "US",
    "wof:created": 1668772800,
    "wof:geomhash": "b6e33f47475d56bc8da457bc31afadc8",
    "wof:hierarchy": [
      {
        "building_id": 1159160869,
        "campus_id": 102527513,
        "continent_id": 102191575,
        "country_id": 85633793,
        "county_id": 102087579,
        "custom_id": 1880151321,
        "instagram_id": 1880151321,
        "locality_id": 85922583,
        "neighbourhood_id": -1,
        "region_id": 85688637
      }
    ],
    "wof:id": 1880151321,
    "wof:lastmodified": 1787777662,
    "wof:name": "Under construction for three years, the 1954 San Francisco International Airport Terminal building was extensively documented...",
    "wof:parent_id": 1159160869,
    "wof:placetype": "custom",
    "wof:placetype_alt": [
      "instagram"
    ],
    "wof:repo": "sfomuseum-data-socialmedia-instagram",
    "wof:superseded_by": [],
    "wof:supersedes": []
  },
  "bbox": [
    -122.386166,
    37.616356,
    -122.386166,
    37.616356
  ],
  "geometry": {"type":"Point","coordinates":[-122.386166,37.616356]}
}
