{
  "id": 1729355813,
  "type": "Feature",
  "properties": {
    "date:cessation_lower": "2019-12-06",
    "date:cessation_upper": "2019-12-06",
    "date:inception_lower": "2019-12-06",
    "date:inception_upper": "2019-12-06",
    "edtf:cessation": "2019-12-06T03:51:00-08:00",
    "edtf:inception": "2019-12-06T03:51:00-08:00",
    "geom:area": 0,
    "geom:bbox": "-122.386166,37.616356,-122.386166,37.616356",
    "geom:latitude": 37.616356,
    "geom:longitude": -122.386166,
    "instagram:post": {
      "caption": {
        "body": "Can you imagine a roundtrip flight between California and the Philippine capital of Manila taking fifteen days? In 1935, the first scheduled transpacific airmail flight took eight days to reach Manila from Alameda, with stops in Honolulu, Midway Atoll, Wake Island, and Guam. After leaving Alameda on November 22, and landing in Manila, on November 29, the China Clipper started its long journey back to the United States on December 2. The trip took another four days to travel back to Alameda and landed #onthisday [Dec. 6] in 1935. The entire roundtrip flight time was 123 hours and 12 minutes. It had covered over 16,000 miles and set nineteen world records.  Learn more about early transpacific aviation in \"China Clipper\" on display, pre-security, in the Aviation Museum. http://bit.ly/chinaclipper  Image: Pan American Airways, Martin M-130 “China Clipper”, c. 1939, Gift of William T. Larkins. 2010.248.012",
        "excerpt": "Can you imagine a roundtrip flight between California and the Philippine capital of Manila taking fifteen days?",
        "hashtags": [
          "ChinaClipper",
          "aviationhistory",
          "avgeek",
          "panam"
        ],
        "users": []
      },
      "media_id": "4f20714a9fced045cd9554fe2b4c3472",
      "path": "media/other/74919294_152868462664519_1043468467702165238_n_17849444194743868.jpg",
      "perceptual_hash": "p:80cc375b6eb3c41b",
      "taken": 1575633060,
      "taken_at": "Dec 06, 2019 11:51 am"
    },
    "millsfield:similar": {
      "google/siglip2-so400m-patch16-naflex": [
        {
          "distance": 0.020369231700897217,
          "id": 1729358751
        },
        {
          "distance": 0.09480410814285278,
          "id": 1729358751
        },
        {
          "distance": 0.10876280069351196,
          "id": 1729355659
        },
        {
          "distance": 0.12310963869094849,
          "id": 1729355659
        },
        {
          "distance": 0.146112859249115,
          "id": 1729361109
        },
        {
          "distance": 0.15813517570495605,
          "id": 1729355993
        },
        {
          "distance": 0.16048789024353027,
          "id": 1729356533
        },
        {
          "distance": 0.1616901159286499,
          "id": 1729359597
        },
        {
          "distance": 0.16796594858169556,
          "id": 1729360207
        },
        {
          "distance": 0.16853296756744385,
          "id": 1729356541
        }
      ]
    },
    "sfomuseum:placetype": "instagram",
    "src:geom": "sfomuseum",
    "wof:belongsto": [
      1159160869,
      102527513,
      102191575,
      85633793,
      102087579,
      85922583,
      85688637
    ],
    "wof:country": "US",
    "wof:created": 1575633060,
    "wof:geomhash": "b6e33f47475d56bc8da457bc31afadc8",
    "wof:hierarchy": [
      {
        "building_id": 1159160869,
        "campus_id": 102527513,
        "continent_id": 102191575,
        "country_id": 85633793,
        "county_id": 102087579,
        "custom_id": 1729355813,
        "instagram_id": 1729355813,
        "locality_id": 85922583,
        "neighbourhood_id": -1,
        "region_id": 85688637
      }
    ],
    "wof:id": 1729355813,
    "wof:lastmodified": 1787777627,
    "wof:name": "Can you imagine a roundtrip flight between California and the Philippine capital of Manila taking fifteen days?..",
    "wof:parent_id": 1159160869,
    "wof:placetype": "custom",
    "wof:placetype_alt": [
      "instagram"
    ],
    "wof:repo": "sfomuseum-data-socialmedia-instagram",
    "wof:superseded_by": [],
    "wof:supersedes": []
  },
  "bbox": [
    -122.386166,
    37.616356,
    -122.386166,
    37.616356
  ],
  "geometry": {"type":"Point","coordinates":[-122.386166,37.616356]}
}
