{
  "id": 1729359527,
  "type": "Feature",
  "properties": {
    "date:cessation_lower": "2017-05-09",
    "date:cessation_upper": "2017-05-09",
    "date:inception_lower": "2017-05-09",
    "date:inception_upper": "2017-05-09",
    "edtf:cessation": "2017-05-09T03:22:00-07:00",
    "edtf:inception": "2017-05-09T03:22:00-07:00",
    "geom:area": 0,
    "geom:bbox": "-122.386166,37.616356,-122.386166,37.616356",
    "geom:latitude": 37.616356,
    "geom:longitude": -122.386166,
    "instagram:post": {
      "caption": {
        "body": "Can you see yourself in South America? Would you like a ride a llama in South America? In 1949, Pan American World Airways and Panagra (Pan American-Grace Airways) advertised their 'Round-the-Continent Air Cruise enticing passengers with next day arrivals. Have you ever been to South America?  Image: Pan American World Airways, Panagra (Pan American-Grace Airways) tourist information, South America, 1949. Gift of Jon E. Krupnick. 2008.056.0660",
        "excerpt": "Can you see yourself in South America?",
        "hashtags": [
          "TravelTuesday",
          "SouthAmerica",
          "PanAm",
          "Panagra",
          "avgeek",
          "aviationhistory",
          "llama"
        ],
        "users": []
      },
      "media_id": "e43199642ac8eb44ca6068c55752f038",
      "path": "media/posts/201705/18381926_428023364232618_443846528868548608_n_17866276819084271.jpg",
      "perceptual_hash": "p:a36a94b7718d6686",
      "taken": 1494325320,
      "taken_at": "May 09, 2017 10:22 am"
    },
    "millsfield:similar": {
      "google/siglip2-so400m-patch16-naflex": [
        {
          "distance": 0.24428439140319824,
          "id": 1729360479
        },
        {
          "distance": 0.27386486530303955,
          "id": 1729361533
        },
        {
          "distance": 0.2823348045349121,
          "id": 1729359833
        },
        {
          "distance": 0.28371375799179077,
          "id": 1729359875
        },
        {
          "distance": 0.2934913635253906,
          "id": 1729358641
        },
        {
          "distance": 0.29537874460220337,
          "id": 1729356017
        },
        {
          "distance": 0.2962316870689392,
          "id": 1729359217
        },
        {
          "distance": 0.29645872116088867,
          "id": 1729357105
        },
        {
          "distance": 0.29693394899368286,
          "id": 1729360479
        },
        {
          "distance": 0.29908883571624756,
          "id": 1729360331
        }
      ]
    },
    "sfomuseum:placetype": "instagram",
    "src:geom": "sfomuseum",
    "wof:belongsto": [
      1159160869,
      102527513,
      102191575,
      85633793,
      102087579,
      85922583,
      85688637
    ],
    "wof:country": "US",
    "wof:created": 1494325320,
    "wof:geomhash": "b6e33f47475d56bc8da457bc31afadc8",
    "wof:hierarchy": [
      {
        "building_id": 1159160869,
        "campus_id": 102527513,
        "continent_id": 102191575,
        "country_id": 85633793,
        "county_id": 102087579,
        "custom_id": 1729359527,
        "instagram_id": 1729359527,
        "locality_id": 85922583,
        "neighbourhood_id": -1,
        "region_id": 85688637
      }
    ],
    "wof:id": 1729359527,
    "wof:lastmodified": 1787777636,
    "wof:name": "Can you see yourself in South America?..",
    "wof:parent_id": 1159160869,
    "wof:placetype": "custom",
    "wof:placetype_alt": [
      "instagram"
    ],
    "wof:repo": "sfomuseum-data-socialmedia-instagram",
    "wof:superseded_by": [],
    "wof:supersedes": []
  },
  "bbox": [
    -122.386166,
    37.616356,
    -122.386166,
    37.616356
  ],
  "geometry": {"type":"Point","coordinates":[-122.386166,37.616356]}
}
