{
  "id": 1729359401,
  "type": "Feature",
  "properties": {
    "date:cessation_lower": "2017-06-14",
    "date:cessation_upper": "2017-06-14",
    "date:inception_lower": "2017-06-14",
    "date:inception_upper": "2017-06-14",
    "edtf:cessation": "2017-06-14T12:39:00-07:00",
    "edtf:inception": "2017-06-14T12:39:00-07:00",
    "geom:area": 0,
    "geom:bbox": "-122.386166,37.616356,-122.386166,37.616356",
    "geom:latitude": 37.616356,
    "geom:longitude": -122.386166,
    "instagram:post": {
      "caption": {
        "body": "This two-tone uniform in checked and solid navy blue polyester was created in 1974 by American fashion designer Bill Blass (1922–2002), who was known for elegant daywear and traditional fabrics. Giving the appearance of a two-piece outfit with an overskirt top, it is an easy-fit, one-piece shirtdress with a back zipper. The matching skinny belt completes the classic look. \"#FashionInFlight: A History of Airline Uniform Design\" is on display, pre-security, in the Aviation Museum and Library. http://bit.ly/fashioninflight",
        "excerpt": "This two-tone uniform in checked and solid navy blue polyester was created in 1974 by American fashion designer Bill Blass (1922–2002), who was known for elegant daywear and traditional fabrics.",
        "hashtags": [
          "fashion",
          "BillBlass",
          "American",
          "AmericanAir",
          "AmericanAirlines",
          "uniform",
          "crewlife",
          "flightattendant",
          "flightattendants",
          "avgeek",
          "aviationhistory",
          "1970s",
          "WomenInAviation"
        ],
        "users": []
      },
      "media_id": "f9f5b083e8cb95a6ebf995183c7c6171",
      "path": "media/posts/201706/19120601_1983353765273268_5455675898437042176_n_17858686063170514.jpg",
      "perceptual_hash": "p:e59e39339234276c",
      "taken": 1497469140,
      "taken_at": "Jun 14, 2017 7:39 pm"
    },
    "millsfield:similar": {
      "google/siglip2-so400m-patch16-naflex": [
        {
          "distance": 0.2005952000617981,
          "id": 1763559643
        },
        {
          "distance": 0.20418477058410645,
          "id": 1729359183
        },
        {
          "distance": 0.2143239974975586,
          "id": 1763559113
        },
        {
          "distance": 0.21834790706634521,
          "id": 1729361467
        },
        {
          "distance": 0.23361331224441528,
          "id": 1763559079
        },
        {
          "distance": 0.24158042669296265,
          "id": 1763559643
        },
        {
          "distance": 0.24705767631530762,
          "id": 1729360313
        },
        {
          "distance": 0.2598886489868164,
          "id": 1729361731
        },
        {
          "distance": 0.2636117935180664,
          "id": 1729359139
        },
        {
          "distance": 0.2657047510147095,
          "id": 1729360205
        }
      ]
    },
    "sfomuseum:placetype": "instagram",
    "src:geom": "sfomuseum",
    "wof:belongsto": [
      1159160869,
      102527513,
      102191575,
      85633793,
      102087579,
      85922583,
      85688637
    ],
    "wof:country": "US",
    "wof:created": 1497469140,
    "wof:geomhash": "b6e33f47475d56bc8da457bc31afadc8",
    "wof:hierarchy": [
      {
        "building_id": 1159160869,
        "campus_id": 102527513,
        "continent_id": 102191575,
        "country_id": 85633793,
        "county_id": 102087579,
        "custom_id": 1729359401,
        "instagram_id": 1729359401,
        "locality_id": 85922583,
        "neighbourhood_id": -1,
        "region_id": 85688637
      }
    ],
    "wof:id": 1729359401,
    "wof:lastmodified": 1787777635,
    "wof:name": "This two-tone uniform in checked and solid navy blue polyester was created in 1974 by American fashion designer Bill Blass (1922–2002), who was known for elegant daywear and traditional fabrics...",
    "wof:parent_id": 1159160869,
    "wof:placetype": "custom",
    "wof:placetype_alt": [
      "instagram"
    ],
    "wof:repo": "sfomuseum-data-socialmedia-instagram",
    "wof:superseded_by": [],
    "wof:supersedes": []
  },
  "bbox": [
    -122.386166,
    37.616356,
    -122.386166,
    37.616356
  ],
  "geometry": {"type":"Point","coordinates":[-122.386166,37.616356]}
}
