{
  "id": 1729361499,
  "type": "Feature",
  "properties": {
    "date:cessation_lower": "2015-09-29",
    "date:cessation_upper": "2015-09-29",
    "date:inception_lower": "2015-09-29",
    "date:inception_upper": "2015-09-29",
    "edtf:cessation": "2015-09-29T02:39:00-07:00",
    "edtf:inception": "2015-09-29T02:39:00-07:00",
    "geom:area": 0,
    "geom:bbox": "-122.386166,37.616356,-122.386166,37.616356",
    "geom:latitude": 37.616356,
    "geom:longitude": -122.386166,
    "instagram:post": {
      "caption": {
        "body": "Using the language of cartography, Lordy Rodriguez's Strangerhood features maps depicting six iconic San Francisco neighborhoods reimagined as independent countries. Rodriguez explores the identity of place, encouraging the viewer to think about the signifiers of place and how they influence our perception and experience of San Francisco neighborhoods.",
        "excerpt": "Using the language of cartography, Lordy Rodriguez's Strangerhood features maps depicting six iconic San Francisco neighborhoods reimagined as independent countries.",
        "hashtags": [
          "airportart"
        ],
        "users": []
      },
      "media_id": "12cda8932a70bd5ab5e45adae5d22abc",
      "path": "media/other/11899458_723453507787976_1399798752_n_17843956681062499.jpg",
      "perceptual_hash": "p:eec14b1b9296c9c3",
      "taken": 1443519540,
      "taken_at": "Sep 29, 2015 9:39 am"
    },
    "millsfield:similar": {
      "google/siglip2-so400m-patch16-naflex": [
        {
          "distance": 0.23639577627182007,
          "id": 1880151735
        },
        {
          "distance": 0.25371628999710083,
          "id": 1880150891
        },
        {
          "distance": 0.2692856788635254,
          "id": 1880151735
        },
        {
          "distance": 0.27276110649108887,
          "id": 1763558909
        },
        {
          "distance": 0.2794480323791504,
          "id": 1729359425
        },
        {
          "distance": 0.2866736650466919,
          "id": 1763558909
        },
        {
          "distance": 0.2956649661064148,
          "id": 1729357701
        },
        {
          "distance": 0.2982500195503235,
          "id": 1729355221
        },
        {
          "distance": 0.299673855304718,
          "id": 1880151511
        },
        {
          "distance": 0.300814151763916,
          "id": 1729356163
        }
      ]
    },
    "sfomuseum:placetype": "instagram",
    "src:geom": "sfomuseum",
    "wof:belongsto": [
      1159160869,
      102527513,
      102191575,
      85633793,
      102087579,
      85922583,
      85688637
    ],
    "wof:country": "US",
    "wof:created": 1443519540,
    "wof:geomhash": "b6e33f47475d56bc8da457bc31afadc8",
    "wof:hierarchy": [
      {
        "building_id": 1159160869,
        "campus_id": 102527513,
        "continent_id": 102191575,
        "country_id": 85633793,
        "county_id": 102087579,
        "custom_id": 1729361499,
        "instagram_id": 1729361499,
        "locality_id": 85922583,
        "neighbourhood_id": -1,
        "region_id": 85688637
      }
    ],
    "wof:id": 1729361499,
    "wof:lastmodified": 1787777645,
    "wof:name": "Using the language of cartography, Lordy Rodriguez's Strangerhood features maps depicting six iconic San Francisco neighborhoods reimagined as independent countries...",
    "wof:parent_id": 1159160869,
    "wof:placetype": "custom",
    "wof:placetype_alt": [
      "instagram"
    ],
    "wof:repo": "sfomuseum-data-socialmedia-instagram",
    "wof:superseded_by": [],
    "wof:supersedes": []
  },
  "bbox": [
    -122.386166,
    37.616356,
    -122.386166,
    37.616356
  ],
  "geometry": {"type":"Point","coordinates":[-122.386166,37.616356]}
}
