{
  "id": 1729358017,
  "type": "Feature",
  "properties": {
    "date:cessation_lower": "2018-07-02",
    "date:cessation_upper": "2018-07-02",
    "date:inception_lower": "2018-07-02",
    "date:inception_upper": "2018-07-02",
    "edtf:cessation": "2018-07-02T09:24:00-07:00",
    "edtf:inception": "2018-07-02T09:24:00-07:00",
    "geom:area": 0,
    "geom:bbox": "-122.386166,37.616356,-122.386166,37.616356",
    "geom:latitude": 37.616356,
    "geom:longitude": -122.386166,
    "instagram:post": {
      "caption": {
        "body": "Have you ever seen a Boeing 314 Wright Twin Cyclone fourteen-cylinder engine? Check out these photos from 1943 showing mechanics fixing an engine with a blown cylinder. Notice also the large opening behind the engine leading to into the engine nacelle. A walkway in the aircraft’s massive wing actually allowed mechanics to perform some engine work while in flight. ",
        "excerpt": "Have you ever seen a Boeing 314 Wright Twin Cyclone fourteen-cylinder engine?",
        "hashtags": [
          "avgeek",
          "boeing",
          "boeing314",
          "wright",
          "aircraftengine",
          "avationgeek",
          "aviation",
          "aviationhistory",
          "vintageaviation",
          "history",
          "avhistory",
          "aviationgeeks",
          "avgeeks"
        ],
        "users": []
      },
      "media_id": "0b1d021cc7b5b13ec9aa04ec90592efd",
      "path": "media/posts/201807/35988870_2178963682338002_7244468110080606208_n_17957337517053999.jpg",
      "perceptual_hash": "p:a2c3f80aad4f9b68",
      "taken": 1530548640,
      "taken_at": "Jul 02, 2018 4:24 pm"
    },
    "millsfield:similar": {
      "google/siglip2-so400m-patch16-naflex": [
        {
          "distance": 0.006811857223510742,
          "id": 1729361111
        },
        {
          "distance": 0.08463597297668457,
          "id": 1729358029
        },
        {
          "distance": 0.09170365333557129,
          "id": 1729361111
        },
        {
          "distance": 0.12785816192626953,
          "id": 1729358029
        },
        {
          "distance": 0.17485392093658447,
          "id": 1729355347
        },
        {
          "distance": 0.18049609661102295,
          "id": 1729359955
        },
        {
          "distance": 0.18433630466461182,
          "id": 1729360811
        },
        {
          "distance": 0.1942186951637268,
          "id": 1729360513
        },
        {
          "distance": 0.19974780082702637,
          "id": 1729356029
        },
        {
          "distance": 0.2005022168159485,
          "id": 1763559445
        }
      ]
    },
    "sfomuseum:placetype": "instagram",
    "src:geom": "sfomuseum",
    "wof:belongsto": [
      1159160869,
      102527513,
      102191575,
      85633793,
      102087579,
      85922583,
      85688637
    ],
    "wof:country": "US",
    "wof:created": 1530548640,
    "wof:geomhash": "b6e33f47475d56bc8da457bc31afadc8",
    "wof:hierarchy": [
      {
        "building_id": 1159160869,
        "campus_id": 102527513,
        "continent_id": 102191575,
        "country_id": 85633793,
        "county_id": 102087579,
        "custom_id": 1729358017,
        "instagram_id": 1729358017,
        "locality_id": 85922583,
        "neighbourhood_id": -1,
        "region_id": 85688637
      }
    ],
    "wof:id": 1729358017,
    "wof:lastmodified": 1787777632,
    "wof:name": "Have you ever seen a Boeing 314 Wright Twin Cyclone fourteen-cylinder engine?..",
    "wof:parent_id": 1159160869,
    "wof:placetype": "custom",
    "wof:placetype_alt": [
      "instagram"
    ],
    "wof:repo": "sfomuseum-data-socialmedia-instagram",
    "wof:superseded_by": [],
    "wof:supersedes": []
  },
  "bbox": [
    -122.386166,
    37.616356,
    -122.386166,
    37.616356
  ],
  "geometry": {"type":"Point","coordinates":[-122.386166,37.616356]}
}
