{
  "id": 1729362967,
  "type": "Feature",
  "properties": {
    "date:cessation_lower": "2012-07-16",
    "date:cessation_upper": "2012-07-16",
    "date:inception_lower": "2012-07-16",
    "date:inception_upper": "2012-07-16",
    "edtf:cessation": "2012-07-16T03:33:00-07:00",
    "edtf:inception": "2012-07-16T03:33:00-07:00",
    "geom:area": 0,
    "geom:bbox": "-122.386166,37.616356,-122.386166,37.616356",
    "geom:latitude": 37.616356,
    "geom:longitude": -122.386166,
    "instagram:post": {
      "caption": {
        "body": "1946 condiment set by London's Central School of Arts \u0026 Crafts",
        "excerpt": "1946 condiment set by London's Central School of Arts \u0026 Crafts",
        "hashtags": [],
        "users": []
      },
      "media_id": "3df83487874232c68ecd6a0acac2753f",
      "path": "media/other/11189578_348285598701205_1157572327_n_17842258153062499.jpg",
      "perceptual_hash": "p:945a0de737e06ac3",
      "taken": 1342434780,
      "taken_at": "Jul 16, 2012 10:33 am"
    },
    "millsfield:similar": {
      "google/siglip2-so400m-patch16-naflex": [
        {
          "distance": 0.23993420600891113,
          "id": 1729362877
        },
        {
          "distance": 0.30011022090911865,
          "id": 1729362751
        },
        {
          "distance": 0.3031914234161377,
          "id": 1729362877
        },
        {
          "distance": 0.3088337182998657,
          "id": 1729362635
        },
        {
          "distance": 0.3158041834831238,
          "id": 1729362999
        },
        {
          "distance": 0.31990140676498413,
          "id": 1729362525
        },
        {
          "distance": 0.3236544132232666,
          "id": 1729362129
        },
        {
          "distance": 0.32839345932006836,
          "id": 1729362749
        },
        {
          "distance": 0.3347633481025696,
          "id": 1729362551
        },
        {
          "distance": 0.3389681577682495,
          "id": 1729362163
        }
      ]
    },
    "sfomuseum:placetype": "instagram",
    "src:geom": "sfomuseum",
    "wof:belongsto": [
      1159160869,
      102527513,
      102191575,
      85633793,
      102087579,
      85922583,
      85688637
    ],
    "wof:country": "US",
    "wof:created": 1342434780,
    "wof:geomhash": "b6e33f47475d56bc8da457bc31afadc8",
    "wof:hierarchy": [
      {
        "building_id": 1159160869,
        "campus_id": 102527513,
        "continent_id": 102191575,
        "country_id": 85633793,
        "county_id": 102087579,
        "custom_id": 1729362967,
        "instagram_id": 1729362967,
        "locality_id": 85922583,
        "neighbourhood_id": -1,
        "region_id": 85688637
      }
    ],
    "wof:id": 1729362967,
    "wof:lastmodified": 1787777657,
    "wof:name": "1946 condiment set by London's Central School of Arts \u0026 Crafts..",
    "wof:parent_id": 1159160869,
    "wof:placetype": "custom",
    "wof:placetype_alt": [
      "instagram"
    ],
    "wof:repo": "sfomuseum-data-socialmedia-instagram",
    "wof:superseded_by": [],
    "wof:supersedes": []
  },
  "bbox": [
    -122.386166,
    37.616356,
    -122.386166,
    37.616356
  ],
  "geometry": {"type":"Point","coordinates":[-122.386166,37.616356]}
}
