{
  "id": 1729356083,
  "type": "Feature",
  "properties": {
    "date:cessation_lower": "2019-09-19",
    "date:cessation_upper": "2019-09-19",
    "date:inception_lower": "2019-09-19",
    "date:inception_upper": "2019-09-19",
    "edtf:cessation": "2019-09-19T05:10:00-07:00",
    "edtf:inception": "2019-09-19T05:10:00-07:00",
    "geom:area": 0,
    "geom:bbox": "-122.386166,37.616356,-122.386166,37.616356",
    "geom:latitude": 37.616356,
    "geom:longitude": -122.386166,
    "instagram:post": {
      "caption": {
        "body": "When introduced in 1949 by Pan American World Airways, the Boeing 377 Stratocruiser was considered the most luxurious airliner aloft. Its unique, pressurized, “double-bubble” fuselage was equipped with two decks; the upper contained a roomy main cabin, while the lower featured the highly popular cocktail lounge. The Stratocruiser was able to cruise near the stratosphere at over 300 miles per hour. With a range of just over 4,000 miles, the airliner was well suited for transoceanic routes. Pan American World Airways launched Stratocruiser transpacific service from San Francisco to Hawai’i in April 1949, and transatlantic service to London in June 1949 as all first-class “President” service.  Image: Pan American World Airways, Boeing 377 Stratocruiser, late 1940s. Gift of the Captain John B. Russell Family. 2012.149.0846",
        "excerpt": "When introduced in 1949 by Pan American World Airways, the Boeing 377 Stratocruiser was considered the most luxurious airliner aloft.",
        "hashtags": [
          "Boeing377",
          "377",
          "Stratocruiser",
          "avgeek"
        ],
        "users": []
      },
      "media_id": "e19c77c46028abe1e801044d2aab1ff0",
      "path": "media/other/69818061_686753265168367_5361526147923254937_n_17856863824543378.jpg",
      "perceptual_hash": "p:a0cf4fd073670aa9",
      "taken": 1568895000,
      "taken_at": "Sep 19, 2019 12:10 pm"
    },
    "millsfield:similar": {
      "google/siglip2-so400m-patch16-naflex": [
        {
          "distance": 0.18921279907226562,
          "id": 1729355033
        },
        {
          "distance": 0.19458216428756714,
          "id": 1729356623
        },
        {
          "distance": 0.20323479175567627,
          "id": 1763559547
        },
        {
          "distance": 0.20378655195236206,
          "id": 1763559629
        },
        {
          "distance": 0.20451796054840088,
          "id": 1729359533
        },
        {
          "distance": 0.20467519760131836,
          "id": 1763559629
        },
        {
          "distance": 0.20924222469329834,
          "id": 1763558723
        },
        {
          "distance": 0.20924222469329834,
          "id": 1729358627
        },
        {
          "distance": 0.2099335789680481,
          "id": 1729355429
        },
        {
          "distance": 0.21245670318603516,
          "id": 1729356685
        }
      ]
    },
    "sfomuseum:placetype": "instagram",
    "src:geom": "sfomuseum",
    "wof:belongsto": [
      1159160869,
      102527513,
      102191575,
      85633793,
      102087579,
      85922583,
      85688637
    ],
    "wof:country": "US",
    "wof:created": 1568895000,
    "wof:geomhash": "b6e33f47475d56bc8da457bc31afadc8",
    "wof:hierarchy": [
      {
        "building_id": 1159160869,
        "campus_id": 102527513,
        "continent_id": 102191575,
        "country_id": 85633793,
        "county_id": 102087579,
        "custom_id": 1729356083,
        "instagram_id": 1729356083,
        "locality_id": 85922583,
        "neighbourhood_id": -1,
        "region_id": 85688637
      }
    ],
    "wof:id": 1729356083,
    "wof:lastmodified": 1787777628,
    "wof:name": "When introduced in 1949 by Pan American World Airways, the Boeing 377 Stratocruiser was considered the most luxurious airliner aloft...",
    "wof:parent_id": 1159160869,
    "wof:placetype": "custom",
    "wof:placetype_alt": [
      "instagram"
    ],
    "wof:repo": "sfomuseum-data-socialmedia-instagram",
    "wof:superseded_by": [],
    "wof:supersedes": []
  },
  "bbox": [
    -122.386166,
    37.616356,
    -122.386166,
    37.616356
  ],
  "geometry": {"type":"Point","coordinates":[-122.386166,37.616356]}
}
