{
  "id": 1729359065,
  "type": "Feature",
  "properties": {
    "date:cessation_lower": "2017-09-25",
    "date:cessation_upper": "2017-09-25",
    "date:inception_lower": "2017-09-25",
    "date:inception_upper": "2017-09-25",
    "edtf:cessation": "2017-09-25T10:36:00-07:00",
    "edtf:inception": "2017-09-25T10:36:00-07:00",
    "geom:area": 0,
    "geom:bbox": "-122.386166,37.616356,-122.386166,37.616356",
    "geom:latitude": 37.616356,
    "geom:longitude": -122.386166,
    "instagram:post": {
      "caption": {
        "body": "#OnThisDay Pan American World Airways acquired American Overseas Airlines (A.O.A.) from American Airlines in 1950. American Overseas Airlines started as American Export Airlines in 1937, and was purchased by American Airlines in 1945. A.O.A. was awarded routes to England, Iceland, Ireland, and other destinations in Europe. Once acquired, PAA obtained all of A.O.A. routes and assets including eight Boeing 377 Stratocruisers, seven Constellations, three DC-4s, and one DC-3.  Image: American Overseas Airlines (AOA) poster, Boeing 377 Stratocruiser, late 1940s. SFO Museum Collection. 1996.48.01",
        "excerpt": "#OnThisDay Pan American World Airways acquired American Overseas Airlines (A.O.A.)",
        "hashtags": [
          "americanairlines",
          "americanair",
          "americanoverseasairlines",
          "aoa",
          "americanexportairlines",
          "panam",
          "panamerican",
          "paa",
          "Stratocruiser",
          "avgeek",
          "avationgeek",
          "aviation",
          "aviationhistory",
          "aviationlovers",
          "vintageaviation",
          "history",
          "avhistory",
          "aviationgeeks",
          "instaplane",
          "flying",
          "plane",
          "flight",
          "airline",
          "avgeeks",
          "aviation4u",
          "aviationdaily"
        ],
        "users": []
      },
      "media_id": "a312715fb8349ec547725f972bad1ddb",
      "path": "media/posts/201709/21909814_672689399603685_7589540209436393472_n_17902726807048113.jpg",
      "perceptual_hash": "p:bae6c4b5e362c898",
      "taken": 1506360960,
      "taken_at": "Sep 25, 2017 5:36 pm"
    },
    "millsfield:similar": {
      "google/siglip2-so400m-patch16-naflex": [
        {
          "distance": 0.23447811603546143,
          "id": 1947424855
        },
        {
          "distance": 0.2525857090950012,
          "id": 1763559155
        },
        {
          "distance": 0.25264376401901245,
          "id": 1763558725
        },
        {
          "distance": 0.25264376401901245,
          "id": 1729358623
        },
        {
          "distance": 0.25841397047042847,
          "id": 1763559629
        },
        {
          "distance": 0.2628753185272217,
          "id": 1729360475
        },
        {
          "distance": 0.2630385756492615,
          "id": 1763559109
        },
        {
          "distance": 0.26545143127441406,
          "id": 1763558807
        },
        {
          "distance": 0.26545143127441406,
          "id": 1729357179
        },
        {
          "distance": 0.2669197916984558,
          "id": 1880150923
        }
      ]
    },
    "sfomuseum:placetype": "instagram",
    "src:geom": "sfomuseum",
    "wof:belongsto": [
      1159160869,
      102527513,
      102191575,
      85633793,
      102087579,
      85922583,
      85688637
    ],
    "wof:country": "US",
    "wof:created": 1506360960,
    "wof:geomhash": "b6e33f47475d56bc8da457bc31afadc8",
    "wof:hierarchy": [
      {
        "building_id": 1159160869,
        "campus_id": 102527513,
        "continent_id": 102191575,
        "country_id": 85633793,
        "county_id": 102087579,
        "custom_id": 1729359065,
        "instagram_id": 1729359065,
        "locality_id": 85922583,
        "neighbourhood_id": -1,
        "region_id": 85688637
      }
    ],
    "wof:id": 1729359065,
    "wof:lastmodified": 1787777635,
    "wof:name": "#OnThisDay Pan American World Airways acquired American Overseas Airlines (A.O.A.)..",
    "wof:parent_id": 1159160869,
    "wof:placetype": "custom",
    "wof:placetype_alt": [
      "instagram"
    ],
    "wof:repo": "sfomuseum-data-socialmedia-instagram",
    "wof:superseded_by": [],
    "wof:supersedes": []
  },
  "bbox": [
    -122.386166,
    37.616356,
    -122.386166,
    37.616356
  ],
  "geometry": {"type":"Point","coordinates":[-122.386166,37.616356]}
}
