{
  "id": 1729360589,
  "type": "Feature",
  "properties": {
    "date:cessation_lower": "2016-06-24",
    "date:cessation_upper": "2016-06-24",
    "date:inception_lower": "2016-06-24",
    "date:inception_upper": "2016-06-24",
    "edtf:cessation": "2016-06-24T03:59:00-07:00",
    "edtf:inception": "2016-06-24T03:59:00-07:00",
    "geom:area": 0,
    "geom:bbox": "-122.386166,37.616356,-122.386166,37.616356",
    "geom:latitude": 37.616356,
    "geom:longitude": -122.386166,
    "instagram:post": {
      "caption": {
        "body": "Pre-security, in the arrivals level of Terminal 3, we have on display a selection of work from Edward Chavez (1917-2004), a recognized master within the aircraft model-making community.",
        "excerpt": "Pre-security, in the arrivals level of Terminal 3, we have on display a selection of work from Edward Chavez (1917-2004), a recognized master within the aircraft model-making community.",
        "hashtags": [],
        "users": []
      },
      "media_id": "9057f289f67a0d41533efd74b6a55930",
      "path": "media/other/13437192_103625026736725_580994235_n_17849363620072753.jpg",
      "perceptual_hash": "p:c11a3fec4d353364",
      "taken": 1466765940,
      "taken_at": "Jun 24, 2016 10:59 am"
    },
    "millsfield:similar": {
      "google/siglip2-so400m-patch16-naflex": [
        {
          "distance": 0.1529410481452942,
          "id": 1729361635
        },
        {
          "distance": 0.17591798305511475,
          "id": 1729355915
        },
        {
          "distance": 0.19030046463012695,
          "id": 1729355915
        },
        {
          "distance": 0.1959911584854126,
          "id": 1729361635
        },
        {
          "distance": 0.23067134618759155,
          "id": 1729358891
        },
        {
          "distance": 0.2379118800163269,
          "id": 1729357601
        },
        {
          "distance": 0.25007808208465576,
          "id": 1729358891
        },
        {
          "distance": 0.2503965497016907,
          "id": 1729357601
        },
        {
          "distance": 0.27659183740615845,
          "id": 1729355627
        },
        {
          "distance": 0.28037673234939575,
          "id": 1729360063
        }
      ]
    },
    "sfomuseum:placetype": "instagram",
    "src:geom": "sfomuseum",
    "wof:belongsto": [
      1159160869,
      102527513,
      102191575,
      85633793,
      102087579,
      85922583,
      85688637
    ],
    "wof:country": "US",
    "wof:created": 1466765940,
    "wof:geomhash": "b6e33f47475d56bc8da457bc31afadc8",
    "wof:hierarchy": [
      {
        "building_id": 1159160869,
        "campus_id": 102527513,
        "continent_id": 102191575,
        "country_id": 85633793,
        "county_id": 102087579,
        "custom_id": 1729360589,
        "instagram_id": 1729360589,
        "locality_id": 85922583,
        "neighbourhood_id": -1,
        "region_id": 85688637
      }
    ],
    "wof:id": 1729360589,
    "wof:lastmodified": 1787777640,
    "wof:name": "Pre-security, in the arrivals level of Terminal 3, we have on display a selection of work from Edward Chavez (1917-2004), a recognized master within the aircraft model-making community...",
    "wof:parent_id": 1159160869,
    "wof:placetype": "custom",
    "wof:placetype_alt": [
      "instagram"
    ],
    "wof:repo": "sfomuseum-data-socialmedia-instagram",
    "wof:superseded_by": [],
    "wof:supersedes": []
  },
  "bbox": [
    -122.386166,
    37.616356,
    -122.386166,
    37.616356
  ],
  "geometry": {"type":"Point","coordinates":[-122.386166,37.616356]}
}
