{
  "id": 1729362053,
  "type": "Feature",
  "properties": {
    "date:cessation_lower": "2014-10-31",
    "date:cessation_upper": "2014-10-31",
    "date:inception_lower": "2014-10-31",
    "date:inception_upper": "2014-10-31",
    "edtf:cessation": "2014-10-31T09:03:00-07:00",
    "edtf:inception": "2014-10-31T09:03:00-07:00",
    "geom:area": 0,
    "geom:bbox": "-122.386166,37.616356,-122.386166,37.616356",
    "geom:latitude": 37.616356,
    "geom:longitude": -122.386166,
    "instagram:post": {
      "caption": {
        "body": "",
        "excerpt": "",
        "hashtags": [
          "HappyHalloween",
          "KirksMonsters",
          "monsters",
          "sneakpeek"
        ],
        "users": []
      },
      "media_id": "ff598ad5639735452ac47bd93af5685f",
      "path": "media/other/10755807_782757958453677_8558703_n_17842489450062499.jpg",
      "perceptual_hash": "p:d4bc6b4674c11337",
      "taken": 1414771380,
      "taken_at": "Oct 31, 2014 4:03 pm"
    },
    "millsfield:similar": {
      "google/siglip2-so400m-patch16-naflex": [
        {
          "distance": 0.3021100163459778,
          "id": 1729361669
        },
        {
          "distance": 0.304618239402771,
          "id": 1947424863
        },
        {
          "distance": 0.3158227801322937,
          "id": 1729362857
        },
        {
          "distance": 0.3271242380142212,
          "id": 1729362371
        },
        {
          "distance": 0.33806324005126953,
          "id": 1729361813
        },
        {
          "distance": 0.33851009607315063,
          "id": 1729357779
        },
        {
          "distance": 0.33999204635620117,
          "id": 1729363037
        },
        {
          "distance": 0.34486520290374756,
          "id": 1729361829
        },
        {
          "distance": 0.3492511510848999,
          "id": 1729361669
        },
        {
          "distance": 0.34958553314208984,
          "id": 1729361785
        }
      ]
    },
    "sfomuseum:placetype": "instagram",
    "src:geom": "sfomuseum",
    "wof:belongsto": [
      1159160869,
      102527513,
      102191575,
      85633793,
      102087579,
      85922583,
      85688637
    ],
    "wof:country": "US",
    "wof:created": 1414771380,
    "wof:geomhash": "b6e33f47475d56bc8da457bc31afadc8",
    "wof:hierarchy": [
      {
        "building_id": 1159160869,
        "campus_id": 102527513,
        "continent_id": 102191575,
        "country_id": 85633793,
        "county_id": 102087579,
        "custom_id": 1729362053,
        "instagram_id": 1729362053,
        "locality_id": 85922583,
        "neighbourhood_id": -1,
        "region_id": 85688637
      }
    ],
    "wof:id": 1729362053,
    "wof:lastmodified": 1787777646,
    "wof:name": "..",
    "wof:parent_id": 1159160869,
    "wof:placetype": "custom",
    "wof:placetype_alt": [
      "instagram"
    ],
    "wof:repo": "sfomuseum-data-socialmedia-instagram",
    "wof:superseded_by": [],
    "wof:supersedes": []
  },
  "bbox": [
    -122.386166,
    37.616356,
    -122.386166,
    37.616356
  ],
  "geometry": {"type":"Point","coordinates":[-122.386166,37.616356]}
}
