{
  "id": 1729356811,
  "type": "Feature",
  "properties": {
    "date:cessation_lower": "2019-03-17",
    "date:cessation_upper": "2019-03-17",
    "date:inception_lower": "2019-03-17",
    "date:inception_upper": "2019-03-17",
    "edtf:cessation": "2019-03-17T12:36:33-07:00",
    "edtf:inception": "2019-03-17T12:36:33-07:00",
    "geom:area": 0,
    "geom:bbox": "-122.386166,37.616356,-122.386166,37.616356",
    "geom:latitude": 37.616356,
    "geom:longitude": -122.386166,
    "instagram:post": {
      "caption": {
        "body": "In her series, Heterotopia, Brooklyn-based artist Karine Laval produces dreamlike images that challenge and transform our experience of the natural world. The series’ title is borrowed from French philosopher Michel Foucault, who used the word to describe places that exist in the world, but are “neither here, nor there,” explains Laval. And while her source material may be recognizable—various private and public gardens throughout the United States and Europe—the resulting images are abstracted, distorted, and shifted into another realm altogether. Utilizing two-way mirrors and Mylar sheeting, the artist uses the natural environment as both subject matter and plein air studio, transforming ordinary landscapes into a series of kaleidoscopic composites that oscillate between the real and the imaginary. Riding a fine line between representation and abstraction, Laval’s images challenge our perception and highlight photography’s ability to simultaneously reveal, conceal, and distort reality.  See \"Heterotopia\" by Karine Laval, on display, post-security, in Terminal 1. http://bit.ly/2VN0E5t",
        "excerpt": "In her series, Heterotopia, Brooklyn-based artist Karine Laval produces dreamlike images that challenge and transform our experience of the natural world.",
        "hashtags": [
          "Heterotopia",
          "KarineLaval",
          "Brooklyn",
          "landscapes",
          "plants",
          "Foucault",
          "garden",
          "Mylar",
          "environment",
          "photography",
          "mirrors",
          "kaleidoscope",
          "5womenartists",
          "womenshistorymonth"
        ],
        "users": [
          "KarineLaval"
        ]
      },
      "location": "",
      "media_id": "bd174f1ff218edeedd79d2b32a4534f7",
      "path": "photos/201903/bd174f1ff218edeedd79d2b32a4534f7.jpg",
      "perceptual_hash": "p:bc0ddbb61b313093",
      "taken": 1552822560,
      "taken_at": "Mar 17, 2019, 11:36 AM"
    },
    "millsfield:similar": {
      "google/siglip2-so400m-patch16-naflex": [
        {
          "distance": 0.08317220211029053,
          "id": 1729356547
        },
        {
          "distance": 0.0860944390296936,
          "id": 1729356819
        },
        {
          "distance": 0.09936720132827759,
          "id": 1729356577
        },
        {
          "distance": 0.10690706968307495,
          "id": 1729356557
        },
        {
          "distance": 0.10893213748931885,
          "id": 1729356549
        },
        {
          "distance": 0.12189352512359619,
          "id": 1729359363
        },
        {
          "distance": 0.14116668701171875,
          "id": 1729356547
        },
        {
          "distance": 0.1438891887664795,
          "id": 1729356577
        },
        {
          "distance": 0.1449485421180725,
          "id": 1729356819
        },
        {
          "distance": 0.148162841796875,
          "id": 1729356805
        }
      ]
    },
    "sfomuseum:placetype": "instagram",
    "src:geom": "sfomuseum",
    "wof:belongsto": [
      1159160869,
      102527513,
      102191575,
      85633793,
      102087579,
      85922583,
      85688637
    ],
    "wof:country": "US",
    "wof:created": 1552851393,
    "wof:geomhash": "b6e33f47475d56bc8da457bc31afadc8",
    "wof:hierarchy": [
      {
        "building_id": 1159160869,
        "campus_id": 102527513,
        "continent_id": 102191575,
        "country_id": 85633793,
        "county_id": 102087579,
        "custom_id": 1729356811,
        "instagram_id": 1729356811,
        "locality_id": 85922583,
        "neighbourhood_id": -1,
        "region_id": 85688637
      }
    ],
    "wof:id": 1729356811,
    "wof:lastmodified": 1787777629,
    "wof:name": "In her series, Heterotopia, Brooklyn-based artist Karine Laval produces dreamlike images that challenge and transform our experience of the natural world...",
    "wof:parent_id": 1159160869,
    "wof:placetype": "custom",
    "wof:placetype_alt": [
      "instagram"
    ],
    "wof:repo": "sfomuseum-data-socialmedia-instagram",
    "wof:superseded_by": [],
    "wof:supersedes": []
  },
  "bbox": [
    -122.386166,
    37.616356,
    -122.386166,
    37.616356
  ],
  "geometry": {"type":"Point","coordinates":[-122.386166,37.616356]}
}
