{
  "id": 1729355271,
  "type": "Feature",
  "properties": {
    "date:cessation_lower": "2020-05-08",
    "date:cessation_upper": "2020-05-08",
    "date:inception_lower": "2020-05-08",
    "date:inception_upper": "2020-05-08",
    "edtf:cessation": "2020-05-08T12:00:00-07:00",
    "edtf:inception": "2020-05-08T12:00:00-07:00",
    "geom:area": 0,
    "geom:bbox": "-122.386166,37.616356,-122.386166,37.616356",
    "geom:latitude": 37.616356,
    "geom:longitude": -122.386166,
    "instagram:post": {
      "caption": {
        "body": "In the 1970s and 1980s, Pan American produced a series of children’s activity kits with the mascots Pierre and Penny Panda. With Pierre's Fabulous Flying fun kit, children could be entertained with cards, puzzles, fun facts, and other activities.  Image: Pan American World Airways children’s activity kit, 1980. Gift of the family of Armen A. Dildilian. 2015.113.014 a i",
        "excerpt": "In the 1970s and 1980s, Pan American produced a series of children’s activity kits with the mascots Pierre and Penny Panda.",
        "hashtags": [
          "avgeek",
          "MuseumFromHome",
          "PAA",
          "PanAm"
        ],
        "users": []
      },
      "media_id": "ab60a0472b35bda2d718473d84f6f108",
      "path": "media/other/96764033_145715353666921_3555271286056394537_n_17951437411333189.jpg",
      "perceptual_hash": "p:ce4bcb97e8a99380",
      "taken": 1588964400,
      "taken_at": "May 08, 2020 7:00 pm"
    },
    "millsfield:similar": {
      "google/siglip2-so400m-patch16-naflex": [
        {
          "distance": 0.37771767377853394,
          "id": 1729360515
        },
        {
          "distance": 0.3783116936683655,
          "id": 1729360515
        },
        {
          "distance": 0.397274911403656,
          "id": 1729359339
        },
        {
          "distance": 0.4035237431526184,
          "id": 1729357981
        },
        {
          "distance": 0.4085460901260376,
          "id": 1763558755
        },
        {
          "distance": 0.4178749918937683,
          "id": 1729359079
        },
        {
          "distance": 0.42464280128479004,
          "id": 1763558755
        },
        {
          "distance": 0.43076908588409424,
          "id": 1729360975
        },
        {
          "distance": 0.43105751276016235,
          "id": 1729360817
        },
        {
          "distance": 0.43273627758026123,
          "id": 1729355477
        }
      ]
    },
    "sfomuseum:placetype": "instagram",
    "src:geom": "sfomuseum",
    "wof:belongsto": [
      1159160869,
      102527513,
      102191575,
      85633793,
      102087579,
      85922583,
      85688637
    ],
    "wof:country": "US",
    "wof:created": 1588964400,
    "wof:geomhash": "b6e33f47475d56bc8da457bc31afadc8",
    "wof:hierarchy": [
      {
        "building_id": 1159160869,
        "campus_id": 102527513,
        "continent_id": 102191575,
        "country_id": 85633793,
        "county_id": 102087579,
        "custom_id": 1729355271,
        "instagram_id": 1729355271,
        "locality_id": 85922583,
        "neighbourhood_id": -1,
        "region_id": 85688637
      }
    ],
    "wof:id": 1729355271,
    "wof:lastmodified": 1787777622,
    "wof:name": "In the 1970s and 1980s, Pan American produced a series of children’s activity kits with the mascots Pierre and Penny Panda...",
    "wof:parent_id": 1159160869,
    "wof:placetype": "custom",
    "wof:placetype_alt": [
      "instagram"
    ],
    "wof:repo": "sfomuseum-data-socialmedia-instagram",
    "wof:superseded_by": [],
    "wof:supersedes": []
  },
  "bbox": [
    -122.386166,
    37.616356,
    -122.386166,
    37.616356
  ],
  "geometry": {"type":"Point","coordinates":[-122.386166,37.616356]}
}
