{
  "id": 1729361981,
  "type": "Feature",
  "properties": {
    "date:cessation_lower": "2015-01-16",
    "date:cessation_upper": "2015-01-16",
    "date:inception_lower": "2015-01-16",
    "date:inception_upper": "2015-01-16",
    "edtf:cessation": "2015-01-16T07:27:00-08:00",
    "edtf:inception": "2015-01-16T07:27:00-08:00",
    "geom:area": 0,
    "geom:bbox": "-122.386166,37.616356,-122.386166,37.616356",
    "geom:latitude": 37.616356,
    "geom:longitude": -122.386166,
    "instagram:post": {
      "caption": {
        "body": "",
        "excerpt": "",
        "hashtags": [
          "RockPosters",
          "psychedelic"
        ],
        "users": []
      },
      "media_id": "bdd1c4cb62dcf6ec07385e5769953bc2",
      "path": "media/other/1530648_304614056415937_1580402482_n_17842025152062499.jpg",
      "perceptual_hash": "p:f99aa644c3298ad7",
      "taken": 1421422020,
      "taken_at": "Jan 16, 2015 3:27 pm"
    },
    "millsfield:similar": {
      "google/siglip2-so400m-patch16-naflex": [
        {
          "distance": 0.23982775211334229,
          "id": 1763559049
        },
        {
          "distance": 0.24872136116027832,
          "id": 1729358671
        },
        {
          "distance": 0.2644749879837036,
          "id": 1763559287
        },
        {
          "distance": 0.27915215492248535,
          "id": 1763559287
        },
        {
          "distance": 0.28088217973709106,
          "id": 1880151115
        },
        {
          "distance": 0.2842940092086792,
          "id": 1729360547
        },
        {
          "distance": 0.2854277491569519,
          "id": 1763559391
        },
        {
          "distance": 0.2854573726654053,
          "id": 1763559627
        },
        {
          "distance": 0.2859252691268921,
          "id": 1947425261
        },
        {
          "distance": 0.28655046224594116,
          "id": 1763559627
        }
      ]
    },
    "sfomuseum:placetype": "instagram",
    "src:geom": "sfomuseum",
    "wof:belongsto": [
      1159160869,
      102527513,
      102191575,
      85633793,
      102087579,
      85922583,
      85688637
    ],
    "wof:country": "US",
    "wof:created": 1421422020,
    "wof:geomhash": "b6e33f47475d56bc8da457bc31afadc8",
    "wof:hierarchy": [
      {
        "building_id": 1159160869,
        "campus_id": 102527513,
        "continent_id": 102191575,
        "country_id": 85633793,
        "county_id": 102087579,
        "custom_id": 1729361981,
        "instagram_id": 1729361981,
        "locality_id": 85922583,
        "neighbourhood_id": -1,
        "region_id": 85688637
      }
    ],
    "wof:id": 1729361981,
    "wof:lastmodified": 1787777646,
    "wof:name": "..",
    "wof:parent_id": 1159160869,
    "wof:placetype": "custom",
    "wof:placetype_alt": [
      "instagram"
    ],
    "wof:repo": "sfomuseum-data-socialmedia-instagram",
    "wof:superseded_by": [],
    "wof:supersedes": []
  },
  "bbox": [
    -122.386166,
    37.616356,
    -122.386166,
    37.616356
  ],
  "geometry": {"type":"Point","coordinates":[-122.386166,37.616356]}
}
