{
  "id": 1763559365,
  "type": "Feature",
  "properties": {
    "date:cessation_lower": "2021-10-20",
    "date:cessation_upper": "2021-10-20",
    "date:inception_lower": "2021-10-20",
    "date:inception_upper": "2021-10-20",
    "edtf:cessation": "2021-10-20T10:28:00-07:00",
    "edtf:inception": "2021-10-20T10:28:00-07:00",
    "geom:area": 0,
    "geom:bbox": "-122.386166,37.616356,-122.386166,37.616356",
    "geom:latitude": 37.616356,
    "geom:longitude": -122.386166,
    "instagram:post": {
      "caption": {
        "body": "The McDonnell Douglas MD-11 incorporated many design features of the DC-10 such as the trijet configuration, but also deviated as it featured a stretched fuselage, increased wingspan, a redesigned wing trailing edge, and a glass cockpit. Seating capacities varied from 285 in a three-class arrangement to 410 in an all-economy configuration. The medium- to long-range widebody aircraft had a range 7,000 to 10,000 miles and had a cruising speed of 588 mph. Introduced by Finnair on December 20, 1990, it is currently only used as a cargo aircraft. MD-11 production ended in 2000 after 200 airframes were built.",
        "excerpt": "The McDonnell Douglas MD-11 incorporated many design features of the DC-10 such as the trijet configuration, but also deviated as it featured a stretched fuselage, increased wingspan, a redesigned wing trailing edge, and a glass cockpit.",
        "hashtags": [
          "WingWednesday",
          "MD11",
          "McDonnellDouglas",
          "airplane"
        ],
        "users": []
      },
      "media_id": "8f48fc3799a9144256dc96bb158cf321b486a873",
      "path": "media/posts/202110/246888369_463963654949875_3552943249550239602_n_18190202146132506.jpg",
      "perceptual_hash": "p:e60059f666cd3b32",
      "taken": 1634750880,
      "taken_at": "Oct 20, 2021 5:28 pm"
    },
    "millsfield:similar": {
      "google/siglip2-so400m-patch16-naflex": [
        {
          "distance": 0.18664896488189697,
          "id": 1729356033
        },
        {
          "distance": 0.19649255275726318,
          "id": 1729355683
        },
        {
          "distance": 0.19965702295303345,
          "id": 1729359943
        },
        {
          "distance": 0.2129325270652771,
          "id": 1729356033
        },
        {
          "distance": 0.2172204852104187,
          "id": 1729359943
        },
        {
          "distance": 0.22171741724014282,
          "id": 1729357345
        },
        {
          "distance": 0.22306418418884277,
          "id": 1729355683
        },
        {
          "distance": 0.2257205843925476,
          "id": 1763559631
        },
        {
          "distance": 0.22816437482833862,
          "id": 1729360469
        },
        {
          "distance": 0.23235565423965454,
          "id": 1729356753
        }
      ]
    },
    "sfomuseum:placetype": "instagram",
    "src:geom": "sfomuseum",
    "wof:belongsto": [
      1159160869,
      102527513,
      102191575,
      85633793,
      102087579,
      85922583,
      85688637
    ],
    "wof:country": "US",
    "wof:created": 1634750880,
    "wof:geomhash": "b6e33f47475d56bc8da457bc31afadc8",
    "wof:hierarchy": [
      {
        "building_id": 1159160869,
        "campus_id": 102527513,
        "continent_id": 102191575,
        "country_id": 85633793,
        "county_id": 102087579,
        "custom_id": 1763559365,
        "instagram_id": 1763559365,
        "locality_id": 85922583,
        "neighbourhood_id": -1,
        "region_id": 85688637
      }
    ],
    "wof:id": 1763559365,
    "wof:lastmodified": 1787777660,
    "wof:name": "The McDonnell Douglas MD-11 incorporated many design features of the DC-10 such as the trijet configuration, but also deviated as it featured a stretched fuselage, increased wingspan, a redesigned wing trailing edge, and a glass cockpit...",
    "wof:parent_id": 1159160869,
    "wof:placetype": "custom",
    "wof:placetype_alt": [
      "instagram"
    ],
    "wof:repo": "sfomuseum-data-socialmedia-instagram",
    "wof:superseded_by": [],
    "wof:supersedes": []
  },
  "bbox": [
    -122.386166,
    37.616356,
    -122.386166,
    37.616356
  ],
  "geometry": {"type":"Point","coordinates":[-122.386166,37.616356]}
}
