{
  "id": 1729357711,
  "type": "Feature",
  "properties": {
    "date:cessation_lower": "2018-09-05",
    "date:cessation_upper": "2018-09-05",
    "date:inception_lower": "2018-09-05",
    "date:inception_upper": "2018-09-05",
    "edtf:cessation": "2018-09-05T08:13:24-07:00",
    "edtf:inception": "2018-09-05T08:13:24-07:00",
    "geom:area": 0,
    "geom:bbox": "-122.386166,37.616356,-122.386166,37.616356",
    "geom:latitude": 37.616356,
    "geom:longitude": -122.386166,
    "instagram:post": {
      "caption": {
        "body": "Check out these photos from the 1960s as United Air Lines employees fit a Boeing 727 Combi-Freighter with seats. The Combi (short for combination) was designed to carry varied capacities of passengers and freight, depending on the demand at the time, and came with removable bulkheads, seats, and modular kitchen units. Did you ever fly on a Combi plane?",
        "excerpt": "Check out these photos from the 1960s as United Air Lines employees fit a Boeing 727 Combi-Freighter with seats.",
        "hashtags": [
          "avgeek",
          "aviationgeek",
          "aviation",
          "aviationhistory",
          "aviationlovers",
          "vintageaviation",
          "history",
          "aviationgeeks",
          "avgeeks",
          "Boeing",
          "Boeing727",
          "combi"
        ],
        "users": []
      },
      "location": "",
      "media_id": "c454362f156f8fa7cad9be5dd1673e87",
      "path": "photos/201809/c454362f156f8fa7cad9be5dd1673e87.jpg",
      "perceptual_hash": "p:9acac4357d1b5a64",
      "taken": 1536131580,
      "taken_at": "Sep 5, 2018, 7:13 AM"
    },
    "millsfield:similar": {
      "google/siglip2-so400m-patch16-naflex": [
        {
          "distance": 0.11281663179397583,
          "id": 1729361085
        },
        {
          "distance": 0.1306060552597046,
          "id": 1729357717
        },
        {
          "distance": 0.15966558456420898,
          "id": 1729357717
        },
        {
          "distance": 0.16157281398773193,
          "id": 1729361085
        },
        {
          "distance": 0.17787563800811768,
          "id": 1729360541
        },
        {
          "distance": 0.19034206867218018,
          "id": 1729355165
        },
        {
          "distance": 0.1926700472831726,
          "id": 1729360537
        },
        {
          "distance": 0.1947551965713501,
          "id": 1729357293
        },
        {
          "distance": 0.19715631008148193,
          "id": 1729356177
        },
        {
          "distance": 0.20097869634628296,
          "id": 1729356177
        }
      ]
    },
    "sfomuseum:placetype": "instagram",
    "src:geom": "sfomuseum",
    "wof:belongsto": [
      1159160869,
      102527513,
      102191575,
      85633793,
      102087579,
      85922583,
      85688637
    ],
    "wof:country": "US",
    "wof:created": 1536160404,
    "wof:geomhash": "b6e33f47475d56bc8da457bc31afadc8",
    "wof:hierarchy": [
      {
        "building_id": 1159160869,
        "campus_id": 102527513,
        "continent_id": 102191575,
        "country_id": 85633793,
        "county_id": 102087579,
        "custom_id": 1729357711,
        "instagram_id": 1729357711,
        "locality_id": 85922583,
        "neighbourhood_id": -1,
        "region_id": 85688637
      }
    ],
    "wof:id": 1729357711,
    "wof:lastmodified": 1787777632,
    "wof:name": "Check out these photos from the 1960s as United Air Lines employees fit a Boeing 727 Combi-Freighter with seats...",
    "wof:parent_id": 1159160869,
    "wof:placetype": "custom",
    "wof:placetype_alt": [
      "instagram"
    ],
    "wof:repo": "sfomuseum-data-socialmedia-instagram",
    "wof:superseded_by": [],
    "wof:supersedes": []
  },
  "bbox": [
    -122.386166,
    37.616356,
    -122.386166,
    37.616356
  ],
  "geometry": {"type":"Point","coordinates":[-122.386166,37.616356]}
}
