{
  "id": 1729359741,
  "type": "Feature",
  "properties": {
    "date:cessation_lower": "2017-03-13",
    "date:cessation_upper": "2017-03-13",
    "date:inception_lower": "2017-03-13",
    "date:inception_upper": "2017-03-13",
    "edtf:cessation": "2017-03-13T10:18:44-07:00",
    "edtf:inception": "2017-03-13T10:18:44-07:00",
    "geom:area": 0,
    "geom:bbox": "-122.386166,37.616356,-122.386166,37.616356",
    "geom:latitude": 37.616356,
    "geom:longitude": -122.386166,
    "instagram:post": {
      "caption": {
        "body": "The poker machine was the most popular gambling device at the turn of the twentieth century. The play format was easily identifiable and understood by those familiar with the card game. A hand was dealt, desired cards were selected to hold, and a final “deal” of cards determined the outcome. This machine made in San Francisco was mounted on a revolving platter to allow proprietors to easily examine claims made by the machines’ players. The Royal Novelty Company in San Francisco produced this ornately decorated, cast-iron, card-on-reel version, and employed a total of fifty playing cards from a complete deck of fifty-two, with the two missing cards making the jackpot, achieved by a royal flush, difficult to win.",
        "excerpt": "The poker machine was the most popular gambling device at the turn of the twentieth century.",
        "hashtags": [
          "SFHistory"
        ],
        "users": []
      },
      "location": "",
      "media_id": "bec87deb340cdb64821008260ea40c4f",
      "path": "photos/201703/bec87deb340cdb64821008260ea40c4f.jpg",
      "perceptual_hash": "p:873c71aabd46330b",
      "taken": 1489396680,
      "taken_at": "Mar 13, 2017, 9:18 AM"
    },
    "millsfield:similar": {
      "google/siglip2-so400m-patch16-naflex": [
        {
          "distance": 0.17357933521270752,
          "id": 1729359723
        },
        {
          "distance": 0.17426061630249023,
          "id": 1729359723
        },
        {
          "distance": 0.19883984327316284,
          "id": 1729359923
        },
        {
          "distance": 0.20515578985214233,
          "id": 1729358737
        },
        {
          "distance": 0.20747393369674683,
          "id": 1729360031
        },
        {
          "distance": 0.2327592372894287,
          "id": 1729361811
        },
        {
          "distance": 0.24126464128494263,
          "id": 1729358735
        },
        {
          "distance": 0.24545669555664062,
          "id": 1729359923
        },
        {
          "distance": 0.257981538772583,
          "id": 1729359445
        },
        {
          "distance": 0.2584516406059265,
          "id": 1729360031
        }
      ]
    },
    "sfomuseum:placetype": "instagram",
    "src:geom": "sfomuseum",
    "wof:belongsto": [
      1159160869,
      102527513,
      102191575,
      85633793,
      102087579,
      85922583,
      85688637
    ],
    "wof:country": "US",
    "wof:created": 1489425524,
    "wof:geomhash": "b6e33f47475d56bc8da457bc31afadc8",
    "wof:hierarchy": [
      {
        "building_id": 1159160869,
        "campus_id": 102527513,
        "continent_id": 102191575,
        "country_id": 85633793,
        "county_id": 102087579,
        "custom_id": 1729359741,
        "instagram_id": 1729359741,
        "locality_id": 85922583,
        "neighbourhood_id": -1,
        "region_id": 85688637
      }
    ],
    "wof:id": 1729359741,
    "wof:lastmodified": 1787777636,
    "wof:name": "The poker machine was the most popular gambling device at the turn of the twentieth century...",
    "wof:parent_id": 1159160869,
    "wof:placetype": "custom",
    "wof:placetype_alt": [
      "instagram"
    ],
    "wof:repo": "sfomuseum-data-socialmedia-instagram",
    "wof:superseded_by": [],
    "wof:supersedes": []
  },
  "bbox": [
    -122.386166,
    37.616356,
    -122.386166,
    37.616356
  ],
  "geometry": {"type":"Point","coordinates":[-122.386166,37.616356]}
}
