{
  "id": 1880151095,
  "type": "Feature",
  "properties": {
    "date:cessation_lower": "2023-02-28",
    "date:cessation_upper": "2023-02-28",
    "date:inception_lower": "2023-02-28",
    "date:inception_upper": "2023-02-28",
    "edtf:cessation": "2023-02-28T02:31:00-08:00",
    "edtf:inception": "2023-02-28T02:31:00-08:00",
    "geom:area": 0,
    "geom:bbox": "-122.386166,37.616356,-122.386166,37.616356",
    "geom:latitude": 37.616356,
    "geom:longitude": -122.386166,
    "instagram:post": {
      "caption": {
        "body": "This terminal, shown under construction in 1983, does not look like this today. Which terminal at SFO is this?",
        "excerpt": "This terminal, shown under construction in 1983, does not look like this today.",
        "hashtags": [
          "SFOHistory",
          "TriviaTuesday"
        ],
        "users": []
      },
      "media_id": "77add85cc0f15b034fe69fd10b78a5b1571c7107",
      "path": "media/other/333990583_762704001626506_844332247476139122_n_18017289646513814.jpg",
      "perceptual_hash": "p:91974e1a337dccc1",
      "taken": 1677580260,
      "taken_at": "Feb 28, 2023 10:31 am"
    },
    "millsfield:similar": {
      "google/siglip2-so400m-patch16-naflex": [
        {
          "distance": 0.14297819137573242,
          "id": 1729357177
        },
        {
          "distance": 0.16006827354431152,
          "id": 1729357177
        },
        {
          "distance": 0.1839171051979065,
          "id": 1729357969
        },
        {
          "distance": 0.18640297651290894,
          "id": 1729359159
        },
        {
          "distance": 0.19755607843399048,
          "id": 1729355207
        },
        {
          "distance": 0.19917726516723633,
          "id": 1729357969
        },
        {
          "distance": 0.2036840319633484,
          "id": 1880151243
        },
        {
          "distance": 0.2039886713027954,
          "id": 1729359633
        },
        {
          "distance": 0.2039886713027954,
          "id": 1763558661
        },
        {
          "distance": 0.20602351427078247,
          "id": 1729357103
        }
      ]
    },
    "sfomuseum:placetype": "instagram",
    "src:geom": "sfomuseum",
    "wof:belongsto": [
      1159160869,
      102527513,
      102191575,
      85633793,
      102087579,
      85922583,
      85688637
    ],
    "wof:country": "US",
    "wof:created": 1677580260,
    "wof:geomhash": "b6e33f47475d56bc8da457bc31afadc8",
    "wof:hierarchy": [
      {
        "building_id": 1159160869,
        "campus_id": 102527513,
        "continent_id": 102191575,
        "country_id": 85633793,
        "county_id": 102087579,
        "custom_id": 1880151095,
        "instagram_id": 1880151095,
        "locality_id": 85922583,
        "neighbourhood_id": -1,
        "region_id": 85688637
      }
    ],
    "wof:id": 1880151095,
    "wof:lastmodified": 1787777662,
    "wof:name": "This terminal, shown under construction in 1983, does not look like this today...",
    "wof:parent_id": 1159160869,
    "wof:placetype": "custom",
    "wof:placetype_alt": [
      "instagram"
    ],
    "wof:repo": "sfomuseum-data-socialmedia-instagram",
    "wof:superseded_by": [],
    "wof:supersedes": []
  },
  "bbox": [
    -122.386166,
    37.616356,
    -122.386166,
    37.616356
  ],
  "geometry": {"type":"Point","coordinates":[-122.386166,37.616356]}
}
