{
  "id": 1729356293,
  "type": "Feature",
  "properties": {
    "date:cessation_lower": "2019-07-18",
    "date:cessation_upper": "2019-07-18",
    "date:inception_lower": "2019-07-18",
    "date:inception_upper": "2019-07-18",
    "edtf:cessation": "2019-07-18T10:26:00-07:00",
    "edtf:inception": "2019-07-18T10:26:00-07:00",
    "geom:area": 0,
    "geom:bbox": "-122.386166,37.616356,-122.386166,37.616356",
    "geom:latitude": 37.616356,
    "geom:longitude": -122.386166,
    "instagram:post": {
      "caption": {
        "body": "Before the AirTrain was completed in 2003, passengers were shuttled around SFO in buses. The buses used to take passengers from the terminals to the parking lots. Do you remember these buses?  Image: San Francisco International Airport (SFO), parking shuttle, 1970. SFO Museum Collection.  2011.032.2396 ",
        "excerpt": "Before the AirTrain was completed in 2003, passengers were shuttled around SFO in buses.",
        "hashtags": [
          "SFOHistory",
          "TBT",
          "throwback",
          "bus",
          "buses",
          "museum"
        ],
        "users": []
      },
      "media_id": "e32d3dd3904aee33306fcfdb5e3cd4bb",
      "path": "media/other/66027485_868078446906178_5957252397151254084_n_17899082980352309.jpg",
      "perceptual_hash": "p:ecd2bb64175cc2a1",
      "taken": 1563470760,
      "taken_at": "Jul 18, 2019 5:26 pm"
    },
    "millsfield:similar": {
      "google/siglip2-so400m-patch16-naflex": [
        {
          "distance": 0.26941990852355957,
          "id": 1729360607
        },
        {
          "distance": 0.2704780697822571,
          "id": 1729356177
        },
        {
          "distance": 0.27085691690444946,
          "id": 1729356791
        },
        {
          "distance": 0.28536856174468994,
          "id": 1729355165
        },
        {
          "distance": 0.28564924001693726,
          "id": 1729355161
        },
        {
          "distance": 0.2869531512260437,
          "id": 1729357709
        },
        {
          "distance": 0.29354554414749146,
          "id": 1729359031
        },
        {
          "distance": 0.29500722885131836,
          "id": 1729361255
        },
        {
          "distance": 0.29659026861190796,
          "id": 1763559547
        },
        {
          "distance": 0.2981301546096802,
          "id": 1729357197
        }
      ]
    },
    "sfomuseum:placetype": "instagram",
    "src:geom": "sfomuseum",
    "wof:belongsto": [
      1159160869,
      102527513,
      102191575,
      85633793,
      102087579,
      85922583,
      85688637
    ],
    "wof:country": "US",
    "wof:created": 1563470760,
    "wof:geomhash": "b6e33f47475d56bc8da457bc31afadc8",
    "wof:hierarchy": [
      {
        "building_id": 1159160869,
        "campus_id": 102527513,
        "continent_id": 102191575,
        "country_id": 85633793,
        "county_id": 102087579,
        "custom_id": 1729356293,
        "instagram_id": 1729356293,
        "locality_id": 85922583,
        "neighbourhood_id": -1,
        "region_id": 85688637
      }
    ],
    "wof:id": 1729356293,
    "wof:lastmodified": 1787777629,
    "wof:name": "Before the AirTrain was completed in 2003, passengers were shuttled around SFO in buses...",
    "wof:parent_id": 1159160869,
    "wof:placetype": "custom",
    "wof:placetype_alt": [
      "instagram"
    ],
    "wof:repo": "sfomuseum-data-socialmedia-instagram",
    "wof:superseded_by": [],
    "wof:supersedes": []
  },
  "bbox": [
    -122.386166,
    37.616356,
    -122.386166,
    37.616356
  ],
  "geometry": {"type":"Point","coordinates":[-122.386166,37.616356]}
}
