{
  "id": 1729358479,
  "type": "Feature",
  "properties": {
    "date:cessation_lower": "2018-03-06",
    "date:cessation_upper": "2018-03-06",
    "date:inception_lower": "2018-03-06",
    "date:inception_upper": "2018-03-06",
    "edtf:cessation": "2018-03-06T09:33:00-08:00",
    "edtf:inception": "2018-03-06T09:33:00-08:00",
    "geom:area": 0,
    "geom:bbox": "-122.386166,37.616356,-122.386166,37.616356",
    "geom:latitude": 37.616356,
    "geom:longitude": -122.386166,
    "instagram:post": {
      "caption": {
        "body": "The Winter Olympics just wrapped up in South Korea. Did you watch? Have you ever been to South Korea?  Image: Delta Air Lines poster, Korea,  c. 1990. SFO Museum Collection. 2012.129.005",
        "excerpt": "The Winter Olympics just wrapped up in South Korea.",
        "hashtags": [
          "avgeek",
          "avationgeek",
          "aviation",
          "aviationhistory",
          "vintageaviation",
          "history",
          "avhistory",
          "aviationgeeks",
          "avgeeks",
          "korea",
          "deltaairlines"
        ],
        "users": []
      },
      "media_id": "28eda7f7f775350189905643f3212759",
      "path": "media/other/28158391_158646888167797_6704227448344543232_n_17913374392127043.jpg",
      "perceptual_hash": "p:d0cecd4f3b189985",
      "taken": 1520357580,
      "taken_at": "Mar 06, 2018 5:33 pm"
    },
    "millsfield:similar": {
      "google/siglip2-so400m-patch16-naflex": [
        {
          "distance": 0.2632710337638855,
          "id": 1947425137
        },
        {
          "distance": 0.28643763065338135,
          "id": 1729361395
        },
        {
          "distance": 0.2969855070114136,
          "id": 1947424909
        },
        {
          "distance": 0.29981786012649536,
          "id": 1729361395
        },
        {
          "distance": 0.30250072479248047,
          "id": 1947425137
        },
        {
          "distance": 0.3071439862251282,
          "id": 1729358765
        },
        {
          "distance": 0.30783045291900635,
          "id": 1947425095
        },
        {
          "distance": 0.3095512390136719,
          "id": 1763558957
        },
        {
          "distance": 0.31997668743133545,
          "id": 1729360045
        },
        {
          "distance": 0.3239579200744629,
          "id": 1729356203
        }
      ]
    },
    "sfomuseum:placetype": "instagram",
    "src:geom": "sfomuseum",
    "wof:belongsto": [
      1159160869,
      102527513,
      102191575,
      85633793,
      102087579,
      85922583,
      85688637
    ],
    "wof:country": "US",
    "wof:created": 1520357580,
    "wof:geomhash": "b6e33f47475d56bc8da457bc31afadc8",
    "wof:hierarchy": [
      {
        "building_id": 1159160869,
        "campus_id": 102527513,
        "continent_id": 102191575,
        "country_id": 85633793,
        "county_id": 102087579,
        "custom_id": 1729358479,
        "instagram_id": 1729358479,
        "locality_id": 85922583,
        "neighbourhood_id": -1,
        "region_id": 85688637
      }
    ],
    "wof:id": 1729358479,
    "wof:lastmodified": 1787777633,
    "wof:name": "The Winter Olympics just wrapped up in South Korea...",
    "wof:parent_id": 1159160869,
    "wof:placetype": "custom",
    "wof:placetype_alt": [
      "instagram"
    ],
    "wof:repo": "sfomuseum-data-socialmedia-instagram",
    "wof:superseded_by": [],
    "wof:supersedes": []
  },
  "bbox": [
    -122.386166,
    37.616356,
    -122.386166,
    37.616356
  ],
  "geometry": {"type":"Point","coordinates":[-122.386166,37.616356]}
}
