{
  "id": 1729361047,
  "type": "Feature",
  "properties": {
    "date:cessation_lower": "2016-02-14",
    "date:cessation_upper": "2016-02-14",
    "date:inception_lower": "2016-02-14",
    "date:inception_upper": "2016-02-14",
    "edtf:cessation": "2016-02-14T09:46:00-08:00",
    "edtf:inception": "2016-02-14T09:46:00-08:00",
    "geom:area": 0,
    "geom:bbox": "-122.386166,37.616356,-122.386166,37.616356",
    "geom:latitude": 37.616356,
    "geom:longitude": -122.386166,
    "instagram:post": {
      "caption": {
        "body": "Happy Valentine’s day! This vintage Art Nouveau era postcard dates from 1911.",
        "excerpt": "Happy Valentine’s day!",
        "hashtags": [
          "SFOArtNouveau"
        ],
        "users": []
      },
      "media_id": "9b37677039a6e56d15234ee399fe4789",
      "path": "media/other/12751225_1554221161559534_55494435_n_17847213379069603.jpg",
      "perceptual_hash": "p:963e383861f1c16f",
      "taken": 1455471960,
      "taken_at": "Feb 14, 2016 5:46 pm"
    },
    "millsfield:similar": {
      "google/siglip2-so400m-patch16-naflex": [
        {
          "distance": 0.3421474099159241,
          "id": 1729360495
        },
        {
          "distance": 0.3469136953353882,
          "id": 1729361415
        },
        {
          "distance": 0.3584960103034973,
          "id": 1729360495
        },
        {
          "distance": 0.3654555678367615,
          "id": 1729359811
        },
        {
          "distance": 0.3700886368751526,
          "id": 1729355547
        },
        {
          "distance": 0.3735882639884949,
          "id": 1763558727
        },
        {
          "distance": 0.3735882639884949,
          "id": 1729358761
        },
        {
          "distance": 0.3772255778312683,
          "id": 1729361407
        },
        {
          "distance": 0.38347500562667847,
          "id": 1729359811
        },
        {
          "distance": 0.3878510594367981,
          "id": 1729361027
        }
      ]
    },
    "sfomuseum:placetype": "instagram",
    "src:geom": "sfomuseum",
    "wof:belongsto": [
      1159160869,
      102527513,
      102191575,
      85633793,
      102087579,
      85922583,
      85688637
    ],
    "wof:country": "US",
    "wof:created": 1455471960,
    "wof:geomhash": "b6e33f47475d56bc8da457bc31afadc8",
    "wof:hierarchy": [
      {
        "building_id": 1159160869,
        "campus_id": 102527513,
        "continent_id": 102191575,
        "country_id": 85633793,
        "county_id": 102087579,
        "custom_id": 1729361047,
        "instagram_id": 1729361047,
        "locality_id": 85922583,
        "neighbourhood_id": -1,
        "region_id": 85688637
      }
    ],
    "wof:id": 1729361047,
    "wof:lastmodified": 1787777643,
    "wof:name": "Happy Valentine’s day!..",
    "wof:parent_id": 1159160869,
    "wof:placetype": "custom",
    "wof:placetype_alt": [
      "instagram"
    ],
    "wof:repo": "sfomuseum-data-socialmedia-instagram",
    "wof:superseded_by": [],
    "wof:supersedes": []
  },
  "bbox": [
    -122.386166,
    37.616356,
    -122.386166,
    37.616356
  ],
  "geometry": {"type":"Point","coordinates":[-122.386166,37.616356]}
}
