{
  "id": 1729356199,
  "type": "Feature",
  "properties": {
    "date:cessation_lower": "2019-08-16",
    "date:cessation_upper": "2019-08-16",
    "date:inception_lower": "2019-08-16",
    "date:inception_upper": "2019-08-16",
    "edtf:cessation": "2019-08-16T11:32:40-07:00",
    "edtf:inception": "2019-08-16T11:32:40-07:00",
    "geom:area": 0,
    "geom:bbox": "-122.386166,37.616356,-122.386166,37.616356",
    "geom:latitude": 37.616356,
    "geom:longitude": -122.386166,
    "instagram:post": {
      "caption": {
        "body": "Our newest exhibition is now on view! “Zuber: The Art of French Scenic Wallpaper” presents a selection of arguably the most spectacular nineteenth-century French scenic wallpapers. These mural-like papers transformed rooms, providing the opportunity for viewers to be swept away to an exotic place or immersed in an exciting period in history. “Zuber: The Art of French Scenic Wallpaper” is on view pre-security in the International Terminal Main Hall. Very special thanks to Zuber et Cie, Brian D. Coleman, and John Nalewaja and Jim Francis of Scenic Wallpaper Installations. ",
        "excerpt": "Our newest exhibition is now on view!",
        "hashtags": [
          "ZuberScenicWallpaper",
          "Zuber",
          "wallpaper",
          "scenicwallpaper",
          "interiordesign"
        ],
        "users": []
      },
      "location": "",
      "media_id": "5d77b3da18753fa42a7dab62055ac881",
      "path": "photos/201908/5d77b3da18753fa42a7dab62055ac881.jpg",
      "perceptual_hash": "p:9e8069c297adf478",
      "taken": 1565951520,
      "taken_at": "Aug 16, 2019, 10:32 AM"
    },
    "millsfield:similar": {
      "google/siglip2-so400m-patch16-naflex": [
        {
          "distance": 0.16798007488250732,
          "id": 1729355591
        },
        {
          "distance": 0.19467473030090332,
          "id": 1729355591
        },
        {
          "distance": 0.23215526342391968,
          "id": 1729356117
        },
        {
          "distance": 0.2661430835723877,
          "id": 1729356117
        },
        {
          "distance": 0.2988882064819336,
          "id": 1729355485
        },
        {
          "distance": 0.3511895537376404,
          "id": 1729356169
        },
        {
          "distance": 0.36193716526031494,
          "id": 1729355423
        },
        {
          "distance": 0.36321908235549927,
          "id": 1729356151
        },
        {
          "distance": 0.36420589685440063,
          "id": 1729356101
        },
        {
          "distance": 0.37266916036605835,
          "id": 1729355485
        }
      ]
    },
    "sfomuseum:placetype": "instagram",
    "src:geom": "sfomuseum",
    "wof:belongsto": [
      1159160869,
      102527513,
      102191575,
      85633793,
      102087579,
      85922583,
      85688637
    ],
    "wof:country": "US",
    "wof:created": 1565980360,
    "wof:geomhash": "b6e33f47475d56bc8da457bc31afadc8",
    "wof:hierarchy": [
      {
        "building_id": 1159160869,
        "campus_id": 102527513,
        "continent_id": 102191575,
        "country_id": 85633793,
        "county_id": 102087579,
        "custom_id": 1729356199,
        "instagram_id": 1729356199,
        "locality_id": 85922583,
        "neighbourhood_id": -1,
        "region_id": 85688637
      }
    ],
    "wof:id": 1729356199,
    "wof:lastmodified": 1787777628,
    "wof:name": "Our newest exhibition is now on view!..",
    "wof:parent_id": 1159160869,
    "wof:placetype": "custom",
    "wof:placetype_alt": [
      "instagram"
    ],
    "wof:repo": "sfomuseum-data-socialmedia-instagram",
    "wof:superseded_by": [],
    "wof:supersedes": []
  },
  "bbox": [
    -122.386166,
    37.616356,
    -122.386166,
    37.616356
  ],
  "geometry": {"type":"Point","coordinates":[-122.386166,37.616356]}
}
