{
  "id": 1729361679,
  "type": "Feature",
  "properties": {
    "date:cessation_lower": "2015-07-24",
    "date:cessation_upper": "2015-07-24",
    "date:inception_lower": "2015-07-24",
    "date:inception_upper": "2015-07-24",
    "edtf:cessation": "2015-07-24T07:29:00-07:00",
    "edtf:inception": "2015-07-24T07:29:00-07:00",
    "geom:area": 0,
    "geom:bbox": "-122.386166,37.616356,-122.386166,37.616356",
    "geom:latitude": 37.616356,
    "geom:longitude": -122.386166,
    "instagram:post": {
      "caption": {
        "body": "",
        "excerpt": "",
        "hashtags": [
          "mosaic",
          "Repost",
          "regram"
        ],
        "users": [
          "rootdivision",
          "sfacgalleries"
        ]
      },
      "media_id": "ff9ca5244d04937a7bbc58a34187d8a5",
      "path": "media/other/11357464_1657718934449913_1156732358_n_17842037029062499.jpg",
      "perceptual_hash": "p:e39c751eb714e20a",
      "taken": 1437748140,
      "taken_at": "Jul 24, 2015 2:29 pm"
    },
    "millsfield:similar": {
      "google/siglip2-so400m-patch16-naflex": [
        {
          "distance": 0.1416112184524536,
          "id": 1729359429
        },
        {
          "distance": 0.20039862394332886,
          "id": 1729357701
        },
        {
          "distance": 0.2046157717704773,
          "id": 1729357871
        },
        {
          "distance": 0.20997726917266846,
          "id": 1729359429
        },
        {
          "distance": 0.21768516302108765,
          "id": 1880151069
        },
        {
          "distance": 0.23230332136154175,
          "id": 1947425185
        },
        {
          "distance": 0.23301362991333008,
          "id": 1729361681
        },
        {
          "distance": 0.23682785034179688,
          "id": 1729355723
        },
        {
          "distance": 0.24081426858901978,
          "id": 1729362059
        },
        {
          "distance": 0.24082165956497192,
          "id": 1880151781
        }
      ]
    },
    "sfomuseum:placetype": "instagram",
    "src:geom": "sfomuseum",
    "wof:belongsto": [
      1159160869,
      102527513,
      102191575,
      85633793,
      102087579,
      85922583,
      85688637
    ],
    "wof:country": "US",
    "wof:created": 1437748140,
    "wof:geomhash": "b6e33f47475d56bc8da457bc31afadc8",
    "wof:hierarchy": [
      {
        "building_id": 1159160869,
        "campus_id": 102527513,
        "continent_id": 102191575,
        "country_id": 85633793,
        "county_id": 102087579,
        "custom_id": 1729361679,
        "instagram_id": 1729361679,
        "locality_id": 85922583,
        "neighbourhood_id": -1,
        "region_id": 85688637
      }
    ],
    "wof:id": 1729361679,
    "wof:lastmodified": 1787777646,
    "wof:name": "..",
    "wof:parent_id": 1159160869,
    "wof:placetype": "custom",
    "wof:placetype_alt": [
      "instagram"
    ],
    "wof:repo": "sfomuseum-data-socialmedia-instagram",
    "wof:superseded_by": [],
    "wof:supersedes": []
  },
  "bbox": [
    -122.386166,
    37.616356,
    -122.386166,
    37.616356
  ],
  "geometry": {"type":"Point","coordinates":[-122.386166,37.616356]}
}
