{
  "id": 1729361245,
  "type": "Feature",
  "properties": {
    "date:cessation_lower": "2015-12-23",
    "date:cessation_upper": "2015-12-23",
    "date:inception_lower": "2015-12-23",
    "date:inception_upper": "2015-12-23",
    "edtf:cessation": "2015-12-23T11:05:00-08:00",
    "edtf:inception": "2015-12-23T11:05:00-08:00",
    "geom:area": 0,
    "geom:bbox": "-122.386166,37.616356,-122.386166,37.616356",
    "geom:latitude": 37.616356,
    "geom:longitude": -122.386166,
    "instagram:post": {
      "caption": {
        "body": "",
        "excerpt": "",
        "hashtags": [
          "WomenInAviation"
        ],
        "users": []
      },
      "media_id": "2de0958fff87a205041c3d4d78a7bad4",
      "path": "media/other/12338532_570527273102416_775575139_n_17843715190122718.jpg",
      "perceptual_hash": "p:99fdb92868807e9c",
      "taken": 1450897500,
      "taken_at": "Dec 23, 2015 7:05 pm"
    },
    "millsfield:similar": {
      "google/siglip2-so400m-patch16-naflex": [
        {
          "distance": 0.16584408283233643,
          "id": 1729356563
        },
        {
          "distance": 0.17188352346420288,
          "id": 1729355261
        },
        {
          "distance": 0.17342287302017212,
          "id": 1729360657
        },
        {
          "distance": 0.17666411399841309,
          "id": 1729360925
        },
        {
          "distance": 0.1773695945739746,
          "id": 1729359201
        },
        {
          "distance": 0.18173646926879883,
          "id": 1729359251
        },
        {
          "distance": 0.18719738721847534,
          "id": 1729355259
        },
        {
          "distance": 0.19157254695892334,
          "id": 1729361131
        },
        {
          "distance": 0.19199585914611816,
          "id": 1947425081
        },
        {
          "distance": 0.19203853607177734,
          "id": 1729355587
        }
      ]
    },
    "sfomuseum:placetype": "instagram",
    "src:geom": "sfomuseum",
    "wof:belongsto": [
      1159160869,
      102527513,
      102191575,
      85633793,
      102087579,
      85922583,
      85688637
    ],
    "wof:country": "US",
    "wof:created": 1450897500,
    "wof:geomhash": "b6e33f47475d56bc8da457bc31afadc8",
    "wof:hierarchy": [
      {
        "building_id": 1159160869,
        "campus_id": 102527513,
        "continent_id": 102191575,
        "country_id": 85633793,
        "county_id": 102087579,
        "custom_id": 1729361245,
        "instagram_id": 1729361245,
        "locality_id": 85922583,
        "neighbourhood_id": -1,
        "region_id": 85688637
      }
    ],
    "wof:id": 1729361245,
    "wof:lastmodified": 1787777645,
    "wof:name": "..",
    "wof:parent_id": 1159160869,
    "wof:placetype": "custom",
    "wof:placetype_alt": [
      "instagram"
    ],
    "wof:repo": "sfomuseum-data-socialmedia-instagram",
    "wof:superseded_by": [],
    "wof:supersedes": []
  },
  "bbox": [
    -122.386166,
    37.616356,
    -122.386166,
    37.616356
  ],
  "geometry": {"type":"Point","coordinates":[-122.386166,37.616356]}
}
