{
  "id": 1729360799,
  "type": "Feature",
  "properties": {
    "date:cessation_lower": "2016-04-20",
    "date:cessation_upper": "2016-04-20",
    "date:inception_lower": "2016-04-20",
    "date:inception_upper": "2016-04-20",
    "edtf:cessation": "2016-04-20T12:50:00-07:00",
    "edtf:inception": "2016-04-20T12:50:00-07:00",
    "geom:area": 0,
    "geom:bbox": "-122.386166,37.616356,-122.386166,37.616356",
    "geom:latitude": 37.616356,
    "geom:longitude": -122.386166,
    "instagram:post": {
      "caption": {
        "body": "This ticket for Lieselotte Mitchell was issued on January 18, 1963. Her trip on Lufthansa from San Francisco included stops at Frankfurt, Zurich, and Cairo for a grand total of $961.10. Do you remember flying in the ‘60s?  Lufthansa German Airlines ticket 1963 SFO Museum Collection Gift of the Ralph F. Mitchell, Jr. Family 2013.146.129",
        "excerpt": "This ticket for Lieselotte Mitchell was issued on January 18, 1963.",
        "hashtags": [],
        "users": []
      },
      "media_id": "66a70cad4f14b419577cd08c74bc0cf3",
      "path": "media/other/12965707_260976130918527_1651692828_n_17846902279096775.jpg",
      "perceptual_hash": "p:8a6e2e3ebed083a1",
      "taken": 1461181800,
      "taken_at": "Apr 20, 2016 7:50 pm"
    },
    "millsfield:similar": {
      "google/siglip2-so400m-patch16-naflex": [
        {
          "distance": 0.2654185891151428,
          "id": 1729358023
        },
        {
          "distance": 0.28064101934432983,
          "id": 1729361051
        },
        {
          "distance": 0.314647376537323,
          "id": 1729360861
        },
        {
          "distance": 0.31676942110061646,
          "id": 1729361051
        },
        {
          "distance": 0.3220377564430237,
          "id": 1729358023
        },
        {
          "distance": 0.3436916470527649,
          "id": 1763559277
        },
        {
          "distance": 0.34831082820892334,
          "id": 1729361039
        },
        {
          "distance": 0.3508984446525574,
          "id": 1729357475
        },
        {
          "distance": 0.35332000255584717,
          "id": 1763559291
        },
        {
          "distance": 0.35400813817977905,
          "id": 1729358231
        }
      ]
    },
    "sfomuseum:placetype": "instagram",
    "src:geom": "sfomuseum",
    "wof:belongsto": [
      1159160869,
      102527513,
      102191575,
      85633793,
      102087579,
      85922583,
      85688637
    ],
    "wof:country": "US",
    "wof:created": 1461181800,
    "wof:geomhash": "b6e33f47475d56bc8da457bc31afadc8",
    "wof:hierarchy": [
      {
        "building_id": 1159160869,
        "campus_id": 102527513,
        "continent_id": 102191575,
        "country_id": 85633793,
        "county_id": 102087579,
        "custom_id": 1729360799,
        "instagram_id": 1729360799,
        "locality_id": 85922583,
        "neighbourhood_id": -1,
        "region_id": 85688637
      }
    ],
    "wof:id": 1729360799,
    "wof:lastmodified": 1787777640,
    "wof:name": "This ticket for Lieselotte Mitchell was issued on January 18, 1963...",
    "wof:parent_id": 1159160869,
    "wof:placetype": "custom",
    "wof:placetype_alt": [
      "instagram"
    ],
    "wof:repo": "sfomuseum-data-socialmedia-instagram",
    "wof:superseded_by": [],
    "wof:supersedes": []
  },
  "bbox": [
    -122.386166,
    37.616356,
    -122.386166,
    37.616356
  ],
  "geometry": {"type":"Point","coordinates":[-122.386166,37.616356]}
}
