{
  "id": 1729357041,
  "type": "Feature",
  "properties": {
    "date:cessation_lower": "2019-01-29",
    "date:cessation_upper": "2019-01-29",
    "date:inception_lower": "2019-01-29",
    "date:inception_upper": "2019-01-29",
    "edtf:cessation": "2019-01-28T18:20:13-08:00",
    "edtf:inception": "2019-01-28T18:20:13-08:00",
    "geom:area": 0,
    "geom:bbox": "-122.386166,37.616356,-122.386166,37.616356",
    "geom:latitude": 37.616356,
    "geom:longitude": -122.386166,
    "instagram:post": {
      "caption": {
        "body": "The Sikorsky S-40 was developed in response to requests from Pan American Airways’ president Juan T. Trippe for a high-capacity flying boat. With a cabin capable of carrying thirty-eight passengers, it was nearly double the capacity of the Consolidated Commodore, the airline’s next largest flying boat. Only three were built, and they were the first of the airline’s “Clippers.” The cabins were spacious and luxuriously appointed with mahogany paneling. Pan American Airways introduced S-40 service in 1931, and was first piloted by Charles A. Lindbergh on its Miami–Barranquilla route. Although the aircraft served the airline well during the 1930s, it was noted for its lack of aerodynamic efficiency due to its many struts and support wires. Lindbergh famously referred to the aircraft as a “flying forest.” See \"Aviation Evolutions: The Jim Lund 1:72 Scale Model Airplane Collection\", which features more than 200 models, on display, pre-security, in the Aviation Museum. http://bit.ly/AviationEvolutions",
        "excerpt": "The Sikorsky S-40 was developed in response to requests from Pan American Airways’ president Juan T. Trippe for a high-capacity flying boat.",
        "hashtags": [
          "AviationEvolutions",
          "jimlund",
          "avgeek",
          "aviationgeek",
          "aviation",
          "aviationhistory",
          "vintageaviation",
          "history",
          "aviationgeeks",
          "modelplane",
          "scalemodel",
          "avgeeks"
        ],
        "users": []
      },
      "location": "",
      "media_id": "c90d344a83c3c32193493544d4bc8ad1",
      "path": "photos/201901/c90d344a83c3c32193493544d4bc8ad1.jpg",
      "perceptual_hash": "p:ae99c244351edae5",
      "taken": 1548699600,
      "taken_at": "Jan 28, 2019, 6:20 PM"
    },
    "millsfield:similar": {
      "google/siglip2-so400m-patch16-naflex": [
        {
          "distance": 0.10246282815933228,
          "id": 1880151691
        },
        {
          "distance": 0.1207614541053772,
          "id": 1729357537
        },
        {
          "distance": 0.12089389562606812,
          "id": 1729358695
        },
        {
          "distance": 0.12626779079437256,
          "id": 1729355871
        },
        {
          "distance": 0.12857401371002197,
          "id": 1880151387
        },
        {
          "distance": 0.12945878505706787,
          "id": 1880150943
        },
        {
          "distance": 0.13301151990890503,
          "id": 1729356541
        },
        {
          "distance": 0.13399165868759155,
          "id": 1763559651
        },
        {
          "distance": 0.1342477798461914,
          "id": 1729360591
        },
        {
          "distance": 0.1429353952407837,
          "id": 1729358071
        }
      ]
    },
    "sfomuseum:placetype": "instagram",
    "src:geom": "sfomuseum",
    "wof:belongsto": [
      1159160869,
      102527513,
      102191575,
      85633793,
      102087579,
      85922583,
      85688637
    ],
    "wof:country": "US",
    "wof:created": 1548728413,
    "wof:geomhash": "b6e33f47475d56bc8da457bc31afadc8",
    "wof:hierarchy": [
      {
        "building_id": 1159160869,
        "campus_id": 102527513,
        "continent_id": 102191575,
        "country_id": 85633793,
        "county_id": 102087579,
        "custom_id": 1729357041,
        "instagram_id": 1729357041,
        "locality_id": 85922583,
        "neighbourhood_id": -1,
        "region_id": 85688637
      }
    ],
    "wof:id": 1729357041,
    "wof:lastmodified": 1787777629,
    "wof:name": "The Sikorsky S-40 was developed in response to requests from Pan American Airways’ president Juan T. Trippe for a high-capacity flying boat...",
    "wof:parent_id": 1159160869,
    "wof:placetype": "custom",
    "wof:placetype_alt": [
      "instagram"
    ],
    "wof:repo": "sfomuseum-data-socialmedia-instagram",
    "wof:superseded_by": [],
    "wof:supersedes": []
  },
  "bbox": [
    -122.386166,
    37.616356,
    -122.386166,
    37.616356
  ],
  "geometry": {"type":"Point","coordinates":[-122.386166,37.616356]}
}
