{
  "id": 1729355709,
  "type": "Feature",
  "properties": {
    "date:cessation_lower": "2019-12-27",
    "date:cessation_upper": "2019-12-27",
    "date:inception_lower": "2019-12-27",
    "date:inception_upper": "2019-12-27",
    "edtf:cessation": "2019-12-27T08:03:00-08:00",
    "edtf:inception": "2019-12-27T08:03:00-08:00",
    "geom:area": 0,
    "geom:bbox": "-122.386166,37.616356,-122.386166,37.616356",
    "geom:latitude": 37.616356,
    "geom:longitude": -122.386166,
    "instagram:post": {
      "caption": {
        "body": "All Nippon Airways (ANA) began as Japan Helicopter \u0026 Aeroplane Transports Company #onthisday in 1952. The airline changed its name to All Nippon Airways in 1957 and merged with Far Eastern Airlines in 1958. The airline has grown to become the largest in Japan. In December 1998, ANA began service from Tokyo to San Francisco. Have you ever flown on ANA?  Image: ANA (All Nippon Airways) model airplane, Boeing 787-8, 2008. SFO Museum Collection. 2009.036.007 a b",
        "excerpt": "All Nippon Airways (ANA) began as Japan Helicopter \u0026 Aeroplane Transports Company #onthisday in 1952.",
        "hashtags": [
          "ANA",
          "avgeek",
          "AllNipponAirways",
          "Japan",
          "modelplane"
        ],
        "users": []
      },
      "media_id": "0885eb7da8043ebf93d9baf6fb805c98",
      "path": "media/other/77432716_159512745362532_4757210851537685322_n_18036379744232541.jpg",
      "perceptual_hash": "p:a29995e649729e95",
      "taken": 1577462580,
      "taken_at": "Dec 27, 2019 4:03 pm"
    },
    "millsfield:similar": {
      "google/siglip2-so400m-patch16-naflex": [
        {
          "distance": 0.10265904664993286,
          "id": 1763558963
        },
        {
          "distance": 0.11522936820983887,
          "id": 1763559313
        },
        {
          "distance": 0.1363200545310974,
          "id": 1763559313
        },
        {
          "distance": 0.1424694061279297,
          "id": 1763558963
        },
        {
          "distance": 0.15290403366088867,
          "id": 1763559403
        },
        {
          "distance": 0.15718811750411987,
          "id": 1880151773
        },
        {
          "distance": 0.16609430313110352,
          "id": 1763559343
        },
        {
          "distance": 0.17587506771087646,
          "id": 1729359579
        },
        {
          "distance": 0.17709499597549438,
          "id": 1729356565
        },
        {
          "distance": 0.17917537689208984,
          "id": 1729356383
        }
      ]
    },
    "sfomuseum:placetype": "instagram",
    "src:geom": "sfomuseum",
    "wof:belongsto": [
      1159160869,
      102527513,
      102191575,
      85633793,
      102087579,
      85922583,
      85688637
    ],
    "wof:country": "US",
    "wof:created": 1577462580,
    "wof:geomhash": "b6e33f47475d56bc8da457bc31afadc8",
    "wof:hierarchy": [
      {
        "building_id": 1159160869,
        "campus_id": 102527513,
        "continent_id": 102191575,
        "country_id": 85633793,
        "county_id": 102087579,
        "custom_id": 1729355709,
        "instagram_id": 1729355709,
        "locality_id": 85922583,
        "neighbourhood_id": -1,
        "region_id": 85688637
      }
    ],
    "wof:id": 1729355709,
    "wof:lastmodified": 1787777627,
    "wof:name": "All Nippon Airways (ANA) began as Japan Helicopter \u0026 Aeroplane Transports Company #onthisday in 1952...",
    "wof:parent_id": 1159160869,
    "wof:placetype": "custom",
    "wof:placetype_alt": [
      "instagram"
    ],
    "wof:repo": "sfomuseum-data-socialmedia-instagram",
    "wof:superseded_by": [],
    "wof:supersedes": []
  },
  "bbox": [
    -122.386166,
    37.616356,
    -122.386166,
    37.616356
  ],
  "geometry": {"type":"Point","coordinates":[-122.386166,37.616356]}
}
