{
  "id": 1729361955,
  "type": "Feature",
  "properties": {
    "date:cessation_lower": "2015-01-21",
    "date:cessation_upper": "2015-01-21",
    "date:inception_lower": "2015-01-21",
    "date:inception_upper": "2015-01-21",
    "edtf:cessation": "2015-01-21T03:06:00-08:00",
    "edtf:inception": "2015-01-21T03:06:00-08:00",
    "geom:area": 0,
    "geom:bbox": "-122.386166,37.616356,-122.386166,37.616356",
    "geom:latitude": 37.616356,
    "geom:longitude": -122.386166,
    "instagram:post": {
      "caption": {
        "body": "",
        "excerpt": "",
        "hashtags": [
          "WesternAirlines",
          "Aztec",
          "coaster"
        ],
        "users": []
      },
      "media_id": "a6c8b4b76874ae1454a283568bcf28f8",
      "path": "media/other/10903559_826927897353195_1104853244_n_17841721642062499.jpg",
      "perceptual_hash": "p:fa92814c975a9e69",
      "taken": 1421838360,
      "taken_at": "Jan 21, 2015 11:06 am"
    },
    "millsfield:similar": {
      "google/siglip2-so400m-patch16-naflex": [
        {
          "distance": 0.34462666511535645,
          "id": 1729361371
        },
        {
          "distance": 0.3460519313812256,
          "id": 1729362251
        },
        {
          "distance": 0.3625245690345764,
          "id": 1729362251
        },
        {
          "distance": 0.3633157014846802,
          "id": 1729359223
        },
        {
          "distance": 0.3658338785171509,
          "id": 1729361715
        },
        {
          "distance": 0.3768913149833679,
          "id": 1729356481
        },
        {
          "distance": 0.37816041707992554,
          "id": 1729359871
        },
        {
          "distance": 0.379538357257843,
          "id": 1729361779
        },
        {
          "distance": 0.3805181384086609,
          "id": 1729360387
        },
        {
          "distance": 0.3825184106826782,
          "id": 1729362217
        }
      ]
    },
    "sfomuseum:placetype": "instagram",
    "src:geom": "sfomuseum",
    "wof:belongsto": [
      1159160869,
      102527513,
      102191575,
      85633793,
      102087579,
      85922583,
      85688637
    ],
    "wof:country": "US",
    "wof:created": 1421838360,
    "wof:geomhash": "b6e33f47475d56bc8da457bc31afadc8",
    "wof:hierarchy": [
      {
        "building_id": 1159160869,
        "campus_id": 102527513,
        "continent_id": 102191575,
        "country_id": 85633793,
        "county_id": 102087579,
        "custom_id": 1729361955,
        "instagram_id": 1729361955,
        "locality_id": 85922583,
        "neighbourhood_id": -1,
        "region_id": 85688637
      }
    ],
    "wof:id": 1729361955,
    "wof:lastmodified": 1787777646,
    "wof:name": "..",
    "wof:parent_id": 1159160869,
    "wof:placetype": "custom",
    "wof:placetype_alt": [
      "instagram"
    ],
    "wof:repo": "sfomuseum-data-socialmedia-instagram",
    "wof:superseded_by": [],
    "wof:supersedes": []
  },
  "bbox": [
    -122.386166,
    37.616356,
    -122.386166,
    37.616356
  ],
  "geometry": {"type":"Point","coordinates":[-122.386166,37.616356]}
}
