{
  "id": 1880151429,
  "type": "Feature",
  "properties": {
    "date:cessation_lower": "2022-09-29",
    "date:cessation_upper": "2022-09-29",
    "date:inception_lower": "2022-09-29",
    "date:inception_upper": "2022-09-29",
    "edtf:cessation": "2022-09-29T08:51:00-07:00",
    "edtf:inception": "2022-09-29T08:51:00-07:00",
    "geom:area": 0,
    "geom:bbox": "-122.386166,37.616356,-122.386166,37.616356",
    "geom:latitude": 37.616356,
    "geom:longitude": -122.386166,
    "instagram:post": {
      "caption": {
        "body": "Piedmont Aviation was incorporated in North Carolina on July 2, 1940, by Thomas Henry Davis. Initially, Piedmont Aviation began as an airplane repair service and a training school for pilots. After creating a subsidiary, Piedmont Airlines, the company operated its first passenger service in February 1948. After six years, Piedmont celebrated carrying its millionth passenger in 1954. By 1962, Piedmont's service extended to Atlanta, Georgia, and Washington, D.C. Their entry into the jet age was powered by a Boeing 727 in 1967. Piedmont started to operate Boeing 737s the next year.   In 1989, Piedmont was acquired by USAir, which, in turn, was acquired by American Airlines.   Today’s Defunct Thursday episode has a rather complicated plot twist: USAir changed the name of an affiliated subsidiary, Henson Airlines, to Piedmont Airlines in 1993. This new iteration of Piedmont uses the same logo as the earlier company and operates as a subsidiary of American Airlines.",
        "excerpt": "Piedmont Aviation was incorporated in North Carolina on July 2, 1940, by Thomas Henry Davis.",
        "hashtags": [
          "DefunctThursday",
          "Piedmont",
          "AvGeek",
          "airline"
        ],
        "users": []
      },
      "media_id": "f900dc2efe17e2fa742d67b92ab5b75361529d68",
      "path": "media/posts/202209/309166438_765143544922686_8110698081481718701_n_17968953583851213.jpg",
      "perceptual_hash": "p:ead03e9437250d3b",
      "taken": 1664466660,
      "taken_at": "Sep 29, 2022 3:51 pm"
    },
    "millsfield:similar": {
      "google/siglip2-so400m-patch16-naflex": [
        {
          "distance": 0.3642537593841553,
          "id": 1880151767
        },
        {
          "distance": 0.3706759810447693,
          "id": 1880151353
        },
        {
          "distance": 0.3928390145301819,
          "id": 1880151767
        },
        {
          "distance": 0.39540237188339233,
          "id": 1880151015
        },
        {
          "distance": 0.3986029624938965,
          "id": 1729356053
        },
        {
          "distance": 0.3995228409767151,
          "id": 1880151535
        },
        {
          "distance": 0.4096677303314209,
          "id": 1880151353
        },
        {
          "distance": 0.4324387311935425,
          "id": 1729355735
        },
        {
          "distance": 0.4340653419494629,
          "id": 1729355735
        },
        {
          "distance": 0.4342438578605652,
          "id": 1729356495
        }
      ]
    },
    "sfomuseum:placetype": "instagram",
    "src:geom": "sfomuseum",
    "wof:belongsto": [
      1159160869,
      102527513,
      102191575,
      85633793,
      102087579,
      85922583,
      85688637
    ],
    "wof:country": "US",
    "wof:created": 1664466660,
    "wof:geomhash": "b6e33f47475d56bc8da457bc31afadc8",
    "wof:hierarchy": [
      {
        "building_id": 1159160869,
        "campus_id": 102527513,
        "continent_id": 102191575,
        "country_id": 85633793,
        "county_id": 102087579,
        "custom_id": 1880151429,
        "instagram_id": 1880151429,
        "locality_id": 85922583,
        "neighbourhood_id": -1,
        "region_id": 85688637
      }
    ],
    "wof:id": 1880151429,
    "wof:lastmodified": 1787777662,
    "wof:name": "Piedmont Aviation was incorporated in North Carolina on July 2, 1940, by Thomas Henry Davis...",
    "wof:parent_id": 1159160869,
    "wof:placetype": "custom",
    "wof:placetype_alt": [
      "instagram"
    ],
    "wof:repo": "sfomuseum-data-socialmedia-instagram",
    "wof:superseded_by": [],
    "wof:supersedes": []
  },
  "bbox": [
    -122.386166,
    37.616356,
    -122.386166,
    37.616356
  ],
  "geometry": {"type":"Point","coordinates":[-122.386166,37.616356]}
}
