{
  "id": 1729356257,
  "type": "Feature",
  "properties": {
    "date:cessation_lower": "2019-08-01",
    "date:cessation_upper": "2019-08-01",
    "date:inception_lower": "2019-08-01",
    "date:inception_upper": "2019-08-01",
    "edtf:cessation": "2019-08-01T06:55:00-07:00",
    "edtf:inception": "2019-08-01T06:55:00-07:00",
    "geom:area": 0,
    "geom:bbox": "-122.386166,37.616356,-122.386166,37.616356",
    "geom:latitude": 37.616356,
    "geom:longitude": -122.386166,
    "instagram:post": {
      "caption": {
        "body": "SAS (Scandinavian Airlines System), founded in 1946, is based in Stockholm, Sweden. The flag carrier of Norway, Denmark, and Sweden, SAS was established as a consolidation of previous Scandinavian flag carrying airlines, Det Danske Luftfartselskab A/S (DDL), Det Norske Luftfartselskap A/S (DNL) and Svensk Interkontinetal Lufttrafik AB (SILA). Have you ever flown on SAS?  Image: SAS (Scandinavian Airlines System) poster, 1950s. Gift of Captain Jon Simmonds. 2014.166.082",
        "excerpt": "SAS (Scandinavian Airlines System), founded in 1946, is based in Stockholm, Sweden.",
        "hashtags": [
          "SAS",
          "ScandinavianAirlinesSystem",
          "avgeek",
          "Norway",
          "Denmark",
          "Sweden"
        ],
        "users": []
      },
      "media_id": "bd0eb09dccac7401a6f71ec6ec3e796c",
      "path": "media/other/62030806_1180225938827923_6729492622854773406_n_17865643576445508.jpg",
      "perceptual_hash": "p:b8c3c197c69a9665",
      "taken": 1564667700,
      "taken_at": "Aug 01, 2019 1:55 pm"
    },
    "millsfield:similar": {
      "google/siglip2-so400m-patch16-naflex": [
        {
          "distance": 0.018527448177337646,
          "id": 1763559353
        },
        {
          "distance": 0.10758334398269653,
          "id": 1763559353
        },
        {
          "distance": 0.2139487862586975,
          "id": 1729361575
        },
        {
          "distance": 0.25023090839385986,
          "id": 1729361575
        },
        {
          "distance": 0.26466667652130127,
          "id": 1729360475
        },
        {
          "distance": 0.2686060667037964,
          "id": 1729359643
        },
        {
          "distance": 0.2706776261329651,
          "id": 1729360839
        },
        {
          "distance": 0.28174346685409546,
          "id": 1729355197
        },
        {
          "distance": 0.2853286862373352,
          "id": 1729359455
        },
        {
          "distance": 0.28898268938064575,
          "id": 1729359319
        }
      ]
    },
    "sfomuseum:placetype": "instagram",
    "src:geom": "sfomuseum",
    "wof:belongsto": [
      1159160869,
      102527513,
      102191575,
      85633793,
      102087579,
      85922583,
      85688637
    ],
    "wof:country": "US",
    "wof:created": 1564667700,
    "wof:geomhash": "b6e33f47475d56bc8da457bc31afadc8",
    "wof:hierarchy": [
      {
        "building_id": 1159160869,
        "campus_id": 102527513,
        "continent_id": 102191575,
        "country_id": 85633793,
        "county_id": 102087579,
        "custom_id": 1729356257,
        "instagram_id": 1729356257,
        "locality_id": 85922583,
        "neighbourhood_id": -1,
        "region_id": 85688637
      }
    ],
    "wof:id": 1729356257,
    "wof:lastmodified": 1787777629,
    "wof:name": "SAS (Scandinavian Airlines System), founded in 1946, is based in Stockholm, Sweden...",
    "wof:parent_id": 1159160869,
    "wof:placetype": "custom",
    "wof:placetype_alt": [
      "instagram"
    ],
    "wof:repo": "sfomuseum-data-socialmedia-instagram",
    "wof:superseded_by": [],
    "wof:supersedes": []
  },
  "bbox": [
    -122.386166,
    37.616356,
    -122.386166,
    37.616356
  ],
  "geometry": {"type":"Point","coordinates":[-122.386166,37.616356]}
}
