{
  "id": 1729363043,
  "type": "Feature",
  "properties": {
    "date:cessation_lower": "2012-04-05",
    "date:cessation_upper": "2012-04-05",
    "date:inception_lower": "2012-04-05",
    "date:inception_upper": "2012-04-05",
    "edtf:cessation": "2012-04-05T05:49:00-07:00",
    "edtf:inception": "2012-04-05T05:49:00-07:00",
    "geom:area": 0,
    "geom:bbox": "-122.386166,37.616356,-122.386166,37.616356",
    "geom:latitude": 37.616356,
    "geom:longitude": -122.386166,
    "instagram:post": {
      "caption": {
        "body": "",
        "excerpt": "",
        "hashtags": [
          "Aviation",
          "AVGeeks"
        ],
        "users": []
      },
      "media_id": "3c6f62036806a061cf5ed8ffab240937",
      "path": "media/other/11176069_953905311308995_1149443036_n_17842246627062499.jpg",
      "perceptual_hash": "p:ca3d8368b2c1c7c7",
      "taken": 1333630140,
      "taken_at": "Apr 05, 2012 12:49 pm"
    },
    "millsfield:similar": {
      "google/siglip2-so400m-patch16-naflex": [
        {
          "distance": 0.3203815221786499,
          "id": 1729362579
        },
        {
          "distance": 0.3286340832710266,
          "id": 1729362959
        },
        {
          "distance": 0.32919174432754517,
          "id": 1729362367
        },
        {
          "distance": 0.330879271030426,
          "id": 1729362709
        },
        {
          "distance": 0.3347996473312378,
          "id": 1729362581
        },
        {
          "distance": 0.3451140522956848,
          "id": 1947424843
        },
        {
          "distance": 0.3454914689064026,
          "id": 1729362923
        },
        {
          "distance": 0.3504236936569214,
          "id": 1729362259
        },
        {
          "distance": 0.35570603609085083,
          "id": 1729361597
        },
        {
          "distance": 0.357047975063324,
          "id": 1729361489
        }
      ]
    },
    "sfomuseum:placetype": "instagram",
    "src:geom": "sfomuseum",
    "wof:belongsto": [
      1159160869,
      102527513,
      102191575,
      85633793,
      102087579,
      85922583,
      85688637
    ],
    "wof:country": "US",
    "wof:created": 1333630140,
    "wof:geomhash": "b6e33f47475d56bc8da457bc31afadc8",
    "wof:hierarchy": [
      {
        "building_id": 1159160869,
        "campus_id": 102527513,
        "continent_id": 102191575,
        "country_id": 85633793,
        "county_id": 102087579,
        "custom_id": 1729363043,
        "instagram_id": 1729363043,
        "locality_id": 85922583,
        "neighbourhood_id": -1,
        "region_id": 85688637
      }
    ],
    "wof:id": 1729363043,
    "wof:lastmodified": 1787777658,
    "wof:name": "..",
    "wof:parent_id": 1159160869,
    "wof:placetype": "custom",
    "wof:placetype_alt": [
      "instagram"
    ],
    "wof:repo": "sfomuseum-data-socialmedia-instagram",
    "wof:superseded_by": [],
    "wof:supersedes": []
  },
  "bbox": [
    -122.386166,
    37.616356,
    -122.386166,
    37.616356
  ],
  "geometry": {"type":"Point","coordinates":[-122.386166,37.616356]}
}
