{
  "id": 1880151081,
  "type": "Feature",
  "properties": {
    "date:cessation_lower": "2023-03-03",
    "date:cessation_upper": "2023-03-03",
    "date:inception_lower": "2023-03-03",
    "date:inception_upper": "2023-03-03",
    "edtf:cessation": "2023-03-03T01:29:00-08:00",
    "edtf:inception": "2023-03-03T01:29:00-08:00",
    "geom:area": 0,
    "geom:bbox": "-122.386166,37.616356,-122.386166,37.616356",
    "geom:latitude": 37.616356,
    "geom:longitude": -122.386166,
    "instagram:post": {
      "caption": {
        "body": "Susan O’Malley (1976-2015) asked everyday people, ranging in ages from seven to eighty-eight, “What advice would your 80-year-old self give you?” She began this project at a period in her life when she was considering leaving her “grown-up job” to focus on her artistic endeavors and while her mother was suffering from a rapidly degenerative disease. O’Malley distilled over one hundred interviews into vibrantly-colored text-based works. The inspirational words of these sixteen prints vary in content from the sincere to the silly and allude to the idea that the wisdom of our 80-year-old selves might already exist within us.  See “Advice from My 80-Year-Old-Self” by Susan O’Malley on display, post-security, in Harvey Milk Terminal 1. http://bit.ly/3IoAEXN",
        "excerpt": "Susan O’Malley (1976-2015) asked everyday people, ranging in ages from seven to eighty-eight, “What advice would your 80-year-old self give you?” She began this project at a period in her life when she was considering leaving her “grown-up job” to focus on her artistic endeavors and while her mother was suffering from a rapidly degenerative disease.",
        "hashtags": [
          "SusanOMalley",
          "5WomenArtists",
          "InternationalWomensHistoryMonth",
          "WomensHistoryMonth",
          "PublicArt"
        ],
        "users": [
          "sf_arts_commission"
        ]
      },
      "media_id": "95a48426ca657049af25c1daa3b5df1ed3e8c0e8",
      "path": "media/posts/202303/333557421_196128439686364_2169266489828671402_n_17980499905871617.jpg",
      "perceptual_hash": "p:c2b1d42a4ff4a2d5",
      "taken": 1677835740,
      "taken_at": "Mar 03, 2023 9:29 am"
    },
    "millsfield:similar": {
      "google/siglip2-so400m-patch16-naflex": [
        {
          "distance": 0.1775294542312622,
          "id": 1729355617
        },
        {
          "distance": 0.17891067266464233,
          "id": 1880151351
        },
        {
          "distance": 0.18220925331115723,
          "id": 1763559341
        },
        {
          "distance": 0.18421250581741333,
          "id": 1880151657
        },
        {
          "distance": 0.1972726583480835,
          "id": 1880151657
        },
        {
          "distance": 0.2246953845024109,
          "id": 1763559355
        },
        {
          "distance": 0.22581100463867188,
          "id": 1729355617
        },
        {
          "distance": 0.23142093420028687,
          "id": 1947425105
        },
        {
          "distance": 0.23632949590682983,
          "id": 1729357891
        },
        {
          "distance": 0.23770272731781006,
          "id": 1880151351
        }
      ]
    },
    "sfomuseum:placetype": "instagram",
    "src:geom": "sfomuseum",
    "wof:belongsto": [
      1159160869,
      102527513,
      102191575,
      85633793,
      102087579,
      85922583,
      85688637
    ],
    "wof:country": "US",
    "wof:created": 1677835740,
    "wof:geomhash": "b6e33f47475d56bc8da457bc31afadc8",
    "wof:hierarchy": [
      {
        "building_id": 1159160869,
        "campus_id": 102527513,
        "continent_id": 102191575,
        "country_id": 85633793,
        "county_id": 102087579,
        "custom_id": 1880151081,
        "instagram_id": 1880151081,
        "locality_id": 85922583,
        "neighbourhood_id": -1,
        "region_id": 85688637
      }
    ],
    "wof:id": 1880151081,
    "wof:lastmodified": 1787777662,
    "wof:name": "Susan O’Malley (1976-2015) asked everyday people, ranging in ages from seven to eighty-eight, “What advice would your 80-year-old self give you?” She began this project at a period in her life when she was considering leaving her “grown-up job” to focus on her artistic endeavors and while her mother was suffering from a rapidly degenerative disease...",
    "wof:parent_id": 1159160869,
    "wof:placetype": "custom",
    "wof:placetype_alt": [
      "instagram"
    ],
    "wof:repo": "sfomuseum-data-socialmedia-instagram",
    "wof:superseded_by": [],
    "wof:supersedes": []
  },
  "bbox": [
    -122.386166,
    37.616356,
    -122.386166,
    37.616356
  ],
  "geometry": {"type":"Point","coordinates":[-122.386166,37.616356]}
}
