{
  "id": 1729356297,
  "type": "Feature",
  "properties": {
    "date:cessation_lower": "2019-07-23",
    "date:cessation_upper": "2019-07-23",
    "date:inception_lower": "2019-07-23",
    "date:inception_upper": "2019-07-23",
    "edtf:cessation": "2019-07-22T17:12:02-07:00",
    "edtf:inception": "2019-07-22T17:12:02-07:00",
    "geom:area": 0,
    "geom:bbox": "-122.386166,37.616356,-122.386166,37.616356",
    "geom:latitude": 37.616356,
    "geom:longitude": -122.386166,
    "instagram:post": {
      "caption": {
        "body": "When you say “bug” to entomologists, they assume you mean a true bug—an insect in the order Hemiptera. This group includes stink bugs, kissing bugs, water striders, cicadas, aphids, and many more. They all have stiff, beak-like mouthparts, like a hypodermic needle, that can pierce through plant tissue or other insects’ exoskeletons. By injecting saliva with digestive enzymes into their food, they are able to suck the fluids out with their straw-like mouthparts. Many true bugs are aquatic as both nymphs and adults.  See “The Intriguing World of Insects” on display, pre-security, in the International Terminal. http://bit.ly/IntriguingInsects",
        "excerpt": "When you say “bug” to entomologists, they assume you mean a true bug—an insect in the order Hemiptera.",
        "hashtags": [
          "IntriguingInsects",
          "WorldofInsects",
          "insects",
          "Entomology",
          "Berkeley",
          "UCBerkeley",
          "truebugs",
          "bugs",
          "Hemiptera",
          "museum"
        ],
        "users": []
      },
      "location": "",
      "media_id": "abd7146a0c99bfa2165d273d8d213239",
      "path": "photos/201907/abd7146a0c99bfa2165d273d8d213239.jpg",
      "perceptual_hash": "p:b1eee73994962829",
      "taken": 1563811920,
      "taken_at": "Jul 22, 2019, 4:12 PM"
    },
    "millsfield:similar": {
      "google/siglip2-so400m-patch16-naflex": [
        {
          "distance": 0.10555797815322876,
          "id": 1729356287
        },
        {
          "distance": 0.13966917991638184,
          "id": 1729356459
        },
        {
          "distance": 0.1467059850692749,
          "id": 1729356295
        },
        {
          "distance": 0.14717018604278564,
          "id": 1729356455
        },
        {
          "distance": 0.15705609321594238,
          "id": 1729356209
        },
        {
          "distance": 0.15997976064682007,
          "id": 1729356197
        },
        {
          "distance": 0.16450607776641846,
          "id": 1729356679
        },
        {
          "distance": 0.17309153079986572,
          "id": 1729356287
        },
        {
          "distance": 0.17487108707427979,
          "id": 1729356295
        },
        {
          "distance": 0.17585629224777222,
          "id": 1729355923
        }
      ]
    },
    "sfomuseum:placetype": "instagram",
    "src:geom": "sfomuseum",
    "wof:belongsto": [
      1159160869,
      102527513,
      102191575,
      85633793,
      102087579,
      85922583,
      85688637
    ],
    "wof:country": "US",
    "wof:created": 1563840722,
    "wof:geomhash": "b6e33f47475d56bc8da457bc31afadc8",
    "wof:hierarchy": [
      {
        "building_id": 1159160869,
        "campus_id": 102527513,
        "continent_id": 102191575,
        "country_id": 85633793,
        "county_id": 102087579,
        "custom_id": 1729356297,
        "instagram_id": 1729356297,
        "locality_id": 85922583,
        "neighbourhood_id": -1,
        "region_id": 85688637
      }
    ],
    "wof:id": 1729356297,
    "wof:lastmodified": 1787777629,
    "wof:name": "When you say “bug” to entomologists, they assume you mean a true bug—an insect in the order Hemiptera...",
    "wof:parent_id": 1159160869,
    "wof:placetype": "custom",
    "wof:placetype_alt": [
      "instagram"
    ],
    "wof:repo": "sfomuseum-data-socialmedia-instagram",
    "wof:superseded_by": [],
    "wof:supersedes": []
  },
  "bbox": [
    -122.386166,
    37.616356,
    -122.386166,
    37.616356
  ],
  "geometry": {"type":"Point","coordinates":[-122.386166,37.616356]}
}
