{
  "id": 1763559481,
  "type": "Feature",
  "properties": {
    "date:cessation_lower": "2021-08-02",
    "date:cessation_upper": "2021-08-02",
    "date:inception_lower": "2021-08-02",
    "date:inception_upper": "2021-08-02",
    "edtf:cessation": "2021-08-02T08:23:00-07:00",
    "edtf:inception": "2021-08-02T08:23:00-07:00",
    "geom:area": 0,
    "geom:bbox": "-122.386166,37.616356,-122.386166,37.616356",
    "geom:latitude": 37.616356,
    "geom:longitude": -122.386166,
    "instagram:post": {
      "caption": {
        "body": "Celebrate August with four short films that remind us of the importance of bliss in our lives. From a trio of sisters who find joy and solace in the concrete bowls of Houston’s skate parks to a young man who finds bliss in the escape that street dancing provides, and from a legendary surfer grounded by his spiritual connection to the natural world to a man whose life’s work is to share the bliss he finds in roller skating with others, today’s filmmakers bring us stories that inspire and enlighten.  Our screening room may still be closed, but you can watch the films online at: http://bit.ly/VideoArts",
        "excerpt": "Celebrate August with four short films that remind us of the importance of bliss in our lives.",
        "hashtags": [
          "videoartsSFOM",
          "videoarts",
          "bliss"
        ],
        "users": []
      },
      "media_id": "a1fd804665a3b5ef3d97fc9f3519730ce5f1a30c",
      "path": "media/posts/202108/229861455_545709136681184_5460072132364917802_n_17993360104366498.jpg",
      "perceptual_hash": "p:f2b28d4df692086d",
      "taken": 1627917780,
      "taken_at": "Aug 02, 2021 3:23 pm"
    },
    "millsfield:similar": {
      "google/siglip2-so400m-patch16-naflex": [
        {
          "distance": 0.3343665599822998,
          "id": 1729358367
        },
        {
          "distance": 0.3533463478088379,
          "id": 1763559271
        },
        {
          "distance": 0.35911381244659424,
          "id": 1729359681
        },
        {
          "distance": 0.37043172121047974,
          "id": 1729360651
        },
        {
          "distance": 0.37103790044784546,
          "id": 1729362521
        },
        {
          "distance": 0.37340056896209717,
          "id": 1763558729
        },
        {
          "distance": 0.37340056896209717,
          "id": 1729358233
        },
        {
          "distance": 0.37398725748062134,
          "id": 1729356955
        },
        {
          "distance": 0.38105130195617676,
          "id": 1729355615
        },
        {
          "distance": 0.38309967517852783,
          "id": 1729357231
        }
      ]
    },
    "sfomuseum:placetype": "instagram",
    "src:geom": "sfomuseum",
    "wof:belongsto": [
      1159160869,
      102527513,
      102191575,
      85633793,
      102087579,
      85922583,
      85688637
    ],
    "wof:country": "US",
    "wof:created": 1627917780,
    "wof:geomhash": "b6e33f47475d56bc8da457bc31afadc8",
    "wof:hierarchy": [
      {
        "building_id": 1159160869,
        "campus_id": 102527513,
        "continent_id": 102191575,
        "country_id": 85633793,
        "county_id": 102087579,
        "custom_id": 1763559481,
        "instagram_id": 1763559481,
        "locality_id": 85922583,
        "neighbourhood_id": -1,
        "region_id": 85688637
      }
    ],
    "wof:id": 1763559481,
    "wof:lastmodified": 1787777660,
    "wof:name": "Celebrate August with four short films that remind us of the importance of bliss in our lives...",
    "wof:parent_id": 1159160869,
    "wof:placetype": "custom",
    "wof:placetype_alt": [
      "instagram"
    ],
    "wof:repo": "sfomuseum-data-socialmedia-instagram",
    "wof:superseded_by": [],
    "wof:supersedes": []
  },
  "bbox": [
    -122.386166,
    37.616356,
    -122.386166,
    37.616356
  ],
  "geometry": {"type":"Point","coordinates":[-122.386166,37.616356]}
}
