{
  "id": 1729359899,
  "type": "Feature",
  "properties": {
    "date:cessation_lower": "2017-01-25",
    "date:cessation_upper": "2017-01-25",
    "date:inception_lower": "2017-01-25",
    "date:inception_upper": "2017-01-25",
    "edtf:cessation": "2017-01-25T09:38:00-08:00",
    "edtf:inception": "2017-01-25T09:38:00-08:00",
    "geom:area": 0,
    "geom:bbox": "-122.386166,37.616356,-122.386166,37.616356",
    "geom:latitude": 37.616356,
    "geom:longitude": -122.386166,
    "instagram:post": {
      "caption": {
        "body": "In 1949, Pan American World Airways introduced its new long-range, double-decked, transoceanic luxury airliner, the Boeing 377 Stratocruiser and installed the Sleeperette seat within a convertible sleeping berth configuration. This black and white promotional photograph of two models in a Sleeperette seat showcased the modernity, comfortability, and luxury of Pan Am’s planes. Trademarked by the airline in 1948, the Sleeperette was designed to be used as a traditional upright seat during daytime service and then to fold out, or recline, nearly flat into a bed-like configuration with an extendable leg and foot rest for nighttime sleeper service. Soon after, this type of seat became standard equipment on most long-distance sleeper-service airliners. #WomenInAviation #Boeing #PanAm #Sleeperette #avgeek #aviationhistory  Pan American World Airways, Pacific - Alaska Division c. 1949 SFO Museum Collection Gift of William E. Talbott 2012.151.198",
        "excerpt": "In 1949, Pan American World Airways introduced its new long-range, double-decked, transoceanic luxury airliner, the Boeing 377 Stratocruiser and installed the Sleeperette seat within a convertible sleeping berth configuration.",
        "hashtags": [],
        "users": []
      },
      "media_id": "6a91dd4d0589b4c6db9c263b19af3678",
      "path": "media/posts/201701/16228718_1152404071548158_2632169156870406144_n_17847670399190623.jpg",
      "perceptual_hash": "p:c01f6cf213c73d38",
      "taken": 1485365880,
      "taken_at": "Jan 25, 2017 5:38 pm"
    },
    "millsfield:similar": {
      "google/siglip2-so400m-patch16-naflex": [
        {
          "distance": 0.14770054817199707,
          "id": 1729361659
        },
        {
          "distance": 0.1868106722831726,
          "id": 1729360723
        },
        {
          "distance": 0.20195931196212769,
          "id": 1729359509
        },
        {
          "distance": 0.20543473958969116,
          "id": 1729361659
        },
        {
          "distance": 0.21518391370773315,
          "id": 1729358609
        },
        {
          "distance": 0.22417038679122925,
          "id": 1729358609
        },
        {
          "distance": 0.23363417387008667,
          "id": 1763559125
        },
        {
          "distance": 0.23564088344573975,
          "id": 1729359503
        },
        {
          "distance": 0.23776865005493164,
          "id": 1729358079
        },
        {
          "distance": 0.238416850566864,
          "id": 1880151765
        }
      ]
    },
    "sfomuseum:placetype": "instagram",
    "src:geom": "sfomuseum",
    "wof:belongsto": [
      1159160869,
      102527513,
      102191575,
      85633793,
      102087579,
      85922583,
      85688637
    ],
    "wof:country": "US",
    "wof:created": 1485365880,
    "wof:geomhash": "b6e33f47475d56bc8da457bc31afadc8",
    "wof:hierarchy": [
      {
        "building_id": 1159160869,
        "campus_id": 102527513,
        "continent_id": 102191575,
        "country_id": 85633793,
        "county_id": 102087579,
        "custom_id": 1729359899,
        "instagram_id": 1729359899,
        "locality_id": 85922583,
        "neighbourhood_id": -1,
        "region_id": 85688637
      }
    ],
    "wof:id": 1729359899,
    "wof:lastmodified": 1787777637,
    "wof:name": "In 1949, Pan American World Airways introduced its new long-range, double-decked, transoceanic luxury airliner, the Boeing 377 Stratocruiser and installed the Sleeperette seat within a convertible sleeping berth configuration...",
    "wof:parent_id": 1159160869,
    "wof:placetype": "custom",
    "wof:placetype_alt": [
      "instagram"
    ],
    "wof:repo": "sfomuseum-data-socialmedia-instagram",
    "wof:superseded_by": [],
    "wof:supersedes": []
  },
  "bbox": [
    -122.386166,
    37.616356,
    -122.386166,
    37.616356
  ],
  "geometry": {"type":"Point","coordinates":[-122.386166,37.616356]}
}
