{
  "id": 1729361341,
  "type": "Feature",
  "properties": {
    "date:cessation_lower": "2015-11-24",
    "date:cessation_upper": "2015-11-24",
    "date:inception_lower": "2015-11-24",
    "date:inception_upper": "2015-11-24",
    "edtf:cessation": "2015-11-24T02:20:00-08:00",
    "edtf:inception": "2015-11-24T02:20:00-08:00",
    "geom:area": 0,
    "geom:bbox": "-122.386166,37.616356,-122.386166,37.616356",
    "geom:latitude": 37.616356,
    "geom:longitude": -122.386166,
    "instagram:post": {
      "caption": {
        "body": "",
        "excerpt": "",
        "hashtags": [
          "TravelTuesday",
          "PanAm"
        ],
        "users": []
      },
      "media_id": "cb82677515c64c04b2946f75b85eec13",
      "path": "media/other/12230919_1237901139558586_1481451735_n_17847425443054694.jpg",
      "perceptual_hash": "p:bc69c126c7c91ec6",
      "taken": 1448360400,
      "taken_at": "Nov 24, 2015 10:20 am"
    },
    "millsfield:similar": {
      "google/siglip2-so400m-patch16-naflex": [
        {
          "distance": 0.017802000045776367,
          "id": 1729358067
        },
        {
          "distance": 0.13903605937957764,
          "id": 1729358067
        },
        {
          "distance": 0.2679155468940735,
          "id": 1729360641
        },
        {
          "distance": 0.29250568151474,
          "id": 1729360475
        },
        {
          "distance": 0.29404783248901367,
          "id": 1729357279
        },
        {
          "distance": 0.30270951986312866,
          "id": 1729357279
        },
        {
          "distance": 0.3100614547729492,
          "id": 1729360489
        },
        {
          "distance": 0.31503206491470337,
          "id": 1729360641
        },
        {
          "distance": 0.32004398107528687,
          "id": 1729361533
        },
        {
          "distance": 0.3237153887748718,
          "id": 1729360427
        }
      ]
    },
    "sfomuseum:placetype": "instagram",
    "src:geom": "sfomuseum",
    "wof:belongsto": [
      1159160869,
      102527513,
      102191575,
      85633793,
      102087579,
      85922583,
      85688637
    ],
    "wof:country": "US",
    "wof:created": 1448360400,
    "wof:geomhash": "b6e33f47475d56bc8da457bc31afadc8",
    "wof:hierarchy": [
      {
        "building_id": 1159160869,
        "campus_id": 102527513,
        "continent_id": 102191575,
        "country_id": 85633793,
        "county_id": 102087579,
        "custom_id": 1729361341,
        "instagram_id": 1729361341,
        "locality_id": 85922583,
        "neighbourhood_id": -1,
        "region_id": 85688637
      }
    ],
    "wof:id": 1729361341,
    "wof:lastmodified": 1787777645,
    "wof:name": "..",
    "wof:parent_id": 1159160869,
    "wof:placetype": "custom",
    "wof:placetype_alt": [
      "instagram"
    ],
    "wof:repo": "sfomuseum-data-socialmedia-instagram",
    "wof:superseded_by": [],
    "wof:supersedes": []
  },
  "bbox": [
    -122.386166,
    37.616356,
    -122.386166,
    37.616356
  ],
  "geometry": {"type":"Point","coordinates":[-122.386166,37.616356]}
}
