{
  "id": 1947425059,
  "type": "Feature",
  "properties": {
    "date:cessation_lower": "2024-04-09",
    "date:cessation_upper": "2024-04-09",
    "date:inception_lower": "2024-04-09",
    "date:inception_upper": "2024-04-09",
    "edtf:cessation": "2024-04-09T09:08:00-07:00",
    "edtf:inception": "2024-04-09T09:08:00-07:00",
    "geom:area": 0,
    "geom:bbox": "-122.386166,37.616356,-122.386166,37.616356",
    "geom:latitude": 37.616356,
    "geom:longitude": -122.386166,
    "instagram:post": {
      "caption": {
        "body": "During the 1960s, June Schwarcz pioneered electroforming, an innovative method that involved electroplating pieces made from thin copper foil. However, electroforming was unpredictable  and created dramatic surface detail, accentuating rims and edges with encrusted formations. Schwarcz incorporated a variety of finishes into her vessel forms, both inside and out. She layered vivid, multicolored enamels in multiple kiln firings, at times sandblasting the exterior to contrast with the interior.  A very special thank you to Forrest L. Merrill for making this exhibition possible. See “June Schwarcz: Unconventional Enamels,” on display, post-security, in Harvey Milk Terminal 1 and online at: https://bit.ly/UnconventionalEnamels",
        "excerpt": "During the 1960s, June Schwarcz pioneered electroforming, an innovative method that involved electroplating pieces made from thin copper foil.",
        "hashtags": [
          "UnconventionalEnamels",
          "JuneSchwarcz",
          "Enamels"
        ],
        "users": []
      },
      "media_id": "a18038a800bfee0ec945037dc66e3818a561de2d",
      "path": "media/posts/202404/436707858_1124481402035816_8499947425980879084_n_18260256154175174.jpg",
      "perceptual_hash": "p:e04f80790fe1e79c",
      "taken": 1712678880,
      "taken_at": "Apr 09, 2024 4:08 pm"
    },
    "millsfield:similar": {
      "google/siglip2-so400m-patch16-naflex": [
        {
          "distance": 0.18518555164337158,
          "id": 1729355523
        },
        {
          "distance": 0.18633121252059937,
          "id": 1947425293
        },
        {
          "distance": 0.20105797052383423,
          "id": 1729355523
        },
        {
          "distance": 0.2105332612991333,
          "id": 1763559519
        },
        {
          "distance": 0.21433097124099731,
          "id": 1947425289
        },
        {
          "distance": 0.21536767482757568,
          "id": 1729356061
        },
        {
          "distance": 0.21847772598266602,
          "id": 1763559519
        },
        {
          "distance": 0.22047895193099976,
          "id": 1947425293
        },
        {
          "distance": 0.22227424383163452,
          "id": 1729358661
        },
        {
          "distance": 0.22732001543045044,
          "id": 1947425289
        }
      ]
    },
    "sfomuseum:placetype": "instagram",
    "src:geom": "sfomuseum",
    "wof:belongsto": [
      1159160869,
      102527513,
      102191575,
      85633793,
      102087579,
      85922583,
      85688637
    ],
    "wof:country": "US",
    "wof:created": 1712678880,
    "wof:geomhash": "b6e33f47475d56bc8da457bc31afadc8",
    "wof:hierarchy": [
      {
        "building_id": 1159160869,
        "campus_id": 102527513,
        "continent_id": 102191575,
        "country_id": 85633793,
        "county_id": 102087579,
        "custom_id": 1947425059,
        "locality_id": 85922583,
        "neighbourhood_id": -1,
        "region_id": 85688637
      }
    ],
    "wof:id": 1947425059,
    "wof:lastmodified": 1787777664,
    "wof:name": "During the 1960s, June Schwarcz pioneered electroforming, an innovative method that involved electroplating pieces made from thin copper foil...",
    "wof:parent_id": 1159160869,
    "wof:placetype": "custom",
    "wof:repo": "sfomuseum-data-socialmedia-instagram",
    "wof:superseded_by": [],
    "wof:supersedes": []
  },
  "bbox": [
    -122.386166,
    37.616356,
    -122.386166,
    37.616356
  ],
  "geometry": {"type":"Point","coordinates":[-122.386166,37.616356]}
}
