{
  "id": 1763558689,
  "type": "Feature",
  "properties": {
    "date:cessation_lower": "2017-08-05",
    "date:cessation_upper": "2017-08-05",
    "date:inception_lower": "2017-08-05",
    "date:inception_upper": "2017-08-05",
    "edtf:cessation": "2017-08-05T14:52:00-07:00",
    "edtf:inception": "2017-08-05T14:52:00-07:00",
    "geom:area": 0,
    "geom:bbox": "-122.386166,37.616356,-122.386166,37.616356",
    "geom:latitude": 37.616356,
    "geom:longitude": -122.386166,
    "instagram:post": {
      "caption": {
        "body": "\"Compare the Time! Compare the Cost! Here's Proof: You save dollars ... save days via TWA Sky Tourist\"  In the 1950s, airlines were advertising flights as cheaper and faster than other forms of traveling such as via train or bus. A trip from Los Angeles to New York only cost $99 and took 10 hours on a TWA (Trans World Airlines) Lockheed Constellation.  Image: TWA (Trans World Airlines) advertisement, National Geographic, 1950s. Gift of Thomas G. Dragges in memory of Robert May. 2001.109.297",
        "excerpt": "\"Compare the Time!",
        "hashtags": [
          "vintage",
          "vintagead",
          "avgeek",
          "aviationhistory",
          "Transworldairlines",
          "skytourist",
          "lockheed",
          "constellation",
          "TWA",
          "aviation",
          "aviationgeek",
          "aviationgeeks",
          "advert",
          "vintageadvert"
        ],
        "users": []
      },
      "media_id": "62fd77cb5c4bb28a655ff8cb2224f0b523da299c",
      "path": "media/posts/201708/20590221_1345302802249033_1983555603989004288_n_17887111153071994.jpg",
      "perceptual_hash": "p:a0db3e802f80d1ff",
      "taken": 1501969920,
      "taken_at": "Aug 05, 2017 9:52 pm"
    },
    "millsfield:similar": {
      "google/siglip2-so400m-patch16-naflex": [
        {
          "distance": 0.000022530555725097656,
          "id": 1729359221
        },
        {
          "distance": 0.12426233291625977,
          "id": 1729359221
        },
        {
          "distance": 0.18945002555847168,
          "id": 1729356715
        },
        {
          "distance": 0.2014431357383728,
          "id": 1729359217
        },
        {
          "distance": 0.23176103830337524,
          "id": 1729359049
        },
        {
          "distance": 0.24502694606781006,
          "id": 1729359039
        },
        {
          "distance": 0.24762046337127686,
          "id": 1729359217
        },
        {
          "distance": 0.24870049953460693,
          "id": 1729360805
        },
        {
          "distance": 0.26337260007858276,
          "id": 1729356715
        },
        {
          "distance": 0.2711411714553833,
          "id": 1729360029
        }
      ]
    },
    "sfomuseum:placetype": "instagram",
    "src:geom": "sfomuseum",
    "wof:belongsto": [
      1159160869,
      102527513,
      102191575,
      85633793,
      102087579,
      85922583,
      85688637
    ],
    "wof:country": "US",
    "wof:created": 1501969920,
    "wof:geomhash": "b6e33f47475d56bc8da457bc31afadc8",
    "wof:hierarchy": [
      {
        "building_id": 1159160869,
        "campus_id": 102527513,
        "continent_id": 102191575,
        "country_id": 85633793,
        "county_id": 102087579,
        "custom_id": 1763558689,
        "instagram_id": 1763558689,
        "locality_id": 85922583,
        "neighbourhood_id": -1,
        "region_id": 85688637
      }
    ],
    "wof:id": 1763558689,
    "wof:lastmodified": 1787777659,
    "wof:name": "\"Compare the Time!..",
    "wof:parent_id": 1159160869,
    "wof:placetype": "custom",
    "wof:placetype_alt": [
      "instagram"
    ],
    "wof:repo": "sfomuseum-data-socialmedia-instagram",
    "wof:superseded_by": [],
    "wof:supersedes": []
  },
  "bbox": [
    -122.386166,
    37.616356,
    -122.386166,
    37.616356
  ],
  "geometry": {"type":"Point","coordinates":[-122.386166,37.616356]}
}
