{
  "id": 1729356519,
  "type": "Feature",
  "properties": {
    "date:cessation_lower": "2019-05-28",
    "date:cessation_upper": "2019-05-28",
    "date:inception_lower": "2019-05-28",
    "date:inception_upper": "2019-05-28",
    "edtf:cessation": "2019-05-28T14:36:36-07:00",
    "edtf:inception": "2019-05-28T14:36:36-07:00",
    "geom:area": 0,
    "geom:bbox": "-122.386166,37.616356,-122.386166,37.616356",
    "geom:latitude": 37.616356,
    "geom:longitude": -122.386166,
    "instagram:post": {
      "caption": {
        "body": "During the 1930s and ‘40s, as new forms of entertainment were electronically transmitted along radio waves from venues and broadcast stations to the public in their homes, the streamline designs of radios further conveyed the idea of technological progress. Portable radios were often designed with highly swept back, rounded, aerodynamic housings. \"Streamlines: Air Age Aesthetics for Industrial Design\" is on display, pre-security, in the Aviation Museum and Library in the International Terminal. http://bit.ly/Streamlines",
        "excerpt": "During the 1930s and ‘40s, as new forms of entertainment were electronically transmitted along radio waves from venues and broadcast stations to the public in their homes, the streamline designs of radios further conveyed the idea of technological progress.",
        "hashtags": [
          "StreamlinesAesthetics",
          "streamline",
          "design",
          "industrialdesign",
          "avgeek"
        ],
        "users": []
      },
      "location": "",
      "media_id": "5f4e531f992a18f3bfea15c8a80c7f87",
      "path": "photos/201905/5f4e531f992a18f3bfea15c8a80c7f87.jpg",
      "perceptual_hash": "p:95c4c22d3bce31e6",
      "taken": 1559050560,
      "taken_at": "May 28, 2019, 1:36 PM"
    },
    "millsfield:similar": {
      "google/siglip2-so400m-patch16-naflex": [
        {
          "distance": 0.2004539966583252,
          "id": 1729356515
        },
        {
          "distance": 0.23155152797698975,
          "id": 1763558761
        },
        {
          "distance": 0.23550212383270264,
          "id": 1729356515
        },
        {
          "distance": 0.2555082440376282,
          "id": 1729356583
        },
        {
          "distance": 0.25639092922210693,
          "id": 1729356583
        },
        {
          "distance": 0.257671058177948,
          "id": 1729356695
        },
        {
          "distance": 0.26338696479797363,
          "id": 1729356335
        },
        {
          "distance": 0.2682693600654602,
          "id": 1729356335
        },
        {
          "distance": 0.26919740438461304,
          "id": 1763558761
        },
        {
          "distance": 0.2756637930870056,
          "id": 1729356695
        }
      ]
    },
    "sfomuseum:placetype": "instagram",
    "src:geom": "sfomuseum",
    "wof:belongsto": [
      1159160869,
      102527513,
      102191575,
      85633793,
      102087579,
      85922583,
      85688637
    ],
    "wof:country": "US",
    "wof:created": 1559079396,
    "wof:geomhash": "b6e33f47475d56bc8da457bc31afadc8",
    "wof:hierarchy": [
      {
        "building_id": 1159160869,
        "campus_id": 102527513,
        "continent_id": 102191575,
        "country_id": 85633793,
        "county_id": 102087579,
        "custom_id": 1729356519,
        "instagram_id": 1729356519,
        "locality_id": 85922583,
        "neighbourhood_id": -1,
        "region_id": 85688637
      }
    ],
    "wof:id": 1729356519,
    "wof:lastmodified": 1787777629,
    "wof:name": "During the 1930s and ‘40s, as new forms of entertainment were electronically transmitted along radio waves from venues and broadcast stations to the public in their homes, the streamline designs of radios further conveyed the idea of technological progress...",
    "wof:parent_id": 1159160869,
    "wof:placetype": "custom",
    "wof:placetype_alt": [
      "instagram"
    ],
    "wof:repo": "sfomuseum-data-socialmedia-instagram",
    "wof:superseded_by": [],
    "wof:supersedes": []
  },
  "bbox": [
    -122.386166,
    37.616356,
    -122.386166,
    37.616356
  ],
  "geometry": {"type":"Point","coordinates":[-122.386166,37.616356]}
}
