{
  "id": 1729356899,
  "type": "Feature",
  "properties": {
    "date:cessation_lower": "2019-02-27",
    "date:cessation_upper": "2019-02-27",
    "date:inception_lower": "2019-02-27",
    "date:inception_upper": "2019-02-27",
    "edtf:cessation": "2019-02-27T10:14:00-08:00",
    "edtf:inception": "2019-02-27T10:14:00-08:00",
    "geom:area": 0,
    "geom:bbox": "-122.386166,37.616356,-122.386166,37.616356",
    "geom:latitude": 37.616356,
    "geom:longitude": -122.386166,
    "instagram:post": {
      "caption": {
        "body": "The adventurous nature of the first scheduled air service from the San Francisco Bay Area to Hong Kong is captured in our China Clipper exhibition. The daring flight crews of Pan American Airways pioneered international commercial aviation by surveying the routes and operating magnificent flying boats to Asia. They flew over thousands of miles of open water, from the San Francisco Bay to Hong Kong, finding the tiny island bases along the way needed for refueling and overnighting using traditional and newly invented navigational technology. This operational model became the world's first reliable over-ocean air service in fixed-wing aircraft.  China Clipper is on display pre-security in the Aviation Museum and Library, which is open from 10:00am to 4:30pm daily. http://bit.ly/chinaclipper",
        "excerpt": "The adventurous nature of the first scheduled air service from the San Francisco Bay Area to Hong Kong is captured in our China Clipper exhibition.",
        "hashtags": [
          "ChinaClipper",
          "transpacific",
          "PanAmerican",
          "PanAm",
          "HongKong",
          "avgeek"
        ],
        "users": []
      },
      "media_id": "caa86bc74c7c12bfdf538e0b0f2c02f0",
      "path": "media/other/51652022_255625302036042_2279601546394324863_n_17864402446336815.jpg",
      "perceptual_hash": "p:c5ac593e629e155a",
      "taken": 1551291240,
      "taken_at": "Feb 27, 2019 6:14 pm"
    },
    "millsfield:similar": {
      "google/siglip2-so400m-patch16-naflex": [
        {
          "distance": 0.12264448404312134,
          "id": 1729355491
        },
        {
          "distance": 0.15174275636672974,
          "id": 1947425051
        },
        {
          "distance": 0.15799975395202637,
          "id": 1729355491
        },
        {
          "distance": 0.17219913005828857,
          "id": 1729360497
        },
        {
          "distance": 0.17907631397247314,
          "id": 1729357455
        },
        {
          "distance": 0.18386709690093994,
          "id": 1729357493
        },
        {
          "distance": 0.1895308494567871,
          "id": 1729357033
        },
        {
          "distance": 0.1907966136932373,
          "id": 1729357959
        },
        {
          "distance": 0.19543766975402832,
          "id": 1729358383
        },
        {
          "distance": 0.19825387001037598,
          "id": 1729357275
        }
      ]
    },
    "sfomuseum:placetype": "instagram",
    "src:geom": "sfomuseum",
    "wof:belongsto": [
      1159160869,
      102527513,
      102191575,
      85633793,
      102087579,
      85922583,
      85688637
    ],
    "wof:country": "US",
    "wof:created": 1551291240,
    "wof:geomhash": "b6e33f47475d56bc8da457bc31afadc8",
    "wof:hierarchy": [
      {
        "building_id": 1159160869,
        "campus_id": 102527513,
        "continent_id": 102191575,
        "country_id": 85633793,
        "county_id": 102087579,
        "custom_id": 1729356899,
        "instagram_id": 1729356899,
        "locality_id": 85922583,
        "neighbourhood_id": -1,
        "region_id": 85688637
      }
    ],
    "wof:id": 1729356899,
    "wof:lastmodified": 1787777629,
    "wof:name": "The adventurous nature of the first scheduled air service from the San Francisco Bay Area to Hong Kong is captured in our China Clipper exhibition...",
    "wof:parent_id": 1159160869,
    "wof:placetype": "custom",
    "wof:placetype_alt": [
      "instagram"
    ],
    "wof:repo": "sfomuseum-data-socialmedia-instagram",
    "wof:superseded_by": [],
    "wof:supersedes": []
  },
  "bbox": [
    -122.386166,
    37.616356,
    -122.386166,
    37.616356
  ],
  "geometry": {"type":"Point","coordinates":[-122.386166,37.616356]}
}
