{
  "id": 1729360339,
  "type": "Feature",
  "properties": {
    "date:cessation_lower": "2016-09-13",
    "date:cessation_upper": "2016-09-13",
    "date:inception_lower": "2016-09-13",
    "date:inception_upper": "2016-09-13",
    "edtf:cessation": "2016-09-13T01:18:00-07:00",
    "edtf:inception": "2016-09-13T01:18:00-07:00",
    "geom:area": 0,
    "geom:bbox": "-122.386166,37.616356,-122.386166,37.616356",
    "geom:latitude": 37.616356,
    "geom:longitude": -122.386166,
    "instagram:post": {
      "caption": {
        "body": "",
        "excerpt": "",
        "hashtags": [
          "TravelTuesday",
          "AlaskaAirlines",
          "Alaska"
        ],
        "users": []
      },
      "media_id": "91239e8c9facd874a018c74d10911ce2",
      "path": "media/other/14295611_162304870880559_441916812_n_17862553771003833.jpg",
      "perceptual_hash": "p:9c8eb1394fd4b2c2",
      "taken": 1473754680,
      "taken_at": "Sep 13, 2016 8:18 am"
    },
    "millsfield:similar": {
      "google/siglip2-so400m-patch16-naflex": [
        {
          "distance": 0.20869332551956177,
          "id": 1729361665
        },
        {
          "distance": 0.22023385763168335,
          "id": 1729361531
        },
        {
          "distance": 0.26954400539398193,
          "id": 1729361665
        },
        {
          "distance": 0.2772030234336853,
          "id": 1729362125
        },
        {
          "distance": 0.28392690420150757,
          "id": 1729359433
        },
        {
          "distance": 0.2866276502609253,
          "id": 1729358137
        },
        {
          "distance": 0.29336583614349365,
          "id": 1729361693
        },
        {
          "distance": 0.29596811532974243,
          "id": 1729361531
        },
        {
          "distance": 0.3007999062538147,
          "id": 1729358137
        },
        {
          "distance": 0.3119063377380371,
          "id": 1729358293
        }
      ]
    },
    "sfomuseum:placetype": "instagram",
    "src:geom": "sfomuseum",
    "wof:belongsto": [
      1159160869,
      102527513,
      102191575,
      85633793,
      102087579,
      85922583,
      85688637
    ],
    "wof:country": "US",
    "wof:created": 1473754680,
    "wof:geomhash": "b6e33f47475d56bc8da457bc31afadc8",
    "wof:hierarchy": [
      {
        "building_id": 1159160869,
        "campus_id": 102527513,
        "continent_id": 102191575,
        "country_id": 85633793,
        "county_id": 102087579,
        "custom_id": 1729360339,
        "instagram_id": 1729360339,
        "locality_id": 85922583,
        "neighbourhood_id": -1,
        "region_id": 85688637
      }
    ],
    "wof:id": 1729360339,
    "wof:lastmodified": 1787777639,
    "wof:name": "..",
    "wof:parent_id": 1159160869,
    "wof:placetype": "custom",
    "wof:placetype_alt": [
      "instagram"
    ],
    "wof:repo": "sfomuseum-data-socialmedia-instagram",
    "wof:superseded_by": [],
    "wof:supersedes": []
  },
  "bbox": [
    -122.386166,
    37.616356,
    -122.386166,
    37.616356
  ],
  "geometry": {"type":"Point","coordinates":[-122.386166,37.616356]}
}
