{
  "id": 1729358741,
  "type": "Feature",
  "properties": {
    "date:cessation_lower": "2018-01-12",
    "date:cessation_upper": "2018-01-12",
    "date:inception_lower": "2018-01-12",
    "date:inception_upper": "2018-01-12",
    "edtf:cessation": "2018-01-12T09:10:28-08:00",
    "edtf:inception": "2018-01-12T09:10:28-08:00",
    "geom:area": 0,
    "geom:bbox": "-122.386166,37.616356,-122.386166,37.616356",
    "geom:latitude": 37.616356,
    "geom:longitude": -122.386166,
    "instagram:post": {
      "caption": {
        "body": "Oxchuc is both a city and larger municipality, located to the east of San Andrés in Los Altos de Chiapas. The indigenous Mayan citizens of Oxchuc speak Tzeltal, a close linguistic cousin to the Mayan dialect spoken by their Tzotzil neighbors. Artisans from San Andrés and Oxchuc also share a rich history in textile weaving on the backstrap loom. Traditional women’s huipiles from Oxchuc feature alternating red or purple and white woven stripes with multicolored rays embroidered around the neckline and blocks of contrasting color below. Contemporary huipil design in Oxchuc includes more complex embroidery, with additional detail added to vertical woven stripes and around the sleeves. More experimental, modern blusas substitute traditional, white backgrounds for base colors in bright reds and purple hues.  Learn more about \"Empowering Threads: Textiles of Jolom Mayaetik\" on display, pre-security, in the International Terminal. http://bit.ly/EmpoweringThreads",
        "excerpt": "Oxchuc is both a city and larger municipality, located to the east of San Andrés in Los Altos de Chiapas.",
        "hashtags": [
          "EmpoweringThreads",
          "mayantextiles",
          "textile",
          "textiles",
          "mayan",
          "mexico",
          "mexican",
          "mexicanhistory",
          "mayanhistory",
          "JolomMayaetik",
          "weavers",
          "weaving",
          "blouses",
          "huipiles",
          "looms",
          "backstraploom",
          "mayanculture",
          "handwoven",
          "sewing",
          "cooperativa",
          "artesanaschiapanecas",
          "chiapas",
          "cojinesartesanales",
          "artesanias",
          "empoweringwomen"
        ],
        "users": []
      },
      "location": "",
      "media_id": "e80dce96fb68c040796a99e1a81920e1",
      "path": "photos/201801/e80dce96fb68c040796a99e1a81920e1.jpg",
      "perceptual_hash": "p:e513924ccb6c3cd3",
      "taken": 1515748200,
      "taken_at": "Jan 12, 2018, 9:10 AM"
    },
    "millsfield:similar": {
      "google/siglip2-so400m-patch16-naflex": [
        {
          "distance": 0.07152938842773438,
          "id": 1729358669
        },
        {
          "distance": 0.08288735151290894,
          "id": 1729358915
        },
        {
          "distance": 0.08432012796401978,
          "id": 1729358539
        },
        {
          "distance": 0.10124200582504272,
          "id": 1729358745
        },
        {
          "distance": 0.10985594987869263,
          "id": 1729358579
        },
        {
          "distance": 0.11053985357284546,
          "id": 1729358967
        },
        {
          "distance": 0.1395270824432373,
          "id": 1729358745
        },
        {
          "distance": 0.1482008695602417,
          "id": 1729358797
        },
        {
          "distance": 0.16105324029922485,
          "id": 1729358669
        },
        {
          "distance": 0.174838125705719,
          "id": 1729358525
        }
      ]
    },
    "sfomuseum:placetype": "instagram",
    "src:geom": "sfomuseum",
    "wof:belongsto": [
      1159160869,
      102527513,
      102191575,
      85633793,
      102087579,
      85922583,
      85688637
    ],
    "wof:country": "US",
    "wof:created": 1515777028,
    "wof:geomhash": "b6e33f47475d56bc8da457bc31afadc8",
    "wof:hierarchy": [
      {
        "building_id": 1159160869,
        "campus_id": 102527513,
        "continent_id": 102191575,
        "country_id": 85633793,
        "county_id": 102087579,
        "custom_id": 1729358741,
        "instagram_id": 1729358741,
        "locality_id": 85922583,
        "neighbourhood_id": -1,
        "region_id": 85688637
      }
    ],
    "wof:id": 1729358741,
    "wof:lastmodified": 1787777634,
    "wof:name": "Oxchuc is both a city and larger municipality, located to the east of San Andrés in Los Altos de Chiapas...",
    "wof:parent_id": 1159160869,
    "wof:placetype": "custom",
    "wof:placetype_alt": [
      "instagram"
    ],
    "wof:repo": "sfomuseum-data-socialmedia-instagram",
    "wof:superseded_by": [],
    "wof:supersedes": []
  },
  "bbox": [
    -122.386166,
    37.616356,
    -122.386166,
    37.616356
  ],
  "geometry": {"type":"Point","coordinates":[-122.386166,37.616356]}
}
