{
  "id": 1729362665,
  "type": "Feature",
  "properties": {
    "date:cessation_lower": "2013-06-12",
    "date:cessation_upper": "2013-06-12",
    "date:inception_lower": "2013-06-12",
    "date:inception_upper": "2013-06-12",
    "edtf:cessation": "2013-06-12T06:08:00-07:00",
    "edtf:inception": "2013-06-12T06:08:00-07:00",
    "geom:area": 0,
    "geom:bbox": "-122.386166,37.616356,-122.386166,37.616356",
    "geom:latitude": 37.616356,
    "geom:longitude": -122.386166,
    "instagram:post": {
      "caption": {
        "body": "Detail of a colorful ceramic wine and glass cooler, made in China between 1662-1722 for export to the European market.",
        "excerpt": "Detail of a colorful ceramic wine and glass cooler, made in China between 1662-1722 for export to the European market.",
        "hashtags": [],
        "users": []
      },
      "media_id": "3ef0a94898fb50b4ff8845ed1e8c6e51",
      "path": "media/other/11326009_995588507118871_255144533_n_17842330723062499.jpg",
      "perceptual_hash": "p:af90689e8869de66",
      "taken": 1371042480,
      "taken_at": "Jun 12, 2013 1:08 pm"
    },
    "millsfield:similar": {
      "google/siglip2-so400m-patch16-naflex": [
        {
          "distance": 0.24907678365707397,
          "id": 1729362193
        },
        {
          "distance": 0.2840214967727661,
          "id": 1729362751
        },
        {
          "distance": 0.28795909881591797,
          "id": 1729362207
        },
        {
          "distance": 0.28971636295318604,
          "id": 1729362749
        },
        {
          "distance": 0.2906346917152405,
          "id": 1729362697
        },
        {
          "distance": 0.30324190855026245,
          "id": 1729362113
        },
        {
          "distance": 0.307170033454895,
          "id": 1729362733
        },
        {
          "distance": 0.3167598843574524,
          "id": 1729362193
        },
        {
          "distance": 0.3259526491165161,
          "id": 1729362749
        },
        {
          "distance": 0.32707202434539795,
          "id": 1729362751
        }
      ]
    },
    "sfomuseum:placetype": "instagram",
    "src:geom": "sfomuseum",
    "wof:belongsto": [
      1159160869,
      102527513,
      102191575,
      85633793,
      102087579,
      85922583,
      85688637
    ],
    "wof:country": "US",
    "wof:created": 1371042480,
    "wof:geomhash": "b6e33f47475d56bc8da457bc31afadc8",
    "wof:hierarchy": [
      {
        "building_id": 1159160869,
        "campus_id": 102527513,
        "continent_id": 102191575,
        "country_id": 85633793,
        "county_id": 102087579,
        "custom_id": 1729362665,
        "instagram_id": 1729362665,
        "locality_id": 85922583,
        "neighbourhood_id": -1,
        "region_id": 85688637
      }
    ],
    "wof:id": 1729362665,
    "wof:lastmodified": 1787777647,
    "wof:name": "Detail of a colorful ceramic wine and glass cooler, made in China between 1662-1722 for export to the European market...",
    "wof:parent_id": 1159160869,
    "wof:placetype": "custom",
    "wof:placetype_alt": [
      "instagram"
    ],
    "wof:repo": "sfomuseum-data-socialmedia-instagram",
    "wof:superseded_by": [],
    "wof:supersedes": []
  },
  "bbox": [
    -122.386166,
    37.616356,
    -122.386166,
    37.616356
  ],
  "geometry": {"type":"Point","coordinates":[-122.386166,37.616356]}
}
