{
  "id": 1729360187,
  "type": "Feature",
  "properties": {
    "date:cessation_lower": "2016-10-31",
    "date:cessation_upper": "2016-10-31",
    "date:inception_lower": "2016-10-31",
    "date:inception_upper": "2016-10-31",
    "edtf:cessation": "2016-10-31T11:35:00-07:00",
    "edtf:inception": "2016-10-31T11:35:00-07:00",
    "geom:area": 0,
    "geom:bbox": "-122.386166,37.616356,-122.386166,37.616356",
    "geom:latitude": 37.616356,
    "geom:longitude": -122.386166,
    "instagram:post": {
      "caption": {
        "body": "SFO Museum offers exploration areas that allow children to “let off steam” prior to their flights scattered around the airport. Have you seen San Francisco Bay Area Bird Encounters by Walter Kitundu, located post-security, in Terminal 2? It features  interactives including two benches shaped like bird wings that double as musical instruments. http://bit.ly/KidsSpot",
        "excerpt": "SFO Museum offers exploration areas that allow children to “let off steam” prior to their flights scattered around the airport.",
        "hashtags": [
          "museummonday",
          "kidsspot",
          "travelingwithkids",
          "planeridewithkids",
          "familytravel",
          "kidstravel",
          "airportart",
          "sfac",
          "SFOMuseum",
          "sfo"
        ],
        "users": [
          "sfacgalleries"
        ]
      },
      "media_id": "ab161fcbbf8e4af36cc52b8911a92015",
      "path": "media/posts/201610/14597337_310407262685442_5909599103481806848_n_17843862130170008.jpg",
      "perceptual_hash": "p:84dbc3b03bc1798e",
      "taken": 1477938900,
      "taken_at": "Oct 31, 2016 6:35 pm"
    },
    "millsfield:similar": {
      "google/siglip2-so400m-patch16-naflex": [
        {
          "distance": 0.1144859790802002,
          "id": 1729355295
        },
        {
          "distance": 0.1745370626449585,
          "id": 1729355295
        },
        {
          "distance": 0.3376503586769104,
          "id": 1729361609
        },
        {
          "distance": 0.33946019411087036,
          "id": 1880151253
        },
        {
          "distance": 0.3579480051994324,
          "id": 1729356225
        },
        {
          "distance": 0.3585694432258606,
          "id": 1729359429
        },
        {
          "distance": 0.36637771129608154,
          "id": 1947425185
        },
        {
          "distance": 0.3666761517524719,
          "id": 1880151713
        },
        {
          "distance": 0.36704057455062866,
          "id": 1729355341
        },
        {
          "distance": 0.36818206310272217,
          "id": 1880151253
        }
      ]
    },
    "sfomuseum:placetype": "instagram",
    "src:geom": "sfomuseum",
    "wof:belongsto": [
      1159160869,
      102527513,
      102191575,
      85633793,
      102087579,
      85922583,
      85688637
    ],
    "wof:country": "US",
    "wof:created": 1477938900,
    "wof:geomhash": "b6e33f47475d56bc8da457bc31afadc8",
    "wof:hierarchy": [
      {
        "building_id": 1159160869,
        "campus_id": 102527513,
        "continent_id": 102191575,
        "country_id": 85633793,
        "county_id": 102087579,
        "custom_id": 1729360187,
        "instagram_id": 1729360187,
        "locality_id": 85922583,
        "neighbourhood_id": -1,
        "region_id": 85688637
      }
    ],
    "wof:id": 1729360187,
    "wof:lastmodified": 1787777639,
    "wof:name": "SFO Museum offers exploration areas that allow children to “let off steam” prior to their flights scattered around the airport...",
    "wof:parent_id": 1159160869,
    "wof:placetype": "custom",
    "wof:placetype_alt": [
      "instagram"
    ],
    "wof:repo": "sfomuseum-data-socialmedia-instagram",
    "wof:superseded_by": [],
    "wof:supersedes": []
  },
  "bbox": [
    -122.386166,
    37.616356,
    -122.386166,
    37.616356
  ],
  "geometry": {"type":"Point","coordinates":[-122.386166,37.616356]}
}
