{
  "id": 1729361587,
  "type": "Feature",
  "properties": {
    "date:cessation_lower": "2015-08-25",
    "date:cessation_upper": "2015-08-25",
    "date:inception_lower": "2015-08-25",
    "date:inception_upper": "2015-08-25",
    "edtf:cessation": "2015-08-25T02:31:00-07:00",
    "edtf:inception": "2015-08-25T02:31:00-07:00",
    "geom:area": 0,
    "geom:bbox": "-122.386166,37.616356,-122.386166,37.616356",
    "geom:latitude": 37.616356,
    "geom:longitude": -122.386166,
    "instagram:post": {
      "caption": {
        "body": "BFILRYD by Bob Zoell combines his two lifelong passions for language and birds to create a playful world of singing birds sitting on branches composed of letters and punctuation marks. This work of art creates colorful abstract icons that appeal visitors of all ages.  Thanks to @arcticbrute for the 📷. ・・・",
        "excerpt": "BFILRYD by Bob Zoell combines his two lifelong passions for language and birds to create a playful world of singing birds sitting on branches composed of letters and punctuation marks.",
        "hashtags": [
          "sanfran",
          "sanfransisco",
          "cali",
          "california",
          "art",
          "walldecorations",
          "travel",
          "adventure"
        ],
        "users": []
      },
      "media_id": "63449f5c9607491a6b622c47870d24ed",
      "path": "media/other/11909298_1469767589994824_1054881019_n_17842181146062499.jpg",
      "perceptual_hash": "p:d59d2396699d2316",
      "taken": 1440495060,
      "taken_at": "Aug 25, 2015 9:31 am"
    },
    "millsfield:similar": {
      "google/siglip2-so400m-patch16-naflex": [
        {
          "distance": 0.27692925930023193,
          "id": 1729362763
        },
        {
          "distance": 0.2881760597229004,
          "id": 1729355285
        },
        {
          "distance": 0.30876094102859497,
          "id": 1763559493
        },
        {
          "distance": 0.31545019149780273,
          "id": 1729355285
        },
        {
          "distance": 0.322093665599823,
          "id": 1729362763
        },
        {
          "distance": 0.33769136667251587,
          "id": 1763559493
        },
        {
          "distance": 0.39858871698379517,
          "id": 1729361631
        },
        {
          "distance": 0.40450310707092285,
          "id": 1729361679
        },
        {
          "distance": 0.4062268137931824,
          "id": 1729362059
        },
        {
          "distance": 0.42488646507263184,
          "id": 1729361567
        }
      ]
    },
    "sfomuseum:placetype": "instagram",
    "src:geom": "sfomuseum",
    "wof:belongsto": [
      1159160869,
      102527513,
      102191575,
      85633793,
      102087579,
      85922583,
      85688637
    ],
    "wof:country": "US",
    "wof:created": 1440495060,
    "wof:geomhash": "b6e33f47475d56bc8da457bc31afadc8",
    "wof:hierarchy": [
      {
        "building_id": 1159160869,
        "campus_id": 102527513,
        "continent_id": 102191575,
        "country_id": 85633793,
        "county_id": 102087579,
        "custom_id": 1729361587,
        "instagram_id": 1729361587,
        "locality_id": 85922583,
        "neighbourhood_id": -1,
        "region_id": 85688637
      }
    ],
    "wof:id": 1729361587,
    "wof:lastmodified": 1787777646,
    "wof:name": "BFILRYD by Bob Zoell combines his two lifelong passions for language and birds to create a playful world of singing birds sitting on branches composed of letters and punctuation marks...",
    "wof:parent_id": 1159160869,
    "wof:placetype": "custom",
    "wof:placetype_alt": [
      "instagram"
    ],
    "wof:repo": "sfomuseum-data-socialmedia-instagram",
    "wof:superseded_by": [],
    "wof:supersedes": []
  },
  "bbox": [
    -122.386166,
    37.616356,
    -122.386166,
    37.616356
  ],
  "geometry": {"type":"Point","coordinates":[-122.386166,37.616356]}
}
