{
  "id": 1947425235,
  "type": "Feature",
  "properties": {
    "date:cessation_lower": "2023-11-14",
    "date:cessation_upper": "2023-11-14",
    "date:inception_lower": "2023-11-14",
    "date:inception_upper": "2023-11-14",
    "edtf:cessation": "2023-11-14T07:29:00-08:00",
    "edtf:inception": "2023-11-14T07:29:00-08:00",
    "geom:area": 0,
    "geom:bbox": "-122.386166,37.616356,-122.386166,37.616356",
    "geom:latitude": 37.616356,
    "geom:longitude": -122.386166,
    "instagram:post": {
      "caption": {
        "body": "To create his sculptures, visionary Haitian artist, Georges Liautaud (1899–1991) first made a rough drawing on paper, or simply drew the shape of the figure freehand onto the metal. Liautaud then placed the piece on his anvil and, using a chisel and hammer or shears, cut the form from the metal sheet. He carefully filed and smoothed the edges of the pieces—though he might intentionally leave some areas rough. Liautaud employed a small hammer with a round tip to make subtle hollows in the metal to give his sculptures more dimension. He applied face details to figural sculptures, incising hair and adding eyelashes. Finally, Liautaud often bent different parts of the sculpture to add even more depth before cutting and attaching a support to enable the figure to stand.  See “The Enduring Spirit of Haitian Metal Sculpture” on display, pre-security, in the International Terminal. https://bit.ly/HaitianMetal",
        "excerpt": "To create his sculptures, visionary Haitian artist, Georges Liautaud (1899–1991) first made a rough drawing on paper, or simply drew the shape of the figure freehand onto the metal.",
        "hashtags": [
          "HaitianMetal"
        ],
        "users": []
      },
      "media_id": "4773df66521b871e7fb412019dc398565b638d15",
      "path": "media/posts/202311/400676781_810772094393055_3644577779793606567_n_18063856324460685.jpg",
      "perceptual_hash": "p:bcc25b6eea12dc41",
      "taken": 1699975740,
      "taken_at": "Nov 14, 2023 3:29 pm"
    },
    "millsfield:similar": {
      "google/siglip2-so400m-patch16-naflex": [
        {
          "distance": 0.008893311023712158,
          "id": 1947425269
        },
        {
          "distance": 0.03635883331298828,
          "id": 1947424853
        },
        {
          "distance": 0.0364689826965332,
          "id": 1947424829
        },
        {
          "distance": 0.040716350078582764,
          "id": 1947424957
        },
        {
          "distance": 0.06841051578521729,
          "id": 1947425273
        },
        {
          "distance": 0.10179132223129272,
          "id": 1947425273
        },
        {
          "distance": 0.10448682308197021,
          "id": 1947424829
        },
        {
          "distance": 0.10451573133468628,
          "id": 1947424853
        },
        {
          "distance": 0.10678046941757202,
          "id": 1947425269
        },
        {
          "distance": 0.11208754777908325,
          "id": 1947424957
        }
      ]
    },
    "sfomuseum:placetype": "instagram",
    "src:geom": "sfomuseum",
    "wof:belongsto": [
      1159160869,
      102527513,
      102191575,
      85633793,
      102087579,
      85922583,
      85688637
    ],
    "wof:country": "US",
    "wof:created": 1699975740,
    "wof:geomhash": "b6e33f47475d56bc8da457bc31afadc8",
    "wof:hierarchy": [
      {
        "building_id": 1159160869,
        "campus_id": 102527513,
        "continent_id": 102191575,
        "country_id": 85633793,
        "county_id": 102087579,
        "custom_id": 1947425235,
        "locality_id": 85922583,
        "neighbourhood_id": -1,
        "region_id": 85688637
      }
    ],
    "wof:id": 1947425235,
    "wof:lastmodified": 1787777664,
    "wof:name": "To create his sculptures, visionary Haitian artist, Georges Liautaud (1899–1991) first made a rough drawing on paper, or simply drew the shape of the figure freehand onto the metal...",
    "wof:parent_id": 1159160869,
    "wof:placetype": "custom",
    "wof:repo": "sfomuseum-data-socialmedia-instagram",
    "wof:superseded_by": [],
    "wof:supersedes": []
  },
  "bbox": [
    -122.386166,
    37.616356,
    -122.386166,
    37.616356
  ],
  "geometry": {"type":"Point","coordinates":[-122.386166,37.616356]}
}
