{
  "id": 1729361553,
  "type": "Feature",
  "properties": {
    "date:cessation_lower": "2015-09-02",
    "date:cessation_upper": "2015-09-02",
    "date:inception_lower": "2015-09-02",
    "date:inception_upper": "2015-09-02",
    "edtf:cessation": "2015-09-02T11:48:00-07:00",
    "edtf:inception": "2015-09-02T11:48:00-07:00",
    "geom:area": 0,
    "geom:bbox": "-122.386166,37.616356,-122.386166,37.616356",
    "geom:latitude": 37.616356,
    "geom:longitude": -122.386166,
    "instagram:post": {
      "caption": {
        "body": "This week we would like to feature the remarkable Edith Lauterbach for Women in Aviation Wednesday. She helped establish what is now known as the Association of Flight Attendants-CWA which represents nearly 60,000 flight attendants at 19 airlines.  Edith Lauterbach began working for United Air Lines 1944. She noticed the flight attendants, mostly women, had not gotten a raise from 1930-1946. To amend this issue, she and four fellow flight attendants officially established the Air Line Stewardess Association (ALSA) in 1945 and recruited 75% of United Air Lines flight attendants. Though they were careful to call it an association, the ALSA was the first union established by women, lead by women, and primarily represented women. Few labor unions at the time even had female membership. The Air Line Stewardess Association was the first collective bargaining group recognized by airlines.  After months of negotiations, in 1946, the flight attendants successfully negotiated a rise in monthly pay, set rest periods, limits on duty hours, and established a grievance policy. The AFA-CWA continues to be the voice for flight attendant.",
        "excerpt": "This week we would like to feature the remarkable Edith Lauterbach for Women in Aviation Wednesday.",
        "hashtags": [],
        "users": []
      },
      "media_id": "3da2c68785b8a73b3fa2fd72e285ee8f",
      "path": "media/other/11208321_614318205374501_897717802_n_17843179921062499.jpg",
      "perceptual_hash": "p:e01c7ee2627f1139",
      "taken": 1441219680,
      "taken_at": "Sep 02, 2015 6:48 pm"
    },
    "millsfield:similar": {
      "google/siglip2-so400m-patch16-naflex": [
        {
          "distance": 0.03120654821395874,
          "id": 1947425101
        },
        {
          "distance": 0.11185258626937866,
          "id": 1947425101
        },
        {
          "distance": 0.25201982259750366,
          "id": 1729357413
        },
        {
          "distance": 0.26667696237564087,
          "id": 1729360739
        },
        {
          "distance": 0.27171510457992554,
          "id": 1947425065
        },
        {
          "distance": 0.28334784507751465,
          "id": 1729358945
        },
        {
          "distance": 0.28833407163619995,
          "id": 1763559661
        },
        {
          "distance": 0.2886316180229187,
          "id": 1729357391
        },
        {
          "distance": 0.2892058491706848,
          "id": 1729360273
        },
        {
          "distance": 0.2894923686981201,
          "id": 1729357903
        }
      ]
    },
    "sfomuseum:placetype": "instagram",
    "src:geom": "sfomuseum",
    "wof:belongsto": [
      1159160869,
      102527513,
      102191575,
      85633793,
      102087579,
      85922583,
      85688637
    ],
    "wof:country": "US",
    "wof:created": 1441219680,
    "wof:geomhash": "b6e33f47475d56bc8da457bc31afadc8",
    "wof:hierarchy": [
      {
        "building_id": 1159160869,
        "campus_id": 102527513,
        "continent_id": 102191575,
        "country_id": 85633793,
        "county_id": 102087579,
        "custom_id": 1729361553,
        "instagram_id": 1729361553,
        "locality_id": 85922583,
        "neighbourhood_id": -1,
        "region_id": 85688637
      }
    ],
    "wof:id": 1729361553,
    "wof:lastmodified": 1787777645,
    "wof:name": "This week we would like to feature the remarkable Edith Lauterbach for Women in Aviation Wednesday...",
    "wof:parent_id": 1159160869,
    "wof:placetype": "custom",
    "wof:placetype_alt": [
      "instagram"
    ],
    "wof:repo": "sfomuseum-data-socialmedia-instagram",
    "wof:superseded_by": [],
    "wof:supersedes": []
  },
  "bbox": [
    -122.386166,
    37.616356,
    -122.386166,
    37.616356
  ],
  "geometry": {"type":"Point","coordinates":[-122.386166,37.616356]}
}
