{
  "id": 1729356503,
  "type": "Feature",
  "properties": {
    "date:cessation_lower": "2019-05-29",
    "date:cessation_upper": "2019-05-29",
    "date:inception_lower": "2019-05-29",
    "date:inception_upper": "2019-05-29",
    "edtf:cessation": "2019-05-29T11:04:00-07:00",
    "edtf:inception": "2019-05-29T11:04:00-07:00",
    "geom:area": 0,
    "geom:bbox": "-122.386166,37.616356,-122.386166,37.616356",
    "geom:latitude": 37.616356,
    "geom:longitude": -122.386166,
    "instagram:post": {
      "caption": {
        "body": "The husband-and-wife team of Charles (1907–78) and Ray (1912–88) Eames implemented the brilliance of postwar, modern design on the greatest scale, producing more than two million fiberglass chairs through Herman Miller, Inc. by 1966. These molded fiberglass chairs were developed from a stamped-steel design that garnered second place at the New York Museum of Modern Art’s International Competition for Low-Cost Furniture Design exhibition in 1948. The Eames wire side chair featured the same shape of the fiberglass chair and was available in various height, base, and upholstery options. The chair on display is a model DKW, which denotes a dining-height chair with a K-wire shell and wooden-dowel base. \"The Modern Consumer: Products and Style\" is on display, post-security, in Terminal 3. http://bit.ly/1950sConsumer",
        "excerpt": "The husband-and-wife team of Charles (1907–78) and Ray (1912–88) Eames implemented the brilliance of postwar, modern design on the greatest scale, producing more than two million fiberglass chairs through Herman Miller, Inc. by 1966.",
        "hashtags": [
          "1950sConsumer",
          "1950s",
          "vintage",
          "50s",
          "midcentury",
          "classic",
          "retro",
          "eames",
          "eameschair"
        ],
        "users": []
      },
      "media_id": "cf4356d1afc38214aacc21fa16ee2f40",
      "path": "media/other/60424301_589429951548397_6663468999246978617_n_18081080269018908.jpg",
      "perceptual_hash": "p:91aec67b189898ee",
      "taken": 1559153040,
      "taken_at": "May 29, 2019 6:04 pm"
    },
    "millsfield:similar": {
      "google/siglip2-so400m-patch16-naflex": [
        {
          "distance": 0.2666529417037964,
          "id": 1729355047
        },
        {
          "distance": 0.296612024307251,
          "id": 1729355075
        },
        {
          "distance": 0.29843151569366455,
          "id": 1880151115
        },
        {
          "distance": 0.30158621072769165,
          "id": 1880151115
        },
        {
          "distance": 0.30327755212783813,
          "id": 1729356583
        },
        {
          "distance": 0.30480772256851196,
          "id": 1947425257
        },
        {
          "distance": 0.3052847981452942,
          "id": 1729355075
        },
        {
          "distance": 0.3064373731613159,
          "id": 1880151439
        },
        {
          "distance": 0.306454062461853,
          "id": 1729360097
        },
        {
          "distance": 0.3097113370895386,
          "id": 1729356335
        }
      ]
    },
    "sfomuseum:placetype": "instagram",
    "src:geom": "sfomuseum",
    "wof:belongsto": [
      1159160869,
      102527513,
      102191575,
      85633793,
      102087579,
      85922583,
      85688637
    ],
    "wof:country": "US",
    "wof:created": 1559153040,
    "wof:geomhash": "b6e33f47475d56bc8da457bc31afadc8",
    "wof:hierarchy": [
      {
        "building_id": 1159160869,
        "campus_id": 102527513,
        "continent_id": 102191575,
        "country_id": 85633793,
        "county_id": 102087579,
        "custom_id": 1729356503,
        "instagram_id": 1729356503,
        "locality_id": 85922583,
        "neighbourhood_id": -1,
        "region_id": 85688637
      }
    ],
    "wof:id": 1729356503,
    "wof:lastmodified": 1787777629,
    "wof:name": "The husband-and-wife team of Charles (1907–78) and Ray (1912–88) Eames implemented the brilliance of postwar, modern design on the greatest scale, producing more than two million fiberglass chairs through Herman Miller, Inc. by 1966...",
    "wof:parent_id": 1159160869,
    "wof:placetype": "custom",
    "wof:placetype_alt": [
      "instagram"
    ],
    "wof:repo": "sfomuseum-data-socialmedia-instagram",
    "wof:superseded_by": [],
    "wof:supersedes": []
  },
  "bbox": [
    -122.386166,
    37.616356,
    -122.386166,
    37.616356
  ],
  "geometry": {"type":"Point","coordinates":[-122.386166,37.616356]}
}
