{
  "id": 1729361501,
  "type": "Feature",
  "properties": {
    "date:cessation_lower": "2015-09-25",
    "date:cessation_upper": "2015-09-25",
    "date:inception_lower": "2015-09-25",
    "date:inception_upper": "2015-09-25",
    "edtf:cessation": "2015-09-25T12:39:00-07:00",
    "edtf:inception": "2015-09-25T12:39:00-07:00",
    "geom:area": 0,
    "geom:bbox": "-122.386166,37.616356,-122.386166,37.616356",
    "geom:latitude": 37.616356,
    "geom:longitude": -122.386166,
    "instagram:post": {
      "caption": {
        "body": "",
        "excerpt": "",
        "hashtags": [
          "FBF"
        ],
        "users": [
          "flySFO."
        ]
      },
      "media_id": "db57a43614f6270cade08b30898efa14",
      "path": "media/other/11917999_1625842467695364_1020402686_n_17843913406062499.jpg",
      "perceptual_hash": "p:d4cfab308ec920de",
      "taken": 1443209940,
      "taken_at": "Sep 25, 2015 7:39 pm"
    },
    "millsfield:similar": {
      "google/siglip2-so400m-patch16-naflex": [
        {
          "distance": 0.11767685413360596,
          "id": 1729359637
        },
        {
          "distance": 0.17759853601455688,
          "id": 1729359637
        },
        {
          "distance": 0.21486109495162964,
          "id": 1763559453
        },
        {
          "distance": 0.21707433462142944,
          "id": 1763559533
        },
        {
          "distance": 0.2176106572151184,
          "id": 1880151527
        },
        {
          "distance": 0.2238747477531433,
          "id": 1729361451
        },
        {
          "distance": 0.22824984788894653,
          "id": 1880151233
        },
        {
          "distance": 0.2385275959968567,
          "id": 1729360687
        },
        {
          "distance": 0.2468724250793457,
          "id": 1763558659
        },
        {
          "distance": 0.2468724250793457,
          "id": 1729359591
        }
      ]
    },
    "sfomuseum:placetype": "instagram",
    "src:geom": "sfomuseum",
    "wof:belongsto": [
      1159160869,
      102527513,
      102191575,
      85633793,
      102087579,
      85922583,
      85688637
    ],
    "wof:country": "US",
    "wof:created": 1443209940,
    "wof:geomhash": "b6e33f47475d56bc8da457bc31afadc8",
    "wof:hierarchy": [
      {
        "building_id": 1159160869,
        "campus_id": 102527513,
        "continent_id": 102191575,
        "country_id": 85633793,
        "county_id": 102087579,
        "custom_id": 1729361501,
        "instagram_id": 1729361501,
        "locality_id": 85922583,
        "neighbourhood_id": -1,
        "region_id": 85688637
      }
    ],
    "wof:id": 1729361501,
    "wof:lastmodified": 1787777645,
    "wof:name": "..",
    "wof:parent_id": 1159160869,
    "wof:placetype": "custom",
    "wof:placetype_alt": [
      "instagram"
    ],
    "wof:repo": "sfomuseum-data-socialmedia-instagram",
    "wof:superseded_by": [],
    "wof:supersedes": []
  },
  "bbox": [
    -122.386166,
    37.616356,
    -122.386166,
    37.616356
  ],
  "geometry": {"type":"Point","coordinates":[-122.386166,37.616356]}
}
