{
  "id": 1729356451,
  "type": "Feature",
  "properties": {
    "date:cessation_lower": "2019-06-11",
    "date:cessation_upper": "2019-06-11",
    "date:inception_lower": "2019-06-11",
    "date:inception_upper": "2019-06-11",
    "edtf:cessation": "2019-06-11T10:08:00-07:00",
    "edtf:inception": "2019-06-11T10:08:00-07:00",
    "geom:area": 0,
    "geom:bbox": "-122.386166,37.616356,-122.386166,37.616356",
    "geom:latitude": 37.616356,
    "geom:longitude": -122.386166,
    "instagram:post": {
      "caption": {
        "body": "In the 1970s, TWA (Trans World Airlines) introduced plastic swizzle sticks formed into the shapes of easily-identifiable symbols representing the airline’s major flight destinations. Have you been to any of these destinations: France, India, England, Greece, Spain, Hong Kong, Italy, or Africa?",
        "excerpt": "In the 1970s, TWA (Trans World Airlines) introduced plastic swizzle sticks formed into the shapes of easily-identifiable symbols representing the airline’s major flight destinations.",
        "hashtags": [
          "avgeek",
          "TWA",
          "France",
          "India",
          "England",
          "Greece",
          "Spain",
          "HongKong",
          "Italy",
          "Africa",
          "TransWorldAirlines"
        ],
        "users": []
      },
      "media_id": "23cbd3b9f0273c683a4d4485a9114a6e",
      "path": "media/other/64386473_392379548287412_1805180152351592399_n_18077713360022505.jpg",
      "perceptual_hash": "p:8cb874e48b39f4e4",
      "taken": 1560272880,
      "taken_at": "Jun 11, 2019 5:08 pm"
    },
    "millsfield:similar": {
      "google/siglip2-so400m-patch16-naflex": [
        {
          "distance": 0.006143748760223389,
          "id": 1729360789
        },
        {
          "distance": 0.11678630113601685,
          "id": 1729360789
        },
        {
          "distance": 0.26240020990371704,
          "id": 1729361065
        },
        {
          "distance": 0.2907285690307617,
          "id": 1729362317
        },
        {
          "distance": 0.3026333451271057,
          "id": 1729361065
        },
        {
          "distance": 0.3133195638656616,
          "id": 1729362317
        },
        {
          "distance": 0.3583238124847412,
          "id": 1729357363
        },
        {
          "distance": 0.36439526081085205,
          "id": 1880151587
        },
        {
          "distance": 0.36454737186431885,
          "id": 1729357357
        },
        {
          "distance": 0.36712658405303955,
          "id": 1729357381
        }
      ]
    },
    "sfomuseum:placetype": "instagram",
    "src:geom": "sfomuseum",
    "wof:belongsto": [
      1159160869,
      102527513,
      102191575,
      85633793,
      102087579,
      85922583,
      85688637
    ],
    "wof:country": "US",
    "wof:created": 1560272880,
    "wof:geomhash": "b6e33f47475d56bc8da457bc31afadc8",
    "wof:hierarchy": [
      {
        "building_id": 1159160869,
        "campus_id": 102527513,
        "continent_id": 102191575,
        "country_id": 85633793,
        "county_id": 102087579,
        "custom_id": 1729356451,
        "instagram_id": 1729356451,
        "locality_id": 85922583,
        "neighbourhood_id": -1,
        "region_id": 85688637
      }
    ],
    "wof:id": 1729356451,
    "wof:lastmodified": 1787777629,
    "wof:name": "In the 1970s, TWA (Trans World Airlines) introduced plastic swizzle sticks formed into the shapes of easily-identifiable symbols representing the airline’s major flight destinations...",
    "wof:parent_id": 1159160869,
    "wof:placetype": "custom",
    "wof:placetype_alt": [
      "instagram"
    ],
    "wof:repo": "sfomuseum-data-socialmedia-instagram",
    "wof:superseded_by": [],
    "wof:supersedes": []
  },
  "bbox": [
    -122.386166,
    37.616356,
    -122.386166,
    37.616356
  ],
  "geometry": {"type":"Point","coordinates":[-122.386166,37.616356]}
}
