{
  "id": 1729355519,
  "type": "Feature",
  "properties": {
    "date:cessation_lower": "2020-02-29",
    "date:cessation_upper": "2020-02-29",
    "date:inception_lower": "2020-02-29",
    "date:inception_upper": "2020-02-29",
    "edtf:cessation": "2020-02-28T16:55:30-08:00",
    "edtf:inception": "2020-02-28T16:55:30-08:00",
    "geom:area": 0,
    "geom:bbox": "-122.386166,37.616356,-122.386166,37.616356",
    "geom:latitude": 37.616356,
    "geom:longitude": -122.386166,
    "instagram:post": {
      "caption": {
        "body": "What was it like navigating open waters in an aircraft during the 1930s? Complicated to say the least! In addition to celestial navigation and a radio compass, Pan American Airways pilots used a process called dead reckoning, which involved calculating a position based on a previously determined position, or fix, using data such as speed, elapsed time, and wind drift. Wind drift was calculated by dropping a ceramic drift marker overboard. Filled with metallic powder, it created a highly visible slick on the ocean surface. This fixed point was viewed through a drift meter to measure ground speed and sideways diversion from a crosswind that could then be calculated for a heading correction.  1st 📸: the crew of Pan Am’s first survey flight to Hawai’i, flown in 1935: Radio Officer W.T. Jarboe Jr., Junior Flight Officer Harry R. Canaday, First Officer R.O.D. Sullivan, Captain Edwin C. Musick, Navigator Fred J. Noonan, Engineer Officer Victor A. Wright.  2nd 📸: the navigation and radio kit used by Pan Am in the mid 1930s and early 1940s.  Learn more about the China Clipper and early transpacific travel in \"China Clipper\" on display, pre-security, in the Aviation Museum and Library in the International Terminal. The Aviation Museum and Library is open daily 10am to 4:30pm. http://bit.ly/chinaclipper ",
        "excerpt": "What was it like navigating open waters in an aircraft during the 1930s?",
        "hashtags": [
          "ChinaClipper",
          "navigation",
          "avgeek"
        ],
        "users": []
      },
      "location": "",
      "media_id": "41d4e549e2c6660d0338c65c1667c2e2",
      "path": "photos/202002/41d4e549e2c6660d0338c65c1667c2e2.jpg",
      "perceptual_hash": "p:e93596cb1d2660b9",
      "taken": 1582908900,
      "taken_at": "Feb 28, 2020, 4:55 PM"
    },
    "millsfield:similar": {
      "google/siglip2-so400m-patch16-naflex": [
        {
          "distance": 0.27795761823654175,
          "id": 1729356675
        },
        {
          "distance": 0.2789103388786316,
          "id": 1729361847
        },
        {
          "distance": 0.28060001134872437,
          "id": 1729358115
        },
        {
          "distance": 0.2831047773361206,
          "id": 1729359321
        },
        {
          "distance": 0.2860318422317505,
          "id": 1729358249
        },
        {
          "distance": 0.2967182397842407,
          "id": 1729357951
        },
        {
          "distance": 0.2970135807991028,
          "id": 1763559535
        },
        {
          "distance": 0.2977818250656128,
          "id": 1729358989
        },
        {
          "distance": 0.2979760766029358,
          "id": 1729361965
        },
        {
          "distance": 0.2993430495262146,
          "id": 1729361847
        }
      ]
    },
    "sfomuseum:placetype": "instagram",
    "src:geom": "sfomuseum",
    "wof:belongsto": [
      1159160869,
      102527513,
      102191575,
      85633793,
      102087579,
      85922583,
      85688637
    ],
    "wof:country": "US",
    "wof:created": 1582937730,
    "wof:geomhash": "b6e33f47475d56bc8da457bc31afadc8",
    "wof:hierarchy": [
      {
        "building_id": 1159160869,
        "campus_id": 102527513,
        "continent_id": 102191575,
        "country_id": 85633793,
        "county_id": 102087579,
        "custom_id": 1729355519,
        "instagram_id": 1729355519,
        "locality_id": 85922583,
        "neighbourhood_id": -1,
        "region_id": 85688637
      }
    ],
    "wof:id": 1729355519,
    "wof:lastmodified": 1787777626,
    "wof:name": "What was it like navigating open waters in an aircraft during the 1930s?..",
    "wof:parent_id": 1159160869,
    "wof:placetype": "custom",
    "wof:placetype_alt": [
      "instagram"
    ],
    "wof:repo": "sfomuseum-data-socialmedia-instagram",
    "wof:superseded_by": [],
    "wof:supersedes": []
  },
  "bbox": [
    -122.386166,
    37.616356,
    -122.386166,
    37.616356
  ],
  "geometry": {"type":"Point","coordinates":[-122.386166,37.616356]}
}
