{
  "id": 1729362557,
  "type": "Feature",
  "properties": {
    "date:cessation_lower": "2013-09-20",
    "date:cessation_upper": "2013-09-20",
    "date:inception_lower": "2013-09-20",
    "date:inception_upper": "2013-09-20",
    "edtf:cessation": "2013-09-20T03:17:00-07:00",
    "edtf:inception": "2013-09-20T03:17:00-07:00",
    "geom:area": 0,
    "geom:bbox": "-122.386166,37.616356,-122.386166,37.616356",
    "geom:latitude": 37.616356,
    "geom:longitude": -122.386166,
    "instagram:post": {
      "caption": {
        "body": "In the Philippines, as in many areas of the world, smaller animal foods such as fish and eels were traditionally caught using #basketry traps.",
        "excerpt": "In the Philippines, as in many areas of the world, smaller animal foods such as fish and eels were traditionally caught using #basketry traps.",
        "hashtags": [],
        "users": []
      },
      "media_id": "c04517c796e11d1a01578e7523133b7c",
      "path": "media/other/11373524_650394311771360_463688196_n_17842360768062499.jpg",
      "perceptual_hash": "p:f0934fcb173a1964",
      "taken": 1379672220,
      "taken_at": "Sep 20, 2013 10:17 am"
    },
    "millsfield:similar": {
      "google/siglip2-so400m-patch16-naflex": [
        {
          "distance": 0.194338858127594,
          "id": 1729362511
        },
        {
          "distance": 0.2023945450782776,
          "id": 1729362459
        },
        {
          "distance": 0.20703041553497314,
          "id": 1729362565
        },
        {
          "distance": 0.22221583127975464,
          "id": 1729362459
        },
        {
          "distance": 0.22930961847305298,
          "id": 1729362565
        },
        {
          "distance": 0.24657666683197021,
          "id": 1729362653
        },
        {
          "distance": 0.2495855689048767,
          "id": 1729362511
        },
        {
          "distance": 0.25218868255615234,
          "id": 1729362525
        },
        {
          "distance": 0.2663571238517761,
          "id": 1729361917
        },
        {
          "distance": 0.26966506242752075,
          "id": 1729362381
        }
      ]
    },
    "sfomuseum:placetype": "instagram",
    "src:geom": "sfomuseum",
    "wof:belongsto": [
      1159160869,
      102527513,
      102191575,
      85633793,
      102087579,
      85922583,
      85688637
    ],
    "wof:country": "US",
    "wof:created": 1379672220,
    "wof:geomhash": "b6e33f47475d56bc8da457bc31afadc8",
    "wof:hierarchy": [
      {
        "building_id": 1159160869,
        "campus_id": 102527513,
        "continent_id": 102191575,
        "country_id": 85633793,
        "county_id": 102087579,
        "custom_id": 1729362557,
        "instagram_id": 1729362557,
        "locality_id": 85922583,
        "neighbourhood_id": -1,
        "region_id": 85688637
      }
    ],
    "wof:id": 1729362557,
    "wof:lastmodified": 1787777647,
    "wof:name": "In the Philippines, as in many areas of the world, smaller animal foods such as fish and eels were traditionally caught using #basketry traps...",
    "wof:parent_id": 1159160869,
    "wof:placetype": "custom",
    "wof:placetype_alt": [
      "instagram"
    ],
    "wof:repo": "sfomuseum-data-socialmedia-instagram",
    "wof:superseded_by": [],
    "wof:supersedes": []
  },
  "bbox": [
    -122.386166,
    37.616356,
    -122.386166,
    37.616356
  ],
  "geometry": {"type":"Point","coordinates":[-122.386166,37.616356]}
}
