{
  "id": 1729361523,
  "type": "Feature",
  "properties": {
    "date:cessation_lower": "2015-09-21",
    "date:cessation_upper": "2015-09-21",
    "date:inception_lower": "2015-09-21",
    "date:inception_upper": "2015-09-21",
    "edtf:cessation": "2015-09-21T02:27:00-07:00",
    "edtf:inception": "2015-09-21T02:27:00-07:00",
    "geom:area": 0,
    "geom:bbox": "-122.386166,37.616356,-122.386166,37.616356",
    "geom:latitude": 37.616356,
    "geom:longitude": -122.386166,
    "instagram:post": {
      "caption": {
        "body": "",
        "excerpt": "",
        "hashtags": [
          "kirkhammett",
          "kirksmonsters",
          "monstermonday",
          "classicmonsters"
        ],
        "users": []
      },
      "media_id": "cfa08c9cb60ce126b6607c84977f9f9d",
      "path": "media/other/11910016_527242997440939_1550770519_n_17843857096062499.jpg",
      "perceptual_hash": "p:c1e7be8d8199c166",
      "taken": 1442827620,
      "taken_at": "Sep 21, 2015 9:27 am"
    },
    "millsfield:similar": {
      "google/siglip2-so400m-patch16-naflex": [
        {
          "distance": 0.2664622664451599,
          "id": 1729356637
        },
        {
          "distance": 0.2671770453453064,
          "id": 1729362379
        },
        {
          "distance": 0.28045594692230225,
          "id": 1729356645
        },
        {
          "distance": 0.2812157869338989,
          "id": 1729361765
        },
        {
          "distance": 0.2857297658920288,
          "id": 1729356641
        },
        {
          "distance": 0.2896588444709778,
          "id": 1729362387
        },
        {
          "distance": 0.3034656047821045,
          "id": 1729361725
        },
        {
          "distance": 0.32093918323516846,
          "id": 1729356637
        },
        {
          "distance": 0.3269502520561218,
          "id": 1729362379
        },
        {
          "distance": 0.3284764885902405,
          "id": 1729356641
        }
      ]
    },
    "sfomuseum:placetype": "instagram",
    "src:geom": "sfomuseum",
    "wof:belongsto": [
      1159160869,
      102527513,
      102191575,
      85633793,
      102087579,
      85922583,
      85688637
    ],
    "wof:country": "US",
    "wof:created": 1442827620,
    "wof:geomhash": "b6e33f47475d56bc8da457bc31afadc8",
    "wof:hierarchy": [
      {
        "building_id": 1159160869,
        "campus_id": 102527513,
        "continent_id": 102191575,
        "country_id": 85633793,
        "county_id": 102087579,
        "custom_id": 1729361523,
        "instagram_id": 1729361523,
        "locality_id": 85922583,
        "neighbourhood_id": -1,
        "region_id": 85688637
      }
    ],
    "wof:id": 1729361523,
    "wof:lastmodified": 1787777645,
    "wof:name": "..",
    "wof:parent_id": 1159160869,
    "wof:placetype": "custom",
    "wof:placetype_alt": [
      "instagram"
    ],
    "wof:repo": "sfomuseum-data-socialmedia-instagram",
    "wof:superseded_by": [],
    "wof:supersedes": []
  },
  "bbox": [
    -122.386166,
    37.616356,
    -122.386166,
    37.616356
  ],
  "geometry": {"type":"Point","coordinates":[-122.386166,37.616356]}
}
