{
  "id": 1729361927,
  "type": "Feature",
  "properties": {
    "date:cessation_lower": "2015-02-13",
    "date:cessation_upper": "2015-02-13",
    "date:inception_lower": "2015-02-13",
    "date:inception_upper": "2015-02-13",
    "edtf:cessation": "2015-02-13T07:15:00-08:00",
    "edtf:inception": "2015-02-13T07:15:00-08:00",
    "geom:area": 0,
    "geom:bbox": "-122.386166,37.616356,-122.386166,37.616356",
    "geom:latitude": 37.616356,
    "geom:longitude": -122.386166,
    "instagram:post": {
      "caption": {
        "body": "",
        "excerpt": "",
        "hashtags": [
          "EgyptianRevival",
          "furniture",
          "design"
        ],
        "users": []
      },
      "media_id": "627403ad6c5cbd12921d9567abc5eb1b",
      "path": "media/other/10986292_690732684371255_1179212910_n_17841739627062499.jpg",
      "perceptual_hash": "p:eac7b91be41ca4c8",
      "taken": 1423840500,
      "taken_at": "Feb 13, 2015 3:15 pm"
    },
    "millsfield:similar": {
      "google/siglip2-so400m-patch16-naflex": [
        {
          "distance": 0.23239761590957642,
          "id": 1729356457
        },
        {
          "distance": 0.2352440357208252,
          "id": 1729356469
        },
        {
          "distance": 0.24715155363082886,
          "id": 1729355825
        },
        {
          "distance": 0.25247007608413696,
          "id": 1729356465
        },
        {
          "distance": 0.2534797191619873,
          "id": 1729355991
        },
        {
          "distance": 0.259100079536438,
          "id": 1729356457
        },
        {
          "distance": 0.26249146461486816,
          "id": 1729356465
        },
        {
          "distance": 0.2663053274154663,
          "id": 1729356469
        },
        {
          "distance": 0.27145856618881226,
          "id": 1729355991
        },
        {
          "distance": 0.2849711775779724,
          "id": 1729356509
        }
      ]
    },
    "sfomuseum:placetype": "instagram",
    "src:geom": "sfomuseum",
    "wof:belongsto": [
      1159160869,
      102527513,
      102191575,
      85633793,
      102087579,
      85922583,
      85688637
    ],
    "wof:country": "US",
    "wof:created": 1423840500,
    "wof:geomhash": "b6e33f47475d56bc8da457bc31afadc8",
    "wof:hierarchy": [
      {
        "building_id": 1159160869,
        "campus_id": 102527513,
        "continent_id": 102191575,
        "country_id": 85633793,
        "county_id": 102087579,
        "custom_id": 1729361927,
        "instagram_id": 1729361927,
        "locality_id": 85922583,
        "neighbourhood_id": -1,
        "region_id": 85688637
      }
    ],
    "wof:id": 1729361927,
    "wof:lastmodified": 1787777646,
    "wof:name": "..",
    "wof:parent_id": 1159160869,
    "wof:placetype": "custom",
    "wof:placetype_alt": [
      "instagram"
    ],
    "wof:repo": "sfomuseum-data-socialmedia-instagram",
    "wof:superseded_by": [],
    "wof:supersedes": []
  },
  "bbox": [
    -122.386166,
    37.616356,
    -122.386166,
    37.616356
  ],
  "geometry": {"type":"Point","coordinates":[-122.386166,37.616356]}
}
