{
  "id": 1947425061,
  "type": "Feature",
  "properties": {
    "date:cessation_lower": "2024-04-22",
    "date:cessation_upper": "2024-04-22",
    "date:inception_lower": "2024-04-22",
    "date:inception_upper": "2024-04-22",
    "edtf:cessation": "2024-04-22T08:31:00-07:00",
    "edtf:inception": "2024-04-22T08:31:00-07:00",
    "geom:area": 0,
    "geom:bbox": "-122.386166,37.616356,-122.386166,37.616356",
    "geom:latitude": 37.616356,
    "geom:longitude": -122.386166,
    "instagram:post": {
      "caption": {
        "body": "Happy Earth Day! Mark Adams was born on October 27, 1925, in Fort Plain, New York. Early in his career, Adams established himself as a tapestry and stained-glass designer. His pieces, “Pond in Golden Gate Park,” “Garden in San Andreas Valley,” and “Garden Outside Gate” are woven in the traditional Aubusson Style. The tapestries represent various gardens that the artist remembers from his years living in the Bay Area. Irises, hydrangeas, chrysanthemums, and wild dahlias are featured in rich deep shades of the rainbow. What is your favorite outdoor garden?  See “Pond in Golden Gate Park,” “Garden in San Andreas Valley,” and “Garden Outside Gate” by Mark Adams, on display, pre-security, in Terminal 2. https://bit.ly/3SbIXsX",
        "excerpt": "Happy Earth Day!",
        "hashtags": [
          "SFAC",
          "PublicArt",
          "MarkAdams",
          "EarthDay",
          "Embrodery",
          "Tapestry",
          "AubussonStyle"
        ],
        "users": [
          "sf_arts_commission"
        ]
      },
      "media_id": "2d8c6a5dc1c681ea32d6b7bb65be05cbc1c5f4fb",
      "path": "media/posts/202404/439467324_922868863183377_4589293889798237466_n_18146726341312421.jpg",
      "perceptual_hash": "p:aec0d5aee21745d4",
      "taken": 1713799860,
      "taken_at": "Apr 22, 2024 3:31 pm"
    },
    "millsfield:similar": {
      "google/siglip2-so400m-patch16-naflex": [
        {
          "distance": 0.13106286525726318,
          "id": 1880151355
        },
        {
          "distance": 0.14787006378173828,
          "id": 1880151355
        },
        {
          "distance": 0.15732711553573608,
          "id": 1729361031
        },
        {
          "distance": 0.16306394338607788,
          "id": 1763559521
        },
        {
          "distance": 0.18463581800460815,
          "id": 1729355435
        },
        {
          "distance": 0.19125902652740479,
          "id": 1729355195
        },
        {
          "distance": 0.1949394941329956,
          "id": 1763559521
        },
        {
          "distance": 0.1954212784767151,
          "id": 1729359429
        },
        {
          "distance": 0.20977389812469482,
          "id": 1729355777
        },
        {
          "distance": 0.214164137840271,
          "id": 1729355435
        }
      ]
    },
    "sfomuseum:placetype": "instagram",
    "src:geom": "sfomuseum",
    "wof:belongsto": [
      1159160869,
      102527513,
      102191575,
      85633793,
      102087579,
      85922583,
      85688637
    ],
    "wof:country": "US",
    "wof:created": 1713799860,
    "wof:geomhash": "b6e33f47475d56bc8da457bc31afadc8",
    "wof:hierarchy": [
      {
        "building_id": 1159160869,
        "campus_id": 102527513,
        "continent_id": 102191575,
        "country_id": 85633793,
        "county_id": 102087579,
        "custom_id": 1947425061,
        "locality_id": 85922583,
        "neighbourhood_id": -1,
        "region_id": 85688637
      }
    ],
    "wof:id": 1947425061,
    "wof:lastmodified": 1787777664,
    "wof:name": "Happy Earth Day!..",
    "wof:parent_id": 1159160869,
    "wof:placetype": "custom",
    "wof:repo": "sfomuseum-data-socialmedia-instagram",
    "wof:superseded_by": [],
    "wof:supersedes": []
  },
  "bbox": [
    -122.386166,
    37.616356,
    -122.386166,
    37.616356
  ],
  "geometry": {"type":"Point","coordinates":[-122.386166,37.616356]}
}
