{
  "id": 1729360569,
  "type": "Feature",
  "properties": {
    "date:cessation_lower": "2016-07-04",
    "date:cessation_upper": "2016-07-04",
    "date:inception_lower": "2016-07-04",
    "date:inception_upper": "2016-07-04",
    "edtf:cessation": "2016-07-04T03:25:00-07:00",
    "edtf:inception": "2016-07-04T03:25:00-07:00",
    "geom:area": 0,
    "geom:bbox": "-122.386166,37.616356,-122.386166,37.616356",
    "geom:latitude": 37.616356,
    "geom:longitude": -122.386166,
    "instagram:post": {
      "caption": {
        "body": "",
        "excerpt": "",
        "hashtags": [
          "fourthofjuly",
          "independenceday",
          "america"
        ],
        "users": []
      },
      "media_id": "4876f2908f326e06c29e11443a144285",
      "path": "media/other/13556886_1759482030959860_426536077_n_17849783902077284.jpg",
      "perceptual_hash": "p:aa7ac4c5f9913b60",
      "taken": 1467627900,
      "taken_at": "Jul 04, 2016 10:25 am"
    },
    "millsfield:similar": {
      "google/siglip2-so400m-patch16-naflex": [
        {
          "distance": 0.3586130142211914,
          "id": 1947424789
        },
        {
          "distance": 0.3721635937690735,
          "id": 1729359485
        },
        {
          "distance": 0.3747193217277527,
          "id": 1729355375
        },
        {
          "distance": 0.3820972442626953,
          "id": 1729358287
        },
        {
          "distance": 0.3831583261489868,
          "id": 1729358475
        },
        {
          "distance": 0.38378357887268066,
          "id": 1880150945
        },
        {
          "distance": 0.3848039507865906,
          "id": 1880150891
        },
        {
          "distance": 0.3853070139884949,
          "id": 1880150945
        },
        {
          "distance": 0.38626599311828613,
          "id": 1729358159
        },
        {
          "distance": 0.3872394561767578,
          "id": 1729356283
        }
      ]
    },
    "sfomuseum:placetype": "instagram",
    "src:geom": "sfomuseum",
    "wof:belongsto": [
      1159160869,
      102527513,
      102191575,
      85633793,
      102087579,
      85922583,
      85688637
    ],
    "wof:country": "US",
    "wof:created": 1467627900,
    "wof:geomhash": "b6e33f47475d56bc8da457bc31afadc8",
    "wof:hierarchy": [
      {
        "building_id": 1159160869,
        "campus_id": 102527513,
        "continent_id": 102191575,
        "country_id": 85633793,
        "county_id": 102087579,
        "custom_id": 1729360569,
        "instagram_id": 1729360569,
        "locality_id": 85922583,
        "neighbourhood_id": -1,
        "region_id": 85688637
      }
    ],
    "wof:id": 1729360569,
    "wof:lastmodified": 1787777640,
    "wof:name": "..",
    "wof:parent_id": 1159160869,
    "wof:placetype": "custom",
    "wof:placetype_alt": [
      "instagram"
    ],
    "wof:repo": "sfomuseum-data-socialmedia-instagram",
    "wof:superseded_by": [],
    "wof:supersedes": []
  },
  "bbox": [
    -122.386166,
    37.616356,
    -122.386166,
    37.616356
  ],
  "geometry": {"type":"Point","coordinates":[-122.386166,37.616356]}
}
