{
  "id": 1729359569,
  "type": "Feature",
  "properties": {
    "date:cessation_lower": "2017-04-26",
    "date:cessation_upper": "2017-04-26",
    "date:inception_lower": "2017-04-26",
    "date:inception_upper": "2017-04-26",
    "edtf:cessation": "2017-04-26T01:45:00-07:00",
    "edtf:inception": "2017-04-26T01:45:00-07:00",
    "geom:area": 0,
    "geom:bbox": "-122.386166,37.616356,-122.386166,37.616356",
    "geom:latitude": 37.616356,
    "geom:longitude": -122.386166,
    "instagram:post": {
      "caption": {
        "body": "The Lockheed L-1011 TriStar was introduced #onthisday in 1972 with Eastern Air Lines. The wide-body L-1011 was the last commercial airliner produced by Lockheed Martin. Have you ever flown on a Lockheed L-1011 TriStar?  Image:  Eastern Air Lines postcard, Lockheed L-1011 TriStar, c. 1972. Gift of the Frank J. Lichtanski Collection. 2011.061.0334",
        "excerpt": "The Lockheed L-1011 TriStar was introduced #onthisday in 1972 with Eastern Air Lines.",
        "hashtags": [
          "Lockheed",
          "L1011",
          "TriStar",
          "avgeek",
          "aviationhistory"
        ],
        "users": []
      },
      "media_id": "cbbc67eb71642fe4687cabb72eda445a",
      "path": "media/posts/201704/18096012_1559828810707907_1873115450594820096_n_17869848697075630.jpg",
      "perceptual_hash": "p:fa301f2fc3c090be",
      "taken": 1493196300,
      "taken_at": "Apr 26, 2017 8:45 am"
    },
    "millsfield:similar": {
      "google/siglip2-so400m-patch16-naflex": [
        {
          "distance": 0.1605575680732727,
          "id": 1729356753
        },
        {
          "distance": 0.16159683465957642,
          "id": 1729357345
        },
        {
          "distance": 0.16272783279418945,
          "id": 1763559631
        },
        {
          "distance": 0.1633790135383606,
          "id": 1763559631
        },
        {
          "distance": 0.1709192395210266,
          "id": 1729356033
        },
        {
          "distance": 0.17680257558822632,
          "id": 1729356033
        },
        {
          "distance": 0.1843767762184143,
          "id": 1729357345
        },
        {
          "distance": 0.1882757544517517,
          "id": 1729359867
        },
        {
          "distance": 0.1931104063987732,
          "id": 1729359793
        },
        {
          "distance": 0.19560545682907104,
          "id": 1729356753
        }
      ]
    },
    "sfomuseum:placetype": "instagram",
    "src:geom": "sfomuseum",
    "wof:belongsto": [
      1159160869,
      102527513,
      102191575,
      85633793,
      102087579,
      85922583,
      85688637
    ],
    "wof:country": "US",
    "wof:created": 1493196300,
    "wof:geomhash": "b6e33f47475d56bc8da457bc31afadc8",
    "wof:hierarchy": [
      {
        "building_id": 1159160869,
        "campus_id": 102527513,
        "continent_id": 102191575,
        "country_id": 85633793,
        "county_id": 102087579,
        "custom_id": 1729359569,
        "instagram_id": 1729359569,
        "locality_id": 85922583,
        "neighbourhood_id": -1,
        "region_id": 85688637
      }
    ],
    "wof:id": 1729359569,
    "wof:lastmodified": 1787777636,
    "wof:name": "The Lockheed L-1011 TriStar was introduced #onthisday in 1972 with Eastern Air Lines...",
    "wof:parent_id": 1159160869,
    "wof:placetype": "custom",
    "wof:placetype_alt": [
      "instagram"
    ],
    "wof:repo": "sfomuseum-data-socialmedia-instagram",
    "wof:superseded_by": [],
    "wof:supersedes": []
  },
  "bbox": [
    -122.386166,
    37.616356,
    -122.386166,
    37.616356
  ],
  "geometry": {"type":"Point","coordinates":[-122.386166,37.616356]}
}
