{
  "id": 1729362937,
  "type": "Feature",
  "properties": {
    "date:cessation_lower": "2012-07-23",
    "date:cessation_upper": "2012-07-23",
    "date:inception_lower": "2012-07-23",
    "date:inception_upper": "2012-07-23",
    "edtf:cessation": "2012-07-23T06:31:00-07:00",
    "edtf:inception": "2012-07-23T06:31:00-07:00",
    "geom:area": 0,
    "geom:bbox": "-122.386166,37.616356,-122.386166,37.616356",
    "geom:latitude": 37.616356,
    "geom:longitude": -122.386166,
    "instagram:post": {
      "caption": {
        "body": "Cruising through T2? Be sure to see Modern Form: Scandinavian Ceramics 1930s-1960s!",
        "excerpt": "Cruising through T2?",
        "hashtags": [],
        "users": []
      },
      "media_id": "40a8c246be18e930a5f61538a9851d86",
      "path": "media/other/11191343_816955705061734_1627159831_n_17842259485062499.jpg",
      "perceptual_hash": "p:eac2216e9fa18c9e",
      "taken": 1343050260,
      "taken_at": "Jul 23, 2012 1:31 pm"
    },
    "millsfield:similar": {
      "google/siglip2-so400m-patch16-naflex": [
        {
          "distance": 0.22367966175079346,
          "id": 1729362175
        },
        {
          "distance": 0.24121862649917603,
          "id": 1729362175
        },
        {
          "distance": 0.25713300704956055,
          "id": 1729362225
        },
        {
          "distance": 0.2583070993423462,
          "id": 1729361983
        },
        {
          "distance": 0.272357702255249,
          "id": 1729361983
        },
        {
          "distance": 0.28878283500671387,
          "id": 1729360245
        },
        {
          "distance": 0.2889326810836792,
          "id": 1729362225
        },
        {
          "distance": 0.2925639748573303,
          "id": 1729360245
        },
        {
          "distance": 0.295836865901947,
          "id": 1729362751
        },
        {
          "distance": 0.2962690591812134,
          "id": 1729361967
        }
      ]
    },
    "sfomuseum:placetype": "instagram",
    "src:geom": "sfomuseum",
    "wof:belongsto": [
      1159160869,
      102527513,
      102191575,
      85633793,
      102087579,
      85922583,
      85688637
    ],
    "wof:country": "US",
    "wof:created": 1343050260,
    "wof:geomhash": "b6e33f47475d56bc8da457bc31afadc8",
    "wof:hierarchy": [
      {
        "building_id": 1159160869,
        "campus_id": 102527513,
        "continent_id": 102191575,
        "country_id": 85633793,
        "county_id": 102087579,
        "custom_id": 1729362937,
        "instagram_id": 1729362937,
        "locality_id": 85922583,
        "neighbourhood_id": -1,
        "region_id": 85688637
      }
    ],
    "wof:id": 1729362937,
    "wof:lastmodified": 1787777657,
    "wof:name": "Cruising through T2?..",
    "wof:parent_id": 1159160869,
    "wof:placetype": "custom",
    "wof:placetype_alt": [
      "instagram"
    ],
    "wof:repo": "sfomuseum-data-socialmedia-instagram",
    "wof:superseded_by": [],
    "wof:supersedes": []
  },
  "bbox": [
    -122.386166,
    37.616356,
    -122.386166,
    37.616356
  ],
  "geometry": {"type":"Point","coordinates":[-122.386166,37.616356]}
}
