{
  "id": 1729355295,
  "type": "Feature",
  "properties": {
    "date:cessation_lower": "2020-05-04",
    "date:cessation_upper": "2020-05-04",
    "date:inception_lower": "2020-05-04",
    "date:inception_upper": "2020-05-04",
    "edtf:cessation": "2020-05-04T13:17:13-07:00",
    "edtf:inception": "2020-05-04T13:17:13-07:00",
    "geom:area": 0,
    "geom:bbox": "-122.386166,37.616356,-122.386166,37.616356",
    "geom:latitude": 37.616356,
    "geom:longitude": -122.386166,
    "instagram:post": {
      "caption": {
        "body": "Happy #BirdDay from our public art collection! The work featured here is by the artists Bob Zoell, Walter Kitundu, Hung Liu, and Rupert Garcia. Check out our website for locations and more information: https://bit.ly/2ygLHCx",
        "excerpt": "Happy #BirdDay from our public art collection!",
        "hashtags": [],
        "users": []
      },
      "location": "",
      "media_id": "95b475fb2da69f4f2334e30a9337aa5c",
      "path": "photos/202005/95b475fb2da69f4f2334e30a9337aa5c.jpg",
      "perceptual_hash": "p:bbc1b415cde884b6",
      "taken": 1588594620,
      "taken_at": "May 4, 2020, 12:17 PM"
    },
    "millsfield:similar": {
      "google/siglip2-so400m-patch16-naflex": [
        {
          "distance": 0.11459863185882568,
          "id": 1729360187
        },
        {
          "distance": 0.19327086210250854,
          "id": 1729360187
        },
        {
          "distance": 0.2996973991394043,
          "id": 1729359429
        },
        {
          "distance": 0.30008673667907715,
          "id": 1880151253
        },
        {
          "distance": 0.3180761933326721,
          "id": 1729355341
        },
        {
          "distance": 0.322242796421051,
          "id": 1880151713
        },
        {
          "distance": 0.32579731941223145,
          "id": 1729355285
        },
        {
          "distance": 0.32836246490478516,
          "id": 1729355285
        },
        {
          "distance": 0.3302622437477112,
          "id": 1880151253
        },
        {
          "distance": 0.33077776432037354,
          "id": 1880151069
        }
      ]
    },
    "sfomuseum:placetype": "instagram",
    "src:geom": "sfomuseum",
    "wof:belongsto": [
      1159160869,
      102527513,
      102191575,
      85633793,
      102087579,
      85922583,
      85688637
    ],
    "wof:country": "US",
    "wof:created": 1588623433,
    "wof:geomhash": "b6e33f47475d56bc8da457bc31afadc8",
    "wof:hierarchy": [
      {
        "building_id": 1159160869,
        "campus_id": 102527513,
        "continent_id": 102191575,
        "country_id": 85633793,
        "county_id": 102087579,
        "custom_id": 1729355295,
        "instagram_id": 1729355295,
        "locality_id": 85922583,
        "neighbourhood_id": -1,
        "region_id": 85688637
      }
    ],
    "wof:id": 1729355295,
    "wof:lastmodified": 1787777622,
    "wof:name": "Happy #BirdDay from our public art collection!..",
    "wof:parent_id": 1159160869,
    "wof:placetype": "custom",
    "wof:placetype_alt": [
      "instagram"
    ],
    "wof:repo": "sfomuseum-data-socialmedia-instagram",
    "wof:superseded_by": [],
    "wof:supersedes": []
  },
  "bbox": [
    -122.386166,
    37.616356,
    -122.386166,
    37.616356
  ],
  "geometry": {"type":"Point","coordinates":[-122.386166,37.616356]}
}
