{
  "id": 1763559381,
  "type": "Feature",
  "properties": {
    "date:cessation_lower": "2021-10-13",
    "date:cessation_upper": "2021-10-13",
    "date:inception_lower": "2021-10-13",
    "date:inception_upper": "2021-10-13",
    "edtf:cessation": "2021-10-13T11:45:00-07:00",
    "edtf:inception": "2021-10-13T11:45:00-07:00",
    "geom:area": 0,
    "geom:bbox": "-122.386166,37.616356,-122.386166,37.616356",
    "geom:latitude": 37.616356,
    "geom:longitude": -122.386166,
    "instagram:post": {
      "caption": {
        "body": "The Airbus A320 family includes the Airbus A318, A319, A320, and A321. Introduced by Air France in 1988, Airbus has produced over 10,000 320 family aircraft to date. The medium- to short-haul, narrow-bodied aircraft have ranges of up to 4,315 miles and cruising speeds of around 515mph. The first to feature an entirely computerized glass cockpit and digital fly-by-wire flight control technology, the A320 family is advertised for “improved safety and reduced pilot workload.” The different iterations indicate various sizes. The A318 can seat up to 132 passengers, the 319 up to 156 passengers, the 320 up to 186 passengers and the 321 up to 236 passengers.",
        "excerpt": "The Airbus A320 family includes the Airbus A318, A319, A320, and A321.",
        "hashtags": [
          "WingWenesday",
          "Airbus",
          "Airbus320"
        ],
        "users": []
      },
      "media_id": "26159d444aae0f31b009f5a166d628845982381f",
      "path": "media/posts/202110/245515456_262274419239102_743437873789101661_n_17945553226541121.jpg",
      "perceptual_hash": "p:8f9ebd61e1b0905c",
      "taken": 1634150700,
      "taken_at": "Oct 13, 2021 6:45 pm"
    },
    "millsfield:similar": {
      "google/siglip2-so400m-patch16-naflex": [
        {
          "distance": 0.24734246730804443,
          "id": 1763559183
        },
        {
          "distance": 0.2535587549209595,
          "id": 1729359403
        },
        {
          "distance": 0.27086931467056274,
          "id": 1880151617
        },
        {
          "distance": 0.2720068693161011,
          "id": 1729359761
        },
        {
          "distance": 0.27264952659606934,
          "id": 1729362889
        },
        {
          "distance": 0.2777671217918396,
          "id": 1729361577
        },
        {
          "distance": 0.2809547185897827,
          "id": 1763559183
        },
        {
          "distance": 0.2843508720397949,
          "id": 1729356131
        },
        {
          "distance": 0.2907997965812683,
          "id": 1763559299
        },
        {
          "distance": 0.2963978052139282,
          "id": 1729359761
        }
      ]
    },
    "sfomuseum:placetype": "instagram",
    "src:geom": "sfomuseum",
    "wof:belongsto": [
      1159160869,
      102527513,
      102191575,
      85633793,
      102087579,
      85922583,
      85688637
    ],
    "wof:country": "US",
    "wof:created": 1634150700,
    "wof:geomhash": "b6e33f47475d56bc8da457bc31afadc8",
    "wof:hierarchy": [
      {
        "building_id": 1159160869,
        "campus_id": 102527513,
        "continent_id": 102191575,
        "country_id": 85633793,
        "county_id": 102087579,
        "custom_id": 1763559381,
        "instagram_id": 1763559381,
        "locality_id": 85922583,
        "neighbourhood_id": -1,
        "region_id": 85688637
      }
    ],
    "wof:id": 1763559381,
    "wof:lastmodified": 1787777660,
    "wof:name": "The Airbus A320 family includes the Airbus A318, A319, A320, and A321...",
    "wof:parent_id": 1159160869,
    "wof:placetype": "custom",
    "wof:placetype_alt": [
      "instagram"
    ],
    "wof:repo": "sfomuseum-data-socialmedia-instagram",
    "wof:superseded_by": [],
    "wof:supersedes": []
  },
  "bbox": [
    -122.386166,
    37.616356,
    -122.386166,
    37.616356
  ],
  "geometry": {"type":"Point","coordinates":[-122.386166,37.616356]}
}
