{
  "id": 1729356733,
  "type": "Feature",
  "properties": {
    "date:cessation_lower": "2019-04-02",
    "date:cessation_upper": "2019-04-02",
    "date:inception_lower": "2019-04-02",
    "date:inception_upper": "2019-04-02",
    "edtf:cessation": "2019-04-02T13:07:14-07:00",
    "edtf:inception": "2019-04-02T13:07:14-07:00",
    "geom:area": 0,
    "geom:bbox": "-122.386166,37.616356,-122.386166,37.616356",
    "geom:latitude": 37.616356,
    "geom:longitude": -122.386166,
    "instagram:post": {
      "caption": {
        "body": "Mid-century radios were available in a variety of bold shapes and angular designs. As new technologies allowed for increasingly compact and affordable sets, radios were advertised for every room of the house. For the first time, radios made their way into bedrooms and morning routines with the introduction of combination alarm clock sets. By the end of the decade, tiny, electrical transistors started to replace vacuum tubes, and radios became even more portable. Some radios even pioneered alternative power sources, such as the solar- and battery-powered Hoffman Trans-Solar hybrid-portable. \"The Modern Consumer: Products and Style\" is on display, post-security, in Terminal 3. http://bit.ly/1950sConsumer",
        "excerpt": "Mid-century radios were available in a variety of bold shapes and angular designs.",
        "hashtags": [
          "1950sConsumer",
          "1950s",
          "50s",
          "midcentury",
          "classic",
          "radio"
        ],
        "users": []
      },
      "location": "",
      "media_id": "97a71372fec3f330e824a795ea732948",
      "path": "photos/201904/97a71372fec3f330e824a795ea732948.jpg",
      "perceptual_hash": "p:eb55c43a6d6897c0",
      "taken": 1554206820,
      "taken_at": "Apr 2, 2019, 12:07 PM"
    },
    "millsfield:similar": {
      "google/siglip2-so400m-patch16-naflex": [
        {
          "distance": 0.08126282691955566,
          "id": 1729356731
        },
        {
          "distance": 0.1376613974571228,
          "id": 1729356731
        },
        {
          "distance": 0.284865140914917,
          "id": 1729358345
        },
        {
          "distance": 0.2854515314102173,
          "id": 1729357985
        },
        {
          "distance": 0.2854515314102173,
          "id": 1729357987
        },
        {
          "distance": 0.2883259057998657,
          "id": 1729358295
        },
        {
          "distance": 0.2899056673049927,
          "id": 1729358245
        },
        {
          "distance": 0.2904142141342163,
          "id": 1729358031
        },
        {
          "distance": 0.295742928981781,
          "id": 1729358115
        },
        {
          "distance": 0.29705607891082764,
          "id": 1729357825
        }
      ]
    },
    "sfomuseum:placetype": "instagram",
    "src:geom": "sfomuseum",
    "wof:belongsto": [
      1159160869,
      102527513,
      102191575,
      85633793,
      102087579,
      85922583,
      85688637
    ],
    "wof:country": "US",
    "wof:created": 1554235634,
    "wof:geomhash": "b6e33f47475d56bc8da457bc31afadc8",
    "wof:hierarchy": [
      {
        "building_id": 1159160869,
        "campus_id": 102527513,
        "continent_id": 102191575,
        "country_id": 85633793,
        "county_id": 102087579,
        "custom_id": 1729356733,
        "instagram_id": 1729356733,
        "locality_id": 85922583,
        "neighbourhood_id": -1,
        "region_id": 85688637
      }
    ],
    "wof:id": 1729356733,
    "wof:lastmodified": 1787777629,
    "wof:name": "Mid-century radios were available in a variety of bold shapes and angular designs...",
    "wof:parent_id": 1159160869,
    "wof:placetype": "custom",
    "wof:placetype_alt": [
      "instagram"
    ],
    "wof:repo": "sfomuseum-data-socialmedia-instagram",
    "wof:superseded_by": [],
    "wof:supersedes": []
  },
  "bbox": [
    -122.386166,
    37.616356,
    -122.386166,
    37.616356
  ],
  "geometry": {"type":"Point","coordinates":[-122.386166,37.616356]}
}
