{
  "id": 1763559493,
  "type": "Feature",
  "properties": {
    "date:cessation_lower": "2022-04-13",
    "date:cessation_upper": "2022-04-13",
    "date:inception_lower": "2022-04-13",
    "date:inception_upper": "2022-04-13",
    "edtf:cessation": "2022-04-13T05:00:00-07:00",
    "edtf:inception": "2022-04-13T05:00:00-07:00",
    "geom:area": 0,
    "geom:bbox": "-122.386166,37.616356,-122.386166,37.616356",
    "geom:latitude": 37.616356,
    "geom:longitude": -122.386166,
    "instagram:post": {
      "caption": {
        "body": "Happy Birthday, Bob Zoell! The artist, born on this day in 1940, completed this work of public art in the connector between Terminal 3 and the International Terminal in 2009. “I’ve always been attracted and fascinated by birds and their freedom through flight,” says Bob Zoell. Combining his lifelong passion for language and birds, the artist created a playful world of singing birds sitting on branches composed from letters and punctuation marks. The top and bottom frosted glass panels feature airplanes and typography, rendered in a simplified graphic style. Together, these images create a code of abstract icons intended to delight visitors of all ages.  See “BFILRYD” by Bob Zoell on display in the post-security connector between Terminal 3 and the International Terminal side G and online at: https://bit.ly/3dgUnYh",
        "excerpt": "Happy Birthday, Bob Zoell!",
        "hashtags": [
          "BobZoell",
          "publicart",
          "sfartscommission",
          "glass",
          "birds"
        ],
        "users": []
      },
      "media_id": "b6f068cd2a653a3344196518bf93200658afa294",
      "path": "media/posts/202204/278289423_784876665826062_771240566652277142_n_17967439693581807.jpg",
      "perceptual_hash": "p:c09b357c8b7c8a95",
      "taken": 1649851200,
      "taken_at": "Apr 13, 2022 12:00 pm"
    },
    "millsfield:similar": {
      "google/siglip2-so400m-patch16-naflex": [
        {
          "distance": 0.15308094024658203,
          "id": 1729355285
        },
        {
          "distance": 0.2097110152244568,
          "id": 1729362763
        },
        {
          "distance": 0.22355425357818604,
          "id": 1729355285
        },
        {
          "distance": 0.24223393201828003,
          "id": 1763558965
        },
        {
          "distance": 0.24342429637908936,
          "id": 1729362763
        },
        {
          "distance": 0.2706705927848816,
          "id": 1729359429
        },
        {
          "distance": 0.2806154489517212,
          "id": 1729357871
        },
        {
          "distance": 0.28219521045684814,
          "id": 1880150891
        },
        {
          "distance": 0.2892194986343384,
          "id": 1729355597
        },
        {
          "distance": 0.2908170819282532,
          "id": 1729360993
        }
      ]
    },
    "sfomuseum:placetype": "instagram",
    "src:geom": "sfomuseum",
    "wof:belongsto": [
      1159160869,
      102527513,
      102191575,
      85633793,
      102087579,
      85922583,
      85688637
    ],
    "wof:country": "US",
    "wof:created": 1649851200,
    "wof:geomhash": "b6e33f47475d56bc8da457bc31afadc8",
    "wof:hierarchy": [
      {
        "building_id": 1159160869,
        "campus_id": 102527513,
        "continent_id": 102191575,
        "country_id": 85633793,
        "county_id": 102087579,
        "custom_id": 1763559493,
        "instagram_id": 1763559493,
        "locality_id": 85922583,
        "neighbourhood_id": -1,
        "region_id": 85688637
      }
    ],
    "wof:id": 1763559493,
    "wof:lastmodified": 1787777660,
    "wof:name": "Happy Birthday, Bob Zoell!..",
    "wof:parent_id": 1159160869,
    "wof:placetype": "custom",
    "wof:placetype_alt": [
      "instagram"
    ],
    "wof:repo": "sfomuseum-data-socialmedia-instagram",
    "wof:superseded_by": [],
    "wof:supersedes": []
  },
  "bbox": [
    -122.386166,
    37.616356,
    -122.386166,
    37.616356
  ],
  "geometry": {"type":"Point","coordinates":[-122.386166,37.616356]}
}
