{
  "id": 1729356987,
  "type": "Feature",
  "properties": {
    "date:cessation_lower": "2019-02-06",
    "date:cessation_upper": "2019-02-06",
    "date:inception_lower": "2019-02-06",
    "date:inception_upper": "2019-02-06",
    "edtf:cessation": "2019-02-06T10:36:00-08:00",
    "edtf:inception": "2019-02-06T10:36:00-08:00",
    "geom:area": 0,
    "geom:bbox": "-122.386166,37.616356,-122.386166,37.616356",
    "geom:latitude": 37.616356,
    "geom:longitude": -122.386166,
    "instagram:post": {
      "caption": {
        "body": "This rare view of the United Air Lines Ticket Office in downtown San Francisco is from circa 1933. In the early 1930s, only one class of service was offered. Everyone paid the same fare but got a 10% discount for round trip tickets. Behind the counter at the right is Steve Stimpson, United’s district manager who hired Ellen Church, world’s first female flight attendant. Do you remember purchasing flight tickets at a ticket office?  Image: United Air Lines San Francisco ticket office, c. 1933. Gift of United Airlines Archives. 1999.047.239",
        "excerpt": "This rare view of the United Air Lines Ticket Office in downtown San Francisco is from circa 1933.",
        "hashtags": [
          "WomenInAviation",
          "avgeek"
        ],
        "users": []
      },
      "media_id": "d41af99ec7753423a42917d8467ecb33",
      "path": "media/other/50943486_2286882318042993_992381755233356970_n_17898991159291743.jpg",
      "perceptual_hash": "p:f9b63a596564a44a",
      "taken": 1549478160,
      "taken_at": "Feb 06, 2019 6:36 pm"
    },
    "millsfield:similar": {
      "google/siglip2-so400m-patch16-naflex": [
        {
          "distance": 0.023220300674438477,
          "id": 1729361055
        },
        {
          "distance": 0.1568279266357422,
          "id": 1729359983
        },
        {
          "distance": 0.17013752460479736,
          "id": 1729359615
        },
        {
          "distance": 0.1719900369644165,
          "id": 1729359983
        },
        {
          "distance": 0.17805325984954834,
          "id": 1729359845
        },
        {
          "distance": 0.18485724925994873,
          "id": 1729361055
        },
        {
          "distance": 0.18843311071395874,
          "id": 1729359421
        },
        {
          "distance": 0.19594508409500122,
          "id": 1729359587
        },
        {
          "distance": 0.20383220911026,
          "id": 1729359587
        },
        {
          "distance": 0.20451092720031738,
          "id": 1729359421
        }
      ]
    },
    "sfomuseum:placetype": "instagram",
    "src:geom": "sfomuseum",
    "wof:belongsto": [
      1159160869,
      102527513,
      102191575,
      85633793,
      102087579,
      85922583,
      85688637
    ],
    "wof:country": "US",
    "wof:created": 1549478160,
    "wof:geomhash": "b6e33f47475d56bc8da457bc31afadc8",
    "wof:hierarchy": [
      {
        "building_id": 1159160869,
        "campus_id": 102527513,
        "continent_id": 102191575,
        "country_id": 85633793,
        "county_id": 102087579,
        "custom_id": 1729356987,
        "instagram_id": 1729356987,
        "locality_id": 85922583,
        "neighbourhood_id": -1,
        "region_id": 85688637
      }
    ],
    "wof:id": 1729356987,
    "wof:lastmodified": 1787777629,
    "wof:name": "This rare view of the United Air Lines Ticket Office in downtown San Francisco is from circa 1933...",
    "wof:parent_id": 1159160869,
    "wof:placetype": "custom",
    "wof:placetype_alt": [
      "instagram"
    ],
    "wof:repo": "sfomuseum-data-socialmedia-instagram",
    "wof:superseded_by": [],
    "wof:supersedes": []
  },
  "bbox": [
    -122.386166,
    37.616356,
    -122.386166,
    37.616356
  ],
  "geometry": {"type":"Point","coordinates":[-122.386166,37.616356]}
}
