{
  "id": 1880151445,
  "type": "Feature",
  "properties": {
    "date:cessation_lower": "2022-09-16",
    "date:cessation_upper": "2022-09-16",
    "date:inception_lower": "2022-09-16",
    "date:inception_upper": "2022-09-16",
    "edtf:cessation": "2022-09-16T04:27:00-07:00",
    "edtf:inception": "2022-09-16T04:27:00-07:00",
    "geom:area": 0,
    "geom:bbox": "-122.386166,37.616356,-122.386166,37.616356",
    "geom:latitude": 37.616356,
    "geom:longitude": -122.386166,
    "instagram:post": {
      "caption": {
        "body": "#Onthisday in 1927, Charles Lindbergh landed at Mills Field in his history-making Ryan NYP \"Spirit of St. Louis.\" After completing the first solo transatlantic flight in May of that year, Lindbergh made stops at all 48 states. San Francisco celebrated the famous aviator by declaring the day “Lindbergh Day”, throwing a parade on Market Street, and hosting a reception at the Civic Center. Throughout this tour, people would mob Lindbergh and his plane, so a special enclosure was installed at Mills Field for his aircraft.",
        "excerpt": "#Onthisday in 1927, Charles Lindbergh landed at Mills Field in his history-making Ryan NYP \"Spirit of St. Louis.\"",
        "hashtags": [
          "avgeek",
          "CharlesLindbergh",
          "SFHistory",
          "SFOHistory"
        ],
        "users": []
      },
      "media_id": "4ed8c973f1bb388ef9a52ac74e949090534c08c4",
      "path": "media/other/306902596_2868029883504404_7737775797341944316_n_17967320878849264.jpg",
      "perceptual_hash": "p:abd084736a8ff462",
      "taken": 1663327620,
      "taken_at": "Sep 16, 2022 11:27 am"
    },
    "millsfield:similar": {
      "google/siglip2-so400m-patch16-naflex": [
        {
          "distance": 0.010199904441833496,
          "id": 1729356091
        },
        {
          "distance": 0.01318371295928955,
          "id": 1729360319
        },
        {
          "distance": 0.08526861667633057,
          "id": 1729360319
        },
        {
          "distance": 0.0894620418548584,
          "id": 1729356091
        },
        {
          "distance": 0.09876394271850586,
          "id": 1729357841
        },
        {
          "distance": 0.10651105642318726,
          "id": 1880151387
        },
        {
          "distance": 0.12207406759262085,
          "id": 1763558839
        },
        {
          "distance": 0.12363255023956299,
          "id": 1729355287
        },
        {
          "distance": 0.13224941492080688,
          "id": 1729358203
        },
        {
          "distance": 0.13248974084854126,
          "id": 1880151387
        }
      ]
    },
    "sfomuseum:placetype": "instagram",
    "src:geom": "sfomuseum",
    "wof:belongsto": [
      1159160869,
      102527513,
      102191575,
      85633793,
      102087579,
      85922583,
      85688637
    ],
    "wof:country": "US",
    "wof:created": 1663327620,
    "wof:geomhash": "b6e33f47475d56bc8da457bc31afadc8",
    "wof:hierarchy": [
      {
        "building_id": 1159160869,
        "campus_id": 102527513,
        "continent_id": 102191575,
        "country_id": 85633793,
        "county_id": 102087579,
        "custom_id": 1880151445,
        "instagram_id": 1880151445,
        "locality_id": 85922583,
        "neighbourhood_id": -1,
        "region_id": 85688637
      }
    ],
    "wof:id": 1880151445,
    "wof:lastmodified": 1787777662,
    "wof:name": "#Onthisday in 1927, Charles Lindbergh landed at Mills Field in his history-making Ryan NYP \"Spirit of St. Louis.\"..",
    "wof:parent_id": 1159160869,
    "wof:placetype": "custom",
    "wof:placetype_alt": [
      "instagram"
    ],
    "wof:repo": "sfomuseum-data-socialmedia-instagram",
    "wof:superseded_by": [],
    "wof:supersedes": []
  },
  "bbox": [
    -122.386166,
    37.616356,
    -122.386166,
    37.616356
  ],
  "geometry": {"type":"Point","coordinates":[-122.386166,37.616356]}
}
