{
  "id": 1729360747,
  "type": "Feature",
  "properties": {
    "date:cessation_lower": "2016-05-06",
    "date:cessation_upper": "2016-05-06",
    "date:inception_lower": "2016-05-06",
    "date:inception_upper": "2016-05-06",
    "edtf:cessation": "2016-05-06T03:34:00-07:00",
    "edtf:inception": "2016-05-06T03:34:00-07:00",
    "geom:area": 0,
    "geom:bbox": "-122.386166,37.616356,-122.386166,37.616356",
    "geom:latitude": 37.616356,
    "geom:longitude": -122.386166,
    "instagram:post": {
      "caption": {
        "body": "These Pan American service pins feature the company's old winged globe logo. In order, 1-year, 3-year, 5-year, 10-year, 15-year, and 20-year pin.",
        "excerpt": "These Pan American service pins feature the company's old winged globe logo.",
        "hashtags": [],
        "users": []
      },
      "media_id": "5dda7b4fb4417e0d62354ab8beb2c3b6",
      "path": "media/other/13126829_1141515539212279_1756524857_n_17847233875115932.jpg",
      "perceptual_hash": "p:ad123e9919f0f20f",
      "taken": 1462530840,
      "taken_at": "May 06, 2016 10:34 am"
    },
    "millsfield:similar": {
      "google/siglip2-so400m-patch16-naflex": [
        {
          "distance": 0.17770522832870483,
          "id": 1729360957
        },
        {
          "distance": 0.18763196468353271,
          "id": 1729360741
        },
        {
          "distance": 0.1900985836982727,
          "id": 1729360957
        },
        {
          "distance": 0.24526244401931763,
          "id": 1729360741
        },
        {
          "distance": 0.26266855001449585,
          "id": 1729361309
        },
        {
          "distance": 0.2660502791404724,
          "id": 1729357381
        },
        {
          "distance": 0.2685352563858032,
          "id": 1729357357
        },
        {
          "distance": 0.2697904109954834,
          "id": 1729357363
        },
        {
          "distance": 0.27387702465057373,
          "id": 1729358133
        },
        {
          "distance": 0.2868881821632385,
          "id": 1729357955
        }
      ]
    },
    "sfomuseum:placetype": "instagram",
    "src:geom": "sfomuseum",
    "wof:belongsto": [
      1159160869,
      102527513,
      102191575,
      85633793,
      102087579,
      85922583,
      85688637
    ],
    "wof:country": "US",
    "wof:created": 1462530840,
    "wof:geomhash": "b6e33f47475d56bc8da457bc31afadc8",
    "wof:hierarchy": [
      {
        "building_id": 1159160869,
        "campus_id": 102527513,
        "continent_id": 102191575,
        "country_id": 85633793,
        "county_id": 102087579,
        "custom_id": 1729360747,
        "instagram_id": 1729360747,
        "locality_id": 85922583,
        "neighbourhood_id": -1,
        "region_id": 85688637
      }
    ],
    "wof:id": 1729360747,
    "wof:lastmodified": 1787777640,
    "wof:name": "These Pan American service pins feature the company's old winged globe logo...",
    "wof:parent_id": 1159160869,
    "wof:placetype": "custom",
    "wof:placetype_alt": [
      "instagram"
    ],
    "wof:repo": "sfomuseum-data-socialmedia-instagram",
    "wof:superseded_by": [],
    "wof:supersedes": []
  },
  "bbox": [
    -122.386166,
    37.616356,
    -122.386166,
    37.616356
  ],
  "geometry": {"type":"Point","coordinates":[-122.386166,37.616356]}
}
