{
  "id": 1729362327,
  "type": "Feature",
  "properties": {
    "date:cessation_lower": "2014-04-11",
    "date:cessation_upper": "2014-04-11",
    "date:inception_lower": "2014-04-11",
    "date:inception_upper": "2014-04-11",
    "edtf:cessation": "2014-04-11T07:22:00-07:00",
    "edtf:inception": "2014-04-11T07:22:00-07:00",
    "geom:area": 0,
    "geom:bbox": "-122.386166,37.616356,-122.386166,37.616356",
    "geom:latitude": 37.616356,
    "geom:longitude": -122.386166,
    "instagram:post": {
      "caption": {
        "body": "How awesome is he? Our photographer built a vacuum table to make sure our 800+ posters were perfectly flat for shooting during our digitization project!",
        "excerpt": "How awesome is he?",
        "hashtags": [],
        "users": []
      },
      "media_id": "8105ac5fdcc3fc56bafa1849dda82efb",
      "path": "media/other/924324_740173092691906_2116151643_n_17842419130062499.jpg",
      "perceptual_hash": "p:d4c6211f6b64c17b",
      "taken": 1397226120,
      "taken_at": "Apr 11, 2014 2:22 pm"
    },
    "millsfield:similar": {
      "google/siglip2-so400m-patch16-naflex": [
        {
          "distance": 0.2274441123008728,
          "id": 1729362515
        },
        {
          "distance": 0.23615491390228271,
          "id": 1729362291
        },
        {
          "distance": 0.24651628732681274,
          "id": 1729355955
        },
        {
          "distance": 0.24847006797790527,
          "id": 1729362949
        },
        {
          "distance": 0.24883347749710083,
          "id": 1729362515
        },
        {
          "distance": 0.24951320886611938,
          "id": 1729362119
        },
        {
          "distance": 0.2531752586364746,
          "id": 1729356155
        },
        {
          "distance": 0.2596304416656494,
          "id": 1729362743
        },
        {
          "distance": 0.2669583559036255,
          "id": 1729362451
        },
        {
          "distance": 0.27439814805984497,
          "id": 1729355955
        }
      ]
    },
    "sfomuseum:placetype": "instagram",
    "src:geom": "sfomuseum",
    "wof:belongsto": [
      1159160869,
      102527513,
      102191575,
      85633793,
      102087579,
      85922583,
      85688637
    ],
    "wof:country": "US",
    "wof:created": 1397226120,
    "wof:geomhash": "b6e33f47475d56bc8da457bc31afadc8",
    "wof:hierarchy": [
      {
        "building_id": 1159160869,
        "campus_id": 102527513,
        "continent_id": 102191575,
        "country_id": 85633793,
        "county_id": 102087579,
        "custom_id": 1729362327,
        "instagram_id": 1729362327,
        "locality_id": 85922583,
        "neighbourhood_id": -1,
        "region_id": 85688637
      }
    ],
    "wof:id": 1729362327,
    "wof:lastmodified": 1787777647,
    "wof:name": "How awesome is he?..",
    "wof:parent_id": 1159160869,
    "wof:placetype": "custom",
    "wof:placetype_alt": [
      "instagram"
    ],
    "wof:repo": "sfomuseum-data-socialmedia-instagram",
    "wof:superseded_by": [],
    "wof:supersedes": []
  },
  "bbox": [
    -122.386166,
    37.616356,
    -122.386166,
    37.616356
  ],
  "geometry": {"type":"Point","coordinates":[-122.386166,37.616356]}
}
