{
  "id": 1729360847,
  "type": "Feature",
  "properties": {
    "date:cessation_lower": "2016-04-08",
    "date:cessation_upper": "2016-04-08",
    "date:inception_lower": "2016-04-08",
    "date:inception_upper": "2016-04-08",
    "edtf:cessation": "2016-04-08T10:42:00-07:00",
    "edtf:inception": "2016-04-08T10:42:00-07:00",
    "geom:area": 0,
    "geom:bbox": "-122.386166,37.616356,-122.386166,37.616356",
    "geom:latitude": 37.616356,
    "geom:longitude": -122.386166,
    "instagram:post": {
      "caption": {
        "body": "#Onthisday in 1946, the first scheduled passenger flight departed from San Francisco Airport to Honolulu, Hawai’i. After World War II, Pan American World Airways resumed regular international service. Flying boats were replaced with long-range landplanes, such as the Douglas DC-4 and the Lockheed 049 Constellation, and SFO became the carrier’s aerial gateway to the Pacific.  #FlashbackFriday \tPan American World Airways Lockheed 049 Constellation Clipper Southern Cross at San Francisco Airport  c. 1946 SFO Museum Collection 1993.03.02",
        "excerpt": "#Onthisday in 1946, the first scheduled passenger flight departed from San Francisco Airport to Honolulu, Hawai’i.",
        "hashtags": [],
        "users": []
      },
      "media_id": "45838a9f0fd0dc390a9268d639731fcd",
      "path": "media/other/12964997_1044504698921117_224697113_n_17847265237076961.jpg",
      "perceptual_hash": "p:bab949e2460db363",
      "taken": 1460137320,
      "taken_at": "Apr 08, 2016 5:42 pm"
    },
    "millsfield:similar": {
      "google/siglip2-so400m-patch16-naflex": [
        {
          "distance": 0.12947583198547363,
          "id": 1763559547
        },
        {
          "distance": 0.12952804565429688,
          "id": 1763558815
        },
        {
          "distance": 0.13300162553787231,
          "id": 1729358009
        },
        {
          "distance": 0.13393473625183105,
          "id": 1729356337
        },
        {
          "distance": 0.1399250030517578,
          "id": 1880151589
        },
        {
          "distance": 0.1433585286140442,
          "id": 1729359361
        },
        {
          "distance": 0.1444416046142578,
          "id": 1729357687
        },
        {
          "distance": 0.1474745273590088,
          "id": 1763559275
        },
        {
          "distance": 0.14912772178649902,
          "id": 1729359771
        },
        {
          "distance": 0.15446996688842773,
          "id": 1729357943
        }
      ]
    },
    "sfomuseum:placetype": "instagram",
    "src:geom": "sfomuseum",
    "wof:belongsto": [
      1159160869,
      102527513,
      102191575,
      85633793,
      102087579,
      85922583,
      85688637
    ],
    "wof:country": "US",
    "wof:created": 1460137320,
    "wof:geomhash": "b6e33f47475d56bc8da457bc31afadc8",
    "wof:hierarchy": [
      {
        "building_id": 1159160869,
        "campus_id": 102527513,
        "continent_id": 102191575,
        "country_id": 85633793,
        "county_id": 102087579,
        "custom_id": 1729360847,
        "instagram_id": 1729360847,
        "locality_id": 85922583,
        "neighbourhood_id": -1,
        "region_id": 85688637
      }
    ],
    "wof:id": 1729360847,
    "wof:lastmodified": 1787777640,
    "wof:name": "#Onthisday in 1946, the first scheduled passenger flight departed from San Francisco Airport to Honolulu, Hawai’i...",
    "wof:parent_id": 1159160869,
    "wof:placetype": "custom",
    "wof:placetype_alt": [
      "instagram"
    ],
    "wof:repo": "sfomuseum-data-socialmedia-instagram",
    "wof:superseded_by": [],
    "wof:supersedes": []
  },
  "bbox": [
    -122.386166,
    37.616356,
    -122.386166,
    37.616356
  ],
  "geometry": {"type":"Point","coordinates":[-122.386166,37.616356]}
}
