{
  "id": 1729355701,
  "type": "Feature",
  "properties": {
    "date:cessation_lower": "2020-01-07",
    "date:cessation_upper": "2020-01-07",
    "date:inception_lower": "2020-01-07",
    "date:inception_upper": "2020-01-07",
    "edtf:cessation": "2020-01-06T17:38:40-08:00",
    "edtf:inception": "2020-01-06T17:38:40-08:00",
    "geom:area": 0,
    "geom:bbox": "-122.386166,37.616356,-122.386166,37.616356",
    "geom:latitude": 37.616356,
    "geom:longitude": -122.386166,
    "instagram:post": {
      "caption": {
        "body": "With “We Will Walk Right Up To The Sun”, Sarah Cain continues her boundless approach to painting with her debut in the medium of glass. Her immersive wall features an experimental use of traditional stained glass combined with new techniques. Cain’s precisely orchestrated installation ensures that each experience of color does not intersect a matching tone while also balancing hues to create a vibrant, vital and inviting kaleidoscope. Shifting light depending on time and weather alters the viewers' experience of this work. With radiance and joy, Cain’s dynamic work warmly welcomes you to San Francisco.  See “ We Will Walk Right Up To The Sun” by Sarah Cain, on display, pre-security, in the Grand Hyatt Hotel AirTrain Station. http://bit.ly/34YybOP  Photos courtsey of © Jeff Mclane Photography",
        "excerpt": "With “We Will Walk Right Up To The Sun”, Sarah Cain continues her boundless approach to painting with her debut in the medium of glass.",
        "hashtags": [
          "SFAC",
          "publicart",
          "SarahCain",
          "stainedglass",
          "kaleidoscope",
          "painting"
        ],
        "users": []
      },
      "location": "",
      "media_id": "e5d2ecb26fc4cbc1dd36b25492099402",
      "path": "photos/202001/e5d2ecb26fc4cbc1dd36b25492099402.jpg",
      "perceptual_hash": "p:fece43183dd97024",
      "taken": 1578332280,
      "taken_at": "Jan 6, 2020, 5:38 PM"
    },
    "millsfield:similar": {
      "google/siglip2-so400m-patch16-naflex": [
        {
          "distance": 0.0696820616722107,
          "id": 1729355703
        },
        {
          "distance": 0.09551054239273071,
          "id": 1729355723
        },
        {
          "distance": 0.09897071123123169,
          "id": 1729355705
        },
        {
          "distance": 0.12628591060638428,
          "id": 1729355707
        },
        {
          "distance": 0.13021034002304077,
          "id": 1729355703
        },
        {
          "distance": 0.1505334973335266,
          "id": 1947425089
        },
        {
          "distance": 0.1587764024734497,
          "id": 1729355723
        },
        {
          "distance": 0.18575072288513184,
          "id": 1729357871
        },
        {
          "distance": 0.20437806844711304,
          "id": 1880151137
        },
        {
          "distance": 0.20733457803726196,
          "id": 1729359429
        }
      ]
    },
    "sfomuseum:placetype": "instagram",
    "src:geom": "sfomuseum",
    "wof:belongsto": [
      1159160869,
      102527513,
      102191575,
      85633793,
      102087579,
      85922583,
      85688637
    ],
    "wof:country": "US",
    "wof:created": 1578361120,
    "wof:geomhash": "b6e33f47475d56bc8da457bc31afadc8",
    "wof:hierarchy": [
      {
        "building_id": 1159160869,
        "campus_id": 102527513,
        "continent_id": 102191575,
        "country_id": 85633793,
        "county_id": 102087579,
        "custom_id": 1729355701,
        "instagram_id": 1729355701,
        "locality_id": 85922583,
        "neighbourhood_id": -1,
        "region_id": 85688637
      }
    ],
    "wof:id": 1729355701,
    "wof:lastmodified": 1787777627,
    "wof:name": "With “We Will Walk Right Up To The Sun”, Sarah Cain continues her boundless approach to painting with her debut in the medium of glass...",
    "wof:parent_id": 1159160869,
    "wof:placetype": "custom",
    "wof:placetype_alt": [
      "instagram"
    ],
    "wof:repo": "sfomuseum-data-socialmedia-instagram",
    "wof:superseded_by": [],
    "wof:supersedes": []
  },
  "bbox": [
    -122.386166,
    37.616356,
    -122.386166,
    37.616356
  ],
  "geometry": {"type":"Point","coordinates":[-122.386166,37.616356]}
}
