{
  "id": 1729358657,
  "type": "Feature",
  "properties": {
    "date:cessation_lower": "2018-01-24",
    "date:cessation_upper": "2018-01-24",
    "date:inception_lower": "2018-01-24",
    "date:inception_upper": "2018-01-24",
    "edtf:cessation": "2018-01-24T08:17:00-08:00",
    "edtf:inception": "2018-01-24T08:17:00-08:00",
    "geom:area": 0,
    "geom:bbox": "-122.386166,37.616356,-122.386166,37.616356",
    "geom:latitude": 37.616356,
    "geom:longitude": -122.386166,
    "instagram:post": {
      "caption": {
        "body": "First flown in 1957, the Boeing Model 707 was the first US-made, pure-turbojet airliner to be introduced. It effectively ushered in the jet age. In November 1959, TWA (Trans World Airlines) launched 707 transatlantic service direct from New York to London and then to Frankfurt. By the early 1960s, the airline was operating the 707 on the transpolar route from Los Angeles to Paris. By 1969, TWA 707s were also flying transpacific routes to Asia. Designated \"Star Stream\" by TWA, the 707 proved to be a fast, reliable, intercontinental and transcontinental workhorse and was operated by the airline until the early 1980s.  See \"Aviation Evolutions: The Jim Lund 1:72 Scale Model Airplane Collection\", which features more than 200 models, on display, pre-security, in the Aviation Museum. http://bit.ly/AviationEvolutions",
        "excerpt": "First flown in 1957, the Boeing Model 707 was the first US-made, pure-turbojet airliner to be introduced.",
        "hashtags": [
          "AviationEvolutions",
          "jimlund",
          "avgeek",
          "avationgeek",
          "aviation",
          "aviationhistory",
          "aviationlovers",
          "vintageaviation",
          "history",
          "avhistory",
          "aviationgeeks",
          "flying",
          "modelplane",
          "avgeeks",
          "modelaircraft",
          "airplane",
          "aircraft",
          "boeing",
          "boeing707",
          "TWA"
        ],
        "users": []
      },
      "media_id": "0867b6a17115d5a20b46a6abbb1a37ba",
      "path": "media/posts/201801/26405657_144165002915877_7304814376274362368_n_17920544119050515.jpg",
      "perceptual_hash": "p:bfbec454922cca2c",
      "taken": 1516810620,
      "taken_at": "Jan 24, 2018 4:17 pm"
    },
    "millsfield:similar": {
      "google/siglip2-so400m-patch16-naflex": [
        {
          "distance": 0.040978074073791504,
          "id": 1729357553
        },
        {
          "distance": 0.0536653995513916,
          "id": 1729357959
        },
        {
          "distance": 0.054456233978271484,
          "id": 1729357493
        },
        {
          "distance": 0.057280659675598145,
          "id": 1729358531
        },
        {
          "distance": 0.059122443199157715,
          "id": 1729357669
        },
        {
          "distance": 0.06860983371734619,
          "id": 1729357387
        },
        {
          "distance": 0.07194191217422485,
          "id": 1729357631
        },
        {
          "distance": 0.07194191217422485,
          "id": 1763558767
        },
        {
          "distance": 0.07227373123168945,
          "id": 1729358085
        },
        {
          "distance": 0.07300692796707153,
          "id": 1729356919
        }
      ]
    },
    "sfomuseum:placetype": "instagram",
    "src:geom": "sfomuseum",
    "wof:belongsto": [
      1159160869,
      102527513,
      102191575,
      85633793,
      102087579,
      85922583,
      85688637
    ],
    "wof:country": "US",
    "wof:created": 1516810620,
    "wof:geomhash": "b6e33f47475d56bc8da457bc31afadc8",
    "wof:hierarchy": [
      {
        "building_id": 1159160869,
        "campus_id": 102527513,
        "continent_id": 102191575,
        "country_id": 85633793,
        "county_id": 102087579,
        "custom_id": 1729358657,
        "instagram_id": 1729358657,
        "locality_id": 85922583,
        "neighbourhood_id": -1,
        "region_id": 85688637
      }
    ],
    "wof:id": 1729358657,
    "wof:lastmodified": 1787777634,
    "wof:name": "First flown in 1957, the Boeing Model 707 was the first US-made, pure-turbojet airliner to be introduced...",
    "wof:parent_id": 1159160869,
    "wof:placetype": "custom",
    "wof:placetype_alt": [
      "instagram"
    ],
    "wof:repo": "sfomuseum-data-socialmedia-instagram",
    "wof:superseded_by": [],
    "wof:supersedes": []
  },
  "bbox": [
    -122.386166,
    37.616356,
    -122.386166,
    37.616356
  ],
  "geometry": {"type":"Point","coordinates":[-122.386166,37.616356]}
}
