{
  "id": 1729355467,
  "type": "Feature",
  "properties": {
    "date:cessation_lower": "2020-03-11",
    "date:cessation_upper": "2020-03-11",
    "date:inception_lower": "2020-03-11",
    "date:inception_upper": "2020-03-11",
    "edtf:cessation": "2020-03-11T00:45:00-07:00",
    "edtf:inception": "2020-03-11T00:45:00-07:00",
    "geom:area": 0,
    "geom:bbox": "-122.386166,37.616356,-122.386166,37.616356",
    "geom:latitude": 37.616356,
    "geom:longitude": -122.386166,
    "instagram:post": {
      "caption": {
        "body": "Loftleiðir Icelandic (or Iceland Airlines) was established on March 10, 1944 in Iceland. As Iceland is geographically situated between Europe and the United States, Loftleiðir became a major player in the transatlantic travel in the 1960s. A combination of the Icelandic words for air and way, Loftleiðir became known as a low-cost way for Americans to experience Europe. In 1973, Loftleiðir merged with Flugfélag Íslands to form Icelandair, the current flag carrier of Iceland. Did you ever fly on Loftleiðir?  Image: Loftleiðir Icelandic Airlines postcard, Douglas DC-8-63, New York JFK airport, 1960s. Gift of Thomas G. Dragges. 2015.166.0751",
        "excerpt": "Loftleiðir Icelandic (or Iceland Airlines) was established on March 10, 1944 in Iceland.",
        "hashtags": [
          "IcelandAir",
          "avgeek",
          "postcard"
        ],
        "users": []
      },
      "media_id": "f83fdd6f1d82c85538caab9ebbfbe575",
      "path": "media/other/89116683_2597709113666763_9016054921943246591_n_17847654934973973.jpg",
      "perceptual_hash": "p:80afa0c4f385f9ec",
      "taken": 1583912700,
      "taken_at": "Mar 11, 2020 7:45 am"
    },
    "millsfield:similar": {
      "google/siglip2-so400m-patch16-naflex": [
        {
          "distance": 0.0325702428817749,
          "id": 1729356807
        },
        {
          "distance": 0.08647048473358154,
          "id": 1729356807
        },
        {
          "distance": 0.18768727779388428,
          "id": 1729360473
        },
        {
          "distance": 0.1891186237335205,
          "id": 1729360551
        },
        {
          "distance": 0.1996578574180603,
          "id": 1729360211
        },
        {
          "distance": 0.2099335789680481,
          "id": 1729358437
        },
        {
          "distance": 0.21548283100128174,
          "id": 1729360523
        },
        {
          "distance": 0.21627724170684814,
          "id": 1729359743
        },
        {
          "distance": 0.21692490577697754,
          "id": 1729359113
        },
        {
          "distance": 0.21726292371749878,
          "id": 1729360261
        }
      ]
    },
    "sfomuseum:placetype": "instagram",
    "src:geom": "sfomuseum",
    "wof:belongsto": [
      1159160869,
      102527513,
      102191575,
      85633793,
      102087579,
      85922583,
      85688637
    ],
    "wof:country": "US",
    "wof:created": 1583912700,
    "wof:geomhash": "b6e33f47475d56bc8da457bc31afadc8",
    "wof:hierarchy": [
      {
        "building_id": 1159160869,
        "campus_id": 102527513,
        "continent_id": 102191575,
        "country_id": 85633793,
        "county_id": 102087579,
        "custom_id": 1729355467,
        "instagram_id": 1729355467,
        "locality_id": 85922583,
        "neighbourhood_id": -1,
        "region_id": 85688637
      }
    ],
    "wof:id": 1729355467,
    "wof:lastmodified": 1787777625,
    "wof:name": "Loftleiðir Icelandic (or Iceland Airlines) was established on March 10, 1944 in Iceland...",
    "wof:parent_id": 1159160869,
    "wof:placetype": "custom",
    "wof:placetype_alt": [
      "instagram"
    ],
    "wof:repo": "sfomuseum-data-socialmedia-instagram",
    "wof:superseded_by": [],
    "wof:supersedes": []
  },
  "bbox": [
    -122.386166,
    37.616356,
    -122.386166,
    37.616356
  ],
  "geometry": {"type":"Point","coordinates":[-122.386166,37.616356]}
}
