{
  "id": 1729362167,
  "type": "Feature",
  "properties": {
    "date:cessation_lower": "2014-08-08",
    "date:cessation_upper": "2014-08-08",
    "date:inception_lower": "2014-08-08",
    "date:inception_upper": "2014-08-08",
    "edtf:cessation": "2014-08-08T05:31:00-07:00",
    "edtf:inception": "2014-08-08T05:31:00-07:00",
    "geom:area": 0,
    "geom:bbox": "-122.386166,37.616356,-122.386166,37.616356",
    "geom:latitude": 37.616356,
    "geom:longitude": -122.386166,
    "instagram:post": {
      "caption": {
        "body": "",
        "excerpt": "",
        "hashtags": [
          "behindthescenes"
        ],
        "users": []
      },
      "media_id": "5b6019b8df45b69906cfae4982217cda",
      "path": "media/other/928041_542729242520292_1881152204_n_17842461727062499.jpg",
      "perceptual_hash": "p:94c6580e6bd8732f",
      "taken": 1407501060,
      "taken_at": "Aug 08, 2014 12:31 pm"
    },
    "millsfield:similar": {
      "google/siglip2-so400m-patch16-naflex": [
        {
          "distance": 0.29376572370529175,
          "id": 1729362515
        },
        {
          "distance": 0.3196409344673157,
          "id": 1729362327
        },
        {
          "distance": 0.33087092638015747,
          "id": 1729362515
        },
        {
          "distance": 0.3321070075035095,
          "id": 1729362291
        },
        {
          "distance": 0.3353840708732605,
          "id": 1729363037
        },
        {
          "distance": 0.3376774191856384,
          "id": 1729363037
        },
        {
          "distance": 0.3479596972465515,
          "id": 1729362327
        },
        {
          "distance": 0.34882599115371704,
          "id": 1729362641
        },
        {
          "distance": 0.3497932553291321,
          "id": 1729363019
        },
        {
          "distance": 0.3513517379760742,
          "id": 1729362291
        }
      ]
    },
    "sfomuseum:placetype": "instagram",
    "src:geom": "sfomuseum",
    "wof:belongsto": [
      1159160869,
      102527513,
      102191575,
      85633793,
      102087579,
      85922583,
      85688637
    ],
    "wof:country": "US",
    "wof:created": 1407501060,
    "wof:geomhash": "b6e33f47475d56bc8da457bc31afadc8",
    "wof:hierarchy": [
      {
        "building_id": 1159160869,
        "campus_id": 102527513,
        "continent_id": 102191575,
        "country_id": 85633793,
        "county_id": 102087579,
        "custom_id": 1729362167,
        "instagram_id": 1729362167,
        "locality_id": 85922583,
        "neighbourhood_id": -1,
        "region_id": 85688637
      }
    ],
    "wof:id": 1729362167,
    "wof:lastmodified": 1787777646,
    "wof:name": "..",
    "wof:parent_id": 1159160869,
    "wof:placetype": "custom",
    "wof:placetype_alt": [
      "instagram"
    ],
    "wof:repo": "sfomuseum-data-socialmedia-instagram",
    "wof:superseded_by": [],
    "wof:supersedes": []
  },
  "bbox": [
    -122.386166,
    37.616356,
    -122.386166,
    37.616356
  ],
  "geometry": {"type":"Point","coordinates":[-122.386166,37.616356]}
}
