{
  "id": 1729362459,
  "type": "Feature",
  "properties": {
    "date:cessation_lower": "2013-12-10",
    "date:cessation_upper": "2013-12-10",
    "date:inception_lower": "2013-12-10",
    "date:inception_upper": "2013-12-10",
    "edtf:cessation": "2013-12-10T03:26:00-08:00",
    "edtf:inception": "2013-12-10T03:26:00-08:00",
    "geom:area": 0,
    "geom:bbox": "-122.386166,37.616356,-122.386166,37.616356",
    "geom:latitude": 37.616356,
    "geom:longitude": -122.386166,
    "instagram:post": {
      "caption": {
        "body": "When snails, a delicacy, are found in the Luzon Cordillera, they are scooped up by the plaited sieve and placed into a #basketry container for future consumption.",
        "excerpt": "When snails, a delicacy, are found in the Luzon Cordillera, they are scooped up by the plaited sieve and placed into a #basketry container for future consumption.",
        "hashtags": [],
        "users": []
      },
      "media_id": "017ceaede9770381b34e41cb06471969",
      "path": "media/other/924498_609582449101079_938743018_n_17842382920062499.jpg",
      "perceptual_hash": "p:ce63e09e19661f91",
      "taken": 1386674760,
      "taken_at": "Dec 10, 2013 11:26 am"
    },
    "millsfield:similar": {
      "google/siglip2-so400m-patch16-naflex": [
        {
          "distance": 0.1397761106491089,
          "id": 1729362565
        },
        {
          "distance": 0.17334073781967163,
          "id": 1729362511
        },
        {
          "distance": 0.21499621868133545,
          "id": 1729362653
        },
        {
          "distance": 0.21851056814193726,
          "id": 1729362751
        },
        {
          "distance": 0.22222155332565308,
          "id": 1729362557
        },
        {
          "distance": 0.22958731651306152,
          "id": 1729362565
        },
        {
          "distance": 0.2404313087463379,
          "id": 1729362511
        },
        {
          "distance": 0.24087250232696533,
          "id": 1729362557
        },
        {
          "distance": 0.261820912361145,
          "id": 1729362751
        },
        {
          "distance": 0.2637069821357727,
          "id": 1729362175
        }
      ]
    },
    "sfomuseum:placetype": "instagram",
    "src:geom": "sfomuseum",
    "wof:belongsto": [
      1159160869,
      102527513,
      102191575,
      85633793,
      102087579,
      85922583,
      85688637
    ],
    "wof:country": "US",
    "wof:created": 1386674760,
    "wof:geomhash": "b6e33f47475d56bc8da457bc31afadc8",
    "wof:hierarchy": [
      {
        "building_id": 1159160869,
        "campus_id": 102527513,
        "continent_id": 102191575,
        "country_id": 85633793,
        "county_id": 102087579,
        "custom_id": 1729362459,
        "instagram_id": 1729362459,
        "locality_id": 85922583,
        "neighbourhood_id": -1,
        "region_id": 85688637
      }
    ],
    "wof:id": 1729362459,
    "wof:lastmodified": 1787777647,
    "wof:name": "When snails, a delicacy, are found in the Luzon Cordillera, they are scooped up by the plaited sieve and placed into a #basketry container for future consumption...",
    "wof:parent_id": 1159160869,
    "wof:placetype": "custom",
    "wof:placetype_alt": [
      "instagram"
    ],
    "wof:repo": "sfomuseum-data-socialmedia-instagram",
    "wof:superseded_by": [],
    "wof:supersedes": []
  },
  "bbox": [
    -122.386166,
    37.616356,
    -122.386166,
    37.616356
  ],
  "geometry": {"type":"Point","coordinates":[-122.386166,37.616356]}
}
