{
  "id": 1729359867,
  "type": "Feature",
  "properties": {
    "date:cessation_lower": "2017-02-01",
    "date:cessation_upper": "2017-02-01",
    "date:inception_lower": "2017-02-01",
    "date:inception_upper": "2017-02-01",
    "edtf:cessation": "2017-02-01T07:25:00-08:00",
    "edtf:inception": "2017-02-01T07:25:00-08:00",
    "geom:area": 0,
    "geom:bbox": "-122.386166,37.616356,-122.386166,37.616356",
    "geom:latitude": 37.616356,
    "geom:longitude": -122.386166,
    "instagram:post": {
      "caption": {
        "body": "#OnThisDay in 1964, the #Boeing 727 was introduced by Eastern Air Lines. The 727 was Boeing's only tri-jet aircraft and, at the time of its production, Boeing's best-selling jet with over 1,800 sold. Have you ever flown on a Boeing 727? #Avgeek #aviationhistory  Image: Eastern Air Lines postcard, Boeing 727 1969 Gift of Captain Jon Simmonds 2015.057.403",
        "excerpt": "#OnThisDay in 1964, the #Boeing 727 was introduced by Eastern Air Lines.",
        "hashtags": [],
        "users": []
      },
      "media_id": "8c360679f55e56bf3c8857ad5e11e62a",
      "path": "media/posts/201702/16465810_438355959828747_2124334611793182720_n_17860337620115360.jpg",
      "perceptual_hash": "p:806f87306dcfb625",
      "taken": 1485962700,
      "taken_at": "Feb 01, 2017 3:25 pm"
    },
    "millsfield:similar": {
      "google/siglip2-so400m-patch16-naflex": [
        {
          "distance": 0.09324932098388672,
          "id": 1763559631
        },
        {
          "distance": 0.14741110801696777,
          "id": 1763559631
        },
        {
          "distance": 0.17622488737106323,
          "id": 1729359569
        },
        {
          "distance": 0.18291181325912476,
          "id": 1729356033
        },
        {
          "distance": 0.18447303771972656,
          "id": 1729357345
        },
        {
          "distance": 0.18825006484985352,
          "id": 1729359569
        },
        {
          "distance": 0.18827128410339355,
          "id": 1763559357
        },
        {
          "distance": 0.1887749433517456,
          "id": 1729357255
        },
        {
          "distance": 0.193667471408844,
          "id": 1729358929
        },
        {
          "distance": 0.19701075553894043,
          "id": 1729357017
        }
      ]
    },
    "sfomuseum:placetype": "instagram",
    "src:geom": "sfomuseum",
    "wof:belongsto": [
      1159160869,
      102527513,
      102191575,
      85633793,
      102087579,
      85922583,
      85688637
    ],
    "wof:country": "US",
    "wof:created": 1485962700,
    "wof:geomhash": "b6e33f47475d56bc8da457bc31afadc8",
    "wof:hierarchy": [
      {
        "building_id": 1159160869,
        "campus_id": 102527513,
        "continent_id": 102191575,
        "country_id": 85633793,
        "county_id": 102087579,
        "custom_id": 1729359867,
        "instagram_id": 1729359867,
        "locality_id": 85922583,
        "neighbourhood_id": -1,
        "region_id": 85688637
      }
    ],
    "wof:id": 1729359867,
    "wof:lastmodified": 1787777637,
    "wof:name": "#OnThisDay in 1964, the #Boeing 727 was introduced by Eastern Air Lines...",
    "wof:parent_id": 1159160869,
    "wof:placetype": "custom",
    "wof:placetype_alt": [
      "instagram"
    ],
    "wof:repo": "sfomuseum-data-socialmedia-instagram",
    "wof:superseded_by": [],
    "wof:supersedes": []
  },
  "bbox": [
    -122.386166,
    37.616356,
    -122.386166,
    37.616356
  ],
  "geometry": {"type":"Point","coordinates":[-122.386166,37.616356]}
}
