{
  "id": 1880151713,
  "type": "Feature",
  "properties": {
    "date:cessation_lower": "2022-05-24",
    "date:cessation_upper": "2022-05-24",
    "date:inception_lower": "2022-05-24",
    "date:inception_upper": "2022-05-24",
    "edtf:cessation": "2022-05-24T02:02:00-07:00",
    "edtf:inception": "2022-05-24T02:02:00-07:00",
    "geom:area": 0,
    "geom:bbox": "-122.386166,37.616356,-122.386166,37.616356",
    "geom:latitude": 37.616356,
    "geom:longitude": -122.386166,
    "instagram:post": {
      "caption": {
        "body": "Happy birthday to Squeak Carnwath, who was born on this day in 1947!  “When I’m in a plane,” said Squeak Carnwath, “I often think about things that fly naturally. This work is about those things—bees, flags, snow, bugs, mercury, rain, and flights of fancy.” Much of Carnwath’s work is about her own thoughts, reactions, and memories.  See “Fly, Flight, Fugit” by Squeak Carnwath on display, post-security in the International Terminal and online at: https://bit.ly/3P920nn",
        "excerpt": "Happy birthday to Squeak Carnwath, who was born on this day in 1947!",
        "hashtags": [
          "publicart",
          "SqueakCarnwath",
          "Porcelain"
        ],
        "users": []
      },
      "media_id": "9159d8c95da6567ff558139a9856b9a7948346da",
      "path": "media/posts/202205/283743023_1064634414448681_2429831453170023300_n_17911211990447690.jpg",
      "perceptual_hash": "p:b6a01a815d73f33a",
      "taken": 1653382920,
      "taken_at": "May 24, 2022 9:02 am"
    },
    "millsfield:similar": {
      "google/siglip2-so400m-patch16-naflex": [
        {
          "distance": 0.20190584659576416,
          "id": 1729359429
        },
        {
          "distance": 0.20331871509552002,
          "id": 1729357871
        },
        {
          "distance": 0.2095692753791809,
          "id": 1729357999
        },
        {
          "distance": 0.21059656143188477,
          "id": 1729357701
        },
        {
          "distance": 0.21175217628479004,
          "id": 1729362205
        },
        {
          "distance": 0.21685665845870972,
          "id": 1729355289
        },
        {
          "distance": 0.21790534257888794,
          "id": 1880150947
        },
        {
          "distance": 0.2241092324256897,
          "id": 1880150939
        },
        {
          "distance": 0.2244502305984497,
          "id": 1880151137
        },
        {
          "distance": 0.22606712579727173,
          "id": 1729357759
        }
      ]
    },
    "sfomuseum:placetype": "instagram",
    "src:geom": "sfomuseum",
    "wof:belongsto": [
      1159160869,
      102527513,
      102191575,
      85633793,
      102087579,
      85922583,
      85688637
    ],
    "wof:country": "US",
    "wof:created": 1653382920,
    "wof:geomhash": "b6e33f47475d56bc8da457bc31afadc8",
    "wof:hierarchy": [
      {
        "building_id": 1159160869,
        "campus_id": 102527513,
        "continent_id": 102191575,
        "country_id": 85633793,
        "county_id": 102087579,
        "custom_id": 1880151713,
        "instagram_id": 1880151713,
        "locality_id": 85922583,
        "neighbourhood_id": -1,
        "region_id": 85688637
      }
    ],
    "wof:id": 1880151713,
    "wof:lastmodified": 1787777663,
    "wof:name": "Happy birthday to Squeak Carnwath, who was born on this day in 1947!..",
    "wof:parent_id": 1159160869,
    "wof:placetype": "custom",
    "wof:placetype_alt": [
      "instagram"
    ],
    "wof:repo": "sfomuseum-data-socialmedia-instagram",
    "wof:superseded_by": [],
    "wof:supersedes": []
  },
  "bbox": [
    -122.386166,
    37.616356,
    -122.386166,
    37.616356
  ],
  "geometry": {"type":"Point","coordinates":[-122.386166,37.616356]}
}
