{
  "id": 1763559527,
  "type": "Feature",
  "properties": {
    "date:cessation_lower": "2022-03-29",
    "date:cessation_upper": "2022-03-29",
    "date:inception_lower": "2022-03-29",
    "date:inception_upper": "2022-03-29",
    "edtf:cessation": "2022-03-29T04:52:00-07:00",
    "edtf:inception": "2022-03-29T04:52:00-07:00",
    "geom:area": 0,
    "geom:bbox": "-122.386166,37.616356,-122.386166,37.616356",
    "geom:latitude": 37.616356,
    "geom:longitude": -122.386166,
    "instagram:post": {
      "caption": {
        "body": "Our newest blog post is up and it showcases the intersection of Bay Area sports teams and aviation! Read about legendary players and achievements in “City of Champions: Celebrating the NFL, MLB, and NBA at SFO Museum.” https://bit.ly/351qzjQ",
        "excerpt": "Our newest blog post is up and it showcases the intersection of Bay Area sports teams and aviation!",
        "hashtags": [
          "blog",
          "museumlife",
          "sports",
          "avgeek",
          "49ers",
          "SFGiants",
          "DubNation"
        ],
        "users": []
      },
      "media_id": "5cf51707de6fbce900c95c9f7fe7d6ddca45c5a7",
      "path": "media/other/277416728_552470046059015_4327394932949294154_n_18191350723167800.jpg",
      "perceptual_hash": "p:bae3851c1d6e4237",
      "taken": 1648554720,
      "taken_at": "Mar 29, 2022 11:52 am"
    },
    "millsfield:similar": {
      "google/siglip2-so400m-patch16-naflex": [
        {
          "distance": 0.14624875783920288,
          "id": 1729361107
        },
        {
          "distance": 0.16009390354156494,
          "id": 1729357841
        },
        {
          "distance": 0.16786712408065796,
          "id": 1729360561
        },
        {
          "distance": 0.1681799292564392,
          "id": 1729361029
        },
        {
          "distance": 0.1759917140007019,
          "id": 1729358071
        },
        {
          "distance": 0.17637264728546143,
          "id": 1729356707
        },
        {
          "distance": 0.1776944398880005,
          "id": 1729361255
        },
        {
          "distance": 0.17967158555984497,
          "id": 1729360591
        },
        {
          "distance": 0.1815546751022339,
          "id": 1729358009
        },
        {
          "distance": 0.18324464559555054,
          "id": 1729357841
        }
      ]
    },
    "sfomuseum:placetype": "instagram",
    "src:geom": "sfomuseum",
    "wof:belongsto": [
      1159160869,
      102527513,
      102191575,
      85633793,
      102087579,
      85922583,
      85688637
    ],
    "wof:country": "US",
    "wof:created": 1648554720,
    "wof:geomhash": "b6e33f47475d56bc8da457bc31afadc8",
    "wof:hierarchy": [
      {
        "building_id": 1159160869,
        "campus_id": 102527513,
        "continent_id": 102191575,
        "country_id": 85633793,
        "county_id": 102087579,
        "custom_id": 1763559527,
        "instagram_id": 1763559527,
        "locality_id": 85922583,
        "neighbourhood_id": -1,
        "region_id": 85688637
      }
    ],
    "wof:id": 1763559527,
    "wof:lastmodified": 1787777660,
    "wof:name": "Our newest blog post is up and it showcases the intersection of Bay Area sports teams and aviation!..",
    "wof:parent_id": 1159160869,
    "wof:placetype": "custom",
    "wof:placetype_alt": [
      "instagram"
    ],
    "wof:repo": "sfomuseum-data-socialmedia-instagram",
    "wof:superseded_by": [],
    "wof:supersedes": []
  },
  "bbox": [
    -122.386166,
    37.616356,
    -122.386166,
    37.616356
  ],
  "geometry": {"type":"Point","coordinates":[-122.386166,37.616356]}
}
