{
  "id": 1729357907,
  "type": "Feature",
  "properties": {
    "date:cessation_lower": "2018-07-25",
    "date:cessation_upper": "2018-07-25",
    "date:inception_lower": "2018-07-25",
    "date:inception_upper": "2018-07-25",
    "edtf:cessation": "2018-07-25T09:48:15-07:00",
    "edtf:inception": "2018-07-25T09:48:15-07:00",
    "geom:area": 0,
    "geom:bbox": "-122.386166,37.616356,-122.386166,37.616356",
    "geom:latitude": 37.616356,
    "geom:longitude": -122.386166,
    "instagram:post": {
      "caption": {
        "body": "Modern jukeboxes trace their origins to coin-operated phonographs. Marketed as automatic phonographs, these late-nineteenth-century machines combined Thomas Alva Edison’s (1847–1931) wax cylinder phonograph with a coin-operated mechanism. Edison patented the first cylinder phonograph in 1878 after experimenting with a device that recorded audible messages from a telegraph or telephone signal. This machine utilized a metal cylinder wrapped in tinfoil and was more of a novelty, as recordings quickly degraded after a few plays. Edison’s Improved Phonograph followed a decade later with wax cylinders that greatly increased the life-span of recordings. During the 1890s, electrically operated automatic phonographs were produced by various manufacturers under license from Edison. Nicknamed “nickel-in-the-slot” machines, they appeared in arcade parlors across the United States alongside Kinetoscopes, another Edison invention that played short movies from 35 mm film.  Automatic Edison phonograph courtesy of the Joe Welch American Antique Museum. \"The Automatic Age: Coin-Operated Machines\" is on display, pre-security, in the International Terminal. http://bit.ly/CoinOperated",
        "excerpt": "Modern jukeboxes trace their origins to coin-operated phonographs.",
        "hashtags": [
          "coinoperated",
          "TheAutomaticAge",
          "coinop",
          "vintage",
          "antique",
          "gamemachines",
          "slotmachine",
          "slotmachines",
          "Edison",
          "Kinetoscopes",
          "phonograph"
        ],
        "users": []
      },
      "location": "",
      "media_id": "330f503b6832cfb718f817191ae0e207",
      "path": "photos/201807/330f503b6832cfb718f817191ae0e207.jpg",
      "perceptual_hash": "p:d583286a7a85f23d",
      "taken": 1532508480,
      "taken_at": "Jul 25, 2018, 8:48 AM"
    },
    "millsfield:similar": {
      "google/siglip2-so400m-patch16-naflex": [
        {
          "distance": 0.22732847929000854,
          "id": 1729357899
        },
        {
          "distance": 0.29175013303756714,
          "id": 1729357899
        },
        {
          "distance": 0.300937294960022,
          "id": 1729357915
        },
        {
          "distance": 0.3180321455001831,
          "id": 1729357915
        },
        {
          "distance": 0.33561772108078003,
          "id": 1729357921
        },
        {
          "distance": 0.34696346521377563,
          "id": 1729358795
        },
        {
          "distance": 0.356891393661499,
          "id": 1729357927
        },
        {
          "distance": 0.36363768577575684,
          "id": 1729358697
        },
        {
          "distance": 0.36567819118499756,
          "id": 1729358711
        },
        {
          "distance": 0.36753904819488525,
          "id": 1729357793
        }
      ]
    },
    "sfomuseum:placetype": "instagram",
    "src:geom": "sfomuseum",
    "wof:belongsto": [
      1159160869,
      102527513,
      102191575,
      85633793,
      102087579,
      85922583,
      85688637
    ],
    "wof:country": "US",
    "wof:created": 1532537295,
    "wof:geomhash": "b6e33f47475d56bc8da457bc31afadc8",
    "wof:hierarchy": [
      {
        "building_id": 1159160869,
        "campus_id": 102527513,
        "continent_id": 102191575,
        "country_id": 85633793,
        "county_id": 102087579,
        "custom_id": 1729357907,
        "instagram_id": 1729357907,
        "locality_id": 85922583,
        "neighbourhood_id": -1,
        "region_id": 85688637
      }
    ],
    "wof:id": 1729357907,
    "wof:lastmodified": 1787777632,
    "wof:name": "Modern jukeboxes trace their origins to coin-operated phonographs...",
    "wof:parent_id": 1159160869,
    "wof:placetype": "custom",
    "wof:placetype_alt": [
      "instagram"
    ],
    "wof:repo": "sfomuseum-data-socialmedia-instagram",
    "wof:superseded_by": [],
    "wof:supersedes": []
  },
  "bbox": [
    -122.386166,
    37.616356,
    -122.386166,
    37.616356
  ],
  "geometry": {"type":"Point","coordinates":[-122.386166,37.616356]}
}
