{
  "id": 1729361209,
  "type": "Feature",
  "properties": {
    "date:cessation_lower": "2016-01-05",
    "date:cessation_upper": "2016-01-05",
    "date:inception_lower": "2016-01-05",
    "date:inception_upper": "2016-01-05",
    "edtf:cessation": "2016-01-05T03:07:00-08:00",
    "edtf:inception": "2016-01-05T03:07:00-08:00",
    "geom:area": 0,
    "geom:bbox": "-122.386166,37.616356,-122.386166,37.616356",
    "geom:latitude": 37.616356,
    "geom:longitude": -122.386166,
    "instagram:post": {
      "caption": {
        "body": "",
        "excerpt": "",
        "hashtags": [
          "MingeiFolkArt"
        ],
        "users": []
      },
      "media_id": "2108b9d0c641920a3b2f491f7453e980",
      "path": "media/other/1516068_1686361378246872_237885225_n_17852162203048957.jpg",
      "perceptual_hash": "p:cb14856bf4952bcc",
      "taken": 1451992020,
      "taken_at": "Jan 05, 2016 11:07 am"
    },
    "millsfield:similar": {
      "google/siglip2-so400m-patch16-naflex": [
        {
          "distance": 0.21715188026428223,
          "id": 1729361481
        },
        {
          "distance": 0.2396600842475891,
          "id": 1729358399
        },
        {
          "distance": 0.24980753660202026,
          "id": 1729361481
        },
        {
          "distance": 0.2732710838317871,
          "id": 1729357773
        },
        {
          "distance": 0.2760339379310608,
          "id": 1729358399
        },
        {
          "distance": 0.28049832582473755,
          "id": 1729358173
        },
        {
          "distance": 0.28613269329071045,
          "id": 1729362387
        },
        {
          "distance": 0.28751707077026367,
          "id": 1729358025
        },
        {
          "distance": 0.28877848386764526,
          "id": 1729358485
        },
        {
          "distance": 0.28985679149627686,
          "id": 1729358149
        }
      ]
    },
    "sfomuseum:placetype": "instagram",
    "src:geom": "sfomuseum",
    "wof:belongsto": [
      1159160869,
      102527513,
      102191575,
      85633793,
      102087579,
      85922583,
      85688637
    ],
    "wof:country": "US",
    "wof:created": 1451992020,
    "wof:geomhash": "b6e33f47475d56bc8da457bc31afadc8",
    "wof:hierarchy": [
      {
        "building_id": 1159160869,
        "campus_id": 102527513,
        "continent_id": 102191575,
        "country_id": 85633793,
        "county_id": 102087579,
        "custom_id": 1729361209,
        "instagram_id": 1729361209,
        "locality_id": 85922583,
        "neighbourhood_id": -1,
        "region_id": 85688637
      }
    ],
    "wof:id": 1729361209,
    "wof:lastmodified": 1787777645,
    "wof:name": "..",
    "wof:parent_id": 1159160869,
    "wof:placetype": "custom",
    "wof:placetype_alt": [
      "instagram"
    ],
    "wof:repo": "sfomuseum-data-socialmedia-instagram",
    "wof:superseded_by": [],
    "wof:supersedes": []
  },
  "bbox": [
    -122.386166,
    37.616356,
    -122.386166,
    37.616356
  ],
  "geometry": {"type":"Point","coordinates":[-122.386166,37.616356]}
}
