{
  "id": 1729362995,
  "type": "Feature",
  "properties": {
    "date:cessation_lower": "2012-06-19",
    "date:cessation_upper": "2012-06-19",
    "date:inception_lower": "2012-06-19",
    "date:inception_upper": "2012-06-19",
    "edtf:cessation": "2012-06-19T08:25:00-07:00",
    "edtf:inception": "2012-06-19T08:25:00-07:00",
    "geom:area": 0,
    "geom:bbox": "-122.386166,37.616356,-122.386166,37.616356",
    "geom:latitude": 37.616356,
    "geom:longitude": -122.386166,
    "instagram:post": {
      "caption": {
        "body": "James Carpenter's installation in the Intl Term was inspired by the Wright Brothers' first plane!",
        "excerpt": "James Carpenter's installation in the Intl Term was inspired by the Wright Brothers' first plane!",
        "hashtags": [],
        "users": []
      },
      "media_id": "90af0fa7969ddf9bdbd1f173ba27c57e",
      "path": "media/other/10549664_410186219164599_1742835895_n_17842254298062499.jpg",
      "perceptual_hash": "p:80676e997b54353a",
      "taken": 1340119500,
      "taken_at": "Jun 19, 2012 3:25 pm"
    },
    "millsfield:similar": {
      "google/siglip2-so400m-patch16-naflex": [
        {
          "distance": 0.15163946151733398,
          "id": 1729360517
        },
        {
          "distance": 0.15927666425704956,
          "id": 1729361865
        },
        {
          "distance": 0.1623678207397461,
          "id": 1729360517
        },
        {
          "distance": 0.18145698308944702,
          "id": 1729361865
        },
        {
          "distance": 0.2314710021018982,
          "id": 1729362273
        },
        {
          "distance": 0.24292534589767456,
          "id": 1729363029
        },
        {
          "distance": 0.26608002185821533,
          "id": 1729363029
        },
        {
          "distance": 0.2742265462875366,
          "id": 1729360945
        },
        {
          "distance": 0.27675479650497437,
          "id": 1729355799
        },
        {
          "distance": 0.277302622795105,
          "id": 1729362273
        }
      ]
    },
    "sfomuseum:placetype": "instagram",
    "src:geom": "sfomuseum",
    "wof:belongsto": [
      1159160869,
      102527513,
      102191575,
      85633793,
      102087579,
      85922583,
      85688637
    ],
    "wof:country": "US",
    "wof:created": 1340119500,
    "wof:geomhash": "b6e33f47475d56bc8da457bc31afadc8",
    "wof:hierarchy": [
      {
        "building_id": 1159160869,
        "campus_id": 102527513,
        "continent_id": 102191575,
        "country_id": 85633793,
        "county_id": 102087579,
        "custom_id": 1729362995,
        "instagram_id": 1729362995,
        "locality_id": 85922583,
        "neighbourhood_id": -1,
        "region_id": 85688637
      }
    ],
    "wof:id": 1729362995,
    "wof:lastmodified": 1787777657,
    "wof:name": "James Carpenter's installation in the Intl Term was inspired by the Wright Brothers' first plane!..",
    "wof:parent_id": 1159160869,
    "wof:placetype": "custom",
    "wof:placetype_alt": [
      "instagram"
    ],
    "wof:repo": "sfomuseum-data-socialmedia-instagram",
    "wof:superseded_by": [],
    "wof:supersedes": []
  },
  "bbox": [
    -122.386166,
    37.616356,
    -122.386166,
    37.616356
  ],
  "geometry": {"type":"Point","coordinates":[-122.386166,37.616356]}
}
