{
  "id": 1880151789,
  "type": "Feature",
  "properties": {
    "date:cessation_lower": "2022-04-21",
    "date:cessation_upper": "2022-04-21",
    "date:inception_lower": "2022-04-21",
    "date:inception_upper": "2022-04-21",
    "edtf:cessation": "2022-04-21T03:10:00-07:00",
    "edtf:inception": "2022-04-21T03:10:00-07:00",
    "geom:area": 0,
    "geom:bbox": "-122.386166,37.616356,-122.386166,37.616356",
    "geom:latitude": 37.616356,
    "geom:longitude": -122.386166,
    "instagram:post": {
      "caption": {
        "body": "Richard Diebenkorn was a California-based painter and printmaker who spent much of his renowned career in the Bay Area. He is most known for his Ocean Park series (1967–1988) that brought him international acclaim. Inspired by the geometric division of landscapes as seen by the artist from a helicopter, the works investigate the various ways of slicing a rectangle with horizontal and vertical lines. Diebenkorn called these prints the “bones” of the Ocean Park works.  See “#2, 3, 5, 7, from Nine Drypoints and Etchings” on display on Level 4 in the Grand Hyatt. https://bit.ly/3oRJnGx",
        "excerpt": "Richard Diebenkorn was a California-based painter and printmaker who spent much of his renowned career in the Bay Area.",
        "hashtags": [
          "RichardDiebenkorn",
          "Diebenkorn",
          "publicart",
          "Etching"
        ],
        "users": [
          "sfac_public_art_collection",
          "sf_arts_commission",
          "sfac_galleries",
          "grandhyattatsfo"
        ]
      },
      "media_id": "f11be8275564f2edffdd6b9bef43177a00b2bcd5",
      "path": "media/posts/202204/278834799_517844366722540_9105737287744035137_n_17976237958521970.jpg",
      "perceptual_hash": "p:f1cf7e001cf8c20f",
      "taken": 1650535800,
      "taken_at": "Apr 21, 2022 10:10 am"
    },
    "millsfield:similar": {
      "google/siglip2-so400m-patch16-naflex": [
        {
          "distance": 0.11750245094299316,
          "id": 1763558947
        },
        {
          "distance": 0.1579509973526001,
          "id": 1763558947
        },
        {
          "distance": 0.20348399877548218,
          "id": 1947424985
        },
        {
          "distance": 0.21549034118652344,
          "id": 1947424929
        },
        {
          "distance": 0.21690678596496582,
          "id": 1729355177
        },
        {
          "distance": 0.23818516731262207,
          "id": 1947425063
        },
        {
          "distance": 0.24723756313323975,
          "id": 1763559439
        },
        {
          "distance": 0.25199830532073975,
          "id": 1729362959
        },
        {
          "distance": 0.257752001285553,
          "id": 1763559569
        },
        {
          "distance": 0.25934821367263794,
          "id": 1729355147
        }
      ]
    },
    "sfomuseum:placetype": "instagram",
    "src:geom": "sfomuseum",
    "wof:belongsto": [
      1159160869,
      102527513,
      102191575,
      85633793,
      102087579,
      85922583,
      85688637
    ],
    "wof:country": "US",
    "wof:created": 1650535800,
    "wof:geomhash": "b6e33f47475d56bc8da457bc31afadc8",
    "wof:hierarchy": [
      {
        "building_id": 1159160869,
        "campus_id": 102527513,
        "continent_id": 102191575,
        "country_id": 85633793,
        "county_id": 102087579,
        "custom_id": 1880151789,
        "instagram_id": 1880151789,
        "locality_id": 85922583,
        "neighbourhood_id": -1,
        "region_id": 85688637
      }
    ],
    "wof:id": 1880151789,
    "wof:lastmodified": 1787777663,
    "wof:name": "Richard Diebenkorn was a California-based painter and printmaker who spent much of his renowned career in the Bay Area...",
    "wof:parent_id": 1159160869,
    "wof:placetype": "custom",
    "wof:placetype_alt": [
      "instagram"
    ],
    "wof:repo": "sfomuseum-data-socialmedia-instagram",
    "wof:superseded_by": [],
    "wof:supersedes": []
  },
  "bbox": [
    -122.386166,
    37.616356,
    -122.386166,
    37.616356
  ],
  "geometry": {"type":"Point","coordinates":[-122.386166,37.616356]}
}
