{
  "id": 1729362137,
  "type": "Feature",
  "properties": {
    "date:cessation_lower": "2014-09-09",
    "date:cessation_upper": "2014-09-09",
    "date:inception_lower": "2014-09-09",
    "date:inception_upper": "2014-09-09",
    "edtf:cessation": "2014-09-09T06:31:00-07:00",
    "edtf:inception": "2014-09-09T06:31:00-07:00",
    "geom:area": 0,
    "geom:bbox": "-122.386166,37.616356,-122.386166,37.616356",
    "geom:latitude": 37.616356,
    "geom:longitude": -122.386166,
    "instagram:post": {
      "caption": {
        "body": "",
        "excerpt": "",
        "hashtags": [
          "DualNatures",
          "ceramic",
          "pottery",
          "buncheong"
        ],
        "users": []
      },
      "media_id": "64abf090cc8caa2a6963d5ad36be22fd",
      "path": "media/other/10644084_577656825679751_75226421_n_17841752065062499.jpg",
      "perceptual_hash": "p:9a6ea718f8b186c6",
      "taken": 1410269460,
      "taken_at": "Sep 09, 2014 1:31 pm"
    },
    "millsfield:similar": {
      "google/siglip2-so400m-patch16-naflex": [
        {
          "distance": 0.1946558952331543,
          "id": 1729362175
        },
        {
          "distance": 0.20511770248413086,
          "id": 1729362175
        },
        {
          "distance": 0.210013747215271,
          "id": 1729362225
        },
        {
          "distance": 0.23157328367233276,
          "id": 1729362225
        },
        {
          "distance": 0.24153023958206177,
          "id": 1729362395
        },
        {
          "distance": 0.24214309453964233,
          "id": 1729361283
        },
        {
          "distance": 0.2621542811393738,
          "id": 1729362343
        },
        {
          "distance": 0.2621690630912781,
          "id": 1729362751
        },
        {
          "distance": 0.26413649320602417,
          "id": 1729362401
        },
        {
          "distance": 0.2651934027671814,
          "id": 1729362749
        }
      ]
    },
    "sfomuseum:placetype": "instagram",
    "src:geom": "sfomuseum",
    "wof:belongsto": [
      1159160869,
      102527513,
      102191575,
      85633793,
      102087579,
      85922583,
      85688637
    ],
    "wof:country": "US",
    "wof:created": 1410269460,
    "wof:geomhash": "b6e33f47475d56bc8da457bc31afadc8",
    "wof:hierarchy": [
      {
        "building_id": 1159160869,
        "campus_id": 102527513,
        "continent_id": 102191575,
        "country_id": 85633793,
        "county_id": 102087579,
        "custom_id": 1729362137,
        "instagram_id": 1729362137,
        "locality_id": 85922583,
        "neighbourhood_id": -1,
        "region_id": 85688637
      }
    ],
    "wof:id": 1729362137,
    "wof:lastmodified": 1787777646,
    "wof:name": "..",
    "wof:parent_id": 1159160869,
    "wof:placetype": "custom",
    "wof:placetype_alt": [
      "instagram"
    ],
    "wof:repo": "sfomuseum-data-socialmedia-instagram",
    "wof:superseded_by": [],
    "wof:supersedes": []
  },
  "bbox": [
    -122.386166,
    37.616356,
    -122.386166,
    37.616356
  ],
  "geometry": {"type":"Point","coordinates":[-122.386166,37.616356]}
}
