{
  "id": 1729362323,
  "type": "Feature",
  "properties": {
    "date:cessation_lower": "2014-04-21",
    "date:cessation_upper": "2014-04-21",
    "date:inception_lower": "2014-04-21",
    "date:inception_upper": "2014-04-21",
    "edtf:cessation": "2014-04-21T05:41:00-07:00",
    "edtf:inception": "2014-04-21T05:41:00-07:00",
    "geom:area": 0,
    "geom:bbox": "-122.386166,37.616356,-122.386166,37.616356",
    "geom:latitude": 37.616356,
    "geom:longitude": -122.386166,
    "instagram:post": {
      "caption": {
        "body": "",
        "excerpt": "",
        "hashtags": [
          "doors",
          "Indonesia"
        ],
        "users": []
      },
      "media_id": "f1e7abffb5359b90cdc0c3028dfc3937",
      "path": "media/other/1515350_1428440270744947_1004515388_n_17842422280062499.jpg",
      "perceptual_hash": "p:a8c65392539857d7",
      "taken": 1398084060,
      "taken_at": "Apr 21, 2014 12:41 pm"
    },
    "millsfield:similar": {
      "google/siglip2-so400m-patch16-naflex": [
        {
          "distance": 0.18672949075698853,
          "id": 1729362197
        },
        {
          "distance": 0.2248503565788269,
          "id": 1729362251
        },
        {
          "distance": 0.22532659769058228,
          "id": 1729362347
        },
        {
          "distance": 0.2330021858215332,
          "id": 1729362251
        },
        {
          "distance": 0.24912405014038086,
          "id": 1729362197
        },
        {
          "distance": 0.27707618474960327,
          "id": 1729362347
        },
        {
          "distance": 0.28394627571105957,
          "id": 1729362187
        },
        {
          "distance": 0.2938694953918457,
          "id": 1729362381
        },
        {
          "distance": 0.3007163405418396,
          "id": 1729362975
        },
        {
          "distance": 0.3058256506919861,
          "id": 1729362381
        }
      ]
    },
    "sfomuseum:placetype": "instagram",
    "src:geom": "sfomuseum",
    "wof:belongsto": [
      1159160869,
      102527513,
      102191575,
      85633793,
      102087579,
      85922583,
      85688637
    ],
    "wof:country": "US",
    "wof:created": 1398084060,
    "wof:geomhash": "b6e33f47475d56bc8da457bc31afadc8",
    "wof:hierarchy": [
      {
        "building_id": 1159160869,
        "campus_id": 102527513,
        "continent_id": 102191575,
        "country_id": 85633793,
        "county_id": 102087579,
        "custom_id": 1729362323,
        "instagram_id": 1729362323,
        "locality_id": 85922583,
        "neighbourhood_id": -1,
        "region_id": 85688637
      }
    ],
    "wof:id": 1729362323,
    "wof:lastmodified": 1787777647,
    "wof:name": "..",
    "wof:parent_id": 1159160869,
    "wof:placetype": "custom",
    "wof:placetype_alt": [
      "instagram"
    ],
    "wof:repo": "sfomuseum-data-socialmedia-instagram",
    "wof:superseded_by": [],
    "wof:supersedes": []
  },
  "bbox": [
    -122.386166,
    37.616356,
    -122.386166,
    37.616356
  ],
  "geometry": {"type":"Point","coordinates":[-122.386166,37.616356]}
}
