{
  "id": 1729362655,
  "type": "Feature",
  "properties": {
    "date:cessation_lower": "2013-06-14",
    "date:cessation_upper": "2013-06-14",
    "date:inception_lower": "2013-06-14",
    "date:inception_upper": "2013-06-14",
    "edtf:cessation": "2013-06-14T03:42:00-07:00",
    "edtf:inception": "2013-06-14T03:42:00-07:00",
    "geom:area": 0,
    "geom:bbox": "-122.386166,37.616356,-122.386166,37.616356",
    "geom:latitude": 37.616356,
    "geom:longitude": -122.386166,
    "instagram:post": {
      "caption": {
        "body": "A rare 1930s, 1:39 scale model of an American Airlines Douglas Sleeper Transport. Introduced in 1936, the DST featured convertible sleeping berths, making long flights a comfortable experience for passengers.",
        "excerpt": "A rare 1930s, 1:39 scale model of an American Airlines Douglas Sleeper Transport.",
        "hashtags": [],
        "users": []
      },
      "media_id": "55a55c36c2dbd8803df5b581d8e03a4d",
      "path": "media/other/11375173_943709758992962_610240501_n_17842331203062499.jpg",
      "perceptual_hash": "p:d00a71e539897cb7",
      "taken": 1371206520,
      "taken_at": "Jun 14, 2013 10:42 am"
    },
    "millsfield:similar": {
      "google/siglip2-so400m-patch16-naflex": [
        {
          "distance": 0.1886734962463379,
          "id": 1729362229
        },
        {
          "distance": 0.18947243690490723,
          "id": 1729362817
        },
        {
          "distance": 0.20270133018493652,
          "id": 1729363061
        },
        {
          "distance": 0.21513080596923828,
          "id": 1729362617
        },
        {
          "distance": 0.21524465084075928,
          "id": 1729362817
        },
        {
          "distance": 0.22785615921020508,
          "id": 1729362541
        },
        {
          "distance": 0.2286739945411682,
          "id": 1729362373
        },
        {
          "distance": 0.2328994870185852,
          "id": 1729362721
        },
        {
          "distance": 0.23647856712341309,
          "id": 1729362617
        },
        {
          "distance": 0.24228721857070923,
          "id": 1729362475
        }
      ]
    },
    "sfomuseum:placetype": "instagram",
    "src:geom": "sfomuseum",
    "wof:belongsto": [
      1159160869,
      102527513,
      102191575,
      85633793,
      102087579,
      85922583,
      85688637
    ],
    "wof:country": "US",
    "wof:created": 1371206520,
    "wof:geomhash": "b6e33f47475d56bc8da457bc31afadc8",
    "wof:hierarchy": [
      {
        "building_id": 1159160869,
        "campus_id": 102527513,
        "continent_id": 102191575,
        "country_id": 85633793,
        "county_id": 102087579,
        "custom_id": 1729362655,
        "instagram_id": 1729362655,
        "locality_id": 85922583,
        "neighbourhood_id": -1,
        "region_id": 85688637
      }
    ],
    "wof:id": 1729362655,
    "wof:lastmodified": 1787777647,
    "wof:name": "A rare 1930s, 1:39 scale model of an American Airlines Douglas Sleeper Transport...",
    "wof:parent_id": 1159160869,
    "wof:placetype": "custom",
    "wof:placetype_alt": [
      "instagram"
    ],
    "wof:repo": "sfomuseum-data-socialmedia-instagram",
    "wof:superseded_by": [],
    "wof:supersedes": []
  },
  "bbox": [
    -122.386166,
    37.616356,
    -122.386166,
    37.616356
  ],
  "geometry": {"type":"Point","coordinates":[-122.386166,37.616356]}
}
