{
  "id": 1729362077,
  "type": "Feature",
  "properties": {
    "date:cessation_lower": "2014-10-30",
    "date:cessation_upper": "2014-10-30",
    "date:inception_lower": "2014-10-30",
    "date:inception_upper": "2014-10-30",
    "edtf:cessation": "2014-10-30T09:06:00-07:00",
    "edtf:inception": "2014-10-30T09:06:00-07:00",
    "geom:area": 0,
    "geom:bbox": "-122.386166,37.616356,-122.386166,37.616356",
    "geom:latitude": 37.616356,
    "geom:longitude": -122.386166,
    "instagram:post": {
      "caption": {
        "body": "",
        "excerpt": "",
        "hashtags": [
          "TBT",
          "ThrowbackThursday",
          "avgeek",
          "fordtrimotor"
        ],
        "users": []
      },
      "media_id": "e9432a00f6c12e49d16e2f1977fea002",
      "path": "media/other/10748007_310869525777376_1556090033_n_17842489132062499.jpg",
      "perceptual_hash": "p:f7b188402257b3ee",
      "taken": 1414685160,
      "taken_at": "Oct 30, 2014 4:06 pm"
    },
    "millsfield:similar": {
      "google/siglip2-so400m-patch16-naflex": [
        {
          "distance": 0.07903963327407837,
          "id": 1729359257
        },
        {
          "distance": 0.10072749853134155,
          "id": 1729358317
        },
        {
          "distance": 0.11515706777572632,
          "id": 1729360561
        },
        {
          "distance": 0.14794862270355225,
          "id": 1729359257
        },
        {
          "distance": 0.15566539764404297,
          "id": 1880151387
        },
        {
          "distance": 0.15899139642715454,
          "id": 1729360811
        },
        {
          "distance": 0.15914207696914673,
          "id": 1729357075
        },
        {
          "distance": 0.1611613631248474,
          "id": 1729358317
        },
        {
          "distance": 0.162031888961792,
          "id": 1880151189
        },
        {
          "distance": 0.16585314273834229,
          "id": 1729355657
        }
      ]
    },
    "sfomuseum:placetype": "instagram",
    "src:geom": "sfomuseum",
    "wof:belongsto": [
      1159160869,
      102527513,
      102191575,
      85633793,
      102087579,
      85922583,
      85688637
    ],
    "wof:country": "US",
    "wof:created": 1414685160,
    "wof:geomhash": "b6e33f47475d56bc8da457bc31afadc8",
    "wof:hierarchy": [
      {
        "building_id": 1159160869,
        "campus_id": 102527513,
        "continent_id": 102191575,
        "country_id": 85633793,
        "county_id": 102087579,
        "custom_id": 1729362077,
        "instagram_id": 1729362077,
        "locality_id": 85922583,
        "neighbourhood_id": -1,
        "region_id": 85688637
      }
    ],
    "wof:id": 1729362077,
    "wof:lastmodified": 1787777646,
    "wof:name": "..",
    "wof:parent_id": 1159160869,
    "wof:placetype": "custom",
    "wof:placetype_alt": [
      "instagram"
    ],
    "wof:repo": "sfomuseum-data-socialmedia-instagram",
    "wof:superseded_by": [],
    "wof:supersedes": []
  },
  "bbox": [
    -122.386166,
    37.616356,
    -122.386166,
    37.616356
  ],
  "geometry": {"type":"Point","coordinates":[-122.386166,37.616356]}
}
