{
  "id": 1729356971,
  "type": "Feature",
  "properties": {
    "date:cessation_lower": "2019-02-08",
    "date:cessation_upper": "2019-02-08",
    "date:inception_lower": "2019-02-08",
    "date:inception_upper": "2019-02-08",
    "edtf:cessation": "2019-02-08T10:40:15-08:00",
    "edtf:inception": "2019-02-08T10:40:15-08:00",
    "geom:area": 0,
    "geom:bbox": "-122.386166,37.616356,-122.386166,37.616356",
    "geom:latitude": 37.616356,
    "geom:longitude": -122.386166,
    "instagram:post": {
      "caption": {
        "body": "Native Hawaiian surfing originated approximately one thousand years ago, imported from Tahiti by the Polynesian people who settled the Hawaiian Islands. He‘e nalu, which translates to “wave sliding,” is a culturally distinct form of surfing that grew into a popular pastime for men and women of all ages in Hawai‘i. Hawaiians enjoyed surfing on many types of ancient boards. Short paipo belly boards such as the uma were utilized for smaller surf. Omo boards could be ridden prone or while standing up. Sleek and maneuverable, stand-up alaia and pūua boards were preferred for higher speeds and larger surf. \"Reflections in Wood — Surfboards and Shapers\" is on display, pre-security, in the International Terminal! http://bit.ly/SurfboardsAndShapers  Image: Pūua  2013 Tom “Pōhaku” Stone (b. 1951) curly redwood Courtesy of Charles Pyle L2018.2803.014",
        "excerpt": "Native Hawaiian surfing originated approximately one thousand years ago, imported from Tahiti by the Polynesian people who settled the Hawaiian Islands.",
        "hashtags": [
          "SurfboardsandShapers",
          "surfers",
          "shapers",
          "surf",
          "surfing",
          "surflife",
          "surfer",
          "Surfboards",
          "Surfboard",
          "alohafriday"
        ],
        "users": [
          "pohatu"
        ]
      },
      "location": "",
      "media_id": "3dacbc26acab83d2a8e5fb70968247ee",
      "path": "photos/201902/3dacbc26acab83d2a8e5fb70968247ee.jpg",
      "perceptual_hash": "p:c097c0c53f683f6a",
      "taken": 1549622400,
      "taken_at": "Feb 8, 2019, 10:40 AM"
    },
    "millsfield:similar": {
      "google/siglip2-so400m-patch16-naflex": [
        {
          "distance": 0.31260865926742554,
          "id": 1729356969
        },
        {
          "distance": 0.3335047960281372,
          "id": 1729356969
        },
        {
          "distance": 0.33808833360671997,
          "id": 1729356901
        },
        {
          "distance": 0.3473849296569824,
          "id": 1729356943
        },
        {
          "distance": 0.36086922883987427,
          "id": 1729356945
        },
        {
          "distance": 0.3941724896430969,
          "id": 1729356901
        },
        {
          "distance": 0.3986015319824219,
          "id": 1729356923
        },
        {
          "distance": 0.39966005086898804,
          "id": 1729357019
        },
        {
          "distance": 0.40571725368499756,
          "id": 1729357021
        },
        {
          "distance": 0.45029664039611816,
          "id": 1729357021
        }
      ]
    },
    "sfomuseum:placetype": "instagram",
    "src:geom": "sfomuseum",
    "wof:belongsto": [
      1159160869,
      102527513,
      102191575,
      85633793,
      102087579,
      85922583,
      85688637
    ],
    "wof:country": "US",
    "wof:created": 1549651215,
    "wof:geomhash": "b6e33f47475d56bc8da457bc31afadc8",
    "wof:hierarchy": [
      {
        "building_id": 1159160869,
        "campus_id": 102527513,
        "continent_id": 102191575,
        "country_id": 85633793,
        "county_id": 102087579,
        "custom_id": 1729356971,
        "instagram_id": 1729356971,
        "locality_id": 85922583,
        "neighbourhood_id": -1,
        "region_id": 85688637
      }
    ],
    "wof:id": 1729356971,
    "wof:lastmodified": 1787777629,
    "wof:name": "Native Hawaiian surfing originated approximately one thousand years ago, imported from Tahiti by the Polynesian people who settled the Hawaiian Islands...",
    "wof:parent_id": 1159160869,
    "wof:placetype": "custom",
    "wof:placetype_alt": [
      "instagram"
    ],
    "wof:repo": "sfomuseum-data-socialmedia-instagram",
    "wof:superseded_by": [],
    "wof:supersedes": []
  },
  "bbox": [
    -122.386166,
    37.616356,
    -122.386166,
    37.616356
  ],
  "geometry": {"type":"Point","coordinates":[-122.386166,37.616356]}
}
