{
  "id": 1729362801,
  "type": "Feature",
  "properties": {
    "date:cessation_lower": "2013-02-05",
    "date:cessation_upper": "2013-02-05",
    "date:inception_lower": "2013-02-05",
    "date:inception_upper": "2013-02-05",
    "edtf:cessation": "2013-02-05T02:04:00-08:00",
    "edtf:inception": "2013-02-05T02:04:00-08:00",
    "geom:area": 0,
    "geom:bbox": "-122.386166,37.616356,-122.386166,37.616356",
    "geom:latitude": 37.616356,
    "geom:longitude": -122.386166,
    "instagram:post": {
      "caption": {
        "body": "Behind the scenes, deinstalling From Repack to Rwanda.",
        "excerpt": "Behind the scenes, deinstalling From Repack to Rwanda.",
        "hashtags": [],
        "users": []
      },
      "media_id": "365a5eae72a37d144e0079d388b2f007",
      "path": "media/other/11235990_101987186803485_1359213732_n_17842299343062499.jpg",
      "perceptual_hash": "p:cefa8181393d9c2e",
      "taken": 1360058640,
      "taken_at": "Feb 05, 2013 10:04 am"
    },
    "millsfield:similar": {
      "google/siglip2-so400m-patch16-naflex": [
        {
          "distance": 0.1358746886253357,
          "id": 1729362815
        },
        {
          "distance": 0.15432500839233398,
          "id": 1729362953
        },
        {
          "distance": 0.16116321086883545,
          "id": 1729362947
        },
        {
          "distance": 0.16290658712387085,
          "id": 1729362955
        },
        {
          "distance": 0.17385846376419067,
          "id": 1729362815
        },
        {
          "distance": 0.18147152662277222,
          "id": 1729362955
        },
        {
          "distance": 0.18799543380737305,
          "id": 1729362941
        },
        {
          "distance": 0.1908121109008789,
          "id": 1729362941
        },
        {
          "distance": 0.19488215446472168,
          "id": 1729362953
        },
        {
          "distance": 0.21218043565750122,
          "id": 1729362947
        }
      ]
    },
    "sfomuseum:placetype": "instagram",
    "src:geom": "sfomuseum",
    "wof:belongsto": [
      1159160869,
      102527513,
      102191575,
      85633793,
      102087579,
      85922583,
      85688637
    ],
    "wof:country": "US",
    "wof:created": 1360058640,
    "wof:geomhash": "b6e33f47475d56bc8da457bc31afadc8",
    "wof:hierarchy": [
      {
        "building_id": 1159160869,
        "campus_id": 102527513,
        "continent_id": 102191575,
        "country_id": 85633793,
        "county_id": 102087579,
        "custom_id": 1729362801,
        "instagram_id": 1729362801,
        "locality_id": 85922583,
        "neighbourhood_id": -1,
        "region_id": 85688637
      }
    ],
    "wof:id": 1729362801,
    "wof:lastmodified": 1787777648,
    "wof:name": "Behind the scenes, deinstalling From Repack to Rwanda...",
    "wof:parent_id": 1159160869,
    "wof:placetype": "custom",
    "wof:placetype_alt": [
      "instagram"
    ],
    "wof:repo": "sfomuseum-data-socialmedia-instagram",
    "wof:superseded_by": [],
    "wof:supersedes": []
  },
  "bbox": [
    -122.386166,
    37.616356,
    -122.386166,
    37.616356
  ],
  "geometry": {"type":"Point","coordinates":[-122.386166,37.616356]}
}
