{
  "id": 1729359965,
  "type": "Feature",
  "properties": {
    "date:cessation_lower": "2017-01-04",
    "date:cessation_upper": "2017-01-04",
    "date:inception_lower": "2017-01-04",
    "date:inception_upper": "2017-01-04",
    "edtf:cessation": "2017-01-04T01:32:00-08:00",
    "edtf:inception": "2017-01-04T01:32:00-08:00",
    "geom:area": 0,
    "geom:bbox": "-122.386166,37.616356,-122.386166,37.616356",
    "geom:latitude": 37.616356,
    "geom:longitude": -122.386166,
    "instagram:post": {
      "caption": {
        "body": "",
        "excerpt": "",
        "hashtags": [
          "AllRoadsRome"
        ],
        "users": []
      },
      "media_id": "727803dfaa330728b4429719ec2b2e64",
      "path": "media/posts/201701/15802766_249528085479730_3606738102946627584_n_17856822934080571.jpg",
      "perceptual_hash": "p:baea010421f7dfc9",
      "taken": 1483522320,
      "taken_at": "Jan 04, 2017 9:32 am"
    },
    "millsfield:similar": {
      "google/siglip2-so400m-patch16-naflex": [
        {
          "distance": 0.3204125165939331,
          "id": 1729361703
        },
        {
          "distance": 0.3278394937515259,
          "id": 1729362515
        },
        {
          "distance": 0.3407691717147827,
          "id": 1729355153
        },
        {
          "distance": 0.3410850763320923,
          "id": 1729362327
        },
        {
          "distance": 0.3465240001678467,
          "id": 1729359785
        },
        {
          "distance": 0.34749001264572144,
          "id": 1729362397
        },
        {
          "distance": 0.348167359828949,
          "id": 1729362469
        },
        {
          "distance": 0.3550206422805786,
          "id": 1729362327
        },
        {
          "distance": 0.36060184240341187,
          "id": 1729360985
        },
        {
          "distance": 0.3611410856246948,
          "id": 1729362719
        }
      ]
    },
    "sfomuseum:placetype": "instagram",
    "src:geom": "sfomuseum",
    "wof:belongsto": [
      1159160869,
      102527513,
      102191575,
      85633793,
      102087579,
      85922583,
      85688637
    ],
    "wof:country": "US",
    "wof:created": 1483522320,
    "wof:geomhash": "b6e33f47475d56bc8da457bc31afadc8",
    "wof:hierarchy": [
      {
        "building_id": 1159160869,
        "campus_id": 102527513,
        "continent_id": 102191575,
        "country_id": 85633793,
        "county_id": 102087579,
        "custom_id": 1729359965,
        "instagram_id": 1729359965,
        "locality_id": 85922583,
        "neighbourhood_id": -1,
        "region_id": 85688637
      }
    ],
    "wof:id": 1729359965,
    "wof:lastmodified": 1787777637,
    "wof:name": "..",
    "wof:parent_id": 1159160869,
    "wof:placetype": "custom",
    "wof:placetype_alt": [
      "instagram"
    ],
    "wof:repo": "sfomuseum-data-socialmedia-instagram",
    "wof:superseded_by": [],
    "wof:supersedes": []
  },
  "bbox": [
    -122.386166,
    37.616356,
    -122.386166,
    37.616356
  ],
  "geometry": {"type":"Point","coordinates":[-122.386166,37.616356]}
}
