{
  "id": 1729359523,
  "type": "Feature",
  "properties": {
    "date:cessation_lower": "2017-05-04",
    "date:cessation_upper": "2017-05-04",
    "date:inception_lower": "2017-05-04",
    "date:inception_upper": "2017-05-04",
    "edtf:cessation": "2017-05-04T01:56:00-07:00",
    "edtf:inception": "2017-05-04T01:56:00-07:00",
    "geom:area": 0,
    "geom:bbox": "-122.386166,37.616356,-122.386166,37.616356",
    "geom:latitude": 37.616356,
    "geom:longitude": -122.386166,
    "instagram:post": {
      "caption": {
        "body": "This year SFO turns 90! See photos of the airport throughout the years in our online database! http://bit.ly/SFOHistory  Image:  San Francisco Airport, Administration Building and control tower, 1951. SFO Museum Collection. 2011.032.0253",
        "excerpt": "This year SFO turns 90!",
        "hashtags": [
          "SFOHistory",
          "aviationhistory",
          "avgeek",
          "SFOat90",
          "ThrowbackThursday",
          "TBT",
          "SFHistory"
        ],
        "users": []
      },
      "media_id": "b6f0858582c3970caa99e4257d192349",
      "path": "media/posts/201705/18252025_299023220511159_7278963887242739712_n_17854760167192202.jpg",
      "perceptual_hash": "p:f7f3c8484826b2ce",
      "taken": 1493888160,
      "taken_at": "May 04, 2017 8:56 am"
    },
    "millsfield:similar": {
      "google/siglip2-so400m-patch16-naflex": [
        {
          "distance": 0.09023785591125488,
          "id": 1729361227
        },
        {
          "distance": 0.10626661777496338,
          "id": 1729357593
        },
        {
          "distance": 0.1455150842666626,
          "id": 1729361227
        },
        {
          "distance": 0.15092921257019043,
          "id": 1729360877
        },
        {
          "distance": 0.1571083664894104,
          "id": 1763559345
        },
        {
          "distance": 0.16986846923828125,
          "id": 1729355115
        },
        {
          "distance": 0.1710929274559021,
          "id": 1947425271
        },
        {
          "distance": 0.17308813333511353,
          "id": 1729361577
        },
        {
          "distance": 0.1736186146736145,
          "id": 1880151675
        },
        {
          "distance": 0.17564481496810913,
          "id": 1880151675
        }
      ]
    },
    "sfomuseum:placetype": "instagram",
    "src:geom": "sfomuseum",
    "wof:belongsto": [
      1159160869,
      102527513,
      102191575,
      85633793,
      102087579,
      85922583,
      85688637
    ],
    "wof:country": "US",
    "wof:created": 1493888160,
    "wof:geomhash": "b6e33f47475d56bc8da457bc31afadc8",
    "wof:hierarchy": [
      {
        "building_id": 1159160869,
        "campus_id": 102527513,
        "continent_id": 102191575,
        "country_id": 85633793,
        "county_id": 102087579,
        "custom_id": 1729359523,
        "instagram_id": 1729359523,
        "locality_id": 85922583,
        "neighbourhood_id": -1,
        "region_id": 85688637
      }
    ],
    "wof:id": 1729359523,
    "wof:lastmodified": 1787777636,
    "wof:name": "This year SFO turns 90!..",
    "wof:parent_id": 1159160869,
    "wof:placetype": "custom",
    "wof:placetype_alt": [
      "instagram"
    ],
    "wof:repo": "sfomuseum-data-socialmedia-instagram",
    "wof:superseded_by": [],
    "wof:supersedes": []
  },
  "bbox": [
    -122.386166,
    37.616356,
    -122.386166,
    37.616356
  ],
  "geometry": {"type":"Point","coordinates":[-122.386166,37.616356]}
}
