{
  "id": 1763559001,
  "type": "Feature",
  "properties": {
    "date:cessation_lower": "2020-11-05",
    "date:cessation_upper": "2020-11-05",
    "date:inception_lower": "2020-11-05",
    "date:inception_upper": "2020-11-05",
    "edtf:cessation": "2020-11-05T07:50:00-08:00",
    "edtf:inception": "2020-11-05T07:50:00-08:00",
    "geom:area": 0,
    "geom:bbox": "-122.386166,37.616356,-122.386166,37.616356",
    "geom:latitude": 37.616356,
    "geom:longitude": -122.386166,
    "instagram:post": {
      "caption": {
        "body": "In honor of our 40th anniversary, every week this year we are highlighting one of our past exhibitions. In 2008, we presented “Young Eyes on the Skies: The Golden Age of Aviation Toys” which featured aviation toys from the 1920s, 1930s, and 1940s, made of cast iron, pressed steel and tin. The toys presented in this exhibition helped to create the first \"air-minded\" generation. Do you remember this exhibition?",
        "excerpt": "In honor of our 40th anniversary, every week this year we are highlighting one of our past exhibitions.",
        "hashtags": [
          "toys",
          "TBTSFOM",
          "SFOMat40",
          "avgeek",
          "MuseumFromHome"
        ],
        "users": []
      },
      "media_id": "7a998ea06161daebdbc14a699ec912a38091c3b3",
      "path": "media/other/123530488_176553397427795_438826729860173010_n_18168805180005040.jpg",
      "perceptual_hash": "p:dfde15929700d3b0",
      "taken": 1604591400,
      "taken_at": "Nov 05, 2020 3:50 pm"
    },
    "millsfield:similar": {
      "google/siglip2-so400m-patch16-naflex": [
        {
          "distance": 0.16532325744628906,
          "id": 1729358383
        },
        {
          "distance": 0.18494033813476562,
          "id": 1729357387
        },
        {
          "distance": 0.19260025024414062,
          "id": 1729356977
        },
        {
          "distance": 0.1953366994857788,
          "id": 1729357275
        },
        {
          "distance": 0.19654399156570435,
          "id": 1729358143
        },
        {
          "distance": 0.19728606939315796,
          "id": 1763558763
        },
        {
          "distance": 0.19787991046905518,
          "id": 1947425051
        },
        {
          "distance": 0.20040345191955566,
          "id": 1763558763
        },
        {
          "distance": 0.2014893889427185,
          "id": 1729358143
        },
        {
          "distance": 0.20164519548416138,
          "id": 1729357141
        }
      ]
    },
    "sfomuseum:placetype": "instagram",
    "src:geom": "sfomuseum",
    "wof:belongsto": [
      1159160869,
      102527513,
      102191575,
      85633793,
      102087579,
      85922583,
      85688637
    ],
    "wof:country": "US",
    "wof:created": 1604591400,
    "wof:geomhash": "b6e33f47475d56bc8da457bc31afadc8",
    "wof:hierarchy": [
      {
        "building_id": 1159160869,
        "campus_id": 102527513,
        "continent_id": 102191575,
        "country_id": 85633793,
        "county_id": 102087579,
        "custom_id": 1763559001,
        "instagram_id": 1763559001,
        "locality_id": 85922583,
        "neighbourhood_id": -1,
        "region_id": 85688637
      }
    ],
    "wof:id": 1763559001,
    "wof:lastmodified": 1787777660,
    "wof:name": "In honor of our 40th anniversary, every week this year we are highlighting one of our past exhibitions...",
    "wof:parent_id": 1159160869,
    "wof:placetype": "custom",
    "wof:placetype_alt": [
      "instagram"
    ],
    "wof:repo": "sfomuseum-data-socialmedia-instagram",
    "wof:superseded_by": [],
    "wof:supersedes": []
  },
  "bbox": [
    -122.386166,
    37.616356,
    -122.386166,
    37.616356
  ],
  "geometry": {"type":"Point","coordinates":[-122.386166,37.616356]}
}
