{
  "id": 1729360153,
  "type": "Feature",
  "properties": {
    "date:cessation_lower": "2016-11-04",
    "date:cessation_upper": "2016-11-04",
    "date:inception_lower": "2016-11-04",
    "date:inception_upper": "2016-11-04",
    "edtf:cessation": "2016-11-04T02:21:00-07:00",
    "edtf:inception": "2016-11-04T02:21:00-07:00",
    "geom:area": 0,
    "geom:bbox": "-122.386166,37.616356,-122.386166,37.616356",
    "geom:latitude": 37.616356,
    "geom:longitude": -122.386166,
    "instagram:post": {
      "caption": {
        "body": "John Patrick McKenzie moved from the Philippines to the United States with his family in 1964 and joined the Creativity Explored (@CreativityExplored) studio in 1989. Text functions as the basis of his practice and is used for both its visual and scriptural qualities, creating work that simultaneously serves as visual image and as poetry. His original scripts and arrangements of text with complex and repetitive sequencing of calligraphy are tactile examples of his interpretation of the world, and can be both hilarious and poignant.  See more from John Patrick McKenzie and other artists from Creativity Explored in \"Celebrating a Vision: #ArtAndDisability\", on display, post-security, in Terminal 3. http://bit.ly/ArtAndDisability",
        "excerpt": "John Patrick McKenzie moved from the Philippines to the United States with his family in 1964 and joined the Creativity Explored (@CreativityExplored) studio in 1989.",
        "hashtags": [],
        "users": []
      },
      "media_id": "9df1ab691c18f88d7994d30c456905ef",
      "path": "media/posts/201611/14701188_364470993892534_2424246989752369152_n_17854856059114865.jpg",
      "perceptual_hash": "p:8fcc4d9134c73d25",
      "taken": 1478251260,
      "taken_at": "Nov 04, 2016 9:21 am"
    },
    "millsfield:similar": {
      "google/siglip2-so400m-patch16-naflex": [
        {
          "distance": 0.11949849128723145,
          "id": 1729360715
        },
        {
          "distance": 0.19034343957901,
          "id": 1729360715
        },
        {
          "distance": 0.198602557182312,
          "id": 1729360691
        },
        {
          "distance": 0.2238326072692871,
          "id": 1729356163
        },
        {
          "distance": 0.26292407512664795,
          "id": 1880151713
        },
        {
          "distance": 0.26354074478149414,
          "id": 1729360691
        },
        {
          "distance": 0.2647935152053833,
          "id": 1729357701
        },
        {
          "distance": 0.27030110359191895,
          "id": 1729359429
        },
        {
          "distance": 0.2703741192817688,
          "id": 1729362959
        },
        {
          "distance": 0.2724679112434387,
          "id": 1729361679
        }
      ]
    },
    "sfomuseum:placetype": "instagram",
    "src:geom": "sfomuseum",
    "wof:belongsto": [
      1159160869,
      102527513,
      102191575,
      85633793,
      102087579,
      85922583,
      85688637
    ],
    "wof:country": "US",
    "wof:created": 1478251260,
    "wof:geomhash": "b6e33f47475d56bc8da457bc31afadc8",
    "wof:hierarchy": [
      {
        "building_id": 1159160869,
        "campus_id": 102527513,
        "continent_id": 102191575,
        "country_id": 85633793,
        "county_id": 102087579,
        "custom_id": 1729360153,
        "instagram_id": 1729360153,
        "locality_id": 85922583,
        "neighbourhood_id": -1,
        "region_id": 85688637
      }
    ],
    "wof:id": 1729360153,
    "wof:lastmodified": 1787777639,
    "wof:name": "John Patrick McKenzie moved from the Philippines to the United States with his family in 1964 and joined the Creativity Explored (@CreativityExplored) studio in 1989...",
    "wof:parent_id": 1159160869,
    "wof:placetype": "custom",
    "wof:placetype_alt": [
      "instagram"
    ],
    "wof:repo": "sfomuseum-data-socialmedia-instagram",
    "wof:superseded_by": [],
    "wof:supersedes": []
  },
  "bbox": [
    -122.386166,
    37.616356,
    -122.386166,
    37.616356
  ],
  "geometry": {"type":"Point","coordinates":[-122.386166,37.616356]}
}
