{
  "id": 1880151369,
  "type": "Feature",
  "properties": {
    "date:cessation_lower": "2022-10-28",
    "date:cessation_upper": "2022-10-28",
    "date:inception_lower": "2022-10-28",
    "date:inception_upper": "2022-10-28",
    "edtf:cessation": "2022-10-28T08:01:00-07:00",
    "edtf:inception": "2022-10-28T08:01:00-07:00",
    "geom:area": 0,
    "geom:bbox": "-122.386166,37.616356,-122.386166,37.616356",
    "geom:latitude": 37.616356,
    "geom:longitude": -122.386166,
    "instagram:post": {
      "caption": {
        "body": "Zimbabwe boasts an abundance of stone deposits throughout the country and a unique, artistic tradition of stone carving. Each sculpture expresses the artist’s imagination and ingenuity. Obert Mukumbi’s brother Kennedy Musekiwa (b. 1962), an accomplished sculptor, encouraged him to work in stone at the young age of twelve to express his feelings and earn a respectable living. He gained further training from sculptor Richard Magwenzi.   See \"Stone Sculpture of Zimbabwe\" on display, pre-security, in the International Terminal and online at: https://bit.ly/ZimbabweSculpture",
        "excerpt": "Zimbabwe boasts an abundance of stone deposits throughout the country and a unique, artistic tradition of stone carving.",
        "hashtags": [
          "ZimbabweSculpture",
          "Zimbabwe",
          "Sculpture",
          "Harare"
        ],
        "users": []
      },
      "media_id": "2552560867018397bdea49115a064a0a05da8360",
      "path": "media/posts/202210/312490229_666712418130023_6386643975567146885_n_18325014991005917.jpg",
      "perceptual_hash": "p:eb69842f2b38e730",
      "taken": 1666969260,
      "taken_at": "Oct 28, 2022 3:01 pm"
    },
    "millsfield:similar": {
      "google/siglip2-so400m-patch16-naflex": [
        {
          "distance": 0.1242830753326416,
          "id": 1880151557
        },
        {
          "distance": 0.14243322610855103,
          "id": 1880151557
        },
        {
          "distance": 0.1767250895500183,
          "id": 1880151621
        },
        {
          "distance": 0.1783011555671692,
          "id": 1880151677
        },
        {
          "distance": 0.1856083869934082,
          "id": 1880151677
        },
        {
          "distance": 0.19632846117019653,
          "id": 1880151621
        },
        {
          "distance": 0.21318167448043823,
          "id": 1880151007
        },
        {
          "distance": 0.21529936790466309,
          "id": 1880151783
        },
        {
          "distance": 0.22388726472854614,
          "id": 1880151783
        },
        {
          "distance": 0.23463964462280273,
          "id": 1880151737
        }
      ]
    },
    "sfomuseum:placetype": "instagram",
    "src:geom": "sfomuseum",
    "wof:belongsto": [
      1159160869,
      102527513,
      102191575,
      85633793,
      102087579,
      85922583,
      85688637
    ],
    "wof:country": "US",
    "wof:created": 1666969260,
    "wof:geomhash": "b6e33f47475d56bc8da457bc31afadc8",
    "wof:hierarchy": [
      {
        "building_id": 1159160869,
        "campus_id": 102527513,
        "continent_id": 102191575,
        "country_id": 85633793,
        "county_id": 102087579,
        "custom_id": 1880151369,
        "instagram_id": 1880151369,
        "locality_id": 85922583,
        "neighbourhood_id": -1,
        "region_id": 85688637
      }
    ],
    "wof:id": 1880151369,
    "wof:lastmodified": 1787777662,
    "wof:name": "Zimbabwe boasts an abundance of stone deposits throughout the country and a unique, artistic tradition of stone carving...",
    "wof:parent_id": 1159160869,
    "wof:placetype": "custom",
    "wof:placetype_alt": [
      "instagram"
    ],
    "wof:repo": "sfomuseum-data-socialmedia-instagram",
    "wof:superseded_by": [],
    "wof:supersedes": []
  },
  "bbox": [
    -122.386166,
    37.616356,
    -122.386166,
    37.616356
  ],
  "geometry": {"type":"Point","coordinates":[-122.386166,37.616356]}
}
