{
  "id": 1729357145,
  "type": "Feature",
  "properties": {
    "date:cessation_lower": "2019-01-03",
    "date:cessation_upper": "2019-01-03",
    "date:inception_lower": "2019-01-03",
    "date:inception_upper": "2019-01-03",
    "edtf:cessation": "2019-01-03T01:50:00-08:00",
    "edtf:inception": "2019-01-03T01:50:00-08:00",
    "geom:area": 0,
    "geom:bbox": "-122.386166,37.616356,-122.386166,37.616356",
    "geom:latitude": 37.616356,
    "geom:longitude": -122.386166,
    "instagram:post": {
      "caption": {
        "body": "On January 1, 1937, United Air Lines started the first Douglas DC-3 service to San Francisco Airport. The efficiency of advanced airliners began to make passenger service profitable. United Air Lines used the 21-seat Douglas DC-3 for eight flights daily from San Francisco to Los Angeles, and coast-to-coast service to New York in just fifteen hours.  Image: San Francisco Airport, United Air Lines, Mainliner airplane, 1938. SFO Museum Collection. 1997.52.050.002 a",
        "excerpt": "On January 1, 1937, United Air Lines started the first Douglas DC-3 service to San Francisco Airport.",
        "hashtags": [
          "dc3",
          "1930s",
          "avgeek",
          "SFOHistory",
          "UnitedAirLines",
          "United"
        ],
        "users": []
      },
      "media_id": "e87e53d7e75bf8bcc10254527bc38b9d",
      "path": "media/other/46143353_219638078918153_3339261308163488711_n_18002644711105526.jpg",
      "perceptual_hash": "p:e091cfb2b16c4e4b",
      "taken": 1546509000,
      "taken_at": "Jan 03, 2019 9:50 am"
    },
    "millsfield:similar": {
      "google/siglip2-so400m-patch16-naflex": [
        {
          "distance": 0.07305741310119629,
          "id": 1763559505
        },
        {
          "distance": 0.10455381870269775,
          "id": 1763559505
        },
        {
          "distance": 0.13831877708435059,
          "id": 1729356979
        },
        {
          "distance": 0.14120203256607056,
          "id": 1880151589
        },
        {
          "distance": 0.14688169956207275,
          "id": 1729359361
        },
        {
          "distance": 0.14859890937805176,
          "id": 1729358009
        },
        {
          "distance": 0.16438531875610352,
          "id": 1729355569
        },
        {
          "distance": 0.16861248016357422,
          "id": 1729358161
        },
        {
          "distance": 0.1693142056465149,
          "id": 1729356979
        },
        {
          "distance": 0.1717994213104248,
          "id": 1763559547
        }
      ]
    },
    "sfomuseum:placetype": "instagram",
    "src:geom": "sfomuseum",
    "wof:belongsto": [
      1159160869,
      102527513,
      102191575,
      85633793,
      102087579,
      85922583,
      85688637
    ],
    "wof:country": "US",
    "wof:created": 1546509000,
    "wof:geomhash": "b6e33f47475d56bc8da457bc31afadc8",
    "wof:hierarchy": [
      {
        "building_id": 1159160869,
        "campus_id": 102527513,
        "continent_id": 102191575,
        "country_id": 85633793,
        "county_id": 102087579,
        "custom_id": 1729357145,
        "instagram_id": 1729357145,
        "locality_id": 85922583,
        "neighbourhood_id": -1,
        "region_id": 85688637
      }
    ],
    "wof:id": 1729357145,
    "wof:lastmodified": 1787777630,
    "wof:name": "On January 1, 1937, United Air Lines started the first Douglas DC-3 service to San Francisco Airport...",
    "wof:parent_id": 1159160869,
    "wof:placetype": "custom",
    "wof:placetype_alt": [
      "instagram"
    ],
    "wof:repo": "sfomuseum-data-socialmedia-instagram",
    "wof:superseded_by": [],
    "wof:supersedes": []
  },
  "bbox": [
    -122.386166,
    37.616356,
    -122.386166,
    37.616356
  ],
  "geometry": {"type":"Point","coordinates":[-122.386166,37.616356]}
}
