{
  "id": 1729359903,
  "type": "Feature",
  "properties": {
    "date:cessation_lower": "2017-01-19",
    "date:cessation_upper": "2017-01-19",
    "date:inception_lower": "2017-01-19",
    "date:inception_upper": "2017-01-19",
    "edtf:cessation": "2017-01-19T10:23:00-08:00",
    "edtf:inception": "2017-01-19T10:23:00-08:00",
    "geom:area": 0,
    "geom:bbox": "-122.386166,37.616356,-122.386166,37.616356",
    "geom:latitude": 37.616356,
    "geom:longitude": -122.386166,
    "instagram:post": {
      "caption": {
        "body": "Born in Northern California and raised in Italy, jeweler and sculptor Peter Macchiarini (1909–2001) trained at the Art Academy in Pietrasanta in marble carving and ornamental art. A decade after he returned to the West Coast, Macchiarini switched gears and in 1938 began a career in the metal arts, self-taught through books on jewelry making and Bauhaus design. Macchiarini was an active community organizer and co-founder of the Metal Arts Guild and San Francisco Art Festivals, and his studio in San Francisco’s North Beach neighborhood was a hub of creativity and discussion for mid-century artists.",
        "excerpt": "Born in Northern California and raised in Italy, jeweler and sculptor Peter Macchiarini (1909–2001) trained at the Art Academy in Pietrasanta in marble carving and ornamental art.",
        "hashtags": [
          "midcentury",
          "modern",
          "design",
          "PeterMacchiarini",
          "SFartist",
          "SFHistory#SFArtHistory"
        ],
        "users": []
      },
      "media_id": "17f7a11cca420d44a1dfa61204f4db1f",
      "path": "media/posts/201701/16122434_1190486774376138_6163594703338995712_n_17863941049064244.jpg",
      "perceptual_hash": "p:c1915e2fe05eb1c9",
      "taken": 1484850180,
      "taken_at": "Jan 19, 2017 6:23 pm"
    },
    "millsfield:similar": {
      "google/siglip2-so400m-patch16-naflex": [
        {
          "distance": 0.20844578742980957,
          "id": 1729357447
        },
        {
          "distance": 0.230771005153656,
          "id": 1729357169
        },
        {
          "distance": 0.2466808557510376,
          "id": 1729357447
        },
        {
          "distance": 0.25033116340637207,
          "id": 1729357031
        },
        {
          "distance": 0.251997709274292,
          "id": 1729357169
        },
        {
          "distance": 0.2524089813232422,
          "id": 1729357549
        },
        {
          "distance": 0.2671329975128174,
          "id": 1729357549
        },
        {
          "distance": 0.27809590101242065,
          "id": 1729357071
        },
        {
          "distance": 0.2862691283226013,
          "id": 1729357049
        },
        {
          "distance": 0.2929764986038208,
          "id": 1729360451
        }
      ]
    },
    "sfomuseum:placetype": "instagram",
    "src:geom": "sfomuseum",
    "wof:belongsto": [
      1159160869,
      102527513,
      102191575,
      85633793,
      102087579,
      85922583,
      85688637
    ],
    "wof:country": "US",
    "wof:created": 1484850180,
    "wof:geomhash": "b6e33f47475d56bc8da457bc31afadc8",
    "wof:hierarchy": [
      {
        "building_id": 1159160869,
        "campus_id": 102527513,
        "continent_id": 102191575,
        "country_id": 85633793,
        "county_id": 102087579,
        "custom_id": 1729359903,
        "instagram_id": 1729359903,
        "locality_id": 85922583,
        "neighbourhood_id": -1,
        "region_id": 85688637
      }
    ],
    "wof:id": 1729359903,
    "wof:lastmodified": 1787777637,
    "wof:name": "Born in Northern California and raised in Italy, jeweler and sculptor Peter Macchiarini (1909–2001) trained at the Art Academy in Pietrasanta in marble carving and ornamental art...",
    "wof:parent_id": 1159160869,
    "wof:placetype": "custom",
    "wof:placetype_alt": [
      "instagram"
    ],
    "wof:repo": "sfomuseum-data-socialmedia-instagram",
    "wof:superseded_by": [],
    "wof:supersedes": []
  },
  "bbox": [
    -122.386166,
    37.616356,
    -122.386166,
    37.616356
  ],
  "geometry": {"type":"Point","coordinates":[-122.386166,37.616356]}
}
