{
  "id": 1729357881,
  "type": "Feature",
  "properties": {
    "date:cessation_lower": "2018-07-27",
    "date:cessation_upper": "2018-07-27",
    "date:inception_lower": "2018-07-27",
    "date:inception_upper": "2018-07-27",
    "edtf:cessation": "2018-07-27T09:41:44-07:00",
    "edtf:inception": "2018-07-27T09:41:44-07:00",
    "geom:area": 0,
    "geom:bbox": "-122.386166,37.616356,-122.386166,37.616356",
    "geom:latitude": 37.616356,
    "geom:longitude": -122.386166,
    "instagram:post": {
      "caption": {
        "body": "Large construction projects at SFO, a department of the City and County of San Francisco, are often funded through the issue and sale of municipal bonds. Between the 1930s to the 1970s, the Airport issued bonds, printed on “bond” or bank paper, to finance such improvements. Several examples from projects over the years are included in our collection, as showcased here. Bonds today are issued electronically and not printed, so old paper bonds are considered collectible. Do you have any paper bonds?",
        "excerpt": "Large construction projects at SFO, a department of the City and County of San Francisco, are often funded through the issue and sale of municipal bonds.",
        "hashtags": [
          "SFOHistory",
          "scripophily",
          "airport",
          "bond",
          "publicworks",
          "avgeek",
          "avationgeek",
          "aviation",
          "aviationhistory",
          "vintageaviation",
          "history",
          "avhistory",
          "aviationgeeks",
          "avgeeks"
        ],
        "users": []
      },
      "location": "",
      "media_id": "70a022be6da531ab328718ac0bbb16a0",
      "path": "photos/201807/70a022be6da531ab328718ac0bbb16a0.jpg",
      "perceptual_hash": "p:b362862ececc9969",
      "taken": 1532680860,
      "taken_at": "Jul 27, 2018, 8:41 AM"
    },
    "millsfield:similar": {
      "google/siglip2-so400m-patch16-naflex": [
        {
          "distance": 0.12756389379501343,
          "id": 1729357879
        },
        {
          "distance": 0.1977962851524353,
          "id": 1729357877
        },
        {
          "distance": 0.20790356397628784,
          "id": 1729357879
        },
        {
          "distance": 0.21657037734985352,
          "id": 1729357877
        },
        {
          "distance": 0.21674805879592896,
          "id": 1729357885
        },
        {
          "distance": 0.23242968320846558,
          "id": 1729357885
        },
        {
          "distance": 0.2944232225418091,
          "id": 1729361053
        },
        {
          "distance": 0.3585362434387207,
          "id": 1729361051
        },
        {
          "distance": 0.3617510199546814,
          "id": 1729360147
        },
        {
          "distance": 0.36883842945098877,
          "id": 1729361397
        }
      ]
    },
    "sfomuseum:placetype": "instagram",
    "src:geom": "sfomuseum",
    "wof:belongsto": [
      1159160869,
      102527513,
      102191575,
      85633793,
      102087579,
      85922583,
      85688637
    ],
    "wof:country": "US",
    "wof:created": 1532709704,
    "wof:geomhash": "b6e33f47475d56bc8da457bc31afadc8",
    "wof:hierarchy": [
      {
        "building_id": 1159160869,
        "campus_id": 102527513,
        "continent_id": 102191575,
        "country_id": 85633793,
        "county_id": 102087579,
        "custom_id": 1729357881,
        "instagram_id": 1729357881,
        "locality_id": 85922583,
        "neighbourhood_id": -1,
        "region_id": 85688637
      }
    ],
    "wof:id": 1729357881,
    "wof:lastmodified": 1787777632,
    "wof:name": "Large construction projects at SFO, a department of the City and County of San Francisco, are often funded through the issue and sale of municipal bonds...",
    "wof:parent_id": 1159160869,
    "wof:placetype": "custom",
    "wof:placetype_alt": [
      "instagram"
    ],
    "wof:repo": "sfomuseum-data-socialmedia-instagram",
    "wof:superseded_by": [],
    "wof:supersedes": []
  },
  "bbox": [
    -122.386166,
    37.616356,
    -122.386166,
    37.616356
  ],
  "geometry": {"type":"Point","coordinates":[-122.386166,37.616356]}
}
