{
  "id": 1729361199,
  "type": "Feature",
  "properties": {
    "date:cessation_lower": "2016-01-08",
    "date:cessation_upper": "2016-01-08",
    "date:inception_lower": "2016-01-08",
    "date:inception_upper": "2016-01-08",
    "edtf:cessation": "2016-01-08T12:36:00-08:00",
    "edtf:inception": "2016-01-08T12:36:00-08:00",
    "geom:area": 0,
    "geom:bbox": "-122.386166,37.616356,-122.386166,37.616356",
    "geom:latitude": 37.616356,
    "geom:longitude": -122.386166,
    "instagram:post": {
      "caption": {
        "body": "",
        "excerpt": "",
        "hashtags": [
          "SneakPeek"
        ],
        "users": []
      },
      "media_id": "821c138332c287afe65f784fc643e66d",
      "path": "media/other/12424485_552284031614532_702449600_n_17843926741109986.jpg",
      "perceptual_hash": "p:d32c21966c8fd62b",
      "taken": 1452285360,
      "taken_at": "Jan 08, 2016 8:36 pm"
    },
    "millsfield:similar": {
      "google/siglip2-so400m-patch16-naflex": [
        {
          "distance": 0.27516400814056396,
          "id": 1729358119
        },
        {
          "distance": 0.2785651683807373,
          "id": 1729360363
        },
        {
          "distance": 0.2797970175743103,
          "id": 1729356847
        },
        {
          "distance": 0.281826376914978,
          "id": 1763559661
        },
        {
          "distance": 0.28749001026153564,
          "id": 1729358119
        },
        {
          "distance": 0.29129743576049805,
          "id": 1729356847
        },
        {
          "distance": 0.30778592824935913,
          "id": 1729360363
        },
        {
          "distance": 0.30843597650527954,
          "id": 1880151139
        },
        {
          "distance": 0.3139498829841614,
          "id": 1729357391
        },
        {
          "distance": 0.3237854242324829,
          "id": 1763559033
        }
      ]
    },
    "sfomuseum:placetype": "instagram",
    "src:geom": "sfomuseum",
    "wof:belongsto": [
      1159160869,
      102527513,
      102191575,
      85633793,
      102087579,
      85922583,
      85688637
    ],
    "wof:country": "US",
    "wof:created": 1452285360,
    "wof:geomhash": "b6e33f47475d56bc8da457bc31afadc8",
    "wof:hierarchy": [
      {
        "building_id": 1159160869,
        "campus_id": 102527513,
        "continent_id": 102191575,
        "country_id": 85633793,
        "county_id": 102087579,
        "custom_id": 1729361199,
        "instagram_id": 1729361199,
        "locality_id": 85922583,
        "neighbourhood_id": -1,
        "region_id": 85688637
      }
    ],
    "wof:id": 1729361199,
    "wof:lastmodified": 1787777645,
    "wof:name": "..",
    "wof:parent_id": 1159160869,
    "wof:placetype": "custom",
    "wof:placetype_alt": [
      "instagram"
    ],
    "wof:repo": "sfomuseum-data-socialmedia-instagram",
    "wof:superseded_by": [],
    "wof:supersedes": []
  },
  "bbox": [
    -122.386166,
    37.616356,
    -122.386166,
    37.616356
  ],
  "geometry": {"type":"Point","coordinates":[-122.386166,37.616356]}
}
