{
  "id": 1880151617,
  "type": "Feature",
  "properties": {
    "date:cessation_lower": "2022-06-30",
    "date:cessation_upper": "2022-06-30",
    "date:inception_lower": "2022-06-30",
    "date:inception_upper": "2022-06-30",
    "edtf:cessation": "2022-06-30T09:10:00-07:00",
    "edtf:inception": "2022-06-30T09:10:00-07:00",
    "geom:area": 0,
    "geom:bbox": "-122.386166,37.616356,-122.386166,37.616356",
    "geom:latitude": 37.616356,
    "geom:longitude": -122.386166,
    "instagram:post": {
      "caption": {
        "body": "Founded by Colonel Louis Brittin in 1926, Northwest Airways, was established to fulfill Contract Air Mail Route #9 between Chicago and Minneapolis/St. Paul, the Twin Cities.  Flying open-cockpit rented biplanes for the first few months, the airline eventually acquired four Stinson Detroiters for passenger use. The 1930s saw the company expand service westward from its Twin Cities base, and service to Seattle was flown by 1933. A year later, the airline was renamed Northwest Airlines and acquired the Lockheed 10-A Electra.  Following a war time assignment in Alaska, Northwest used their experience in the territory to open transpacific service to Asia via Alaska in 1947. As aircraft often encountered harsh weather conditions when flying the Great Circle route through the Arctic, the company began to paint their aircraft's tail bright red. With this transpacific expansion, the company rebranded itself as Northwest Orient Airlines.   Entering the jet age, the company purchased Douglas DC-8s, Boeing 720s, and Boeing 707-320s. After merging with Republic Airlines in 1986, the company dropped Orient from their branding. Due to rising fuel costs, industry overcapacity, and traffic downturn, the company had a rough start to the 1990s. Increased competition and labor costs in the 2000s caused the airline filed for bankruptcy protection in 2005. In 2008, the company merged with Delta Airlines to form the world's largest airline.",
        "excerpt": "Founded by Colonel Louis Brittin in 1926, Northwest Airways, was established to fulfill Contract Air Mail Route #9 between Chicago and Minneapolis/St.",
        "hashtags": [
          "DefunctThursday",
          "AvGeek",
          "AviationHistory",
          "NorthwestAirlines",
          "NorthwestOrient"
        ],
        "users": []
      },
      "media_id": "821c77b48e181fae1a891e32afa15c259fbf07fc",
      "path": "media/posts/202206/291177714_597521238640050_8882330659647476323_n_18006033385441044.jpg",
      "perceptual_hash": "p:83f0fc4af3056c3a",
      "taken": 1656605400,
      "taken_at": "Jun 30, 2022 4:10 pm"
    },
    "millsfield:similar": {
      "google/siglip2-so400m-patch16-naflex": [
        {
          "distance": 0.15685880184173584,
          "id": 1880151233
        },
        {
          "distance": 0.18976479768753052,
          "id": 1880151717
        },
        {
          "distance": 0.21220237016677856,
          "id": 1880151233
        },
        {
          "distance": 0.21463650465011597,
          "id": 1880151717
        },
        {
          "distance": 0.24456185102462769,
          "id": 1880151005
        },
        {
          "distance": 0.2490464448928833,
          "id": 1763559453
        },
        {
          "distance": 0.25474441051483154,
          "id": 1763559389
        },
        {
          "distance": 0.25923776626586914,
          "id": 1729358785
        },
        {
          "distance": 0.25988298654556274,
          "id": 1729361413
        },
        {
          "distance": 0.26416903734207153,
          "id": 1763559389
        }
      ]
    },
    "sfomuseum:placetype": "instagram",
    "src:geom": "sfomuseum",
    "wof:belongsto": [
      1159160869,
      102527513,
      102191575,
      85633793,
      102087579,
      85922583,
      85688637
    ],
    "wof:country": "US",
    "wof:created": 1656605400,
    "wof:geomhash": "b6e33f47475d56bc8da457bc31afadc8",
    "wof:hierarchy": [
      {
        "building_id": 1159160869,
        "campus_id": 102527513,
        "continent_id": 102191575,
        "country_id": 85633793,
        "county_id": 102087579,
        "custom_id": 1880151617,
        "instagram_id": 1880151617,
        "locality_id": 85922583,
        "neighbourhood_id": -1,
        "region_id": 85688637
      }
    ],
    "wof:id": 1880151617,
    "wof:lastmodified": 1787777662,
    "wof:name": "Founded by Colonel Louis Brittin in 1926, Northwest Airways, was established to fulfill Contract Air Mail Route #9 between Chicago and Minneapolis/St...",
    "wof:parent_id": 1159160869,
    "wof:placetype": "custom",
    "wof:placetype_alt": [
      "instagram"
    ],
    "wof:repo": "sfomuseum-data-socialmedia-instagram",
    "wof:superseded_by": [],
    "wof:supersedes": []
  },
  "bbox": [
    -122.386166,
    37.616356,
    -122.386166,
    37.616356
  ],
  "geometry": {"type":"Point","coordinates":[-122.386166,37.616356]}
}
