{
  "id": 1729362739,
  "type": "Feature",
  "properties": {
    "date:cessation_lower": "2013-04-17",
    "date:cessation_upper": "2013-04-17",
    "date:inception_lower": "2013-04-17",
    "date:inception_upper": "2013-04-17",
    "edtf:cessation": "2013-04-17T08:03:00-07:00",
    "edtf:inception": "2013-04-17T08:03:00-07:00",
    "geom:area": 0,
    "geom:bbox": "-122.386166,37.616356,-122.386166,37.616356",
    "geom:latitude": 37.616356,
    "geom:longitude": -122.386166,
    "instagram:post": {
      "caption": {
        "body": "Made from discarded metal siding, Gaza Bowen's 'Cryptotomes' was a continuation of her earlier 'Bibliotheca Memoria,' an entire \"library\" made from scavenged materials.",
        "excerpt": "Made from discarded metal siding, Gaza Bowen's 'Cryptotomes' was a continuation of her earlier 'Bibliotheca Memoria,' an entire \"library\" made from scavenged materials.",
        "hashtags": [],
        "users": []
      },
      "media_id": "43080f59ec73bad2c9069f3b02515633",
      "path": "media/other/11312273_1505079136414076_630397536_n_17842315894062499.jpg",
      "perceptual_hash": "p:ab629569d4e5d434",
      "taken": 1366210980,
      "taken_at": "Apr 17, 2013 3:03 pm"
    },
    "millsfield:similar": {
      "google/siglip2-so400m-patch16-naflex": [
        {
          "distance": 0.22932332754135132,
          "id": 1729362371
        },
        {
          "distance": 0.2770828604698181,
          "id": 1729361285
        },
        {
          "distance": 0.28748196363449097,
          "id": 1729362647
        },
        {
          "distance": 0.2876562476158142,
          "id": 1729362903
        },
        {
          "distance": 0.2916417717933655,
          "id": 1729362371
        },
        {
          "distance": 0.29984933137893677,
          "id": 1729362579
        },
        {
          "distance": 0.2999774217605591,
          "id": 1729362799
        },
        {
          "distance": 0.3065779209136963,
          "id": 1729356635
        },
        {
          "distance": 0.3069823980331421,
          "id": 1729362175
        },
        {
          "distance": 0.3105303645133972,
          "id": 1729362903
        }
      ]
    },
    "sfomuseum:placetype": "instagram",
    "src:geom": "sfomuseum",
    "wof:belongsto": [
      1159160869,
      102527513,
      102191575,
      85633793,
      102087579,
      85922583,
      85688637
    ],
    "wof:country": "US",
    "wof:created": 1366210980,
    "wof:geomhash": "b6e33f47475d56bc8da457bc31afadc8",
    "wof:hierarchy": [
      {
        "building_id": 1159160869,
        "campus_id": 102527513,
        "continent_id": 102191575,
        "country_id": 85633793,
        "county_id": 102087579,
        "custom_id": 1729362739,
        "instagram_id": 1729362739,
        "locality_id": 85922583,
        "neighbourhood_id": -1,
        "region_id": 85688637
      }
    ],
    "wof:id": 1729362739,
    "wof:lastmodified": 1787777647,
    "wof:name": "Made from discarded metal siding, Gaza Bowen's 'Cryptotomes' was a continuation of her earlier 'Bibliotheca Memoria,' an entire \"library\" made from scavenged materials...",
    "wof:parent_id": 1159160869,
    "wof:placetype": "custom",
    "wof:placetype_alt": [
      "instagram"
    ],
    "wof:repo": "sfomuseum-data-socialmedia-instagram",
    "wof:superseded_by": [],
    "wof:supersedes": []
  },
  "bbox": [
    -122.386166,
    37.616356,
    -122.386166,
    37.616356
  ],
  "geometry": {"type":"Point","coordinates":[-122.386166,37.616356]}
}
