{
  "id": 1729361219,
  "type": "Feature",
  "properties": {
    "date:cessation_lower": "2015-12-30",
    "date:cessation_upper": "2015-12-30",
    "date:inception_lower": "2015-12-30",
    "date:inception_upper": "2015-12-30",
    "edtf:cessation": "2015-12-30T03:25:00-08:00",
    "edtf:inception": "2015-12-30T03:25:00-08:00",
    "geom:area": 0,
    "geom:bbox": "-122.386166,37.616356,-122.386166,37.616356",
    "geom:latitude": 37.616356,
    "geom:longitude": -122.386166,
    "instagram:post": {
      "caption": {
        "body": "In 1939, a World’s Fair was hosted by San Francisco. The Golden Gate International Exposition opened on February 1939 and ran until November 1939. The fair opened again in 1940 from May to September. Treasure Island, located in the middle of the San Francisco Bay, was constructed for the 1939–40 Golden Gate International Exposition. Held in the middle of the San Francisco Bay, the island’s location increased the spectacle of the fair, and people came from around the world to celebrate Pacific trade and the completion of the Golden Gate and San Francisco–Oakland Bay bridges.",
        "excerpt": "In 1939, a World’s Fair was hosted by San Francisco.",
        "hashtags": [],
        "users": []
      },
      "media_id": "1f80d47cbad39ca82ef5cfb445687740",
      "path": "media/other/12357657_1125787897433970_50732196_n_17844598012076142.jpg",
      "perceptual_hash": "p:e6c20e3db190ce6e",
      "taken": 1451474700,
      "taken_at": "Dec 30, 2015 11:25 am"
    },
    "millsfield:similar": {
      "google/siglip2-so400m-patch16-naflex": [
        {
          "distance": 0.17739832401275635,
          "id": 1729361071
        },
        {
          "distance": 0.20670795440673828,
          "id": 1729361305
        },
        {
          "distance": 0.21532803773880005,
          "id": 1729361305
        },
        {
          "distance": 0.24872738122940063,
          "id": 1729361289
        },
        {
          "distance": 0.2490389347076416,
          "id": 1729358179
        },
        {
          "distance": 0.2507385015487671,
          "id": 1729359229
        },
        {
          "distance": 0.2510284185409546,
          "id": 1729358179
        },
        {
          "distance": 0.2517717480659485,
          "id": 1763559173
        },
        {
          "distance": 0.25630468130111694,
          "id": 1729361071
        },
        {
          "distance": 0.2565481662750244,
          "id": 1729357225
        }
      ]
    },
    "sfomuseum:placetype": "instagram",
    "src:geom": "sfomuseum",
    "wof:belongsto": [
      1159160869,
      102527513,
      102191575,
      85633793,
      102087579,
      85922583,
      85688637
    ],
    "wof:country": "US",
    "wof:created": 1451474700,
    "wof:geomhash": "b6e33f47475d56bc8da457bc31afadc8",
    "wof:hierarchy": [
      {
        "building_id": 1159160869,
        "campus_id": 102527513,
        "continent_id": 102191575,
        "country_id": 85633793,
        "county_id": 102087579,
        "custom_id": 1729361219,
        "instagram_id": 1729361219,
        "locality_id": 85922583,
        "neighbourhood_id": -1,
        "region_id": 85688637
      }
    ],
    "wof:id": 1729361219,
    "wof:lastmodified": 1787777645,
    "wof:name": "In 1939, a World’s Fair was hosted by San Francisco...",
    "wof:parent_id": 1159160869,
    "wof:placetype": "custom",
    "wof:placetype_alt": [
      "instagram"
    ],
    "wof:repo": "sfomuseum-data-socialmedia-instagram",
    "wof:superseded_by": [],
    "wof:supersedes": []
  },
  "bbox": [
    -122.386166,
    37.616356,
    -122.386166,
    37.616356
  ],
  "geometry": {"type":"Point","coordinates":[-122.386166,37.616356]}
}
