{
  "id": 1729359379,
  "type": "Feature",
  "properties": {
    "date:cessation_lower": "2017-06-26",
    "date:cessation_upper": "2017-06-26",
    "date:inception_lower": "2017-06-26",
    "date:inception_upper": "2017-06-26",
    "edtf:cessation": "2017-06-26T04:16:00-07:00",
    "edtf:inception": "2017-06-26T04:16:00-07:00",
    "geom:area": 0,
    "geom:bbox": "-122.386166,37.616356,-122.386166,37.616356",
    "geom:latitude": 37.616356,
    "geom:longitude": -122.386166,
    "instagram:post": {
      "caption": {
        "body": "",
        "excerpt": "",
        "hashtags": [
          "behindthescenes",
          "museummonday"
        ],
        "users": []
      },
      "media_id": "50ab83873e95e5899865d5a4e01893b2",
      "path": "media/posts/201706/19533929_136831670228142_5552823802359971840_n_17860864684177858.jpg",
      "perceptual_hash": "p:98a36cbcb1d98cac",
      "taken": 1498475760,
      "taken_at": "Jun 26, 2017 11:16 am"
    },
    "millsfield:similar": {
      "google/siglip2-so400m-patch16-naflex": [
        {
          "distance": 0.1968439221382141,
          "id": 1729356249
        },
        {
          "distance": 0.20240873098373413,
          "id": 1729356249
        },
        {
          "distance": 0.21110641956329346,
          "id": 1729359123
        },
        {
          "distance": 0.21846431493759155,
          "id": 1729359123
        },
        {
          "distance": 0.25047844648361206,
          "id": 1729363037
        },
        {
          "distance": 0.2508653998374939,
          "id": 1729363037
        },
        {
          "distance": 0.26462191343307495,
          "id": 1880151335
        },
        {
          "distance": 0.26680296659469604,
          "id": 1729361743
        },
        {
          "distance": 0.26863032579421997,
          "id": 1729360393
        },
        {
          "distance": 0.27413123846054077,
          "id": 1729360393
        }
      ]
    },
    "sfomuseum:placetype": "instagram",
    "src:geom": "sfomuseum",
    "wof:belongsto": [
      1159160869,
      102527513,
      102191575,
      85633793,
      102087579,
      85922583,
      85688637
    ],
    "wof:country": "US",
    "wof:created": 1498475760,
    "wof:geomhash": "b6e33f47475d56bc8da457bc31afadc8",
    "wof:hierarchy": [
      {
        "building_id": 1159160869,
        "campus_id": 102527513,
        "continent_id": 102191575,
        "country_id": 85633793,
        "county_id": 102087579,
        "custom_id": 1729359379,
        "instagram_id": 1729359379,
        "locality_id": 85922583,
        "neighbourhood_id": -1,
        "region_id": 85688637
      }
    ],
    "wof:id": 1729359379,
    "wof:lastmodified": 1787777635,
    "wof:name": "..",
    "wof:parent_id": 1159160869,
    "wof:placetype": "custom",
    "wof:placetype_alt": [
      "instagram"
    ],
    "wof:repo": "sfomuseum-data-socialmedia-instagram",
    "wof:superseded_by": [],
    "wof:supersedes": []
  },
  "bbox": [
    -122.386166,
    37.616356,
    -122.386166,
    37.616356
  ],
  "geometry": {"type":"Point","coordinates":[-122.386166,37.616356]}
}
