{
  "id": 1729361947,
  "type": "Feature",
  "properties": {
    "date:cessation_lower": "2015-01-27",
    "date:cessation_upper": "2015-01-27",
    "date:inception_lower": "2015-01-27",
    "date:inception_upper": "2015-01-27",
    "edtf:cessation": "2015-01-27T04:05:00-08:00",
    "edtf:inception": "2015-01-27T04:05:00-08:00",
    "geom:area": 0,
    "geom:bbox": "-122.386166,37.616356,-122.386166,37.616356",
    "geom:latitude": 37.616356,
    "geom:longitude": -122.386166,
    "instagram:post": {
      "caption": {
        "body": "",
        "excerpt": "",
        "hashtags": [
          "EgyptianRevival"
        ],
        "users": []
      },
      "media_id": "2d08f932bb4ac44a0bed0af660841f0d",
      "path": "media/other/10946433_1547436545496860_2084078230_n_17841744160062499.jpg",
      "perceptual_hash": "p:fb62c198844b9d9d",
      "taken": 1422360300,
      "taken_at": "Jan 27, 2015 12:05 pm"
    },
    "millsfield:similar": {
      "google/siglip2-so400m-patch16-naflex": [
        {
          "distance": 0.3138158917427063,
          "id": 1729357791
        },
        {
          "distance": 0.3198712468147278,
          "id": 1729358693
        },
        {
          "distance": 0.3371284008026123,
          "id": 1947424943
        },
        {
          "distance": 0.34034252166748047,
          "id": 1880151493
        },
        {
          "distance": 0.3412131071090698,
          "id": 1880151143
        },
        {
          "distance": 0.3438071012496948,
          "id": 1729361821
        },
        {
          "distance": 0.34389060735702515,
          "id": 1947424881
        },
        {
          "distance": 0.3447575569152832,
          "id": 1947424845
        },
        {
          "distance": 0.3447575569152832,
          "id": 1947424837
        },
        {
          "distance": 0.35067451000213623,
          "id": 1729356095
        }
      ]
    },
    "sfomuseum:placetype": "instagram",
    "src:geom": "sfomuseum",
    "wof:belongsto": [
      1159160869,
      102527513,
      102191575,
      85633793,
      102087579,
      85922583,
      85688637
    ],
    "wof:country": "US",
    "wof:created": 1422360300,
    "wof:geomhash": "b6e33f47475d56bc8da457bc31afadc8",
    "wof:hierarchy": [
      {
        "building_id": 1159160869,
        "campus_id": 102527513,
        "continent_id": 102191575,
        "country_id": 85633793,
        "county_id": 102087579,
        "custom_id": 1729361947,
        "instagram_id": 1729361947,
        "locality_id": 85922583,
        "neighbourhood_id": -1,
        "region_id": 85688637
      }
    ],
    "wof:id": 1729361947,
    "wof:lastmodified": 1787777646,
    "wof:name": "..",
    "wof:parent_id": 1159160869,
    "wof:placetype": "custom",
    "wof:placetype_alt": [
      "instagram"
    ],
    "wof:repo": "sfomuseum-data-socialmedia-instagram",
    "wof:superseded_by": [],
    "wof:supersedes": []
  },
  "bbox": [
    -122.386166,
    37.616356,
    -122.386166,
    37.616356
  ],
  "geometry": {"type":"Point","coordinates":[-122.386166,37.616356]}
}
