{
  "id": 1763558981,
  "type": "Feature",
  "properties": {
    "date:cessation_lower": "2020-11-25",
    "date:cessation_upper": "2020-11-25",
    "date:inception_lower": "2020-11-25",
    "date:inception_upper": "2020-11-25",
    "edtf:cessation": "2020-11-25T07:10:00-08:00",
    "edtf:inception": "2020-11-25T07:10:00-08:00",
    "geom:area": 0,
    "geom:bbox": "-122.386166,37.616356,-122.386166,37.616356",
    "geom:latitude": 37.616356,
    "geom:longitude": -122.386166,
    "instagram:post": {
      "caption": {
        "body": "Happy Thanksgiving! What are you grateful for during this challenging year?  Image: Pan American World Airways menu, Thanksgiving, 1983. Gift of Angela Ausman. 2015.045.111",
        "excerpt": "Happy Thanksgiving!",
        "hashtags": [
          "avgeek",
          "MuseumFromHome"
        ],
        "users": []
      },
      "media_id": "5692474372d46e87c634fc054f375abe6c566d1c",
      "path": "media/other/127259081_416171746457277_876274700743841315_n_17861133452276400.jpg",
      "perceptual_hash": "p:bfc0501fc63925ce",
      "taken": 1606317000,
      "taken_at": "Nov 25, 2020 3:10 pm"
    },
    "millsfield:similar": {
      "google/siglip2-so400m-patch16-naflex": [
        {
          "distance": 0.041203200817108154,
          "id": 1729357329
        },
        {
          "distance": 0.1276671290397644,
          "id": 1729357329
        },
        {
          "distance": 0.3216128349304199,
          "id": 1729358881
        },
        {
          "distance": 0.34050458669662476,
          "id": 1729360075
        },
        {
          "distance": 0.3567157983779907,
          "id": 1729358881
        },
        {
          "distance": 0.3593384623527527,
          "id": 1729360075
        },
        {
          "distance": 0.3650561571121216,
          "id": 1729356139
        },
        {
          "distance": 0.38166284561157227,
          "id": 1729358909
        },
        {
          "distance": 0.3938831686973572,
          "id": 1729358909
        },
        {
          "distance": 0.4151608943939209,
          "id": 1729360695
        }
      ]
    },
    "sfomuseum:placetype": "instagram",
    "src:geom": "sfomuseum",
    "wof:belongsto": [
      1159160869,
      102527513,
      102191575,
      85633793,
      102087579,
      85922583,
      85688637
    ],
    "wof:country": "US",
    "wof:created": 1606317000,
    "wof:geomhash": "b6e33f47475d56bc8da457bc31afadc8",
    "wof:hierarchy": [
      {
        "building_id": 1159160869,
        "campus_id": 102527513,
        "continent_id": 102191575,
        "country_id": 85633793,
        "county_id": 102087579,
        "custom_id": 1763558981,
        "instagram_id": 1763558981,
        "locality_id": 85922583,
        "neighbourhood_id": -1,
        "region_id": 85688637
      }
    ],
    "wof:id": 1763558981,
    "wof:lastmodified": 1787777660,
    "wof:name": "Happy Thanksgiving!..",
    "wof:parent_id": 1159160869,
    "wof:placetype": "custom",
    "wof:placetype_alt": [
      "instagram"
    ],
    "wof:repo": "sfomuseum-data-socialmedia-instagram",
    "wof:superseded_by": [],
    "wof:supersedes": []
  },
  "bbox": [
    -122.386166,
    37.616356,
    -122.386166,
    37.616356
  ],
  "geometry": {"type":"Point","coordinates":[-122.386166,37.616356]}
}
