{
  "id": 1729355847,
  "type": "Feature",
  "properties": {
    "date:cessation_lower": "2019-11-27",
    "date:cessation_upper": "2019-11-27",
    "date:inception_lower": "2019-11-27",
    "date:inception_upper": "2019-11-27",
    "edtf:cessation": "2019-11-26T17:02:19-08:00",
    "edtf:inception": "2019-11-26T17:02:19-08:00",
    "geom:area": 0,
    "geom:bbox": "-122.386166,37.616356,-122.386166,37.616356",
    "geom:latitude": 37.616356,
    "geom:longitude": -122.386166,
    "instagram:post": {
      "caption": {
        "body": "BOAC (British Overseas Airways Corporation) launched Boeing 747 widebody transatlantic service in April 1971 between London and New York. The 747 offered the airline a far more comfortable, roomy, and luxurious option compared to the narrow-body Vickers VC10, which had been in service since 1964. It also had a capacity that was more than double that of the VC10 or the Boeing 707. This was particularly important for the high demand in seats during the summer tourist season. In an advertisement, BOAC proclaimed, “you will hardly believe you're in an aircraft” and described the jumbojet’s interior as “very like a cinema auditorium,” yet with larger seats and superior food. The airline also touted the unique upstairs first-class lounge. Did you ever fly on a BOAC 747? “Widebody: The Launch of the Jumbojets in the Early 1970s” is on display, pre-security, in the Aviation Museum and Library. http://bit.ly/WidebodyAV",
        "excerpt": "BOAC (British Overseas Airways Corporation) launched Boeing 747 widebody transatlantic service in April 1971 between London and New York.",
        "hashtags": [
          "WidebodyAV",
          "avgeek",
          "jumbojet",
          "jetage",
          "modelairplane",
          "BOAC",
          "747"
        ],
        "users": []
      },
      "location": "",
      "media_id": "1451be41537ece5229db184c00fd7a02",
      "path": "photos/201911/1451be41537ece5229db184c00fd7a02.jpg",
      "perceptual_hash": "p:8af0652dd452b72d",
      "taken": 1574787720,
      "taken_at": "Nov 26, 2019, 5:02 PM"
    },
    "millsfield:similar": {
      "google/siglip2-so400m-patch16-naflex": [
        {
          "distance": 0.1477397084236145,
          "id": 1729360353
        },
        {
          "distance": 0.15327072143554688,
          "id": 1729356121
        },
        {
          "distance": 0.15662920475006104,
          "id": 1729360209
        },
        {
          "distance": 0.17011845111846924,
          "id": 1729357689
        },
        {
          "distance": 0.1701614260673523,
          "id": 1729355417
        },
        {
          "distance": 0.173090398311615,
          "id": 1763559461
        },
        {
          "distance": 0.17447668313980103,
          "id": 1763558957
        },
        {
          "distance": 0.17534995079040527,
          "id": 1763559461
        },
        {
          "distance": 0.17624229192733765,
          "id": 1729356121
        },
        {
          "distance": 0.17978185415267944,
          "id": 1729358921
        }
      ]
    },
    "sfomuseum:placetype": "instagram",
    "src:geom": "sfomuseum",
    "wof:belongsto": [
      1159160869,
      102527513,
      102191575,
      85633793,
      102087579,
      85922583,
      85688637
    ],
    "wof:country": "US",
    "wof:created": 1574816539,
    "wof:geomhash": "b6e33f47475d56bc8da457bc31afadc8",
    "wof:hierarchy": [
      {
        "building_id": 1159160869,
        "campus_id": 102527513,
        "continent_id": 102191575,
        "country_id": 85633793,
        "county_id": 102087579,
        "custom_id": 1729355847,
        "instagram_id": 1729355847,
        "locality_id": 85922583,
        "neighbourhood_id": -1,
        "region_id": 85688637
      }
    ],
    "wof:id": 1729355847,
    "wof:lastmodified": 1787777627,
    "wof:name": "BOAC (British Overseas Airways Corporation) launched Boeing 747 widebody transatlantic service in April 1971 between London and New York...",
    "wof:parent_id": 1159160869,
    "wof:placetype": "custom",
    "wof:placetype_alt": [
      "instagram"
    ],
    "wof:repo": "sfomuseum-data-socialmedia-instagram",
    "wof:superseded_by": [],
    "wof:supersedes": []
  },
  "bbox": [
    -122.386166,
    37.616356,
    -122.386166,
    37.616356
  ],
  "geometry": {"type":"Point","coordinates":[-122.386166,37.616356]}
}
