{
  "id": 1729361969,
  "type": "Feature",
  "properties": {
    "date:cessation_lower": "2015-01-22",
    "date:cessation_upper": "2015-01-22",
    "date:inception_lower": "2015-01-22",
    "date:inception_upper": "2015-01-22",
    "edtf:cessation": "2015-01-22T08:33:00-08:00",
    "edtf:inception": "2015-01-22T08:33:00-08:00",
    "geom:area": 0,
    "geom:bbox": "-122.386166,37.616356,-122.386166,37.616356",
    "geom:latitude": 37.616356,
    "geom:longitude": -122.386166,
    "instagram:post": {
      "caption": {
        "body": "",
        "excerpt": "",
        "hashtags": [
          "WhenArtRocked",
          "WesWilson"
        ],
        "users": []
      },
      "media_id": "fbdbbfb9c9592234b7271e093c51e292",
      "path": "media/other/10950275_1545924422341504_978618244_n_17843062993062499.jpg",
      "perceptual_hash": "p:86da3815a9985d77",
      "taken": 1421944380,
      "taken_at": "Jan 22, 2015 4:33 pm"
    },
    "millsfield:similar": {
      "google/siglip2-so400m-patch16-naflex": [
        {
          "distance": 0.09403097629547119,
          "id": 1729361885
        },
        {
          "distance": 0.10663259029388428,
          "id": 1729362047
        },
        {
          "distance": 0.11816549301147461,
          "id": 1729362019
        },
        {
          "distance": 0.12275123596191406,
          "id": 1729362115
        },
        {
          "distance": 0.142822265625,
          "id": 1729362047
        },
        {
          "distance": 0.15699702501296997,
          "id": 1729361885
        },
        {
          "distance": 0.16966259479522705,
          "id": 1729362115
        },
        {
          "distance": 0.17557626962661743,
          "id": 1729362181
        },
        {
          "distance": 0.17664939165115356,
          "id": 1729362001
        },
        {
          "distance": 0.18949294090270996,
          "id": 1729362019
        }
      ]
    },
    "sfomuseum:placetype": "instagram",
    "src:geom": "sfomuseum",
    "wof:belongsto": [
      1159160869,
      102527513,
      102191575,
      85633793,
      102087579,
      85922583,
      85688637
    ],
    "wof:country": "US",
    "wof:created": 1421944380,
    "wof:geomhash": "b6e33f47475d56bc8da457bc31afadc8",
    "wof:hierarchy": [
      {
        "building_id": 1159160869,
        "campus_id": 102527513,
        "continent_id": 102191575,
        "country_id": 85633793,
        "county_id": 102087579,
        "custom_id": 1729361969,
        "instagram_id": 1729361969,
        "locality_id": 85922583,
        "neighbourhood_id": -1,
        "region_id": 85688637
      }
    ],
    "wof:id": 1729361969,
    "wof:lastmodified": 1787777646,
    "wof:name": "..",
    "wof:parent_id": 1159160869,
    "wof:placetype": "custom",
    "wof:placetype_alt": [
      "instagram"
    ],
    "wof:repo": "sfomuseum-data-socialmedia-instagram",
    "wof:superseded_by": [],
    "wof:supersedes": []
  },
  "bbox": [
    -122.386166,
    37.616356,
    -122.386166,
    37.616356
  ],
  "geometry": {"type":"Point","coordinates":[-122.386166,37.616356]}
}
