{
  "id": 1729360541,
  "type": "Feature",
  "properties": {
    "date:cessation_lower": "2016-07-13",
    "date:cessation_upper": "2016-07-13",
    "date:inception_lower": "2016-07-13",
    "date:inception_upper": "2016-07-13",
    "edtf:cessation": "2016-07-13T01:15:00-07:00",
    "edtf:inception": "2016-07-13T01:15:00-07:00",
    "geom:area": 0,
    "geom:bbox": "-122.386166,37.616356,-122.386166,37.616356",
    "geom:latitude": 37.616356,
    "geom:longitude": -122.386166,
    "instagram:post": {
      "caption": {
        "body": "",
        "excerpt": "",
        "hashtags": [
          "SFOHistory"
        ],
        "users": []
      },
      "media_id": "94929d173acc5a1f5177a019b7d274cb",
      "path": "media/other/13696620_212421275820558_580426735_n_17858851576023846.jpg",
      "perceptual_hash": "p:e5e3ac9786d21c83",
      "taken": 1468397700,
      "taken_at": "Jul 13, 2016 8:15 am"
    },
    "millsfield:similar": {
      "google/siglip2-so400m-patch16-naflex": [
        {
          "distance": 0.14843839406967163,
          "id": 1729360429
        },
        {
          "distance": 0.1495411992073059,
          "id": 1729361735
        },
        {
          "distance": 0.15736740827560425,
          "id": 1729355165
        },
        {
          "distance": 0.1605934500694275,
          "id": 1729356177
        },
        {
          "distance": 0.16294246912002563,
          "id": 1729361465
        },
        {
          "distance": 0.17366009950637817,
          "id": 1729361085
        },
        {
          "distance": 0.17455130815505981,
          "id": 1729360259
        },
        {
          "distance": 0.174610435962677,
          "id": 1729355165
        },
        {
          "distance": 0.17467868328094482,
          "id": 1729361577
        },
        {
          "distance": 0.1776757836341858,
          "id": 1729357711
        }
      ]
    },
    "sfomuseum:placetype": "instagram",
    "src:geom": "sfomuseum",
    "wof:belongsto": [
      1159160869,
      102527513,
      102191575,
      85633793,
      102087579,
      85922583,
      85688637
    ],
    "wof:country": "US",
    "wof:created": 1468397700,
    "wof:geomhash": "b6e33f47475d56bc8da457bc31afadc8",
    "wof:hierarchy": [
      {
        "building_id": 1159160869,
        "campus_id": 102527513,
        "continent_id": 102191575,
        "country_id": 85633793,
        "county_id": 102087579,
        "custom_id": 1729360541,
        "instagram_id": 1729360541,
        "locality_id": 85922583,
        "neighbourhood_id": -1,
        "region_id": 85688637
      }
    ],
    "wof:id": 1729360541,
    "wof:lastmodified": 1787777640,
    "wof:name": "..",
    "wof:parent_id": 1159160869,
    "wof:placetype": "custom",
    "wof:placetype_alt": [
      "instagram"
    ],
    "wof:repo": "sfomuseum-data-socialmedia-instagram",
    "wof:superseded_by": [],
    "wof:supersedes": []
  },
  "bbox": [
    -122.386166,
    37.616356,
    -122.386166,
    37.616356
  ],
  "geometry": {"type":"Point","coordinates":[-122.386166,37.616356]}
}
