{
  "id": 1729359425,
  "type": "Feature",
  "properties": {
    "date:cessation_lower": "2017-06-09",
    "date:cessation_upper": "2017-06-09",
    "date:inception_lower": "2017-06-09",
    "date:inception_upper": "2017-06-09",
    "edtf:cessation": "2017-06-09T02:58:00-07:00",
    "edtf:inception": "2017-06-09T02:58:00-07:00",
    "geom:area": 0,
    "geom:bbox": "-122.386166,37.616356,-122.386166,37.616356",
    "geom:latitude": 37.616356,
    "geom:longitude": -122.386166,
    "instagram:post": {
      "caption": {
        "body": "Untitled (Large Variation) suggests movement and transformation through color, geometry, repetition, scale, and spatial illusion.  Ellingson’s practice is a synergy between digital media and the hand-made object.  Typically, she uses graphics software to create multilayered compositions of great complexity that are translated into physical form using traditional painting media. Here she has realized her virtual design as a mosaic mural of commanding physical presence. See \"Untitled (Large Variation)\" by Amy Ellingson, post-security, in Terminal 3. http://bit.ly/2rmovgZ",
        "excerpt": "Untitled (Large Variation) suggests movement and transformation through color, geometry, repetition, scale, and spatial illusion.",
        "hashtags": [
          "queerhistory",
          "queerart",
          "queerarthistory",
          "LGBTPrideMonth",
          "LGBT",
          "LGBTArtHistory",
          "publicart",
          "airportart",
          "amyellingson",
          "mosaic",
          "mural",
          "queerartist",
          "LGBTArtist",
          "Pride2017",
          "happypridemonth"
        ],
        "users": []
      },
      "media_id": "1630ecdd33383bc7fa23ea77574c1254",
      "path": "media/posts/201706/19051809_425147007847665_8658905758114512896_n_17870512621120141.jpg",
      "perceptual_hash": "p:80c7074f3e9d3a78",
      "taken": 1497002280,
      "taken_at": "Jun 09, 2017 9:58 am"
    },
    "millsfield:similar": {
      "google/siglip2-so400m-patch16-naflex": [
        {
          "distance": 0.12125134468078613,
          "id": 1729357097
        },
        {
          "distance": 0.15935742855072021,
          "id": 1880150891
        },
        {
          "distance": 0.1601911187171936,
          "id": 1729357895
        },
        {
          "distance": 0.16039901971817017,
          "id": 1729356549
        },
        {
          "distance": 0.16999834775924683,
          "id": 1729356263
        },
        {
          "distance": 0.17419689893722534,
          "id": 1729356811
        },
        {
          "distance": 0.17608743906021118,
          "id": 1729356263
        },
        {
          "distance": 0.18423080444335938,
          "id": 1729356547
        },
        {
          "distance": 0.18602484464645386,
          "id": 1729359363
        },
        {
          "distance": 0.19131380319595337,
          "id": 1880151091
        }
      ]
    },
    "sfomuseum:placetype": "instagram",
    "src:geom": "sfomuseum",
    "wof:belongsto": [
      1159160869,
      102527513,
      102191575,
      85633793,
      102087579,
      85922583,
      85688637
    ],
    "wof:country": "US",
    "wof:created": 1497002280,
    "wof:geomhash": "b6e33f47475d56bc8da457bc31afadc8",
    "wof:hierarchy": [
      {
        "building_id": 1159160869,
        "campus_id": 102527513,
        "continent_id": 102191575,
        "country_id": 85633793,
        "county_id": 102087579,
        "custom_id": 1729359425,
        "instagram_id": 1729359425,
        "locality_id": 85922583,
        "neighbourhood_id": -1,
        "region_id": 85688637
      }
    ],
    "wof:id": 1729359425,
    "wof:lastmodified": 1787777635,
    "wof:name": "Untitled (Large Variation) suggests movement and transformation through color, geometry, repetition, scale, and spatial illusion...",
    "wof:parent_id": 1159160869,
    "wof:placetype": "custom",
    "wof:placetype_alt": [
      "instagram"
    ],
    "wof:repo": "sfomuseum-data-socialmedia-instagram",
    "wof:superseded_by": [],
    "wof:supersedes": []
  },
  "bbox": [
    -122.386166,
    37.616356,
    -122.386166,
    37.616356
  ],
  "geometry": {"type":"Point","coordinates":[-122.386166,37.616356]}
}
