{
  "id": 1729355795,
  "type": "Feature",
  "properties": {
    "date:cessation_lower": "2019-12-09",
    "date:cessation_upper": "2019-12-09",
    "date:inception_lower": "2019-12-09",
    "date:inception_upper": "2019-12-09",
    "edtf:cessation": "2019-12-09T04:55:00-08:00",
    "edtf:inception": "2019-12-09T04:55:00-08:00",
    "geom:area": 0,
    "geom:bbox": "-122.386166,37.616356,-122.386166,37.616356",
    "geom:latitude": 37.616356,
    "geom:longitude": -122.386166,
    "instagram:post": {
      "caption": {
        "body": "This circa 1960 photograph shows several Boeing 707 jetliners in their introduction liveries. Which one is your favorite?  Image: Boeing 707 fleet, c. 1960. Gift of Robert W. Jackson. 2006.002.088",
        "excerpt": "This circa 1960 photograph shows several Boeing 707 jetliners in their introduction liveries.",
        "hashtags": [
          "Boeing",
          "707",
          "Boeing100",
          "1960s",
          "livery",
          "aviationhistory",
          "avgeek"
        ],
        "users": []
      },
      "media_id": "edab8182228408835167a76ce06cf64f",
      "path": "media/other/72708584_571865736717603_1797604170364350940_n_18032518726242233.jpg",
      "perceptual_hash": "p:89c27e3f9ec0e113",
      "taken": 1575896100,
      "taken_at": "Dec 09, 2019 12:55 pm"
    },
    "millsfield:similar": {
      "google/siglip2-so400m-patch16-naflex": [
        {
          "distance": 0.005174875259399414,
          "id": 1729360047
        },
        {
          "distance": 0.08429127931594849,
          "id": 1729360047
        },
        {
          "distance": 0.1643025279045105,
          "id": 1729359051
        },
        {
          "distance": 0.1710606813430786,
          "id": 1880151167
        },
        {
          "distance": 0.17415255308151245,
          "id": 1729358851
        },
        {
          "distance": 0.1796342134475708,
          "id": 1729355165
        },
        {
          "distance": 0.18153786659240723,
          "id": 1729357059
        },
        {
          "distance": 0.18503600358963013,
          "id": 1763558959
        },
        {
          "distance": 0.18611127138137817,
          "id": 1729358963
        },
        {
          "distance": 0.18993288278579712,
          "id": 1729358863
        }
      ]
    },
    "sfomuseum:placetype": "instagram",
    "src:geom": "sfomuseum",
    "wof:belongsto": [
      1159160869,
      102527513,
      102191575,
      85633793,
      102087579,
      85922583,
      85688637
    ],
    "wof:country": "US",
    "wof:created": 1575896100,
    "wof:geomhash": "b6e33f47475d56bc8da457bc31afadc8",
    "wof:hierarchy": [
      {
        "building_id": 1159160869,
        "campus_id": 102527513,
        "continent_id": 102191575,
        "country_id": 85633793,
        "county_id": 102087579,
        "custom_id": 1729355795,
        "instagram_id": 1729355795,
        "locality_id": 85922583,
        "neighbourhood_id": -1,
        "region_id": 85688637
      }
    ],
    "wof:id": 1729355795,
    "wof:lastmodified": 1787777627,
    "wof:name": "This circa 1960 photograph shows several Boeing 707 jetliners in their introduction liveries...",
    "wof:parent_id": 1159160869,
    "wof:placetype": "custom",
    "wof:placetype_alt": [
      "instagram"
    ],
    "wof:repo": "sfomuseum-data-socialmedia-instagram",
    "wof:superseded_by": [],
    "wof:supersedes": []
  },
  "bbox": [
    -122.386166,
    37.616356,
    -122.386166,
    37.616356
  ],
  "geometry": {"type":"Point","coordinates":[-122.386166,37.616356]}
}
