{
  "id": 1729356117,
  "type": "Feature",
  "properties": {
    "date:cessation_lower": "2019-09-10",
    "date:cessation_upper": "2019-09-10",
    "date:inception_lower": "2019-09-10",
    "date:inception_upper": "2019-09-10",
    "edtf:cessation": "2019-09-10T06:17:00-07:00",
    "edtf:inception": "2019-09-10T06:17:00-07:00",
    "geom:area": 0,
    "geom:bbox": "-122.386166,37.616356,-122.386166,37.616356",
    "geom:latitude": 37.616356,
    "geom:longitude": -122.386166,
    "instagram:post": {
      "caption": {
        "body": "Join us this Saturday at 12pm at the Aviation Museum for a book signing and lecture to accompany our exhibit \"#Zuber: The Art of French Scenic Wallpaper.\" To RSVP email us at curator@flysfo.com. Learn more on our website:  http://bit.ly/SFOMEvents",
        "excerpt": "Join us this Saturday at 12pm at the Aviation Museum for a book signing and lecture to accompany our exhibit \"#Zuber: The Art of French Scenic Wallpaper.\"",
        "hashtags": [],
        "users": []
      },
      "media_id": "d07f81cc5afefb7de01f488b7e4ec067",
      "path": "media/other/69781743_129869298333702_5642187105733786458_n_17863011817485348.jpg",
      "perceptual_hash": "p:cd86cb35e940ba74",
      "taken": 1568121420,
      "taken_at": "Sep 10, 2019 1:17 pm"
    },
    "millsfield:similar": {
      "google/siglip2-so400m-patch16-naflex": [
        {
          "distance": 0.2320692539215088,
          "id": 1729356199
        },
        {
          "distance": 0.23220372200012207,
          "id": 1729355719
        },
        {
          "distance": 0.2524862289428711,
          "id": 1729355719
        },
        {
          "distance": 0.25679850578308105,
          "id": 1729355591
        },
        {
          "distance": 0.27109581232070923,
          "id": 1729355591
        },
        {
          "distance": 0.28666460514068604,
          "id": 1763558877
        },
        {
          "distance": 0.3067644238471985,
          "id": 1729355727
        },
        {
          "distance": 0.31091147661209106,
          "id": 1729356199
        },
        {
          "distance": 0.31250935792922974,
          "id": 1729355721
        },
        {
          "distance": 0.3172122836112976,
          "id": 1729355741
        }
      ]
    },
    "sfomuseum:placetype": "instagram",
    "src:geom": "sfomuseum",
    "wof:belongsto": [
      1159160869,
      102527513,
      102191575,
      85633793,
      102087579,
      85922583,
      85688637
    ],
    "wof:country": "US",
    "wof:created": 1568121420,
    "wof:geomhash": "b6e33f47475d56bc8da457bc31afadc8",
    "wof:hierarchy": [
      {
        "building_id": 1159160869,
        "campus_id": 102527513,
        "continent_id": 102191575,
        "country_id": 85633793,
        "county_id": 102087579,
        "custom_id": 1729356117,
        "instagram_id": 1729356117,
        "locality_id": 85922583,
        "neighbourhood_id": -1,
        "region_id": 85688637
      }
    ],
    "wof:id": 1729356117,
    "wof:lastmodified": 1787777628,
    "wof:name": "Join us this Saturday at 12pm at the Aviation Museum for a book signing and lecture to accompany our exhibit \"#Zuber: The Art of French Scenic Wallpaper.\"..",
    "wof:parent_id": 1159160869,
    "wof:placetype": "custom",
    "wof:placetype_alt": [
      "instagram"
    ],
    "wof:repo": "sfomuseum-data-socialmedia-instagram",
    "wof:superseded_by": [],
    "wof:supersedes": []
  },
  "bbox": [
    -122.386166,
    37.616356,
    -122.386166,
    37.616356
  ],
  "geometry": {"type":"Point","coordinates":[-122.386166,37.616356]}
}
