{
  "id": 1729355965,
  "type": "Feature",
  "properties": {
    "date:cessation_lower": "2019-10-24",
    "date:cessation_upper": "2019-10-24",
    "date:inception_lower": "2019-10-24",
    "date:inception_upper": "2019-10-24",
    "edtf:cessation": "2019-10-23T18:04:12-07:00",
    "edtf:inception": "2019-10-23T18:04:12-07:00",
    "geom:area": 0,
    "geom:bbox": "-122.386166,37.616356,-122.386166,37.616356",
    "geom:latitude": 37.616356,
    "geom:longitude": -122.386166,
    "instagram:post": {
      "caption": {
        "body": "Zuber et Cie currently produces fourteen scenic wallpaper sets using original antique printing blocks. It often takes more than one thousand blocks to create a scenic paper set. For instance, if there are several colors on one leaf in a scenic paper, each color is applied with a separate woodblock by hand. Printing blocks were created in layers in order to prevent the blocks from warping. Whitewood or pine was used underneath, and sycamore or pear tree wood was preferred as the top carved layer due to the fineness of the grain. “Zuber: The Art of French Scenic Wallpaper” is on display, pre-security in the International Terminal. http://bit.ly/ZuberScenicWallpaper",
        "excerpt": "Zuber et Cie currently produces fourteen scenic wallpaper sets using original antique printing blocks.",
        "hashtags": [
          "ZuberScenicWallpaper",
          "wallpaper",
          "zuber",
          "scenicwallpaper",
          "interiordesign",
          "museum",
          "design"
        ],
        "users": [
          "ZuberOfficial"
        ]
      },
      "location": "",
      "media_id": "d3c153bbbae294f7888321d1a0dc617a",
      "path": "photos/201910/d3c153bbbae294f7888321d1a0dc617a.jpg",
      "perceptual_hash": "p:d6e29bcd9c02247e",
      "taken": 1571850240,
      "taken_at": "Oct 23, 2019, 5:04 PM"
    },
    "millsfield:similar": {
      "google/siglip2-so400m-patch16-naflex": [
        {
          "distance": 0.06772440671920776,
          "id": 1729356153
        },
        {
          "distance": 0.11519581079483032,
          "id": 1729356153
        },
        {
          "distance": 0.25737351179122925,
          "id": 1729355955
        },
        {
          "distance": 0.30730748176574707,
          "id": 1729355955
        },
        {
          "distance": 0.32762181758880615,
          "id": 1729355957
        },
        {
          "distance": 0.3477538228034973,
          "id": 1729356155
        },
        {
          "distance": 0.3490387201309204,
          "id": 1729360807
        },
        {
          "distance": 0.35451048612594604,
          "id": 1729357313
        },
        {
          "distance": 0.3549045920372009,
          "id": 1729356683
        },
        {
          "distance": 0.35719090700149536,
          "id": 1729359209
        }
      ]
    },
    "sfomuseum:placetype": "instagram",
    "src:geom": "sfomuseum",
    "wof:belongsto": [
      1159160869,
      102527513,
      102191575,
      85633793,
      102087579,
      85922583,
      85688637
    ],
    "wof:country": "US",
    "wof:created": 1571879052,
    "wof:geomhash": "b6e33f47475d56bc8da457bc31afadc8",
    "wof:hierarchy": [
      {
        "building_id": 1159160869,
        "campus_id": 102527513,
        "continent_id": 102191575,
        "country_id": 85633793,
        "county_id": 102087579,
        "custom_id": 1729355965,
        "instagram_id": 1729355965,
        "locality_id": 85922583,
        "neighbourhood_id": -1,
        "region_id": 85688637
      }
    ],
    "wof:id": 1729355965,
    "wof:lastmodified": 1787777627,
    "wof:name": "Zuber et Cie currently produces fourteen scenic wallpaper sets using original antique printing blocks...",
    "wof:parent_id": 1159160869,
    "wof:placetype": "custom",
    "wof:placetype_alt": [
      "instagram"
    ],
    "wof:repo": "sfomuseum-data-socialmedia-instagram",
    "wof:superseded_by": [],
    "wof:supersedes": []
  },
  "bbox": [
    -122.386166,
    37.616356,
    -122.386166,
    37.616356
  ],
  "geometry": {"type":"Point","coordinates":[-122.386166,37.616356]}
}
