{
  "id": 1729362693,
  "type": "Feature",
  "properties": {
    "date:cessation_lower": "2013-05-23",
    "date:cessation_upper": "2013-05-23",
    "date:inception_lower": "2013-05-23",
    "date:inception_upper": "2013-05-23",
    "edtf:cessation": "2013-05-23T06:34:00-07:00",
    "edtf:inception": "2013-05-23T06:34:00-07:00",
    "geom:area": 0,
    "geom:bbox": "-122.386166,37.616356,-122.386166,37.616356",
    "geom:latitude": 37.616356,
    "geom:longitude": -122.386166,
    "instagram:post": {
      "caption": {
        "body": "An eagle's head ornament from the barkentine, Charles F. Crocker (built in Alameda in 1890)",
        "excerpt": "An eagle's head ornament from the barkentine, Charles F. Crocker (built in Alameda in 1890)",
        "hashtags": [],
        "users": []
      },
      "media_id": "8fe571ab18dbc2ace55bae8ff7e0636f",
      "path": "media/other/11247742_817122858343011_1496607383_n_17842324927062499.jpg",
      "perceptual_hash": "p:9fd431316d899636",
      "taken": 1369316040,
      "taken_at": "May 23, 2013 1:34 pm"
    },
    "millsfield:similar": {
      "google/siglip2-so400m-patch16-naflex": [
        {
          "distance": 0.29044729471206665,
          "id": 1729362913
        },
        {
          "distance": 0.2971031069755554,
          "id": 1729362743
        },
        {
          "distance": 0.29893237352371216,
          "id": 1729362913
        },
        {
          "distance": 0.2992170453071594,
          "id": 1729362489
        },
        {
          "distance": 0.30171507596969604,
          "id": 1729362469
        },
        {
          "distance": 0.3031502366065979,
          "id": 1729362469
        },
        {
          "distance": 0.3045060634613037,
          "id": 1729362571
        },
        {
          "distance": 0.30490076541900635,
          "id": 1729362571
        },
        {
          "distance": 0.30737632513046265,
          "id": 1729362801
        },
        {
          "distance": 0.3076717257499695,
          "id": 1729361703
        }
      ]
    },
    "sfomuseum:placetype": "instagram",
    "src:geom": "sfomuseum",
    "wof:belongsto": [
      1159160869,
      102527513,
      102191575,
      85633793,
      102087579,
      85922583,
      85688637
    ],
    "wof:country": "US",
    "wof:created": 1369316040,
    "wof:geomhash": "b6e33f47475d56bc8da457bc31afadc8",
    "wof:hierarchy": [
      {
        "building_id": 1159160869,
        "campus_id": 102527513,
        "continent_id": 102191575,
        "country_id": 85633793,
        "county_id": 102087579,
        "custom_id": 1729362693,
        "instagram_id": 1729362693,
        "locality_id": 85922583,
        "neighbourhood_id": -1,
        "region_id": 85688637
      }
    ],
    "wof:id": 1729362693,
    "wof:lastmodified": 1787777647,
    "wof:name": "An eagle's head ornament from the barkentine, Charles F. Crocker (built in Alameda in 1890)..",
    "wof:parent_id": 1159160869,
    "wof:placetype": "custom",
    "wof:placetype_alt": [
      "instagram"
    ],
    "wof:repo": "sfomuseum-data-socialmedia-instagram",
    "wof:superseded_by": [],
    "wof:supersedes": []
  },
  "bbox": [
    -122.386166,
    37.616356,
    -122.386166,
    37.616356
  ],
  "geometry": {"type":"Point","coordinates":[-122.386166,37.616356]}
}
