{
  "id": 1729358377,
  "type": "Feature",
  "properties": {
    "date:cessation_lower": "2018-04-05",
    "date:cessation_upper": "2018-04-05",
    "date:inception_lower": "2018-04-05",
    "date:inception_upper": "2018-04-05",
    "edtf:cessation": "2018-04-05T09:53:38-07:00",
    "edtf:inception": "2018-04-05T09:53:38-07:00",
    "geom:area": 0,
    "geom:bbox": "-122.386166,37.616356,-122.386166,37.616356",
    "geom:latitude": 37.616356,
    "geom:longitude": -122.386166,
    "instagram:post": {
      "caption": {
        "body": "The de Havilland DH-60G Moth was a two-seat biplane of mostly wood construction, with a plywood covered fuselage and cloth covered wings. The Moth readily provided a small, moderately-priced, sturdy, easy to fly aircraft to the public. In 1930, the British aviator Amy Johnson flew the Moth G-AAAH solo from England to Australia. She was the first woman to accomplish this feat. As a result, she received the Harmon Trophy and was made Commander of the Most Excellent Order of the British Empire.  See \"Aviation Evolutions: The Jim Lund 1:72 Scale Model Airplane Collection\", which features more than 200 models, on display, pre-security, in the Aviation Museum. http://bit.ly/AviationEvolutions",
        "excerpt": "The de Havilland DH-60G Moth was a two-seat biplane of mostly wood construction, with a plywood covered fuselage and cloth covered wings.",
        "hashtags": [
          "AviationEvolutions",
          "womeninaviation",
          "JimLund",
          "avgeek",
          "avationgeek",
          "aviation",
          "aviationhistory",
          "aviationlovers",
          "vintageaviation",
          "history",
          "avhistory",
          "aviationgeeks",
          "modelplane",
          "flight",
          "avgeeks",
          "modelaircraft",
          "airplane",
          "aircraft",
          "dehavilland"
        ],
        "users": []
      },
      "location": "",
      "media_id": "7b0ffa7205b543db62475c243891cf64",
      "path": "photos/201804/7b0ffa7205b543db62475c243891cf64.jpg",
      "perceptual_hash": "p:aeca9d65621ac4cd",
      "taken": 1522918380,
      "taken_at": "Apr 5, 2018, 8:53 AM"
    },
    "millsfield:similar": {
      "google/siglip2-so400m-patch16-naflex": [
        {
          "distance": 0.014659225940704346,
          "id": 1729358035
        },
        {
          "distance": 0.015964806079864502,
          "id": 1729358391
        },
        {
          "distance": 0.03956198692321777,
          "id": 1763559047
        },
        {
          "distance": 0.06592833995819092,
          "id": 1729358381
        },
        {
          "distance": 0.08709937334060669,
          "id": 1729358391
        },
        {
          "distance": 0.08782202005386353,
          "id": 1729358041
        },
        {
          "distance": 0.08797430992126465,
          "id": 1729358035
        },
        {
          "distance": 0.09618872404098511,
          "id": 1763559047
        },
        {
          "distance": 0.10662204027175903,
          "id": 1729358381
        },
        {
          "distance": 0.15684717893600464,
          "id": 1729358041
        }
      ]
    },
    "sfomuseum:placetype": "instagram",
    "src:geom": "sfomuseum",
    "wof:belongsto": [
      1159160869,
      102527513,
      102191575,
      85633793,
      102087579,
      85922583,
      85688637
    ],
    "wof:country": "US",
    "wof:created": 1522947218,
    "wof:geomhash": "b6e33f47475d56bc8da457bc31afadc8",
    "wof:hierarchy": [
      {
        "building_id": 1159160869,
        "campus_id": 102527513,
        "continent_id": 102191575,
        "country_id": 85633793,
        "county_id": 102087579,
        "custom_id": 1729358377,
        "instagram_id": 1729358377,
        "locality_id": 85922583,
        "neighbourhood_id": -1,
        "region_id": 85688637
      }
    ],
    "wof:id": 1729358377,
    "wof:lastmodified": 1787777633,
    "wof:name": "The de Havilland DH-60G Moth was a two-seat biplane of mostly wood construction, with a plywood covered fuselage and cloth covered wings...",
    "wof:parent_id": 1159160869,
    "wof:placetype": "custom",
    "wof:placetype_alt": [
      "instagram"
    ],
    "wof:repo": "sfomuseum-data-socialmedia-instagram",
    "wof:superseded_by": [],
    "wof:supersedes": []
  },
  "bbox": [
    -122.386166,
    37.616356,
    -122.386166,
    37.616356
  ],
  "geometry": {"type":"Point","coordinates":[-122.386166,37.616356]}
}
