{
  "id": 1880151787,
  "type": "Feature",
  "properties": {
    "date:cessation_lower": "2022-04-25",
    "date:cessation_upper": "2022-04-25",
    "date:inception_lower": "2022-04-25",
    "date:inception_upper": "2022-04-25",
    "edtf:cessation": "2022-04-25T08:40:00-07:00",
    "edtf:inception": "2022-04-25T08:40:00-07:00",
    "geom:area": 0,
    "geom:bbox": "-122.386166,37.616356,-122.386166,37.616356",
    "geom:latitude": 37.616356,
    "geom:longitude": -122.386166,
    "instagram:post": {
      "caption": {
        "body": "Our “you collect what?” list is lengthy. Among the unexpected items are tray liners, which help to create the perfect place-setting for a meal service. Browse through over fifty of them on our collection website!  https://bit.ly/3Nflupv",
        "excerpt": "Our “you collect what?” list is lengthy.",
        "hashtags": [
          "collections",
          "trayliners",
          "design",
          "avgeek",
          "aviationhistory"
        ],
        "users": []
      },
      "media_id": "cce7c4fac5ea9976ba10e94321ea70d7c10cdfb1",
      "path": "media/other/279124765_1912363432486416_5501227891313684605_n_18290221651004693.jpg",
      "perceptual_hash": "p:9eb6c1c9c359b443",
      "taken": 1650901200,
      "taken_at": "Apr 25, 2022 3:40 pm"
    },
    "millsfield:similar": {
      "google/siglip2-so400m-patch16-naflex": [
        {
          "distance": 0.24477821588516235,
          "id": 1729355469
        },
        {
          "distance": 0.25997596979141235,
          "id": 1729360003
        },
        {
          "distance": 0.2836800217628479,
          "id": 1729355469
        },
        {
          "distance": 0.4146263599395752,
          "id": 1880151171
        },
        {
          "distance": 0.41526418924331665,
          "id": 1880151239
        },
        {
          "distance": 0.4321054220199585,
          "id": 1729360535
        },
        {
          "distance": 0.432217538356781,
          "id": 1880151479
        },
        {
          "distance": 0.4346466064453125,
          "id": 1729358765
        },
        {
          "distance": 0.4360883831977844,
          "id": 1880151171
        },
        {
          "distance": 0.43690431118011475,
          "id": 1880151239
        }
      ]
    },
    "sfomuseum:placetype": "instagram",
    "src:geom": "sfomuseum",
    "wof:belongsto": [
      1159160869,
      102527513,
      102191575,
      85633793,
      102087579,
      85922583,
      85688637
    ],
    "wof:country": "US",
    "wof:created": 1650901200,
    "wof:geomhash": "b6e33f47475d56bc8da457bc31afadc8",
    "wof:hierarchy": [
      {
        "building_id": 1159160869,
        "campus_id": 102527513,
        "continent_id": 102191575,
        "country_id": 85633793,
        "county_id": 102087579,
        "custom_id": 1880151787,
        "instagram_id": 1880151787,
        "locality_id": 85922583,
        "neighbourhood_id": -1,
        "region_id": 85688637
      }
    ],
    "wof:id": 1880151787,
    "wof:lastmodified": 1787777663,
    "wof:name": "Our “you collect what?” list is lengthy...",
    "wof:parent_id": 1159160869,
    "wof:placetype": "custom",
    "wof:placetype_alt": [
      "instagram"
    ],
    "wof:repo": "sfomuseum-data-socialmedia-instagram",
    "wof:superseded_by": [],
    "wof:supersedes": []
  },
  "bbox": [
    -122.386166,
    37.616356,
    -122.386166,
    37.616356
  ],
  "geometry": {"type":"Point","coordinates":[-122.386166,37.616356]}
}
