{
  "id": 1880150997,
  "type": "Feature",
  "properties": {
    "date:cessation_lower": "2023-04-05",
    "date:cessation_upper": "2023-04-05",
    "date:inception_lower": "2023-04-05",
    "date:inception_upper": "2023-04-05",
    "edtf:cessation": "2023-04-05T08:53:00-07:00",
    "edtf:inception": "2023-04-05T08:53:00-07:00",
    "geom:area": 0,
    "geom:bbox": "-122.386166,37.616356,-122.386166,37.616356",
    "geom:latitude": 37.616356,
    "geom:longitude": -122.386166,
    "instagram:post": {
      "caption": {
        "body": "When designing for 𝘓𝘢𝘮𝘣𝘢𝘳𝘦𝘯𝘢, a ballet that fuses European and African music and dance, Oakland-born costume and set designer Sandra Woodall applied the same cultural fusion in her vibrant designs for the ballet. The costumes, though cut and tailored in a Western style, possess an African influence in their colors and patterns. For the women’s dresses, Woodall chose a silk satin material that she hand-painted, then turned the satin inward so the dancers would feel the movement of the fabric on their legs.   Special thank you to San Francisco Ballet for making this exhibition possible. See “San Francisco Ballet at 90” on display, pre-security, in the International Terminal and online at: https://bit.ly/SFBalletAt90",
        "excerpt": "When designing for 𝘓𝘢𝘮𝘣𝘢𝘳𝘦𝘯𝘢, a ballet that fuses European and African music and dance, Oakland-born costume and set designer Sandra Woodall applied the same cultural fusion in her vibrant designs for the ballet.",
        "hashtags": [
          "SFBalletAt90",
          "Ballet",
          "Lambarena"
        ],
        "users": [
          "sfballet"
        ]
      },
      "media_id": "ea8a662ed082ef511fa3e39e82a21fd4718a3d7c",
      "path": "media/posts/202304/339931870_188880960597742_4063259339696016882_n_18005767630718381.jpg",
      "perceptual_hash": "p:8f2fc6789184ed83",
      "taken": 1680709980,
      "taken_at": "Apr 05, 2023 3:53 pm"
    },
    "millsfield:similar": {
      "google/siglip2-so400m-patch16-naflex": [
        {
          "distance": 0.10058438777923584,
          "id": 1947425261
        },
        {
          "distance": 0.11644792556762695,
          "id": 1880150907
        },
        {
          "distance": 0.11774790287017822,
          "id": 1947425261
        },
        {
          "distance": 0.15943050384521484,
          "id": 1880150937
        },
        {
          "distance": 0.16450828313827515,
          "id": 1880150979
        },
        {
          "distance": 0.1756243109703064,
          "id": 1880150937
        },
        {
          "distance": 0.18439006805419922,
          "id": 1880151157
        },
        {
          "distance": 0.18442291021347046,
          "id": 1947425303
        },
        {
          "distance": 0.1844657063484192,
          "id": 1947425307
        },
        {
          "distance": 0.18618053197860718,
          "id": 1947425243
        }
      ]
    },
    "sfomuseum:placetype": "instagram",
    "src:geom": "sfomuseum",
    "wof:belongsto": [
      1159160869,
      102527513,
      102191575,
      85633793,
      102087579,
      85922583,
      85688637
    ],
    "wof:country": "US",
    "wof:created": 1680709980,
    "wof:geomhash": "b6e33f47475d56bc8da457bc31afadc8",
    "wof:hierarchy": [
      {
        "building_id": 1159160869,
        "campus_id": 102527513,
        "continent_id": 102191575,
        "country_id": 85633793,
        "county_id": 102087579,
        "custom_id": 1880150997,
        "instagram_id": 1880150997,
        "locality_id": 85922583,
        "neighbourhood_id": -1,
        "region_id": 85688637
      }
    ],
    "wof:id": 1880150997,
    "wof:lastmodified": 1787777661,
    "wof:name": "When designing for 𝘓𝘢𝘮𝘣𝘢𝘳𝘦𝘯𝘢, a ballet that fuses European and African music and dance, Oakland-born costume and set designer Sandra Woodall applied the same cultural fusion in her vibrant designs for the ballet...",
    "wof:parent_id": 1159160869,
    "wof:placetype": "custom",
    "wof:placetype_alt": [
      "instagram"
    ],
    "wof:repo": "sfomuseum-data-socialmedia-instagram",
    "wof:superseded_by": [],
    "wof:supersedes": []
  },
  "bbox": [
    -122.386166,
    37.616356,
    -122.386166,
    37.616356
  ],
  "geometry": {"type":"Point","coordinates":[-122.386166,37.616356]}
}
