{
  "id": 1729358855,
  "type": "Feature",
  "properties": {
    "date:cessation_lower": "2017-12-06",
    "date:cessation_upper": "2017-12-06",
    "date:inception_lower": "2017-12-06",
    "date:inception_upper": "2017-12-06",
    "edtf:cessation": "2017-12-06T03:28:00-08:00",
    "edtf:inception": "2017-12-06T03:28:00-08:00",
    "geom:area": 0,
    "geom:bbox": "-122.386166,37.616356,-122.386166,37.616356",
    "geom:latitude": 37.616356,
    "geom:longitude": -122.386166,
    "instagram:post": {
      "caption": {
        "body": "\"The finest way to fly overseas is by Pan American's 'blue-ribbon' services. These flights are aboard double decked 'Strato' Clippers.\" In the 1950s and ‘60s, the Saturday Evening Post printed Pan Am advertisements promoting their in-flight services to different destinations around the world. \"The President: seven-course dinner by Maxim's, Paris... with cocktails, French wine, liqueurs. For each passenger, a smart overnight bag. And for the ladies – orchids and Lanvin's 'Arpege.' No extra fare.\" Did you ever fly on Pan American?  Image: Pan American World Airways, Saturday Evening Post advertisement, 1951. Gift of Barnaby Conrad III. 2001.038.164.059 a b",
        "excerpt": "\"The finest way to fly overseas is by Pan American's 'blue-ribbon' services.",
        "hashtags": [
          "avgeek",
          "avationgeek",
          "aviation",
          "aviationhistory",
          "aviationlovers",
          "vintageaviation",
          "history",
          "avhistory",
          "aviationgeeks",
          "avgeeks",
          "paxex",
          "panam",
          "panamerican",
          "saturdayeveningpost",
          "advertising"
        ],
        "users": []
      },
      "media_id": "be9383a7602c2a487f56fafbb352ce32",
      "path": "media/other/24331997_1547665835270122_4404920825304580096_n_17854880746200230.jpg",
      "perceptual_hash": "p:b250c9cda5bd9a32",
      "taken": 1512559680,
      "taken_at": "Dec 06, 2017 11:28 am"
    },
    "millsfield:similar": {
      "google/siglip2-so400m-patch16-naflex": [
        {
          "distance": 0.35587793588638306,
          "id": 1729359921
        },
        {
          "distance": 0.3591606020927429,
          "id": 1729358635
        },
        {
          "distance": 0.3749021887779236,
          "id": 1729358635
        },
        {
          "distance": 0.3884313106536865,
          "id": 1729360805
        },
        {
          "distance": 0.3923613429069519,
          "id": 1729359397
        },
        {
          "distance": 0.3990626335144043,
          "id": 1729359921
        },
        {
          "distance": 0.40829551219940186,
          "id": 1763559211
        },
        {
          "distance": 0.4093517065048218,
          "id": 1729356015
        },
        {
          "distance": 0.4148004651069641,
          "id": 1729361045
        },
        {
          "distance": 0.4156479239463806,
          "id": 1729355605
        }
      ]
    },
    "sfomuseum:placetype": "instagram",
    "src:geom": "sfomuseum",
    "wof:belongsto": [
      1159160869,
      102527513,
      102191575,
      85633793,
      102087579,
      85922583,
      85688637
    ],
    "wof:country": "US",
    "wof:created": 1512559680,
    "wof:geomhash": "b6e33f47475d56bc8da457bc31afadc8",
    "wof:hierarchy": [
      {
        "building_id": 1159160869,
        "campus_id": 102527513,
        "continent_id": 102191575,
        "country_id": 85633793,
        "county_id": 102087579,
        "custom_id": 1729358855,
        "instagram_id": 1729358855,
        "locality_id": 85922583,
        "neighbourhood_id": -1,
        "region_id": 85688637
      }
    ],
    "wof:id": 1729358855,
    "wof:lastmodified": 1787777634,
    "wof:name": "\"The finest way to fly overseas is by Pan American's 'blue-ribbon' services...",
    "wof:parent_id": 1159160869,
    "wof:placetype": "custom",
    "wof:placetype_alt": [
      "instagram"
    ],
    "wof:repo": "sfomuseum-data-socialmedia-instagram",
    "wof:superseded_by": [],
    "wof:supersedes": []
  },
  "bbox": [
    -122.386166,
    37.616356,
    -122.386166,
    37.616356
  ],
  "geometry": {"type":"Point","coordinates":[-122.386166,37.616356]}
}
