{
  "id": 1763558651,
  "type": "Feature",
  "properties": {
    "date:cessation_lower": "2017-02-24",
    "date:cessation_upper": "2017-02-24",
    "date:inception_lower": "2017-02-24",
    "date:inception_upper": "2017-02-24",
    "edtf:cessation": "2017-02-24T14:12:00-08:00",
    "edtf:inception": "2017-02-24T14:12:00-08:00",
    "geom:area": 0,
    "geom:bbox": "-122.386166,37.616356,-122.386166,37.616356",
    "geom:latitude": 37.616356,
    "geom:longitude": -122.386166,
    "instagram:post": {
      "caption": {
        "body": "This Airmail flight cover promoting the 1939 Golden Gate International Exposition honoring National Air Mail Week was postmarked on May 15, 1938. “Dear friend - The people of the Western States have asked me to extend you an invitation to visit their World’s Fair on San Francisco Bay in 1939. Next year this Empire of the West will add to the attractions that draw thousands of travelers each year, a Fair that will express the charm and glamour not only of this region but of the nations of the Pacific. The Orient, South Seas, Antipodes, and the Latin Americas are joining us in a vast Pageant of the Pacific to be shown on 400-acre Treasure Island in San Francisco Bay. These countries are building with us a Fair that will dramatize the scenery, culture, and recreation of the world’s most glamorous nations. In 1939 the Golden Gate International Exposition will be ready, so that you, traveling through the Western Wonderland, may make your destination the Treasure Island that will hold for you the romantic story of the western world.” Leland W. Cutler, President, 1939 Golden Gate International Exposition #avgeek #aviationhistory #GoldenGateInternationalExposition #airmailweek #airmail #philately  Image: Golden Gate International Exposition airmail flight cover, National Air Mail Week, May 15-21, 1939,1938. SFO Museum Collection. 1997.16.01",
        "excerpt": "This Airmail flight cover promoting the 1939 Golden Gate International Exposition honoring National Air Mail Week was postmarked on May 15, 1938.",
        "hashtags": [],
        "users": []
      },
      "media_id": "b0f4b27b754bf5c28f44c83e332d47d77a288a9d",
      "path": "media/posts/201702/16790352_1823189774609284_1159297959083376640_n_17852411932130694.jpg",
      "perceptual_hash": "p:b838c7c13b1ed94c",
      "taken": 1487974320,
      "taken_at": "Feb 24, 2017 10:12 pm"
    },
    "millsfield:similar": {
      "google/siglip2-so400m-patch16-naflex": [
        {
          "distance": 0.00002384185791015625,
          "id": 1729359787
        },
        {
          "distance": 0.1231299638748169,
          "id": 1729359787
        },
        {
          "distance": 0.3537454605102539,
          "id": 1729361397
        },
        {
          "distance": 0.3616846799850464,
          "id": 1729361397
        },
        {
          "distance": 0.3696204423904419,
          "id": 1729360617
        },
        {
          "distance": 0.37088942527770996,
          "id": 1729360969
        },
        {
          "distance": 0.37260979413986206,
          "id": 1729360457
        },
        {
          "distance": 0.3730694055557251,
          "id": 1729362039
        },
        {
          "distance": 0.37511545419692993,
          "id": 1880151359
        },
        {
          "distance": 0.3802696466445923,
          "id": 1729359947
        }
      ]
    },
    "sfomuseum:placetype": "instagram",
    "src:geom": "sfomuseum",
    "wof:belongsto": [
      1159160869,
      102527513,
      102191575,
      85633793,
      102087579,
      85922583,
      85688637
    ],
    "wof:country": "US",
    "wof:created": 1487974320,
    "wof:geomhash": "b6e33f47475d56bc8da457bc31afadc8",
    "wof:hierarchy": [
      {
        "building_id": 1159160869,
        "campus_id": 102527513,
        "continent_id": 102191575,
        "country_id": 85633793,
        "county_id": 102087579,
        "custom_id": 1763558651,
        "instagram_id": 1763558651,
        "locality_id": 85922583,
        "neighbourhood_id": -1,
        "region_id": 85688637
      }
    ],
    "wof:id": 1763558651,
    "wof:lastmodified": 1787777659,
    "wof:name": "This Airmail flight cover promoting the 1939 Golden Gate International Exposition honoring National Air Mail Week was postmarked on May 15, 1938...",
    "wof:parent_id": 1159160869,
    "wof:placetype": "custom",
    "wof:placetype_alt": [
      "instagram"
    ],
    "wof:repo": "sfomuseum-data-socialmedia-instagram",
    "wof:superseded_by": [],
    "wof:supersedes": []
  },
  "bbox": [
    -122.386166,
    37.616356,
    -122.386166,
    37.616356
  ],
  "geometry": {"type":"Point","coordinates":[-122.386166,37.616356]}
}
