{
  "id": 1729362415,
  "type": "Feature",
  "properties": {
    "date:cessation_lower": "2014-01-28",
    "date:cessation_upper": "2014-01-28",
    "date:inception_lower": "2014-01-28",
    "date:inception_upper": "2014-01-28",
    "edtf:cessation": "2014-01-28T05:59:00-08:00",
    "edtf:inception": "2014-01-28T05:59:00-08:00",
    "geom:area": 0,
    "geom:bbox": "-122.386166,37.616356,-122.386166,37.616356",
    "geom:latitude": 37.616356,
    "geom:longitude": -122.386166,
    "instagram:post": {
      "caption": {
        "body": "",
        "excerpt": "",
        "hashtags": [
          "avgeek",
          "modelplane",
          "conservation"
        ],
        "users": []
      },
      "media_id": "0bd369990c92a45365df693cc3c7d770",
      "path": "media/other/1597842_269778189852069_1627056888_n_17842396771062499.jpg",
      "perceptual_hash": "p:dba547d623c395c0",
      "taken": 1390917540,
      "taken_at": "Jan 28, 2014 1:59 pm"
    },
    "millsfield:similar": {
      "google/siglip2-so400m-patch16-naflex": [
        {
          "distance": 0.18374508619308472,
          "id": 1729362389
        },
        {
          "distance": 0.23034203052520752,
          "id": 1729362389
        },
        {
          "distance": 0.23811137676239014,
          "id": 1729362945
        },
        {
          "distance": 0.25843334197998047,
          "id": 1729362041
        },
        {
          "distance": 0.2596973776817322,
          "id": 1729360069
        },
        {
          "distance": 0.26826995611190796,
          "id": 1729362945
        },
        {
          "distance": 0.2829580307006836,
          "id": 1729362201
        },
        {
          "distance": 0.28387314081192017,
          "id": 1729362743
        },
        {
          "distance": 0.28602761030197144,
          "id": 1729361433
        },
        {
          "distance": 0.29620271921157837,
          "id": 1729362041
        }
      ]
    },
    "sfomuseum:placetype": "instagram",
    "src:geom": "sfomuseum",
    "wof:belongsto": [
      1159160869,
      102527513,
      102191575,
      85633793,
      102087579,
      85922583,
      85688637
    ],
    "wof:country": "US",
    "wof:created": 1390917540,
    "wof:geomhash": "b6e33f47475d56bc8da457bc31afadc8",
    "wof:hierarchy": [
      {
        "building_id": 1159160869,
        "campus_id": 102527513,
        "continent_id": 102191575,
        "country_id": 85633793,
        "county_id": 102087579,
        "custom_id": 1729362415,
        "instagram_id": 1729362415,
        "locality_id": 85922583,
        "neighbourhood_id": -1,
        "region_id": 85688637
      }
    ],
    "wof:id": 1729362415,
    "wof:lastmodified": 1787777647,
    "wof:name": "..",
    "wof:parent_id": 1159160869,
    "wof:placetype": "custom",
    "wof:placetype_alt": [
      "instagram"
    ],
    "wof:repo": "sfomuseum-data-socialmedia-instagram",
    "wof:superseded_by": [],
    "wof:supersedes": []
  },
  "bbox": [
    -122.386166,
    37.616356,
    -122.386166,
    37.616356
  ],
  "geometry": {"type":"Point","coordinates":[-122.386166,37.616356]}
}
