{
  "id": 1729359941,
  "type": "Feature",
  "properties": {
    "date:cessation_lower": "2017-01-08",
    "date:cessation_upper": "2017-01-08",
    "date:inception_lower": "2017-01-08",
    "date:inception_upper": "2017-01-08",
    "edtf:cessation": "2017-01-08T03:02:00-08:00",
    "edtf:inception": "2017-01-08T03:02:00-08:00",
    "geom:area": 0,
    "geom:bbox": "-122.386166,37.616356,-122.386166,37.616356",
    "geom:latitude": 37.616356,
    "geom:longitude": -122.386166,
    "instagram:post": {
      "caption": {
        "body": "John Alfano first fell in love with photography in Yosemite National Park, where he lived in the early 1980s. He taught himself how to photograph, met Ansel Adams, and built a makeshift darkroom in an unused utility closet. Since then, he has been committed to using the camera to explore, to question, and to notice. His photographic projects aim to translate the wordless feeling of deep connection to the natural world into images that communicate that same sense to the viewer.",
        "excerpt": "John Alfano first fell in love with photography in Yosemite National Park, where he lived in the early 1980s.",
        "hashtags": [
          "JohnAlfano",
          "airportart"
        ],
        "users": []
      },
      "media_id": "b6f8bbc288d44c4ae12820998819cd05",
      "path": "media/posts/201701/15803522_1230487850322081_1935962839453794304_n_17858770231106030.jpg",
      "perceptual_hash": "p:93c1d1d2b2b43d2e",
      "taken": 1483873320,
      "taken_at": "Jan 08, 2017 11:02 am"
    },
    "millsfield:similar": {
      "google/siglip2-so400m-patch16-naflex": [
        {
          "distance": 0.1925954818725586,
          "id": 1729356549
        },
        {
          "distance": 0.2043147087097168,
          "id": 1729357097
        },
        {
          "distance": 0.21565139293670654,
          "id": 1729359425
        },
        {
          "distance": 0.21838527917861938,
          "id": 1729356553
        },
        {
          "distance": 0.22289884090423584,
          "id": 1729356547
        },
        {
          "distance": 0.2342768907546997,
          "id": 1729355749
        },
        {
          "distance": 0.23811954259872437,
          "id": 1729359363
        },
        {
          "distance": 0.24109405279159546,
          "id": 1729356811
        },
        {
          "distance": 0.2423919439315796,
          "id": 1729360563
        },
        {
          "distance": 0.24362128973007202,
          "id": 1729356955
        }
      ]
    },
    "sfomuseum:placetype": "instagram",
    "src:geom": "sfomuseum",
    "wof:belongsto": [
      1159160869,
      102527513,
      102191575,
      85633793,
      102087579,
      85922583,
      85688637
    ],
    "wof:country": "US",
    "wof:created": 1483873320,
    "wof:geomhash": "b6e33f47475d56bc8da457bc31afadc8",
    "wof:hierarchy": [
      {
        "building_id": 1159160869,
        "campus_id": 102527513,
        "continent_id": 102191575,
        "country_id": 85633793,
        "county_id": 102087579,
        "custom_id": 1729359941,
        "instagram_id": 1729359941,
        "locality_id": 85922583,
        "neighbourhood_id": -1,
        "region_id": 85688637
      }
    ],
    "wof:id": 1729359941,
    "wof:lastmodified": 1787777637,
    "wof:name": "John Alfano first fell in love with photography in Yosemite National Park, where he lived in the early 1980s...",
    "wof:parent_id": 1159160869,
    "wof:placetype": "custom",
    "wof:placetype_alt": [
      "instagram"
    ],
    "wof:repo": "sfomuseum-data-socialmedia-instagram",
    "wof:superseded_by": [],
    "wof:supersedes": []
  },
  "bbox": [
    -122.386166,
    37.616356,
    -122.386166,
    37.616356
  ],
  "geometry": {"type":"Point","coordinates":[-122.386166,37.616356]}
}
