{
  "id": 1729356387,
  "type": "Feature",
  "properties": {
    "date:cessation_lower": "2019-06-26",
    "date:cessation_upper": "2019-06-26",
    "date:inception_lower": "2019-06-26",
    "date:inception_upper": "2019-06-26",
    "edtf:cessation": "2019-06-26T03:10:00-07:00",
    "edtf:inception": "2019-06-26T03:10:00-07:00",
    "geom:area": 0,
    "geom:bbox": "-122.386166,37.616356,-122.386166,37.616356",
    "geom:latitude": 37.616356,
    "geom:longitude": -122.386166,
    "instagram:post": {
      "caption": {
        "body": "This week we bid farewell to our Assistant Director and Curator in Charge of Aviation, John Hill. John has been integral to our aviation museum and collection. Hired in 1987, John has held a number of different positions at SFO Museum, but his legacy is founding our Aviation Museum and overseeing the acquisition of over 140,000 objects into the collection. He also has an almost encyclopedic knowledge about the history of the Airport and is SFO’s unofficial historian. This is not a good bye but a see you later. We hope you enjoy your retirement! Have fun fishing!",
        "excerpt": "This week we bid farewell to our Assistant Director and Curator in Charge of Aviation, John Hill.",
        "hashtags": [],
        "users": []
      },
      "media_id": "6a29cd4dfe3683ca44aec6392b9abf7e",
      "path": "media/other/62711616_224897645137938_2459791865919596685_n_17891303704357922.jpg",
      "perceptual_hash": "p:fca191728eac3963",
      "taken": 1561543800,
      "taken_at": "Jun 26, 2019 10:10 am"
    },
    "millsfield:similar": {
      "google/siglip2-so400m-patch16-naflex": [
        {
          "distance": 0.2929688096046448,
          "id": 1880150927
        },
        {
          "distance": 0.30549484491348267,
          "id": 1947425109
        },
        {
          "distance": 0.30660539865493774,
          "id": 1729356449
        },
        {
          "distance": 0.3131226897239685,
          "id": 1880151297
        },
        {
          "distance": 0.31668615341186523,
          "id": 1947425109
        },
        {
          "distance": 0.31807637214660645,
          "id": 1729356441
        },
        {
          "distance": 0.31959742307662964,
          "id": 1729356449
        },
        {
          "distance": 0.32232940196990967,
          "id": 1729356025
        },
        {
          "distance": 0.322674036026001,
          "id": 1880151483
        },
        {
          "distance": 0.32332688570022583,
          "id": 1729356025
        }
      ]
    },
    "sfomuseum:placetype": "instagram",
    "src:geom": "sfomuseum",
    "wof:belongsto": [
      1159160869,
      102527513,
      102191575,
      85633793,
      102087579,
      85922583,
      85688637
    ],
    "wof:country": "US",
    "wof:created": 1561543800,
    "wof:geomhash": "b6e33f47475d56bc8da457bc31afadc8",
    "wof:hierarchy": [
      {
        "building_id": 1159160869,
        "campus_id": 102527513,
        "continent_id": 102191575,
        "country_id": 85633793,
        "county_id": 102087579,
        "custom_id": 1729356387,
        "instagram_id": 1729356387,
        "locality_id": 85922583,
        "neighbourhood_id": -1,
        "region_id": 85688637
      }
    ],
    "wof:id": 1729356387,
    "wof:lastmodified": 1787777629,
    "wof:name": "This week we bid farewell to our Assistant Director and Curator in Charge of Aviation, John Hill...",
    "wof:parent_id": 1159160869,
    "wof:placetype": "custom",
    "wof:placetype_alt": [
      "instagram"
    ],
    "wof:repo": "sfomuseum-data-socialmedia-instagram",
    "wof:superseded_by": [],
    "wof:supersedes": []
  },
  "bbox": [
    -122.386166,
    37.616356,
    -122.386166,
    37.616356
  ],
  "geometry": {"type":"Point","coordinates":[-122.386166,37.616356]}
}
