{
  "id": 1729361751,
  "type": "Feature",
  "properties": {
    "date:cessation_lower": "2015-06-08",
    "date:cessation_upper": "2015-06-08",
    "date:inception_lower": "2015-06-08",
    "date:inception_upper": "2015-06-08",
    "edtf:cessation": "2015-06-08T08:54:00-07:00",
    "edtf:inception": "2015-06-08T08:54:00-07:00",
    "geom:area": 0,
    "geom:bbox": "-122.386166,37.616356,-122.386166,37.616356",
    "geom:latitude": 37.616356,
    "geom:longitude": -122.386166,
    "instagram:post": {
      "caption": {
        "body": "",
        "excerpt": "",
        "hashtags": [
          "layoverlife",
          "PanAm",
          "Waikiki"
        ],
        "users": []
      },
      "media_id": "b7377ea9734a17d0efd7c383d19014c5",
      "path": "media/other/11379761_399363390260865_142977680_n_17841553315062499.jpg",
      "perceptual_hash": "p:8300017c7cbf78df",
      "taken": 1433778840,
      "taken_at": "Jun 08, 2015 3:54 pm"
    },
    "millsfield:similar": {
      "google/siglip2-so400m-patch16-naflex": [
        {
          "distance": 0.27890366315841675,
          "id": 1729361643
        },
        {
          "distance": 0.2960168719291687,
          "id": 1729357023
        },
        {
          "distance": 0.30252575874328613,
          "id": 1729361643
        },
        {
          "distance": 0.3050125241279602,
          "id": 1729355313
        },
        {
          "distance": 0.315254807472229,
          "id": 1729357843
        },
        {
          "distance": 0.3229095935821533,
          "id": 1729357843
        },
        {
          "distance": 0.3241751194000244,
          "id": 1763559255
        },
        {
          "distance": 0.3302857279777527,
          "id": 1729355315
        },
        {
          "distance": 0.3310869336128235,
          "id": 1729355127
        },
        {
          "distance": 0.3314303159713745,
          "id": 1729358087
        }
      ]
    },
    "sfomuseum:placetype": "instagram",
    "src:geom": "sfomuseum",
    "wof:belongsto": [
      1159160869,
      102527513,
      102191575,
      85633793,
      102087579,
      85922583,
      85688637
    ],
    "wof:country": "US",
    "wof:created": 1433778840,
    "wof:geomhash": "b6e33f47475d56bc8da457bc31afadc8",
    "wof:hierarchy": [
      {
        "building_id": 1159160869,
        "campus_id": 102527513,
        "continent_id": 102191575,
        "country_id": 85633793,
        "county_id": 102087579,
        "custom_id": 1729361751,
        "instagram_id": 1729361751,
        "locality_id": 85922583,
        "neighbourhood_id": -1,
        "region_id": 85688637
      }
    ],
    "wof:id": 1729361751,
    "wof:lastmodified": 1787777646,
    "wof:name": "..",
    "wof:parent_id": 1159160869,
    "wof:placetype": "custom",
    "wof:placetype_alt": [
      "instagram"
    ],
    "wof:repo": "sfomuseum-data-socialmedia-instagram",
    "wof:superseded_by": [],
    "wof:supersedes": []
  },
  "bbox": [
    -122.386166,
    37.616356,
    -122.386166,
    37.616356
  ],
  "geometry": {"type":"Point","coordinates":[-122.386166,37.616356]}
}
