{
  "id": 1729362865,
  "type": "Feature",
  "properties": {
    "date:cessation_lower": "2012-10-22",
    "date:cessation_upper": "2012-10-22",
    "date:inception_lower": "2012-10-22",
    "date:inception_upper": "2012-10-22",
    "edtf:cessation": "2012-10-22T04:08:00-07:00",
    "edtf:inception": "2012-10-22T04:08:00-07:00",
    "geom:area": 0,
    "geom:bbox": "-122.386166,37.616356,-122.386166,37.616356",
    "geom:latitude": 37.616356,
    "geom:longitude": -122.386166,
    "instagram:post": {
      "caption": {
        "body": "Our archives have their hands full, working on a new gift! THANK YOU to all of our wonderful donors!",
        "excerpt": "Our archives have their hands full, working on a new gift!",
        "hashtags": [],
        "users": []
      },
      "media_id": "6e478c6e4c5cda47061f72e7c74dcc13",
      "path": "media/other/11244807_1574317032820531_106578963_n_17841501514062499.jpg",
      "perceptual_hash": "p:89802ebb36c55d3e",
      "taken": 1350904080,
      "taken_at": "Oct 22, 2012 11:08 am"
    },
    "millsfield:similar": {
      "google/siglip2-so400m-patch16-naflex": [
        {
          "distance": 0.1865835189819336,
          "id": 1729362831
        },
        {
          "distance": 0.22965747117996216,
          "id": 1729362831
        },
        {
          "distance": 0.28703439235687256,
          "id": 1729362259
        },
        {
          "distance": 0.29049909114837646,
          "id": 1729362119
        },
        {
          "distance": 0.31049948930740356,
          "id": 1729362451
        },
        {
          "distance": 0.3137524127960205,
          "id": 1729363033
        },
        {
          "distance": 0.3141685724258423,
          "id": 1729362963
        },
        {
          "distance": 0.3198050856590271,
          "id": 1729362581
        },
        {
          "distance": 0.3208971619606018,
          "id": 1729362617
        },
        {
          "distance": 0.32246583700180054,
          "id": 1729362761
        }
      ]
    },
    "sfomuseum:placetype": "instagram",
    "src:geom": "sfomuseum",
    "wof:belongsto": [
      1159160869,
      102527513,
      102191575,
      85633793,
      102087579,
      85922583,
      85688637
    ],
    "wof:country": "US",
    "wof:created": 1350904080,
    "wof:geomhash": "b6e33f47475d56bc8da457bc31afadc8",
    "wof:hierarchy": [
      {
        "building_id": 1159160869,
        "campus_id": 102527513,
        "continent_id": 102191575,
        "country_id": 85633793,
        "county_id": 102087579,
        "custom_id": 1729362865,
        "instagram_id": 1729362865,
        "locality_id": 85922583,
        "neighbourhood_id": -1,
        "region_id": 85688637
      }
    ],
    "wof:id": 1729362865,
    "wof:lastmodified": 1787777654,
    "wof:name": "Our archives have their hands full, working on a new gift!..",
    "wof:parent_id": 1159160869,
    "wof:placetype": "custom",
    "wof:placetype_alt": [
      "instagram"
    ],
    "wof:repo": "sfomuseum-data-socialmedia-instagram",
    "wof:superseded_by": [],
    "wof:supersedes": []
  },
  "bbox": [
    -122.386166,
    37.616356,
    -122.386166,
    37.616356
  ],
  "geometry": {"type":"Point","coordinates":[-122.386166,37.616356]}
}
