{
  "id": 1763559091,
  "type": "Feature",
  "properties": {
    "date:cessation_lower": "2021-06-21",
    "date:cessation_upper": "2021-06-21",
    "date:inception_lower": "2021-06-21",
    "date:inception_upper": "2021-06-21",
    "edtf:cessation": "2021-06-21T09:11:00-07:00",
    "edtf:inception": "2021-06-21T09:11:00-07:00",
    "geom:area": 0,
    "geom:bbox": "-122.386166,37.616356,-122.386166,37.616356",
    "geom:latitude": 37.616356,
    "geom:longitude": -122.386166,
    "instagram:post": {
      "caption": {
        "body": "Celebrate Pride Month with four short films themed to the ideas of love and acceptance. From the euphoria and heartache of a teen’s first love to a pair of competitive dancers who challenge established conventions, and from the brave voices of those who defy governmental and societal persecution to a meditation on the power of a father’s affirmation, today’s filmmakers bring us stories from the LGBTQ community that reflect the importance of living one’s life with courage and authenticity.  Our screening room may still be closed, but you can watch the films online at: http://bit.ly/VideoArts \u003c--or navigate here via the link in our bio.",
        "excerpt": "Celebrate Pride Month with four short films themed to the ideas of love and acceptance.",
        "hashtags": [
          "VideoArtsSFOM",
          "pride2021",
          "pride",
          "loveislove",
          "acceptance",
          "authenticity",
          "courage"
        ],
        "users": []
      },
      "media_id": "3cff626296c72b79477d1f9b54620ec6727e1837",
      "path": "media/posts/202106/203992789_2731941237097871_8896413154316954238_n_17902734094903736.jpg",
      "perceptual_hash": "p:d5b4f9dad4014539",
      "taken": 1624291860,
      "taken_at": "Jun 21, 2021 4:11 pm"
    },
    "millsfield:similar": {
      "google/siglip2-so400m-patch16-naflex": [
        {
          "distance": 0.26876747608184814,
          "id": 1947425011
        },
        {
          "distance": 0.2938340902328491,
          "id": 1729357469
        },
        {
          "distance": 0.29635798931121826,
          "id": 1763559193
        },
        {
          "distance": 0.3034687638282776,
          "id": 1947425011
        },
        {
          "distance": 0.3110698461532593,
          "id": 1763559317
        },
        {
          "distance": 0.3123171329498291,
          "id": 1729356955
        },
        {
          "distance": 0.3131217360496521,
          "id": 1763559317
        },
        {
          "distance": 0.3151538372039795,
          "id": 1729355483
        },
        {
          "distance": 0.32583558559417725,
          "id": 1729359681
        },
        {
          "distance": 0.32719188928604126,
          "id": 1729355515
        }
      ]
    },
    "sfomuseum:placetype": "instagram",
    "src:geom": "sfomuseum",
    "wof:belongsto": [
      1159160869,
      102527513,
      102191575,
      85633793,
      102087579,
      85922583,
      85688637
    ],
    "wof:country": "US",
    "wof:created": 1624291860,
    "wof:geomhash": "b6e33f47475d56bc8da457bc31afadc8",
    "wof:hierarchy": [
      {
        "building_id": 1159160869,
        "campus_id": 102527513,
        "continent_id": 102191575,
        "country_id": 85633793,
        "county_id": 102087579,
        "custom_id": 1763559091,
        "instagram_id": 1763559091,
        "locality_id": 85922583,
        "neighbourhood_id": -1,
        "region_id": 85688637
      }
    ],
    "wof:id": 1763559091,
    "wof:lastmodified": 1787777660,
    "wof:name": "Celebrate Pride Month with four short films themed to the ideas of love and acceptance...",
    "wof:parent_id": 1159160869,
    "wof:placetype": "custom",
    "wof:placetype_alt": [
      "instagram"
    ],
    "wof:repo": "sfomuseum-data-socialmedia-instagram",
    "wof:superseded_by": [],
    "wof:supersedes": []
  },
  "bbox": [
    -122.386166,
    37.616356,
    -122.386166,
    37.616356
  ],
  "geometry": {"type":"Point","coordinates":[-122.386166,37.616356]}
}
