{
  "id": 1729362039,
  "type": "Feature",
  "properties": {
    "date:cessation_lower": "2014-11-20",
    "date:cessation_upper": "2014-11-20",
    "date:inception_lower": "2014-11-20",
    "date:inception_upper": "2014-11-20",
    "edtf:cessation": "2014-11-20T07:46:00-08:00",
    "edtf:inception": "2014-11-20T07:46:00-08:00",
    "geom:area": 0,
    "geom:bbox": "-122.386166,37.616356,-122.386166,37.616356",
    "geom:latitude": 37.616356,
    "geom:longitude": -122.386166,
    "instagram:post": {
      "caption": {
        "body": "",
        "excerpt": "",
        "hashtags": [
          "TBT",
          "otd",
          "aviatrix",
          "aviation"
        ],
        "users": []
      },
      "media_id": "12f341859af41bbfde2ecf2bd7926a7f",
      "path": "media/other/10808850_846848605337173_2052515868_n_17841746149062499.jpg",
      "perceptual_hash": "p:d47a6b951e3b9203",
      "taken": 1416498360,
      "taken_at": "Nov 20, 2014 3:46 pm"
    },
    "millsfield:similar": {
      "google/siglip2-so400m-patch16-naflex": [
        {
          "distance": 0.026354670524597168,
          "id": 1763558987
        },
        {
          "distance": 0.05899232625961304,
          "id": 1729359749
        },
        {
          "distance": 0.11879926919937134,
          "id": 1763558987
        },
        {
          "distance": 0.13604342937469482,
          "id": 1729359749
        },
        {
          "distance": 0.21092134714126587,
          "id": 1729359667
        },
        {
          "distance": 0.21294957399368286,
          "id": 1729361677
        },
        {
          "distance": 0.2314300537109375,
          "id": 1880150885
        },
        {
          "distance": 0.23150193691253662,
          "id": 1729362189
        },
        {
          "distance": 0.23448950052261353,
          "id": 1729360417
        },
        {
          "distance": 0.23635977506637573,
          "id": 1729360969
        }
      ]
    },
    "sfomuseum:placetype": "instagram",
    "src:geom": "sfomuseum",
    "wof:belongsto": [
      1159160869,
      102527513,
      102191575,
      85633793,
      102087579,
      85922583,
      85688637
    ],
    "wof:country": "US",
    "wof:created": 1416498360,
    "wof:geomhash": "b6e33f47475d56bc8da457bc31afadc8",
    "wof:hierarchy": [
      {
        "building_id": 1159160869,
        "campus_id": 102527513,
        "continent_id": 102191575,
        "country_id": 85633793,
        "county_id": 102087579,
        "custom_id": 1729362039,
        "instagram_id": 1729362039,
        "locality_id": 85922583,
        "neighbourhood_id": -1,
        "region_id": 85688637
      }
    ],
    "wof:id": 1729362039,
    "wof:lastmodified": 1787777646,
    "wof:name": "..",
    "wof:parent_id": 1159160869,
    "wof:placetype": "custom",
    "wof:placetype_alt": [
      "instagram"
    ],
    "wof:repo": "sfomuseum-data-socialmedia-instagram",
    "wof:superseded_by": [],
    "wof:supersedes": []
  },
  "bbox": [
    -122.386166,
    37.616356,
    -122.386166,
    37.616356
  ],
  "geometry": {"type":"Point","coordinates":[-122.386166,37.616356]}
}
