{
  "id": 1729358153,
  "type": "Feature",
  "properties": {
    "date:cessation_lower": "2018-06-05",
    "date:cessation_upper": "2018-06-05",
    "date:inception_lower": "2018-06-05",
    "date:inception_upper": "2018-06-05",
    "edtf:cessation": "2018-06-05T05:08:00-07:00",
    "edtf:inception": "2018-06-05T05:08:00-07:00",
    "geom:area": 0,
    "geom:bbox": "-122.386166,37.616356,-122.386166,37.616356",
    "geom:latitude": 37.616356,
    "geom:longitude": -122.386166,
    "instagram:post": {
      "caption": {
        "body": "#Onthisday in 1934, Pan American Airways received its first Sikorsky S-42. Its inaugural flight, commanded by Captain Edwin C. Musick, began in Miami, Florida, on August 16, followed the Latin America route, and arrived in Rio de Janiero on August 18, where it was christened the “Brazilian Clipper” by Darci Lima Sarmanho Vargas, the wife of Brazilian President Getúlio Dornelles Vargas.  Image: Pan American Airways, Sikorsky S-42 Brazilian Clipper, c. 1937. Gift of the Captain John B. Russell Family. 2012.149.1481",
        "excerpt": "#Onthisday in 1934, Pan American Airways received its first Sikorsky S-42.",
        "hashtags": [
          "avgeek",
          "avationgeek",
          "aviation",
          "aviationhistory",
          "vintageaviation",
          "history",
          "avhistory",
          "aviationgeeks",
          "avgeeks"
        ],
        "users": []
      },
      "media_id": "b1a161125283f0d8243df86b382c1f3f",
      "path": "media/other/33546126_589157691454143_6413209058597142528_n_17877782305239284.jpg",
      "perceptual_hash": "p:bfc1c93e1688e946",
      "taken": 1528200480,
      "taken_at": "Jun 05, 2018 12:08 pm"
    },
    "millsfield:similar": {
      "google/siglip2-so400m-patch16-naflex": [
        {
          "distance": 0.16536259651184082,
          "id": 1763558873
        },
        {
          "distance": 0.1659216284751892,
          "id": 1729359695
        },
        {
          "distance": 0.16874361038208008,
          "id": 1729355871
        },
        {
          "distance": 0.18150430917739868,
          "id": 1880151169
        },
        {
          "distance": 0.19128406047821045,
          "id": 1880151229
        },
        {
          "distance": 0.19329965114593506,
          "id": 1729355871
        },
        {
          "distance": 0.19611656665802002,
          "id": 1763558939
        },
        {
          "distance": 0.19768625497817993,
          "id": 1729356541
        },
        {
          "distance": 0.2014748454093933,
          "id": 1729359695
        },
        {
          "distance": 0.20313632488250732,
          "id": 1729357041
        }
      ]
    },
    "sfomuseum:placetype": "instagram",
    "src:geom": "sfomuseum",
    "wof:belongsto": [
      1159160869,
      102527513,
      102191575,
      85633793,
      102087579,
      85922583,
      85688637
    ],
    "wof:country": "US",
    "wof:created": 1528200480,
    "wof:geomhash": "b6e33f47475d56bc8da457bc31afadc8",
    "wof:hierarchy": [
      {
        "building_id": 1159160869,
        "campus_id": 102527513,
        "continent_id": 102191575,
        "country_id": 85633793,
        "county_id": 102087579,
        "custom_id": 1729358153,
        "instagram_id": 1729358153,
        "locality_id": 85922583,
        "neighbourhood_id": -1,
        "region_id": 85688637
      }
    ],
    "wof:id": 1729358153,
    "wof:lastmodified": 1787777633,
    "wof:name": "#Onthisday in 1934, Pan American Airways received its first Sikorsky S-42...",
    "wof:parent_id": 1159160869,
    "wof:placetype": "custom",
    "wof:placetype_alt": [
      "instagram"
    ],
    "wof:repo": "sfomuseum-data-socialmedia-instagram",
    "wof:superseded_by": [],
    "wof:supersedes": []
  },
  "bbox": [
    -122.386166,
    37.616356,
    -122.386166,
    37.616356
  ],
  "geometry": {"type":"Point","coordinates":[-122.386166,37.616356]}
}
