{
  "id": 1729359923,
  "type": "Feature",
  "properties": {
    "date:cessation_lower": "2017-01-11",
    "date:cessation_upper": "2017-01-11",
    "date:inception_lower": "2017-01-11",
    "date:inception_upper": "2017-01-11",
    "edtf:cessation": "2017-01-11T10:26:00-08:00",
    "edtf:inception": "2017-01-11T10:26:00-08:00",
    "geom:area": 0,
    "geom:bbox": "-122.386166,37.616356,-122.386166,37.616356",
    "geom:latitude": 37.616356,
    "geom:longitude": -122.386166,
    "instagram:post": {
      "caption": {
        "body": "Inventor Charles Fey had been making coin-operated machines in San Francisco for nearly ten years prior to creating his Liberty Bell in 1898. Although other payout machines preceded it, the Liberty Bell was the first automatic-payout, three-reel machine. It established the standard for more than a million slot machines made by other manufacturers during the twentieth century.  Because only three symbols of the thousand combinations (10 x 10 x 10) were shown with each spin, players could not calculate the payout percentage as they did on the hundred-combination color-wheel machines. In addition, three reels were far more entertaining with more suspenseful, near-miss opportunities than the single stop of an exposed color-wheel payout disc. Fey’s invention became an instant success. Of the nearly one hundred models produced, seven are known to exist today.  All objects are courtesy of Joe Welch American Antique Museum in San Bruno, California. See \"#GamesofChance: Gambling Devices of the Mechanical Age\", on display, post-security, in Terminal 3. http://bit.ly/GamesofChance",
        "excerpt": "Inventor Charles Fey had been making coin-operated machines in San Francisco for nearly ten years prior to creating his Liberty Bell in 1898.",
        "hashtags": [
          "SFHistory",
          "CharlesFey"
        ],
        "users": []
      },
      "media_id": "141d3b7a5b89e334f3b45871510f4858",
      "path": "media/posts/201701/15802122_1635342826770528_2545807470605893632_n_17868973525029110.jpg",
      "perceptual_hash": "p:94cb432d5b3ccc63",
      "taken": 1484159160,
      "taken_at": "Jan 11, 2017 6:26 pm"
    },
    "millsfield:similar": {
      "google/siglip2-so400m-patch16-naflex": [
        {
          "distance": 0.19903701543807983,
          "id": 1729359741
        },
        {
          "distance": 0.20428955554962158,
          "id": 1729359741
        },
        {
          "distance": 0.2198583483695984,
          "id": 1729358735
        },
        {
          "distance": 0.22208714485168457,
          "id": 1729359445
        },
        {
          "distance": 0.2271895408630371,
          "id": 1729358737
        },
        {
          "distance": 0.227697491645813,
          "id": 1729361811
        },
        {
          "distance": 0.2353200912475586,
          "id": 1729359887
        },
        {
          "distance": 0.2411244511604309,
          "id": 1729360031
        },
        {
          "distance": 0.24896115064620972,
          "id": 1729359723
        },
        {
          "distance": 0.25039851665496826,
          "id": 1729359723
        }
      ]
    },
    "sfomuseum:placetype": "instagram",
    "src:geom": "sfomuseum",
    "wof:belongsto": [
      1159160869,
      102527513,
      102191575,
      85633793,
      102087579,
      85922583,
      85688637
    ],
    "wof:country": "US",
    "wof:created": 1484159160,
    "wof:geomhash": "b6e33f47475d56bc8da457bc31afadc8",
    "wof:hierarchy": [
      {
        "building_id": 1159160869,
        "campus_id": 102527513,
        "continent_id": 102191575,
        "country_id": 85633793,
        "county_id": 102087579,
        "custom_id": 1729359923,
        "instagram_id": 1729359923,
        "locality_id": 85922583,
        "neighbourhood_id": -1,
        "region_id": 85688637
      }
    ],
    "wof:id": 1729359923,
    "wof:lastmodified": 1787777637,
    "wof:name": "Inventor Charles Fey had been making coin-operated machines in San Francisco for nearly ten years prior to creating his Liberty Bell in 1898...",
    "wof:parent_id": 1159160869,
    "wof:placetype": "custom",
    "wof:placetype_alt": [
      "instagram"
    ],
    "wof:repo": "sfomuseum-data-socialmedia-instagram",
    "wof:superseded_by": [],
    "wof:supersedes": []
  },
  "bbox": [
    -122.386166,
    37.616356,
    -122.386166,
    37.616356
  ],
  "geometry": {"type":"Point","coordinates":[-122.386166,37.616356]}
}
