{
  "id": 1729355907,
  "type": "Feature",
  "properties": {
    "date:cessation_lower": "2019-11-07",
    "date:cessation_upper": "2019-11-07",
    "date:inception_lower": "2019-11-07",
    "date:inception_upper": "2019-11-07",
    "edtf:cessation": "2019-11-07T08:00:00-08:00",
    "edtf:inception": "2019-11-07T08:00:00-08:00",
    "geom:area": 0,
    "geom:bbox": "-122.386166,37.616356,-122.386166,37.616356",
    "geom:latitude": 37.616356,
    "geom:longitude": -122.386166,
    "instagram:post": {
      "caption": {
        "body": "Midway Atoll, also called Midway Island, is part of the territory now called the United States Minor Outlying Islands. It was utilized by Pan American Airways as an island stop on their transpacific route to Asia from the 1930s to the 1950s. As its name suggests, it’s roughly halfway between the continents of Asia and North America. Midway was an important base for Pan Am’s transpacific flying boat routes on the leg between Hawai’i and Wake Island. Midway remains an important breeding ground for the Laysan albatross. They inhabit the entire island, including human settlements. Their awkwardness on land and behavioral antics entertained residents and visiting passengers earning them the nickname “gooney bird.” Tourists are no longer allowed on Midway. It now part of the 140,000-square-mile Papahānaumokuākea Marine National Monument and home to 70% of the world’s Laysan albatross population, whose individuals can live to 55 years or more.  Image: Pan American’s “Airways Inn” with gooney birds on the lawn, Midway Island, c. 1940. Gift of the Captain John B. Russell Family. 2012.149.0284",
        "excerpt": "Midway Atoll, also called Midway Island, is part of the territory now called the United States Minor Outlying Islands.",
        "hashtags": [
          "avgeek",
          "PanAm",
          "environment",
          "albatross",
          "midwayatoll",
          "midway",
          "threatenedspecies",
          "nationalmonument",
          "wildliferefuge",
          "Laysanalbatross"
        ],
        "users": []
      },
      "media_id": "684e8f626c781c6f8085884030b1ffcf",
      "path": "media/other/72730330_242697103378991_755489486348826331_n_18080339227141244.jpg",
      "perceptual_hash": "p:8880e153a50aff7f",
      "taken": 1573142400,
      "taken_at": "Nov 07, 2019 4:00 pm"
    },
    "millsfield:similar": {
      "google/siglip2-so400m-patch16-naflex": [
        {
          "distance": 0.12342679500579834,
          "id": 1729361087
        },
        {
          "distance": 0.13908112049102783,
          "id": 1729357863
        },
        {
          "distance": 0.2001955509185791,
          "id": 1729357863
        },
        {
          "distance": 0.21168720722198486,
          "id": 1729361087
        },
        {
          "distance": 0.25200074911117554,
          "id": 1729355393
        },
        {
          "distance": 0.27081429958343506,
          "id": 1763559233
        },
        {
          "distance": 0.281965434551239,
          "id": 1729359515
        },
        {
          "distance": 0.28227698802948,
          "id": 1729357547
        },
        {
          "distance": 0.28285807371139526,
          "id": 1729356843
        },
        {
          "distance": 0.28758764266967773,
          "id": 1729359805
        }
      ]
    },
    "sfomuseum:placetype": "instagram",
    "src:geom": "sfomuseum",
    "wof:belongsto": [
      1159160869,
      102527513,
      102191575,
      85633793,
      102087579,
      85922583,
      85688637
    ],
    "wof:country": "US",
    "wof:created": 1573142400,
    "wof:geomhash": "b6e33f47475d56bc8da457bc31afadc8",
    "wof:hierarchy": [
      {
        "building_id": 1159160869,
        "campus_id": 102527513,
        "continent_id": 102191575,
        "country_id": 85633793,
        "county_id": 102087579,
        "custom_id": 1729355907,
        "instagram_id": 1729355907,
        "locality_id": 85922583,
        "neighbourhood_id": -1,
        "region_id": 85688637
      }
    ],
    "wof:id": 1729355907,
    "wof:lastmodified": 1787777627,
    "wof:name": "Midway Atoll, also called Midway Island, is part of the territory now called the United States Minor Outlying Islands...",
    "wof:parent_id": 1159160869,
    "wof:placetype": "custom",
    "wof:placetype_alt": [
      "instagram"
    ],
    "wof:repo": "sfomuseum-data-socialmedia-instagram",
    "wof:superseded_by": [],
    "wof:supersedes": []
  },
  "bbox": [
    -122.386166,
    37.616356,
    -122.386166,
    37.616356
  ],
  "geometry": {"type":"Point","coordinates":[-122.386166,37.616356]}
}
