{
  "id": 1729359775,
  "type": "Feature",
  "properties": {
    "date:cessation_lower": "2017-03-01",
    "date:cessation_upper": "2017-03-01",
    "date:inception_lower": "2017-03-01",
    "date:inception_upper": "2017-03-01",
    "edtf:cessation": "2017-03-01T01:37:00-08:00",
    "edtf:inception": "2017-03-01T01:37:00-08:00",
    "geom:area": 0,
    "geom:bbox": "-122.386166,37.616356,-122.386166,37.616356",
    "geom:latitude": 37.616356,
    "geom:longitude": -122.386166,
    "instagram:post": {
      "caption": {
        "body": "",
        "excerpt": "",
        "hashtags": [
          "WomeninAviation",
          "FashionInFlight",
          "Pucci",
          "Fashion",
          "Braniff",
          "womenshistorymonth"
        ],
        "users": []
      },
      "media_id": "e67373ff9ccea4629b1f275088d29321",
      "path": "media/posts/201703/16788953_1398181370265509_7622299247852912640_n_17874378298030191.jpg",
      "perceptual_hash": "p:9ada9fce9422cc31",
      "taken": 1488361020,
      "taken_at": "Mar 01, 2017 9:37 am"
    },
    "millsfield:similar": {
      "google/siglip2-so400m-patch16-naflex": [
        {
          "distance": 0.19669806957244873,
          "id": 1729360907
        },
        {
          "distance": 0.21054744720458984,
          "id": 1763559475
        },
        {
          "distance": 0.2126849889755249,
          "id": 1729360149
        },
        {
          "distance": 0.21804094314575195,
          "id": 1729360907
        },
        {
          "distance": 0.21875232458114624,
          "id": 1729360149
        },
        {
          "distance": 0.2302914261817932,
          "id": 1729360657
        },
        {
          "distance": 0.23375582695007324,
          "id": 1729357223
        },
        {
          "distance": 0.23981356620788574,
          "id": 1729360171
        },
        {
          "distance": 0.24631857872009277,
          "id": 1763559475
        },
        {
          "distance": 0.2470218539237976,
          "id": 1729360657
        }
      ]
    },
    "sfomuseum:placetype": "instagram",
    "src:geom": "sfomuseum",
    "wof:belongsto": [
      1159160869,
      102527513,
      102191575,
      85633793,
      102087579,
      85922583,
      85688637
    ],
    "wof:country": "US",
    "wof:created": 1488361020,
    "wof:geomhash": "b6e33f47475d56bc8da457bc31afadc8",
    "wof:hierarchy": [
      {
        "building_id": 1159160869,
        "campus_id": 102527513,
        "continent_id": 102191575,
        "country_id": 85633793,
        "county_id": 102087579,
        "custom_id": 1729359775,
        "instagram_id": 1729359775,
        "locality_id": 85922583,
        "neighbourhood_id": -1,
        "region_id": 85688637
      }
    ],
    "wof:id": 1729359775,
    "wof:lastmodified": 1787777636,
    "wof:name": "..",
    "wof:parent_id": 1159160869,
    "wof:placetype": "custom",
    "wof:placetype_alt": [
      "instagram"
    ],
    "wof:repo": "sfomuseum-data-socialmedia-instagram",
    "wof:superseded_by": [],
    "wof:supersedes": []
  },
  "bbox": [
    -122.386166,
    37.616356,
    -122.386166,
    37.616356
  ],
  "geometry": {"type":"Point","coordinates":[-122.386166,37.616356]}
}
