{
  "id": 1729356897,
  "type": "Feature",
  "properties": {
    "date:cessation_lower": "2019-03-01",
    "date:cessation_upper": "2019-03-01",
    "date:inception_lower": "2019-03-01",
    "date:inception_upper": "2019-03-01",
    "edtf:cessation": "2019-02-28T17:47:20-08:00",
    "edtf:inception": "2019-02-28T17:47:20-08:00",
    "geom:area": 0,
    "geom:bbox": "-122.386166,37.616356,-122.386166,37.616356",
    "geom:latitude": 37.616356,
    "geom:longitude": -122.386166,
    "instagram:post": {
      "caption": {
        "body": "Terminal 2, previously known as the Central Terminal, opened in 1954. Here are views of the terminal from just before its opening, the 1980s, and 2012",
        "excerpt": "Terminal 2, previously known as the Central Terminal, opened in 1954.",
        "hashtags": [
          "ThrowbackThursday",
          "SFOHistory",
          "SFHistory",
          "avgeek",
          "airport",
          "airportarchitecture",
          "architecture"
        ],
        "users": []
      },
      "location": "",
      "media_id": "154098ecf8277eed3c0e668394a0b81a",
      "path": "photos/201902/154098ecf8277eed3c0e668394a0b81a.jpg",
      "perceptual_hash": "p:e1e562dace1ac546",
      "taken": 1551376020,
      "taken_at": "Feb 28, 2019, 5:47 PM"
    },
    "millsfield:similar": {
      "google/siglip2-so400m-patch16-naflex": [
        {
          "distance": 0.14606010913848877,
          "id": 1729355207
        },
        {
          "distance": 0.1642664670944214,
          "id": 1729356895
        },
        {
          "distance": 0.16588062047958374,
          "id": 1729355207
        },
        {
          "distance": 0.18332254886627197,
          "id": 1729360677
        },
        {
          "distance": 0.18418020009994507,
          "id": 1947425255
        },
        {
          "distance": 0.19681274890899658,
          "id": 1729361697
        },
        {
          "distance": 0.20052164793014526,
          "id": 1763558661
        },
        {
          "distance": 0.20052164793014526,
          "id": 1729359633
        },
        {
          "distance": 0.20494931936264038,
          "id": 1729361697
        },
        {
          "distance": 0.20561456680297852,
          "id": 1729360213
        }
      ]
    },
    "sfomuseum:placetype": "instagram",
    "src:geom": "sfomuseum",
    "wof:belongsto": [
      1159160869,
      102527513,
      102191575,
      85633793,
      102087579,
      85922583,
      85688637
    ],
    "wof:country": "US",
    "wof:created": 1551404840,
    "wof:geomhash": "b6e33f47475d56bc8da457bc31afadc8",
    "wof:hierarchy": [
      {
        "building_id": 1159160869,
        "campus_id": 102527513,
        "continent_id": 102191575,
        "country_id": 85633793,
        "county_id": 102087579,
        "custom_id": 1729356897,
        "instagram_id": 1729356897,
        "locality_id": 85922583,
        "neighbourhood_id": -1,
        "region_id": 85688637
      }
    ],
    "wof:id": 1729356897,
    "wof:lastmodified": 1787777629,
    "wof:name": "Terminal 2, previously known as the Central Terminal, opened in 1954...",
    "wof:parent_id": 1159160869,
    "wof:placetype": "custom",
    "wof:placetype_alt": [
      "instagram"
    ],
    "wof:repo": "sfomuseum-data-socialmedia-instagram",
    "wof:superseded_by": [],
    "wof:supersedes": []
  },
  "bbox": [
    -122.386166,
    37.616356,
    -122.386166,
    37.616356
  ],
  "geometry": {"type":"Point","coordinates":[-122.386166,37.616356]}
}
