{
  "id": 1729361717,
  "type": "Feature",
  "properties": {
    "date:cessation_lower": "2015-06-19",
    "date:cessation_upper": "2015-06-19",
    "date:inception_lower": "2015-06-19",
    "date:inception_upper": "2015-06-19",
    "edtf:cessation": "2015-06-19T07:14:00-07:00",
    "edtf:inception": "2015-06-19T07:14:00-07:00",
    "geom:area": 0,
    "geom:bbox": "-122.386166,37.616356,-122.386166,37.616356",
    "geom:latitude": 37.616356,
    "geom:longitude": -122.386166,
    "instagram:post": {
      "caption": {
        "body": "",
        "excerpt": "",
        "hashtags": [
          "EgyptianRevival"
        ],
        "users": []
      },
      "media_id": "d31558f3f40d9666a03891e4322d02e9",
      "path": "media/other/11377602_690923341041284_1902537338_n_17841807883062499.jpg",
      "perceptual_hash": "p:bf2da5134893caa6",
      "taken": 1434723240,
      "taken_at": "Jun 19, 2015 2:14 pm"
    },
    "millsfield:similar": {
      "google/siglip2-so400m-patch16-naflex": [
        {
          "distance": 0.2999998927116394,
          "id": 1729355901
        },
        {
          "distance": 0.30463021993637085,
          "id": 1729357003
        },
        {
          "distance": 0.30616509914398193,
          "id": 1729356161
        },
        {
          "distance": 0.31795287132263184,
          "id": 1729357005
        },
        {
          "distance": 0.32234013080596924,
          "id": 1729356125
        },
        {
          "distance": 0.34199345111846924,
          "id": 1729356161
        },
        {
          "distance": 0.3435262441635132,
          "id": 1763559035
        },
        {
          "distance": 0.34763574600219727,
          "id": 1729355681
        },
        {
          "distance": 0.3477294445037842,
          "id": 1947425291
        },
        {
          "distance": 0.34890544414520264,
          "id": 1729356487
        }
      ]
    },
    "sfomuseum:placetype": "instagram",
    "src:geom": "sfomuseum",
    "wof:belongsto": [
      1159160869,
      102527513,
      102191575,
      85633793,
      102087579,
      85922583,
      85688637
    ],
    "wof:country": "US",
    "wof:created": 1434723240,
    "wof:geomhash": "b6e33f47475d56bc8da457bc31afadc8",
    "wof:hierarchy": [
      {
        "building_id": 1159160869,
        "campus_id": 102527513,
        "continent_id": 102191575,
        "country_id": 85633793,
        "county_id": 102087579,
        "custom_id": 1729361717,
        "instagram_id": 1729361717,
        "locality_id": 85922583,
        "neighbourhood_id": -1,
        "region_id": 85688637
      }
    ],
    "wof:id": 1729361717,
    "wof:lastmodified": 1787777646,
    "wof:name": "..",
    "wof:parent_id": 1159160869,
    "wof:placetype": "custom",
    "wof:placetype_alt": [
      "instagram"
    ],
    "wof:repo": "sfomuseum-data-socialmedia-instagram",
    "wof:superseded_by": [],
    "wof:supersedes": []
  },
  "bbox": [
    -122.386166,
    37.616356,
    -122.386166,
    37.616356
  ],
  "geometry": {"type":"Point","coordinates":[-122.386166,37.616356]}
}
