{
  "id": 1763559319,
  "type": "Feature",
  "properties": {
    "date:cessation_lower": "2021-11-18",
    "date:cessation_upper": "2021-11-18",
    "date:inception_lower": "2021-11-18",
    "date:inception_upper": "2021-11-18",
    "edtf:cessation": "2021-11-18T08:37:00-08:00",
    "edtf:inception": "2021-11-18T08:37:00-08:00",
    "geom:area": 0,
    "geom:bbox": "-122.386166,37.616356,-122.386166,37.616356",
    "geom:latitude": 37.616356,
    "geom:longitude": -122.386166,
    "instagram:post": {
      "caption": {
        "body": "From the career history of Captain Charles Marinus Sundby, who served with companies including the Danish Naval Air Service and the China National Aviation Corporation (CNAC): a celebration of his first solo flight on June 21, 1935, at the Avnø Air Station. It was traditional in the Danish Naval Air Service to give the successful soloist a bouquet of wildflowers.",
        "excerpt": "From the career history of Captain Charles Marinus Sundby, who served with companies including the Danish Naval Air Service and the China National Aviation Corporation (CNAC): a celebration of his first solo flight on June 21, 1935, at the Avnø Air Station.",
        "hashtags": [
          "avgeek",
          "pilotlife",
          "1930s"
        ],
        "users": []
      },
      "media_id": "f6e3f09ef6f1439f8d0a020793084fe94df65843",
      "path": "media/other/258429666_4536779746416728_153953856276682831_n_17935589269765783.jpg",
      "perceptual_hash": "p:aef551f1e42a0a2d",
      "taken": 1637253420,
      "taken_at": "Nov 18, 2021 4:37 pm"
    },
    "millsfield:similar": {
      "google/siglip2-so400m-patch16-naflex": [
        {
          "distance": 0.08699840307235718,
          "id": 1729359419
        },
        {
          "distance": 0.09366679191589355,
          "id": 1729361333
        },
        {
          "distance": 0.14398819208145142,
          "id": 1729362189
        },
        {
          "distance": 0.16103774309158325,
          "id": 1729359671
        },
        {
          "distance": 0.16975939273834229,
          "id": 1729361333
        },
        {
          "distance": 0.17227041721343994,
          "id": 1729359419
        },
        {
          "distance": 0.17846661806106567,
          "id": 1729357001
        },
        {
          "distance": 0.17849242687225342,
          "id": 1729359667
        },
        {
          "distance": 0.17958176136016846,
          "id": 1729361391
        },
        {
          "distance": 0.18676620721817017,
          "id": 1729361581
        }
      ]
    },
    "sfomuseum:placetype": "instagram",
    "src:geom": "sfomuseum",
    "wof:belongsto": [
      1159160869,
      102527513,
      102191575,
      85633793,
      102087579,
      85922583,
      85688637
    ],
    "wof:country": "US",
    "wof:created": 1637253420,
    "wof:geomhash": "b6e33f47475d56bc8da457bc31afadc8",
    "wof:hierarchy": [
      {
        "building_id": 1159160869,
        "campus_id": 102527513,
        "continent_id": 102191575,
        "country_id": 85633793,
        "county_id": 102087579,
        "custom_id": 1763559319,
        "instagram_id": 1763559319,
        "locality_id": 85922583,
        "neighbourhood_id": -1,
        "region_id": 85688637
      }
    ],
    "wof:id": 1763559319,
    "wof:lastmodified": 1787777660,
    "wof:name": "From the career history of Captain Charles Marinus Sundby, who served with companies including the Danish Naval Air Service and the China National Aviation Corporation (CNAC): a celebration of his first solo flight on June 21, 1935, at the Avnø Air Station...",
    "wof:parent_id": 1159160869,
    "wof:placetype": "custom",
    "wof:placetype_alt": [
      "instagram"
    ],
    "wof:repo": "sfomuseum-data-socialmedia-instagram",
    "wof:superseded_by": [],
    "wof:supersedes": []
  },
  "bbox": [
    -122.386166,
    37.616356,
    -122.386166,
    37.616356
  ],
  "geometry": {"type":"Point","coordinates":[-122.386166,37.616356]}
}
