{
  "id": 1763559173,
  "type": "Feature",
  "properties": {
    "date:cessation_lower": "2021-04-27",
    "date:cessation_upper": "2021-04-27",
    "date:inception_lower": "2021-04-27",
    "date:inception_upper": "2021-04-27",
    "edtf:cessation": "2021-04-27T08:40:00-07:00",
    "edtf:inception": "2021-04-27T08:40:00-07:00",
    "geom:area": 0,
    "geom:bbox": "-122.386166,37.616356,-122.386166,37.616356",
    "geom:latitude": 37.616356,
    "geom:longitude": -122.386166,
    "instagram:post": {
      "caption": {
        "body": "San Francisco and the Bay from a plane has always been a beautiful view.  📸: San Francisco aerial photograph; c. 1920 Stanley H. Page Gift of Charles Page",
        "excerpt": "San Francisco and the Bay from a plane has always been a beautiful view.",
        "hashtags": [
          "SanFrancisco",
          "SFHistory",
          "aerialphotography",
          "windowview"
        ],
        "users": []
      },
      "media_id": "3a6dcfe2d85ed9483346c298708846664904c782",
      "path": "media/other/177866512_945878609575757_2666708117077653023_n_17914295053686194.jpg",
      "perceptual_hash": "p:948ffe29f01e17c0",
      "taken": 1619538000,
      "taken_at": "Apr 27, 2021 3:40 pm"
    },
    "millsfield:similar": {
      "google/siglip2-so400m-patch16-naflex": [
        {
          "distance": 0.07708948850631714,
          "id": 1729360929
        },
        {
          "distance": 0.09694284200668335,
          "id": 1729360929
        },
        {
          "distance": 0.11986398696899414,
          "id": 1729355665
        },
        {
          "distance": 0.1254713535308838,
          "id": 1729355339
        },
        {
          "distance": 0.12664830684661865,
          "id": 1729355339
        },
        {
          "distance": 0.13299697637557983,
          "id": 1729359537
        },
        {
          "distance": 0.14621740579605103,
          "id": 1729355361
        },
        {
          "distance": 0.15932339429855347,
          "id": 1880151041
        },
        {
          "distance": 0.16436713933944702,
          "id": 1729361289
        },
        {
          "distance": 0.1686408519744873,
          "id": 1729355665
        }
      ]
    },
    "sfomuseum:placetype": "instagram",
    "src:geom": "sfomuseum",
    "wof:belongsto": [
      1159160869,
      102527513,
      102191575,
      85633793,
      102087579,
      85922583,
      85688637
    ],
    "wof:country": "US",
    "wof:created": 1619538000,
    "wof:geomhash": "b6e33f47475d56bc8da457bc31afadc8",
    "wof:hierarchy": [
      {
        "building_id": 1159160869,
        "campus_id": 102527513,
        "continent_id": 102191575,
        "country_id": 85633793,
        "county_id": 102087579,
        "custom_id": 1763559173,
        "instagram_id": 1763559173,
        "locality_id": 85922583,
        "neighbourhood_id": -1,
        "region_id": 85688637
      }
    ],
    "wof:id": 1763559173,
    "wof:lastmodified": 1787777660,
    "wof:name": "San Francisco and the Bay from a plane has always been a beautiful view...",
    "wof:parent_id": 1159160869,
    "wof:placetype": "custom",
    "wof:placetype_alt": [
      "instagram"
    ],
    "wof:repo": "sfomuseum-data-socialmedia-instagram",
    "wof:superseded_by": [],
    "wof:supersedes": []
  },
  "bbox": [
    -122.386166,
    37.616356,
    -122.386166,
    37.616356
  ],
  "geometry": {"type":"Point","coordinates":[-122.386166,37.616356]}
}
