{
  "id": 1729356487,
  "type": "Feature",
  "properties": {
    "date:cessation_lower": "2019-06-05",
    "date:cessation_upper": "2019-06-05",
    "date:inception_lower": "2019-06-05",
    "date:inception_upper": "2019-06-05",
    "edtf:cessation": "2019-06-05T01:07:00-07:00",
    "edtf:inception": "2019-06-05T01:07:00-07:00",
    "geom:area": 0,
    "geom:bbox": "-122.386166,37.616356,-122.386166,37.616356",
    "geom:latitude": 37.616356,
    "geom:longitude": -122.386166,
    "instagram:post": {
      "caption": {
        "body": "Exposure to Ancient Egypt inspired the Egyptian Revival, a design style that permeated western decorative arts and furniture in the nineteenth century. Obelisks, hieroglyphs, sphinxes, pyramids, scarabs, and lotus blossoms were popular motifs. Imagery was construed and adapted in different ways, from literal interpretations to fanciful artistic motifs. In furniture, Egyptian Revival pieces rarely comprised a full suite; rather they served as statement pieces. “The Style of Display: Victorian Pedestals” is on display pre-security in the International Terminal. http://bit.ly/VictorianPedestals",
        "excerpt": "Exposure to Ancient Egypt inspired the Egyptian Revival, a design style that permeated western decorative arts and furniture in the nineteenth century.",
        "hashtags": [
          "VictorianPedestals",
          "victorian",
          "pedestals",
          "victorianfurniture",
          "victoriana",
          "design",
          "decorativeart",
          "interiorstyle"
        ],
        "users": []
      },
      "media_id": "10ecc304c3ac85a63afdc6437beaab83",
      "path": "media/posts/201906/60888581_2198550386932234_5272749830683003941_n_17952336490282937.jpg",
      "perceptual_hash": "p:e6e6ea349ae91238",
      "taken": 1559722020,
      "taken_at": "Jun 05, 2019 8:07 am"
    },
    "millsfield:similar": {
      "google/siglip2-so400m-patch16-naflex": [
        {
          "distance": 0.19063717126846313,
          "id": 1729356125
        },
        {
          "distance": 0.1926424503326416,
          "id": 1729356161
        },
        {
          "distance": 0.19421374797821045,
          "id": 1729355901
        },
        {
          "distance": 0.1956573724746704,
          "id": 1729356161
        },
        {
          "distance": 0.19619345664978027,
          "id": 1729356125
        },
        {
          "distance": 0.21014106273651123,
          "id": 1729355901
        },
        {
          "distance": 0.22259831428527832,
          "id": 1729356419
        },
        {
          "distance": 0.2254643440246582,
          "id": 1729355975
        },
        {
          "distance": 0.23281455039978027,
          "id": 1729356175
        },
        {
          "distance": 0.23378169536590576,
          "id": 1729355831
        }
      ]
    },
    "sfomuseum:placetype": "instagram",
    "src:geom": "sfomuseum",
    "wof:belongsto": [
      1159160869,
      102527513,
      102191575,
      85633793,
      102087579,
      85922583,
      85688637
    ],
    "wof:country": "US",
    "wof:created": 1559722020,
    "wof:geomhash": "b6e33f47475d56bc8da457bc31afadc8",
    "wof:hierarchy": [
      {
        "building_id": 1159160869,
        "campus_id": 102527513,
        "continent_id": 102191575,
        "country_id": 85633793,
        "county_id": 102087579,
        "custom_id": 1729356487,
        "instagram_id": 1729356487,
        "locality_id": 85922583,
        "neighbourhood_id": -1,
        "region_id": 85688637
      }
    ],
    "wof:id": 1729356487,
    "wof:lastmodified": 1787777629,
    "wof:name": "Exposure to Ancient Egypt inspired the Egyptian Revival, a design style that permeated western decorative arts and furniture in the nineteenth century...",
    "wof:parent_id": 1159160869,
    "wof:placetype": "custom",
    "wof:placetype_alt": [
      "instagram"
    ],
    "wof:repo": "sfomuseum-data-socialmedia-instagram",
    "wof:superseded_by": [],
    "wof:supersedes": []
  },
  "bbox": [
    -122.386166,
    37.616356,
    -122.386166,
    37.616356
  ],
  "geometry": {"type":"Point","coordinates":[-122.386166,37.616356]}
}
