{
  "id": 1729355557,
  "type": "Feature",
  "properties": {
    "date:cessation_lower": "2020-02-11",
    "date:cessation_upper": "2020-02-11",
    "date:inception_lower": "2020-02-11",
    "date:inception_upper": "2020-02-11",
    "edtf:cessation": "2020-02-11T05:32:00-08:00",
    "edtf:inception": "2020-02-11T05:32:00-08:00",
    "geom:area": 0,
    "geom:bbox": "-122.386166,37.616356,-122.386166,37.616356",
    "geom:latitude": 37.616356,
    "geom:longitude": -122.386166,
    "instagram:post": {
      "caption": {
        "body": "The Big 2-0! Happy Birthday to JetBlue which commenced operations #onthisday in 2000. Operating an Airbus A320, JetBlue's inaugural flight took off from John F. Kennedy Airport in New York City to Fort Lauderdale, Florida. Have you ever flown on JetBlue?  Image: JetBlue Airways model airplane, Airbus A320, 2008. SFO Museum Collection. 2009.036.011 a b",
        "excerpt": "The Big 2-0!",
        "hashtags": [
          "jetblue",
          "avgeek",
          "airbus",
          "aircraftmodel",
          "HBD",
          "TravelTuesday"
        ],
        "users": []
      },
      "media_id": "e8cde357aa535b393bf0f3fe54006772",
      "path": "media/other/84350681_2466818480247413_9210588545535078314_n_18052095022209041.jpg",
      "perceptual_hash": "p:b24a25a5397ace66",
      "taken": 1581427920,
      "taken_at": "Feb 11, 2020 1:32 pm"
    },
    "millsfield:similar": {
      "google/siglip2-so400m-patch16-naflex": [
        {
          "distance": 0.17411565780639648,
          "id": 1729356341
        },
        {
          "distance": 0.17483854293823242,
          "id": 1763558963
        },
        {
          "distance": 0.1767435073852539,
          "id": 1729356341
        },
        {
          "distance": 0.18150711059570312,
          "id": 1729359579
        },
        {
          "distance": 0.18218296766281128,
          "id": 1763559313
        },
        {
          "distance": 0.18585246801376343,
          "id": 1729356565
        },
        {
          "distance": 0.18922334909439087,
          "id": 1729358315
        },
        {
          "distance": 0.19369393587112427,
          "id": 1729355709
        },
        {
          "distance": 0.20300012826919556,
          "id": 1763559313
        },
        {
          "distance": 0.21140187978744507,
          "id": 1729356383
        }
      ]
    },
    "sfomuseum:placetype": "instagram",
    "src:geom": "sfomuseum",
    "wof:belongsto": [
      1159160869,
      102527513,
      102191575,
      85633793,
      102087579,
      85922583,
      85688637
    ],
    "wof:country": "US",
    "wof:created": 1581427920,
    "wof:geomhash": "b6e33f47475d56bc8da457bc31afadc8",
    "wof:hierarchy": [
      {
        "building_id": 1159160869,
        "campus_id": 102527513,
        "continent_id": 102191575,
        "country_id": 85633793,
        "county_id": 102087579,
        "custom_id": 1729355557,
        "instagram_id": 1729355557,
        "locality_id": 85922583,
        "neighbourhood_id": -1,
        "region_id": 85688637
      }
    ],
    "wof:id": 1729355557,
    "wof:lastmodified": 1787777626,
    "wof:name": "The Big 2-0!..",
    "wof:parent_id": 1159160869,
    "wof:placetype": "custom",
    "wof:placetype_alt": [
      "instagram"
    ],
    "wof:repo": "sfomuseum-data-socialmedia-instagram",
    "wof:superseded_by": [],
    "wof:supersedes": []
  },
  "bbox": [
    -122.386166,
    37.616356,
    -122.386166,
    37.616356
  ],
  "geometry": {"type":"Point","coordinates":[-122.386166,37.616356]}
}
