{
  "id": 1880151495,
  "type": "Feature",
  "properties": {
    "date:cessation_lower": "2022-08-23",
    "date:cessation_upper": "2022-08-23",
    "date:inception_lower": "2022-08-23",
    "date:inception_upper": "2022-08-23",
    "edtf:cessation": "2022-08-23T04:35:00-07:00",
    "edtf:inception": "2022-08-23T04:35:00-07:00",
    "geom:area": 0,
    "geom:bbox": "-122.386166,37.616356,-122.386166,37.616356",
    "geom:latitude": 37.616356,
    "geom:longitude": -122.386166,
    "instagram:post": {
      "caption": {
        "body": "In his series, “Seeing in the Dark,” Tommy Keith explores the limits of human vision and underscores photography’s innate ability to reveal the unseen. Working in near-darkness during the liminal moments of twilight, Keith makes photographs that shift otherwise ordinary scenes into enigmatic images that challenge our perception of the world around us.  “Seeing in the Dark” by Tommy Keith is on display pre-security, in Terminal 3 and online at: https://bit.ly/3CpC5E2",
        "excerpt": "In his series, “Seeing in the Dark,” Tommy Keith explores the limits of human vision and underscores photography’s innate ability to reveal the unseen.",
        "hashtags": [
          "photography",
          "photographer",
          "TommyKeith"
        ],
        "users": [
          "t0mmykeith"
        ]
      },
      "media_id": "fe19a3b2436f30b0248d673a65c172d356257dc6",
      "path": "media/posts/202208/301139013_144951621552368_3914935575110659727_n_17974269946722421.jpg",
      "perceptual_hash": "p:b2644db992c66d5a",
      "taken": 1661254500,
      "taken_at": "Aug 23, 2022 11:35 am"
    },
    "millsfield:similar": {
      "google/siglip2-so400m-patch16-naflex": [
        {
          "distance": 0.22471725940704346,
          "id": 1729355761
        },
        {
          "distance": 0.2311420440673828,
          "id": 1729355761
        },
        {
          "distance": 0.2462441325187683,
          "id": 1729355757
        },
        {
          "distance": 0.27918630838394165,
          "id": 1729355447
        },
        {
          "distance": 0.2845733165740967,
          "id": 1729355749
        },
        {
          "distance": 0.2885623574256897,
          "id": 1729356871
        },
        {
          "distance": 0.29033100605010986,
          "id": 1729355749
        },
        {
          "distance": 0.29968172311782837,
          "id": 1729355141
        },
        {
          "distance": 0.30028778314590454,
          "id": 1729360727
        },
        {
          "distance": 0.3036062717437744,
          "id": 1729360727
        }
      ]
    },
    "sfomuseum:placetype": "instagram",
    "src:geom": "sfomuseum",
    "wof:belongsto": [
      1159160869,
      102527513,
      102191575,
      85633793,
      102087579,
      85922583,
      85688637
    ],
    "wof:country": "US",
    "wof:created": 1661254500,
    "wof:geomhash": "b6e33f47475d56bc8da457bc31afadc8",
    "wof:hierarchy": [
      {
        "building_id": 1159160869,
        "campus_id": 102527513,
        "continent_id": 102191575,
        "country_id": 85633793,
        "county_id": 102087579,
        "custom_id": 1880151495,
        "instagram_id": 1880151495,
        "locality_id": 85922583,
        "neighbourhood_id": -1,
        "region_id": 85688637
      }
    ],
    "wof:id": 1880151495,
    "wof:lastmodified": 1787777662,
    "wof:name": "In his series, “Seeing in the Dark,” Tommy Keith explores the limits of human vision and underscores photography’s innate ability to reveal the unseen...",
    "wof:parent_id": 1159160869,
    "wof:placetype": "custom",
    "wof:placetype_alt": [
      "instagram"
    ],
    "wof:repo": "sfomuseum-data-socialmedia-instagram",
    "wof:superseded_by": [],
    "wof:supersedes": []
  },
  "bbox": [
    -122.386166,
    37.616356,
    -122.386166,
    37.616356
  ],
  "geometry": {"type":"Point","coordinates":[-122.386166,37.616356]}
}
