{
  "id": 1880151059,
  "type": "Feature",
  "properties": {
    "date:cessation_lower": "2023-03-14",
    "date:cessation_upper": "2023-03-14",
    "date:inception_lower": "2023-03-14",
    "date:inception_upper": "2023-03-14",
    "edtf:cessation": "2023-03-14T04:00:00-07:00",
    "edtf:inception": "2023-03-14T04:00:00-07:00",
    "geom:area": 0,
    "geom:bbox": "-122.386166,37.616356,-122.386166,37.616356",
    "geom:latitude": 37.616356,
    "geom:longitude": -122.386166,
    "instagram:post": {
      "caption": {
        "body": "French American coloratura soprano Lily Pons (1898–1976) was a pop-cultural sensation and appeared on radio programs, recorded for RCA Records, starred in Hollywood films, and had perfume, flowers, and even a town—Lilypons, Maryland—named after her. She graced the cover of Time magazine in October 1932, and then in December 1940 wearing the costume on exhibition, made for her role as Marie in a revival of Donizetti’s 𝘓𝘢 𝘍𝘪𝘭𝘭𝘦 𝘥𝘶 𝘙é𝘨𝘪𝘮𝘦𝘯𝘵 at the Metropolitan Opera. San Francisco Opera first performed 𝘓𝘢 𝘍𝘪𝘭𝘭𝘦 𝘥𝘶 𝘙é𝘨𝘪𝘮𝘦𝘯𝘵 in October 1941, again starring Pons. The world was engulfed in war when the opera was staged in San Francisco the following year, and during the final scene, Pons waved the flag of Free France and led a sing-along of the French national anthem, “La Marseillaise,” followed by the “Star Spangled Banner” as the French flag was dipped in tribute.   Learn more about San Francisco Opera’s history in our exhibition “San Francisco Opera: A Centennial Celebration” on display, post-security, in Harvey Milk Terminal 1. https://bit.ly/SFOperaCentennial",
        "excerpt": "French American coloratura soprano Lily Pons (1898–1976) was a pop-cultural sensation and appeared on radio programs, recorded for RCA Records, starred in Hollywood films, and had perfume, flowers, and even a town—Lilypons, Maryland—named after her.",
        "hashtags": [
          "SFOperaCentennial",
          "SFOpera",
          "Opera",
          "WomensHistoryMonth"
        ],
        "users": [
          "sfopera"
        ]
      },
      "media_id": "b08c6c04bd9f3a6c7ca72f6735065f6be6e5d484",
      "path": "media/posts/202303/335917656_1254816751774441_3738794688244913246_n_17883941726762407.jpg",
      "perceptual_hash": "p:ff4df204b30ad225",
      "taken": 1678791600,
      "taken_at": "Mar 14, 2023 11:00 am"
    },
    "millsfield:similar": {
      "google/siglip2-so400m-patch16-naflex": [
        {
          "distance": 0.02542036771774292,
          "id": 1947425263
        },
        {
          "distance": 0.12270194292068481,
          "id": 1947425263
        },
        {
          "distance": 0.22828537225723267,
          "id": 1880151257
        },
        {
          "distance": 0.23258966207504272,
          "id": 1880150897
        },
        {
          "distance": 0.24857908487319946,
          "id": 1947424803
        },
        {
          "distance": 0.2488660216331482,
          "id": 1947425119
        },
        {
          "distance": 0.25480854511260986,
          "id": 1880151257
        },
        {
          "distance": 0.2562493681907654,
          "id": 1880151033
        },
        {
          "distance": 0.2562493681907654,
          "id": 1947425245
        },
        {
          "distance": 0.2572290897369385,
          "id": 1947425287
        }
      ]
    },
    "sfomuseum:placetype": "instagram",
    "src:geom": "sfomuseum",
    "wof:belongsto": [
      1159160869,
      102527513,
      102191575,
      85633793,
      102087579,
      85922583,
      85688637
    ],
    "wof:country": "US",
    "wof:created": 1678791600,
    "wof:geomhash": "b6e33f47475d56bc8da457bc31afadc8",
    "wof:hierarchy": [
      {
        "building_id": 1159160869,
        "campus_id": 102527513,
        "continent_id": 102191575,
        "country_id": 85633793,
        "county_id": 102087579,
        "custom_id": 1880151059,
        "instagram_id": 1880151059,
        "locality_id": 85922583,
        "neighbourhood_id": -1,
        "region_id": 85688637
      }
    ],
    "wof:id": 1880151059,
    "wof:lastmodified": 1787777661,
    "wof:name": "French American coloratura soprano Lily Pons (1898–1976) was a pop-cultural sensation and appeared on radio programs, recorded for RCA Records, starred in Hollywood films, and had perfume, flowers, and even a town—Lilypons, Maryland—named after her...",
    "wof:parent_id": 1159160869,
    "wof:placetype": "custom",
    "wof:placetype_alt": [
      "instagram"
    ],
    "wof:repo": "sfomuseum-data-socialmedia-instagram",
    "wof:superseded_by": [],
    "wof:supersedes": []
  },
  "bbox": [
    -122.386166,
    37.616356,
    -122.386166,
    37.616356
  ],
  "geometry": {"type":"Point","coordinates":[-122.386166,37.616356]}
}
