{
  "id": 1729362653,
  "type": "Feature",
  "properties": {
    "date:cessation_lower": "2013-06-11",
    "date:cessation_upper": "2013-06-11",
    "date:inception_lower": "2013-06-11",
    "date:inception_upper": "2013-06-11",
    "edtf:cessation": "2013-06-11T05:30:00-07:00",
    "edtf:inception": "2013-06-11T05:30:00-07:00",
    "geom:area": 0,
    "geom:bbox": "-122.386166,37.616356,-122.386166,37.616356",
    "geom:latitude": 37.616356,
    "geom:longitude": -122.386166,
    "instagram:post": {
      "caption": {
        "body": "Oversize bowls, such as this one from the 1840s and made of a single piece of wood, were used by Shaker sisters in preparing meals for communal families of up to 100 members.",
        "excerpt": "Oversize bowls, such as this one from the 1840s and made of a single piece of wood, were used by Shaker sisters in preparing meals for communal families of up to 100 members.",
        "hashtags": [],
        "users": []
      },
      "media_id": "f5710f52e33e90a20407782fb731e6e2",
      "path": "media/other/11333677_435729049921417_2103950920_n_17842330462062499.jpg",
      "perceptual_hash": "p:bb851b5ab42bc1d2",
      "taken": 1370953800,
      "taken_at": "Jun 11, 2013 12:30 pm"
    },
    "millsfield:similar": {
      "google/siglip2-so400m-patch16-naflex": [
        {
          "distance": 0.211236834526062,
          "id": 1729362459
        },
        {
          "distance": 0.2152184247970581,
          "id": 1729362459
        },
        {
          "distance": 0.22580450773239136,
          "id": 1729362565
        },
        {
          "distance": 0.226340651512146,
          "id": 1729362511
        },
        {
          "distance": 0.24525946378707886,
          "id": 1729362565
        },
        {
          "distance": 0.2466300129890442,
          "id": 1729362557
        },
        {
          "distance": 0.249813973903656,
          "id": 1729362557
        },
        {
          "distance": 0.271884024143219,
          "id": 1729362741
        },
        {
          "distance": 0.2743244767189026,
          "id": 1729362401
        },
        {
          "distance": 0.28465360403060913,
          "id": 1729362787
        }
      ]
    },
    "sfomuseum:placetype": "instagram",
    "src:geom": "sfomuseum",
    "wof:belongsto": [
      1159160869,
      102527513,
      102191575,
      85633793,
      102087579,
      85922583,
      85688637
    ],
    "wof:country": "US",
    "wof:created": 1370953800,
    "wof:geomhash": "b6e33f47475d56bc8da457bc31afadc8",
    "wof:hierarchy": [
      {
        "building_id": 1159160869,
        "campus_id": 102527513,
        "continent_id": 102191575,
        "country_id": 85633793,
        "county_id": 102087579,
        "custom_id": 1729362653,
        "instagram_id": 1729362653,
        "locality_id": 85922583,
        "neighbourhood_id": -1,
        "region_id": 85688637
      }
    ],
    "wof:id": 1729362653,
    "wof:lastmodified": 1787777647,
    "wof:name": "Oversize bowls, such as this one from the 1840s and made of a single piece of wood, were used by Shaker sisters in preparing meals for communal families of up to 100 members...",
    "wof:parent_id": 1159160869,
    "wof:placetype": "custom",
    "wof:placetype_alt": [
      "instagram"
    ],
    "wof:repo": "sfomuseum-data-socialmedia-instagram",
    "wof:superseded_by": [],
    "wof:supersedes": []
  },
  "bbox": [
    -122.386166,
    37.616356,
    -122.386166,
    37.616356
  ],
  "geometry": {"type":"Point","coordinates":[-122.386166,37.616356]}
}
