{
  "id": 1729360059,
  "type": "Feature",
  "properties": {
    "date:cessation_lower": "2016-12-01",
    "date:cessation_upper": "2016-12-01",
    "date:inception_lower": "2016-12-01",
    "date:inception_upper": "2016-12-01",
    "edtf:cessation": "2016-12-01T09:25:00-08:00",
    "edtf:inception": "2016-12-01T09:25:00-08:00",
    "geom:area": 0,
    "geom:bbox": "-122.386166,37.616356,-122.386166,37.616356",
    "geom:latitude": 37.616356,
    "geom:longitude": -122.386166,
    "instagram:post": {
      "caption": {
        "body": "What would you have ordered from this circa 1965 menu from the International Room? The deep fried jumbo prawns sound delicious!  The International Room was a restaurant located in the Central Terminal (now Terminal 2) of San Francisco International Airport.",
        "excerpt": "What would you have ordered from this circa 1965 menu from the International Room?",
        "hashtags": [
          "SFOHistory",
          "TBT",
          "ThrowbackThursday"
        ],
        "users": []
      },
      "media_id": "c47e1f5d9a24cfd55c5aca2fdbeb921e",
      "path": "media/posts/201612/15276589_1335304629834799_3049870832533766144_n_17844982639192544.jpg",
      "perceptual_hash": "p:911b42e62c3dbd4e",
      "taken": 1480613100,
      "taken_at": "Dec 01, 2016 5:25 pm"
    },
    "millsfield:similar": {
      "google/siglip2-so400m-patch16-naflex": [
        {
          "distance": 0.3108815550804138,
          "id": 1729359071
        },
        {
          "distance": 0.3256113529205322,
          "id": 1729359071
        },
        {
          "distance": 0.33338677883148193,
          "id": 1729359463
        },
        {
          "distance": 0.3335726857185364,
          "id": 1763558679
        },
        {
          "distance": 0.34094035625457764,
          "id": 1763558897
        },
        {
          "distance": 0.3649400472640991,
          "id": 1729358471
        },
        {
          "distance": 0.3888646960258484,
          "id": 1763558679
        },
        {
          "distance": 0.38996148109436035,
          "id": 1729359463
        },
        {
          "distance": 0.4003725051879883,
          "id": 1763558897
        },
        {
          "distance": 0.40214604139328003,
          "id": 1729359721
        }
      ]
    },
    "sfomuseum:placetype": "instagram",
    "src:geom": "sfomuseum",
    "wof:belongsto": [
      1159160869,
      102527513,
      102191575,
      85633793,
      102087579,
      85922583,
      85688637
    ],
    "wof:country": "US",
    "wof:created": 1480613100,
    "wof:geomhash": "b6e33f47475d56bc8da457bc31afadc8",
    "wof:hierarchy": [
      {
        "building_id": 1159160869,
        "campus_id": 102527513,
        "continent_id": 102191575,
        "country_id": 85633793,
        "county_id": 102087579,
        "custom_id": 1729360059,
        "instagram_id": 1729360059,
        "locality_id": 85922583,
        "neighbourhood_id": -1,
        "region_id": 85688637
      }
    ],
    "wof:id": 1729360059,
    "wof:lastmodified": 1787777639,
    "wof:name": "What would you have ordered from this circa 1965 menu from the International Room?..",
    "wof:parent_id": 1159160869,
    "wof:placetype": "custom",
    "wof:placetype_alt": [
      "instagram"
    ],
    "wof:repo": "sfomuseum-data-socialmedia-instagram",
    "wof:superseded_by": [],
    "wof:supersedes": []
  },
  "bbox": [
    -122.386166,
    37.616356,
    -122.386166,
    37.616356
  ],
  "geometry": {"type":"Point","coordinates":[-122.386166,37.616356]}
}
