{
  "id": 1729359391,
  "type": "Feature",
  "properties": {
    "date:cessation_lower": "2017-06-24",
    "date:cessation_upper": "2017-06-24",
    "date:inception_lower": "2017-06-24",
    "date:inception_upper": "2017-06-24",
    "edtf:cessation": "2017-06-24T10:17:00-07:00",
    "edtf:inception": "2017-06-24T10:17:00-07:00",
    "geom:area": 0,
    "geom:bbox": "-122.386166,37.616356,-122.386166,37.616356",
    "geom:latitude": 37.616356,
    "geom:longitude": -122.386166,
    "instagram:post": {
      "caption": {
        "body": "It is looking like it is going to be a great summer this year. If you could go anywhere, where would you like to travel?  Image:  Eastern Airlines route map, system map, 1983. Gift of the William Hough Collection. 2006.010.512",
        "excerpt": "It is looking like it is going to be a great summer this year.",
        "hashtags": [
          "MuseumWeek",
          "TravelMW",
          "happypride"
        ],
        "users": []
      },
      "media_id": "e627fc7e7e06f345a28c095f90a8c833",
      "path": "media/posts/201706/19429555_1919513298291785_7487756352173899776_n_17876807668072466.jpg",
      "perceptual_hash": "p:bf6cfaf2818d90c0",
      "taken": 1498324620,
      "taken_at": "Jun 24, 2017 5:17 pm"
    },
    "millsfield:similar": {
      "google/siglip2-so400m-patch16-naflex": [
        {
          "distance": 0.3475492596626282,
          "id": 1763559399
        },
        {
          "distance": 0.3536526560783386,
          "id": 1729358691
        },
        {
          "distance": 0.35944175720214844,
          "id": 1729359193
        },
        {
          "distance": 0.36478477716445923,
          "id": 1729358929
        },
        {
          "distance": 0.364821195602417,
          "id": 1729360885
        },
        {
          "distance": 0.36558693647384644,
          "id": 1729357255
        },
        {
          "distance": 0.3657646179199219,
          "id": 1729357561
        },
        {
          "distance": 0.3700515627861023,
          "id": 1763558705
        },
        {
          "distance": 0.3704058527946472,
          "id": 1729356407
        },
        {
          "distance": 0.37047070264816284,
          "id": 1729358243
        }
      ]
    },
    "sfomuseum:placetype": "instagram",
    "src:geom": "sfomuseum",
    "wof:belongsto": [
      1159160869,
      102527513,
      102191575,
      85633793,
      102087579,
      85922583,
      85688637
    ],
    "wof:country": "US",
    "wof:created": 1498324620,
    "wof:geomhash": "b6e33f47475d56bc8da457bc31afadc8",
    "wof:hierarchy": [
      {
        "building_id": 1159160869,
        "campus_id": 102527513,
        "continent_id": 102191575,
        "country_id": 85633793,
        "county_id": 102087579,
        "custom_id": 1729359391,
        "instagram_id": 1729359391,
        "locality_id": 85922583,
        "neighbourhood_id": -1,
        "region_id": 85688637
      }
    ],
    "wof:id": 1729359391,
    "wof:lastmodified": 1787777635,
    "wof:name": "It is looking like it is going to be a great summer this year...",
    "wof:parent_id": 1159160869,
    "wof:placetype": "custom",
    "wof:placetype_alt": [
      "instagram"
    ],
    "wof:repo": "sfomuseum-data-socialmedia-instagram",
    "wof:superseded_by": [],
    "wof:supersedes": []
  },
  "bbox": [
    -122.386166,
    37.616356,
    -122.386166,
    37.616356
  ],
  "geometry": {"type":"Point","coordinates":[-122.386166,37.616356]}
}
