{
  "id": 1729355541,
  "type": "Feature",
  "properties": {
    "date:cessation_lower": "2020-02-13",
    "date:cessation_upper": "2020-02-13",
    "date:inception_lower": "2020-02-13",
    "date:inception_upper": "2020-02-13",
    "edtf:cessation": "2020-02-13T09:35:00-08:00",
    "edtf:inception": "2020-02-13T09:35:00-08:00",
    "geom:area": 0,
    "geom:bbox": "-122.386166,37.616356,-122.386166,37.616356",
    "geom:latitude": 37.616356,
    "geom:longitude": -122.386166,
    "instagram:post": {
      "caption": {
        "body": "If you're passing through San Francisco International Airport this Valentine’s Day, celebrate with us with four heartwarming videos in our Video Arts Gallery, located, pre-security, in the International Terminal. \"Elders\" by Glen Milner, \"A Subway Story\" by Eugene Kolb, “Our Kind of Love” by Elham Ehsas and Azeem Bhati, and “First Kiss” by Hannah Jacobs are now playing! http://bit.ly/VideoArts",
        "excerpt": "If you're passing through San Francisco International Airport this Valentine’s Day, celebrate with us with four heartwarming videos in our Video Arts Gallery, located, pre-security, in the International Terminal.",
        "hashtags": [
          "ValentinesDay",
          "love",
          "dating",
          "family"
        ],
        "users": []
      },
      "media_id": "a33b970152033b5d194e9d3ee3eff8d0",
      "path": "media/other/81942661_182090799683529_8654503732350552850_n_17847161785929261.jpg",
      "perceptual_hash": "p:e4449559c63bccd6",
      "taken": 1581615300,
      "taken_at": "Feb 13, 2020 5:35 pm"
    },
    "millsfield:similar": {
      "google/siglip2-so400m-patch16-naflex": [
        {
          "distance": 0.19199341535568237,
          "id": 1729355483
        },
        {
          "distance": 0.23504096269607544,
          "id": 1729358551
        },
        {
          "distance": 0.24281048774719238,
          "id": 1729355601
        },
        {
          "distance": 0.249630868434906,
          "id": 1729361401
        },
        {
          "distance": 0.25040435791015625,
          "id": 1763559213
        },
        {
          "distance": 0.25408053398132324,
          "id": 1729361401
        },
        {
          "distance": 0.2590658664703369,
          "id": 1729356941
        },
        {
          "distance": 0.2597949504852295,
          "id": 1947425011
        },
        {
          "distance": 0.27111417055130005,
          "id": 1947425011
        },
        {
          "distance": 0.2726857662200928,
          "id": 1763559193
        }
      ]
    },
    "sfomuseum:placetype": "instagram",
    "src:geom": "sfomuseum",
    "wof:belongsto": [
      1159160869,
      102527513,
      102191575,
      85633793,
      102087579,
      85922583,
      85688637
    ],
    "wof:country": "US",
    "wof:created": 1581615300,
    "wof:geomhash": "b6e33f47475d56bc8da457bc31afadc8",
    "wof:hierarchy": [
      {
        "building_id": 1159160869,
        "campus_id": 102527513,
        "continent_id": 102191575,
        "country_id": 85633793,
        "county_id": 102087579,
        "custom_id": 1729355541,
        "instagram_id": 1729355541,
        "locality_id": 85922583,
        "neighbourhood_id": -1,
        "region_id": 85688637
      }
    ],
    "wof:id": 1729355541,
    "wof:lastmodified": 1787777626,
    "wof:name": "If you're passing through San Francisco International Airport this Valentine’s Day, celebrate with us with four heartwarming videos in our Video Arts Gallery, located, pre-security, in the International Terminal...",
    "wof:parent_id": 1159160869,
    "wof:placetype": "custom",
    "wof:placetype_alt": [
      "instagram"
    ],
    "wof:repo": "sfomuseum-data-socialmedia-instagram",
    "wof:superseded_by": [],
    "wof:supersedes": []
  },
  "bbox": [
    -122.386166,
    37.616356,
    -122.386166,
    37.616356
  ],
  "geometry": {"type":"Point","coordinates":[-122.386166,37.616356]}
}
