{
  "id": 1880151531,
  "type": "Feature",
  "properties": {
    "date:cessation_lower": "2022-08-03",
    "date:cessation_upper": "2022-08-03",
    "date:inception_lower": "2022-08-03",
    "date:inception_upper": "2022-08-03",
    "edtf:cessation": "2022-08-03T04:11:00-07:00",
    "edtf:inception": "2022-08-03T04:11:00-07:00",
    "geom:area": 0,
    "geom:bbox": "-122.386166,37.616356,-122.386166,37.616356",
    "geom:latitude": 37.616356,
    "geom:longitude": -122.386166,
    "instagram:post": {
      "caption": {
        "body": "In 1912, Julia Clark became the third woman in the United States to earn a pilot’s license. Michigan-born Clark (1880–1912) became interested in aviation in 1911, when she attended the Chicago International Aviation Meet. After first overcoming the reluctance of Glenn Curtiss to accept her as a student, she trained at the Curtiss School of Aviation in North Island, San Diego. After earning her pilot's license, she joined the Curtiss exhibition team and was billed as \"The Daring Bird-Girl.\"   “First Flights: Early Women Aviators and their Aircraft” is on display post-security in Terminal 3 and online at: https://bit.ly/3wzDwfL",
        "excerpt": "In 1912, Julia Clark became the third woman in the United States to earn a pilot’s license.",
        "hashtags": [
          "EarlyWomenAviators",
          "AvGeek",
          "AviationHistory",
          "womeninhistory",
          "aviator",
          "pilot",
          "womeninaviation"
        ],
        "users": []
      },
      "media_id": "453a9b39d25018e9055fff563e9128ec4b611a04",
      "path": "media/posts/202208/296997648_2146078702229907_3432037379127834272_n_17858805008756075.jpg",
      "perceptual_hash": "p:cbc9b4b636b4444e",
      "taken": 1659525060,
      "taken_at": "Aug 03, 2022 11:11 am"
    },
    "millsfield:similar": {
      "google/siglip2-so400m-patch16-naflex": [
        {
          "distance": 0.06679779291152954,
          "id": 1880151513
        },
        {
          "distance": 0.12492501735687256,
          "id": 1880151513
        },
        {
          "distance": 0.13965171575546265,
          "id": 1880151575
        },
        {
          "distance": 0.13965171575546265,
          "id": 1880151563
        },
        {
          "distance": 0.1594935655593872,
          "id": 1880151563
        },
        {
          "distance": 0.1594935655593872,
          "id": 1880151575
        },
        {
          "distance": 0.1953880786895752,
          "id": 1880151519
        },
        {
          "distance": 0.20396703481674194,
          "id": 1880151519
        },
        {
          "distance": 0.2199622392654419,
          "id": 1880151571
        },
        {
          "distance": 0.22118639945983887,
          "id": 1880151571
        }
      ]
    },
    "sfomuseum:placetype": "instagram",
    "src:geom": "sfomuseum",
    "wof:belongsto": [
      1159160869,
      102527513,
      102191575,
      85633793,
      102087579,
      85922583,
      85688637
    ],
    "wof:country": "US",
    "wof:created": 1659525060,
    "wof:geomhash": "b6e33f47475d56bc8da457bc31afadc8",
    "wof:hierarchy": [
      {
        "building_id": 1159160869,
        "campus_id": 102527513,
        "continent_id": 102191575,
        "country_id": 85633793,
        "county_id": 102087579,
        "custom_id": 1880151531,
        "instagram_id": 1880151531,
        "locality_id": 85922583,
        "neighbourhood_id": -1,
        "region_id": 85688637
      }
    ],
    "wof:id": 1880151531,
    "wof:lastmodified": 1787777662,
    "wof:name": "In 1912, Julia Clark became the third woman in the United States to earn a pilot’s license...",
    "wof:parent_id": 1159160869,
    "wof:placetype": "custom",
    "wof:placetype_alt": [
      "instagram"
    ],
    "wof:repo": "sfomuseum-data-socialmedia-instagram",
    "wof:superseded_by": [],
    "wof:supersedes": []
  },
  "bbox": [
    -122.386166,
    37.616356,
    -122.386166,
    37.616356
  ],
  "geometry": {"type":"Point","coordinates":[-122.386166,37.616356]}
}
