{
  "id": 1947425197,
  "type": "Feature",
  "properties": {
    "date:cessation_lower": "2023-12-11",
    "date:cessation_upper": "2023-12-11",
    "date:inception_lower": "2023-12-11",
    "date:inception_upper": "2023-12-11",
    "edtf:cessation": "2023-12-11T08:43:00-08:00",
    "edtf:inception": "2023-12-11T08:43:00-08:00",
    "geom:area": 0,
    "geom:bbox": "-122.386166,37.616356,-122.386166,37.616356",
    "geom:latitude": 37.616356,
    "geom:longitude": -122.386166,
    "instagram:post": {
      "caption": {
        "body": "San Francisco International Airport’s International Terminal officially opened to the public on December 10, 2000. The largest public works project in Northern California at the time, the leader of the Joint Venture Architects group, Skidmore, Owings \u0026 Merrill, envisioned the International Terminal would become the signature structure of SFO. With 24 additional gates and 2.5 million square feet, the International Terminal doubled the overall passenger terminal square footage.  #52Objects #InternationalTerminal #SFOHistory #SFOMuseum   📸: photograph: San Francisco International Airport (SFO), International Terminal construction; 1999 Gift of Edith Lauterbach 2006.028.176.008 https://collection.sfomuseum.org/objects/1762832617/",
        "excerpt": "San Francisco International Airport’s International Terminal officially opened to the public on December 10, 2000.",
        "hashtags": [],
        "users": []
      },
      "media_id": "a070394595a6843fad9479e0f134bff074dc9575",
      "path": "media/other/409794275_1602765383801020_7310327299247928132_n_17996589347166158.jpg",
      "perceptual_hash": "p:a1d4ba0974bbd52a",
      "taken": 1702312980,
      "taken_at": "Dec 11, 2023 4:43 pm"
    },
    "millsfield:similar": {
      "google/siglip2-so400m-patch16-naflex": [
        {
          "distance": 0.1978754997253418,
          "id": 1729355799
        },
        {
          "distance": 0.19938760995864868,
          "id": 1729355345
        },
        {
          "distance": 0.20572543144226074,
          "id": 1729355799
        },
        {
          "distance": 0.21542292833328247,
          "id": 1729356113
        },
        {
          "distance": 0.221718430519104,
          "id": 1729360247
        },
        {
          "distance": 0.23023509979248047,
          "id": 1729356113
        },
        {
          "distance": 0.23215574026107788,
          "id": 1729360689
        },
        {
          "distance": 0.23654383420944214,
          "id": 1729359631
        },
        {
          "distance": 0.23788928985595703,
          "id": 1729360077
        },
        {
          "distance": 0.2379211187362671,
          "id": 1729355345
        }
      ]
    },
    "sfomuseum:placetype": "instagram",
    "src:geom": "sfomuseum",
    "wof:belongsto": [
      1159160869,
      102527513,
      102191575,
      85633793,
      102087579,
      85922583,
      85688637
    ],
    "wof:country": "US",
    "wof:created": 1702312980,
    "wof:geomhash": "b6e33f47475d56bc8da457bc31afadc8",
    "wof:hierarchy": [
      {
        "building_id": 1159160869,
        "campus_id": 102527513,
        "continent_id": 102191575,
        "country_id": 85633793,
        "county_id": 102087579,
        "custom_id": 1947425197,
        "locality_id": 85922583,
        "neighbourhood_id": -1,
        "region_id": 85688637
      }
    ],
    "wof:id": 1947425197,
    "wof:lastmodified": 1787777664,
    "wof:name": "San Francisco International Airport’s International Terminal officially opened to the public on December 10, 2000...",
    "wof:parent_id": 1159160869,
    "wof:placetype": "custom",
    "wof:repo": "sfomuseum-data-socialmedia-instagram",
    "wof:superseded_by": [],
    "wof:supersedes": []
  },
  "bbox": [
    -122.386166,
    37.616356,
    -122.386166,
    37.616356
  ],
  "geometry": {"type":"Point","coordinates":[-122.386166,37.616356]}
}
