{
  "id": 1763559289,
  "type": "Feature",
  "properties": {
    "date:cessation_lower": "2021-12-02",
    "date:cessation_upper": "2021-12-02",
    "date:inception_lower": "2021-12-02",
    "date:inception_upper": "2021-12-02",
    "edtf:cessation": "2021-12-02T04:20:00-08:00",
    "edtf:inception": "2021-12-02T04:20:00-08:00",
    "geom:area": 0,
    "geom:bbox": "-122.386166,37.616356,-122.386166,37.616356",
    "geom:latitude": 37.616356,
    "geom:longitude": -122.386166,
    "instagram:post": {
      "caption": {
        "body": "Nimisha Doongarwal (@nimishart) collects grouped inventories of fragments—paintings, photographs, fabrics, and digital prints—to create her artwork. Each piece starts with a carefully curated collection of these mixed media. Doongarwal then creates her collages by tearing and layering prints and further embellishing them with paint, stamps, and fabric. Every conceptual portrait takes on a new, abstract identity and tells a unique story by creating visual links to history and contemporary reality. Her work explores the varying relationships between the past and popular culture by referencing social issues such as racism, gender inequality, and immigration.  “Identity” by Nimisha Doongarwal is on display pre-security in Harvey Milk Terminal 1 and online at: https://bit.ly/3HAiyAX",
        "excerpt": "Nimisha Doongarwal (@nimishart) collects grouped inventories of fragments—paintings, photographs, fabrics, and digital prints—to create her artwork.",
        "hashtags": [
          "Identity",
          "NimishaDoongarwal",
          "StudentArtSFO"
        ],
        "users": []
      },
      "media_id": "f3af85fac06fc97ec0016f59e5e33447f5088365",
      "path": "media/posts/202112/262708795_252741106842138_1064709383333409876_n_17956754686531471.jpg",
      "perceptual_hash": "p:b9e503aec41bd076",
      "taken": 1638447600,
      "taken_at": "Dec 02, 2021 12:20 pm"
    },
    "millsfield:similar": {
      "google/siglip2-so400m-patch16-naflex": [
        {
          "distance": 0.2578502297401428,
          "id": 1729357895
        },
        {
          "distance": 0.26950985193252563,
          "id": 1880151091
        },
        {
          "distance": 0.27285903692245483,
          "id": 1729359425
        },
        {
          "distance": 0.2868030071258545,
          "id": 1880151205
        },
        {
          "distance": 0.2905334234237671,
          "id": 1729357097
        },
        {
          "distance": 0.2913411855697632,
          "id": 1729359635
        },
        {
          "distance": 0.29326504468917847,
          "id": 1729356811
        },
        {
          "distance": 0.2978094816207886,
          "id": 1729362613
        },
        {
          "distance": 0.30159372091293335,
          "id": 1729359363
        },
        {
          "distance": 0.301998496055603,
          "id": 1880151131
        }
      ]
    },
    "sfomuseum:placetype": "instagram",
    "src:geom": "sfomuseum",
    "wof:belongsto": [
      1159160869,
      102527513,
      102191575,
      85633793,
      102087579,
      85922583,
      85688637
    ],
    "wof:country": "US",
    "wof:created": 1638447600,
    "wof:geomhash": "b6e33f47475d56bc8da457bc31afadc8",
    "wof:hierarchy": [
      {
        "building_id": 1159160869,
        "campus_id": 102527513,
        "continent_id": 102191575,
        "country_id": 85633793,
        "county_id": 102087579,
        "custom_id": 1763559289,
        "instagram_id": 1763559289,
        "locality_id": 85922583,
        "neighbourhood_id": -1,
        "region_id": 85688637
      }
    ],
    "wof:id": 1763559289,
    "wof:lastmodified": 1787777660,
    "wof:name": "Nimisha Doongarwal (@nimishart) collects grouped inventories of fragments—paintings, photographs, fabrics, and digital prints—to create her artwork...",
    "wof:parent_id": 1159160869,
    "wof:placetype": "custom",
    "wof:placetype_alt": [
      "instagram"
    ],
    "wof:repo": "sfomuseum-data-socialmedia-instagram",
    "wof:superseded_by": [],
    "wof:supersedes": []
  },
  "bbox": [
    -122.386166,
    37.616356,
    -122.386166,
    37.616356
  ],
  "geometry": {"type":"Point","coordinates":[-122.386166,37.616356]}
}
