{
  "id": 1729356541,
  "type": "Feature",
  "properties": {
    "date:cessation_lower": "2019-05-20",
    "date:cessation_upper": "2019-05-20",
    "date:inception_lower": "2019-05-20",
    "date:inception_upper": "2019-05-20",
    "edtf:cessation": "2019-05-20T10:07:00-07:00",
    "edtf:inception": "2019-05-20T10:07:00-07:00",
    "geom:area": 0,
    "geom:bbox": "-122.386166,37.616356,-122.386166,37.616356",
    "geom:latitude": 37.616356,
    "geom:longitude": -122.386166,
    "instagram:post": {
      "caption": {
        "body": "#Onthisday in 1939, Pan American Airways established the first regular air mail service across the Atlantic. Passenger service followed a month later. The route included service from Port Washington, New York, to Marseilles, France, via the Azores and Lisbon, Portugal. The trip took around 36 hours of flying time for a complete total of 51 total hours with layovers. A round-trip ticket cost $675, equivalent to over $11,000 today.  Image: Pan American Airways, Boeing 314 “Dixie Clipper”, 1939. Gift of the Pan Am Association. 2000.058.0511.002",
        "excerpt": "#Onthisday in 1939, Pan American Airways established the first regular air mail service across the Atlantic.",
        "hashtags": [
          "PanAmerican",
          "PAA",
          "Boeing",
          "Boeing314",
          "transatlantic",
          "airmail",
          "aviationhistory"
        ],
        "users": []
      },
      "media_id": "fa4b4aa5786baf598cc6bc4a7eca97c8",
      "path": "media/other/61356331_136588330780259_4265615909090647303_n_18040111522142514.jpg",
      "perceptual_hash": "p:baddc60f861b3930",
      "taken": 1558372020,
      "taken_at": "May 20, 2019 5:07 pm"
    },
    "millsfield:similar": {
      "google/siglip2-so400m-patch16-naflex": [
        {
          "distance": 0.08197528123855591,
          "id": 1729360591
        },
        {
          "distance": 0.08701872825622559,
          "id": 1729358071
        },
        {
          "distance": 0.08774930238723755,
          "id": 1729358695
        },
        {
          "distance": 0.09108740091323853,
          "id": 1729355659
        },
        {
          "distance": 0.10550206899642944,
          "id": 1880151169
        },
        {
          "distance": 0.11045730113983154,
          "id": 1729355861
        },
        {
          "distance": 0.1210290789604187,
          "id": 1763558939
        },
        {
          "distance": 0.12263709306716919,
          "id": 1880151229
        },
        {
          "distance": 0.12333011627197266,
          "id": 1729355861
        },
        {
          "distance": 0.1313166618347168,
          "id": 1729360081
        }
      ]
    },
    "sfomuseum:placetype": "instagram",
    "src:geom": "sfomuseum",
    "wof:belongsto": [
      1159160869,
      102527513,
      102191575,
      85633793,
      102087579,
      85922583,
      85688637
    ],
    "wof:country": "US",
    "wof:created": 1558372020,
    "wof:geomhash": "b6e33f47475d56bc8da457bc31afadc8",
    "wof:hierarchy": [
      {
        "building_id": 1159160869,
        "campus_id": 102527513,
        "continent_id": 102191575,
        "country_id": 85633793,
        "county_id": 102087579,
        "custom_id": 1729356541,
        "instagram_id": 1729356541,
        "locality_id": 85922583,
        "neighbourhood_id": -1,
        "region_id": 85688637
      }
    ],
    "wof:id": 1729356541,
    "wof:lastmodified": 1787777629,
    "wof:name": "#Onthisday in 1939, Pan American Airways established the first regular air mail service across the Atlantic...",
    "wof:parent_id": 1159160869,
    "wof:placetype": "custom",
    "wof:placetype_alt": [
      "instagram"
    ],
    "wof:repo": "sfomuseum-data-socialmedia-instagram",
    "wof:superseded_by": [],
    "wof:supersedes": []
  },
  "bbox": [
    -122.386166,
    37.616356,
    -122.386166,
    37.616356
  ],
  "geometry": {"type":"Point","coordinates":[-122.386166,37.616356]}
}
