{
  "id": 1729360073,
  "type": "Feature",
  "properties": {
    "date:cessation_lower": "2016-11-28",
    "date:cessation_upper": "2016-11-28",
    "date:inception_lower": "2016-11-28",
    "date:inception_upper": "2016-11-28",
    "edtf:cessation": "2016-11-28T02:51:00-08:00",
    "edtf:inception": "2016-11-28T02:51:00-08:00",
    "geom:area": 0,
    "geom:bbox": "-122.386166,37.616356,-122.386166,37.616356",
    "geom:latitude": 37.616356,
    "geom:longitude": -122.386166,
    "instagram:post": {
      "caption": {
        "body": "This is your last week to catch \"Celebrating a Vision: #ArtAndDisability.\" Richmond, California’s NIAD Art Center is one of three remarkable organizations featured in this exhibition. For more information, watch this overview that features NIAD’s staff and artists, including Sylvia Fragosa and Billy White, who are exhibited in our gallery: https://www.youtube.com/watch?v=bHIfeaDzq1g. Link is also on our bio page.  See \"Celebrating a Vision: #ArtAndDisability\" on display post-security, in Terminal 3 until Monday, December 5.",
        "excerpt": "This is your last week to catch \"Celebrating a Vision: #ArtAndDisability.\"",
        "hashtags": [
          "NIADArtCenter",
          "Richmond",
          "Art"
        ],
        "users": [
          "niadartcenter"
        ]
      },
      "media_id": "69682abc661d49da73141e3c73d7880a",
      "path": "media/posts/201611/14553128_1363505633681778_8896356430982938624_n_17906934565012326.jpg",
      "perceptual_hash": "p:90b576c32cb4dc6a",
      "taken": 1480330260,
      "taken_at": "Nov 28, 2016 10:51 am"
    },
    "millsfield:similar": {
      "google/siglip2-so400m-patch16-naflex": [
        {
          "distance": 0.2981894612312317,
          "id": 1729362727
        },
        {
          "distance": 0.30041927099227905,
          "id": 1729360763
        },
        {
          "distance": 0.3151630163192749,
          "id": 1729360219
        },
        {
          "distance": 0.3219974637031555,
          "id": 1729360219
        },
        {
          "distance": 0.3426923155784607,
          "id": 1729362819
        },
        {
          "distance": 0.3444179892539978,
          "id": 1729360763
        },
        {
          "distance": 0.344479501247406,
          "id": 1729361743
        },
        {
          "distance": 0.3468576669692993,
          "id": 1729362611
        },
        {
          "distance": 0.34730052947998047,
          "id": 1729357211
        },
        {
          "distance": 0.3491755723953247,
          "id": 1729362911
        }
      ]
    },
    "sfomuseum:placetype": "instagram",
    "src:geom": "sfomuseum",
    "wof:belongsto": [
      1159160869,
      102527513,
      102191575,
      85633793,
      102087579,
      85922583,
      85688637
    ],
    "wof:country": "US",
    "wof:created": 1480330260,
    "wof:geomhash": "b6e33f47475d56bc8da457bc31afadc8",
    "wof:hierarchy": [
      {
        "building_id": 1159160869,
        "campus_id": 102527513,
        "continent_id": 102191575,
        "country_id": 85633793,
        "county_id": 102087579,
        "custom_id": 1729360073,
        "instagram_id": 1729360073,
        "locality_id": 85922583,
        "neighbourhood_id": -1,
        "region_id": 85688637
      }
    ],
    "wof:id": 1729360073,
    "wof:lastmodified": 1787777639,
    "wof:name": "This is your last week to catch \"Celebrating a Vision: #ArtAndDisability.\"..",
    "wof:parent_id": 1159160869,
    "wof:placetype": "custom",
    "wof:placetype_alt": [
      "instagram"
    ],
    "wof:repo": "sfomuseum-data-socialmedia-instagram",
    "wof:superseded_by": [],
    "wof:supersedes": []
  },
  "bbox": [
    -122.386166,
    37.616356,
    -122.386166,
    37.616356
  ],
  "geometry": {"type":"Point","coordinates":[-122.386166,37.616356]}
}
