{
  "id": 1880151689,
  "type": "Feature",
  "properties": {
    "date:cessation_lower": "2022-05-24",
    "date:cessation_upper": "2022-05-24",
    "date:inception_lower": "2022-05-24",
    "date:inception_upper": "2022-05-24",
    "edtf:cessation": "2022-05-24T10:02:00-07:00",
    "edtf:inception": "2022-05-24T10:02:00-07:00",
    "geom:area": 0,
    "geom:bbox": "-122.386166,37.616356,-122.386166,37.616356",
    "geom:latitude": 37.616356,
    "geom:longitude": -122.386166,
    "instagram:post": {
      "caption": {
        "body": "It’s happening!! The long-awaited re-opening of our Aviation Museum and Library will take place next week!   Some of the final objects to be reinstalled are model aircraft suspended from the ceiling. Our preparators took great care in re-hanging models of the Pan Am Clipper (a Sikorsky S-42) and the China Clipper (a Martin M-130).  The Aviation Museum and Library will reopen Wednesday, June 1st at 10am. We can’t wait to welcome you in. https://bit.ly/AMLSFOM",
        "excerpt": "It’s happening!!",
        "hashtags": [
          "AvGeek",
          "BehindTheScenes",
          "SneakPeek",
          "AviationHistory"
        ],
        "users": []
      },
      "media_id": "0891f568066b1765c8933492e2c48c359323e5e8",
      "path": "media/posts/202205/283606793_1172651806834095_1362788517897555464_n_18177919540203918.jpg",
      "perceptual_hash": "p:f292498d874a36f3",
      "taken": 1653411720,
      "taken_at": "May 24, 2022 5:02 pm"
    },
    "millsfield:similar": {
      "google/siglip2-so400m-patch16-naflex": [
        {
          "distance": 0.209153413772583,
          "id": 1729355201
        },
        {
          "distance": 0.23990225791931152,
          "id": 1729362469
        },
        {
          "distance": 0.24294739961624146,
          "id": 1763559265
        },
        {
          "distance": 0.2560656666755676,
          "id": 1729355153
        },
        {
          "distance": 0.2562950849533081,
          "id": 1729362331
        },
        {
          "distance": 0.25953179597854614,
          "id": 1763559265
        },
        {
          "distance": 0.2615775465965271,
          "id": 1729358393
        },
        {
          "distance": 0.2624737024307251,
          "id": 1729355153
        },
        {
          "distance": 0.2667075991630554,
          "id": 1729355201
        },
        {
          "distance": 0.2741430401802063,
          "id": 1880151275
        }
      ]
    },
    "sfomuseum:placetype": "instagram",
    "src:geom": "sfomuseum",
    "wof:belongsto": [
      1159160869,
      102527513,
      102191575,
      85633793,
      102087579,
      85922583,
      85688637
    ],
    "wof:country": "US",
    "wof:created": 1653411720,
    "wof:geomhash": "b6e33f47475d56bc8da457bc31afadc8",
    "wof:hierarchy": [
      {
        "building_id": 1159160869,
        "campus_id": 102527513,
        "continent_id": 102191575,
        "country_id": 85633793,
        "county_id": 102087579,
        "custom_id": 1880151689,
        "instagram_id": 1880151689,
        "locality_id": 85922583,
        "neighbourhood_id": -1,
        "region_id": 85688637
      }
    ],
    "wof:id": 1880151689,
    "wof:lastmodified": 1787777663,
    "wof:name": "It’s happening!!..",
    "wof:parent_id": 1159160869,
    "wof:placetype": "custom",
    "wof:placetype_alt": [
      "instagram"
    ],
    "wof:repo": "sfomuseum-data-socialmedia-instagram",
    "wof:superseded_by": [],
    "wof:supersedes": []
  },
  "bbox": [
    -122.386166,
    37.616356,
    -122.386166,
    37.616356
  ],
  "geometry": {"type":"Point","coordinates":[-122.386166,37.616356]}
}
