{
  "id": 1729362581,
  "type": "Feature",
  "properties": {
    "date:cessation_lower": "2013-09-03",
    "date:cessation_upper": "2013-09-03",
    "date:inception_lower": "2013-09-03",
    "date:inception_upper": "2013-09-03",
    "edtf:cessation": "2013-09-03T05:38:00-07:00",
    "edtf:inception": "2013-09-03T05:38:00-07:00",
    "geom:area": 0,
    "geom:bbox": "-122.386166,37.616356,-122.386166,37.616356",
    "geom:latitude": 37.616356,
    "geom:longitude": -122.386166,
    "instagram:post": {
      "caption": {
        "body": "",
        "excerpt": "",
        "hashtags": [
          "aviation",
          "TravelTuesday"
        ],
        "users": []
      },
      "media_id": "5daece8fe38a087ae2129a65f1b02d8b",
      "path": "media/other/11335843_1678154482412817_1862836253_n_17842356718062499.jpg",
      "perceptual_hash": "p:84e86dd231967997",
      "taken": 1378211880,
      "taken_at": "Sep 03, 2013 12:38 pm"
    },
    "millsfield:similar": {
      "google/siglip2-so400m-patch16-naflex": [
        {
          "distance": 0.19621819257736206,
          "id": 1729358211
        },
        {
          "distance": 0.20466917753219604,
          "id": 1729362761
        },
        {
          "distance": 0.20707380771636963,
          "id": 1729361489
        },
        {
          "distance": 0.20754027366638184,
          "id": 1729362761
        },
        {
          "distance": 0.21155929565429688,
          "id": 1947425027
        },
        {
          "distance": 0.21155929565429688,
          "id": 1947425009
        },
        {
          "distance": 0.21283698081970215,
          "id": 1729362259
        },
        {
          "distance": 0.21594607830047607,
          "id": 1880151121
        },
        {
          "distance": 0.2168741226196289,
          "id": 1729357493
        },
        {
          "distance": 0.22210615873336792,
          "id": 1729357069
        }
      ]
    },
    "sfomuseum:placetype": "instagram",
    "src:geom": "sfomuseum",
    "wof:belongsto": [
      1159160869,
      102527513,
      102191575,
      85633793,
      102087579,
      85922583,
      85688637
    ],
    "wof:country": "US",
    "wof:created": 1378211880,
    "wof:geomhash": "b6e33f47475d56bc8da457bc31afadc8",
    "wof:hierarchy": [
      {
        "building_id": 1159160869,
        "campus_id": 102527513,
        "continent_id": 102191575,
        "country_id": 85633793,
        "county_id": 102087579,
        "custom_id": 1729362581,
        "instagram_id": 1729362581,
        "locality_id": 85922583,
        "neighbourhood_id": -1,
        "region_id": 85688637
      }
    ],
    "wof:id": 1729362581,
    "wof:lastmodified": 1787777647,
    "wof:name": "..",
    "wof:parent_id": 1159160869,
    "wof:placetype": "custom",
    "wof:placetype_alt": [
      "instagram"
    ],
    "wof:repo": "sfomuseum-data-socialmedia-instagram",
    "wof:superseded_by": [],
    "wof:supersedes": []
  },
  "bbox": [
    -122.386166,
    37.616356,
    -122.386166,
    37.616356
  ],
  "geometry": {"type":"Point","coordinates":[-122.386166,37.616356]}
}
