{
  "id": 1729360669,
  "type": "Feature",
  "properties": {
    "date:cessation_lower": "2016-05-28",
    "date:cessation_upper": "2016-05-28",
    "date:inception_lower": "2016-05-28",
    "date:inception_upper": "2016-05-28",
    "edtf:cessation": "2016-05-28T05:33:00-07:00",
    "edtf:inception": "2016-05-28T05:33:00-07:00",
    "geom:area": 0,
    "geom:bbox": "-122.386166,37.616356,-122.386166,37.616356",
    "geom:latitude": 37.616356,
    "geom:longitude": -122.386166,
    "instagram:post": {
      "caption": {
        "body": "A key figure of the twentieth century American avant-garde, Harry Everett Smith (1923–91) was a filmmaker, painter, musicologist, and self-taught anthropologist. In late 2012, archivists Andrew Lampert and John Klacsmann invited New York City photographer and Guggenheim Fellow Jason Fulford to photograph Smith’s extant collection of 251 paper airplanes collected off the streets of New York City between the years 1961 and 1983. Smith dutifully annotated each plane with information including the date and location where he found it, and sometimes even the time of day and weather conditions.  Harry Smith’s Paper Airplane Collection, photographed by Jason Fulford is on display, pre-security, in Terminal 3.",
        "excerpt": "A key figure of the twentieth century American avant-garde, Harry Everett Smith (1923–91) was a filmmaker, painter, musicologist, and self-taught anthropologist.",
        "hashtags": [],
        "users": []
      },
      "media_id": "b1c47fa42e5e7c384298f27e246b267e",
      "path": "media/other/13320292_1793006797601558_1823500359_n_17856921748039154.jpg",
      "perceptual_hash": "p:b6999966cc368b64",
      "taken": 1464438780,
      "taken_at": "May 28, 2016 12:33 pm"
    },
    "millsfield:similar": {
      "google/siglip2-so400m-patch16-naflex": [
        {
          "distance": 0.24618136882781982,
          "id": 1729358159
        },
        {
          "distance": 0.24790477752685547,
          "id": 1729355537
        },
        {
          "distance": 0.2539377212524414,
          "id": 1729358167
        },
        {
          "distance": 0.26210319995880127,
          "id": 1729358159
        },
        {
          "distance": 0.26685190200805664,
          "id": 1880150945
        },
        {
          "distance": 0.2787904739379883,
          "id": 1729355537
        },
        {
          "distance": 0.28106874227523804,
          "id": 1729357861
        },
        {
          "distance": 0.28255462646484375,
          "id": 1729356167
        },
        {
          "distance": 0.28646308183670044,
          "id": 1729358195
        },
        {
          "distance": 0.28762543201446533,
          "id": 1880150945
        }
      ]
    },
    "sfomuseum:placetype": "instagram",
    "src:geom": "sfomuseum",
    "wof:belongsto": [
      1159160869,
      102527513,
      102191575,
      85633793,
      102087579,
      85922583,
      85688637
    ],
    "wof:country": "US",
    "wof:created": 1464438780,
    "wof:geomhash": "b6e33f47475d56bc8da457bc31afadc8",
    "wof:hierarchy": [
      {
        "building_id": 1159160869,
        "campus_id": 102527513,
        "continent_id": 102191575,
        "country_id": 85633793,
        "county_id": 102087579,
        "custom_id": 1729360669,
        "instagram_id": 1729360669,
        "locality_id": 85922583,
        "neighbourhood_id": -1,
        "region_id": 85688637
      }
    ],
    "wof:id": 1729360669,
    "wof:lastmodified": 1787777640,
    "wof:name": "A key figure of the twentieth century American avant-garde, Harry Everett Smith (1923–91) was a filmmaker, painter, musicologist, and self-taught anthropologist...",
    "wof:parent_id": 1159160869,
    "wof:placetype": "custom",
    "wof:placetype_alt": [
      "instagram"
    ],
    "wof:repo": "sfomuseum-data-socialmedia-instagram",
    "wof:superseded_by": [],
    "wof:supersedes": []
  },
  "bbox": [
    -122.386166,
    37.616356,
    -122.386166,
    37.616356
  ],
  "geometry": {"type":"Point","coordinates":[-122.386166,37.616356]}
}
