{
  "id": 1729356609,
  "type": "Feature",
  "properties": {
    "date:cessation_lower": "2019-04-29",
    "date:cessation_upper": "2019-04-29",
    "date:inception_lower": "2019-04-29",
    "date:inception_upper": "2019-04-29",
    "edtf:cessation": "2019-04-29T03:19:00-07:00",
    "edtf:inception": "2019-04-29T03:19:00-07:00",
    "geom:area": 0,
    "geom:bbox": "-122.386166,37.616356,-122.386166,37.616356",
    "geom:latitude": 37.616356,
    "geom:longitude": -122.386166,
    "instagram:post": {
      "caption": {
        "body": "Our newest exhibition \"The Intriguing World of Insects\" is now on display, pre-security, in the International Terminal. Insects are the most diverse macroscopic organisms on the planet. Researchers have identified over one million species of insects and estimate that five to thirty million more are waiting to be discovered. Insects are everywhere—from shoreline to mountaintop, deserts to ponds, deep in the soil to the tips of the tallest redwoods, and they inhabit some of the most extreme environments on Earth. This exhibition illuminates the extraordinary world of insects through the collection of the Essig Museum of Entomology at the University of California, Berkeley. http://bit.ly/IntriguingInsects",
        "excerpt": "Our newest exhibition \"The Intriguing World of Insects\" is now on display, pre-security, in the International Terminal.",
        "hashtags": [
          "IntriguingInsects",
          "WorldofInsects",
          "insect",
          "insects",
          "entomology",
          "Berkeley",
          "UCBerkeley"
        ],
        "users": [
          "essig_museum"
        ]
      },
      "media_id": "c8a14142afe6dca78cc40490592bfae2",
      "path": "media/other/57620832_161931161478643_9024420872219435612_n_18034651354082167.jpg",
      "perceptual_hash": "p:849b603d1a61df2f",
      "taken": 1556533140,
      "taken_at": "Apr 29, 2019 10:19 am"
    },
    "millsfield:similar": {
      "google/siglip2-so400m-patch16-naflex": [
        {
          "distance": 0.0062100887298583984,
          "id": 1729356571
        },
        {
          "distance": 0.07706040143966675,
          "id": 1729355889
        },
        {
          "distance": 0.1120983362197876,
          "id": 1729356571
        },
        {
          "distance": 0.11393266916275024,
          "id": 1729355889
        },
        {
          "distance": 0.2290666699409485,
          "id": 1729356307
        },
        {
          "distance": 0.2326323390007019,
          "id": 1729356209
        },
        {
          "distance": 0.23711705207824707,
          "id": 1729356295
        },
        {
          "distance": 0.23733913898468018,
          "id": 1729356371
        },
        {
          "distance": 0.2411438226699829,
          "id": 1729356297
        },
        {
          "distance": 0.24743777513504028,
          "id": 1729356593
        }
      ]
    },
    "sfomuseum:placetype": "instagram",
    "src:geom": "sfomuseum",
    "wof:belongsto": [
      1159160869,
      102527513,
      102191575,
      85633793,
      102087579,
      85922583,
      85688637
    ],
    "wof:country": "US",
    "wof:created": 1556533140,
    "wof:geomhash": "b6e33f47475d56bc8da457bc31afadc8",
    "wof:hierarchy": [
      {
        "building_id": 1159160869,
        "campus_id": 102527513,
        "continent_id": 102191575,
        "country_id": 85633793,
        "county_id": 102087579,
        "custom_id": 1729356609,
        "instagram_id": 1729356609,
        "locality_id": 85922583,
        "neighbourhood_id": -1,
        "region_id": 85688637
      }
    ],
    "wof:id": 1729356609,
    "wof:lastmodified": 1787777629,
    "wof:name": "Our newest exhibition \"The Intriguing World of Insects\" is now on display, pre-security, in the International Terminal...",
    "wof:parent_id": 1159160869,
    "wof:placetype": "custom",
    "wof:placetype_alt": [
      "instagram"
    ],
    "wof:repo": "sfomuseum-data-socialmedia-instagram",
    "wof:superseded_by": [],
    "wof:supersedes": []
  },
  "bbox": [
    -122.386166,
    37.616356,
    -122.386166,
    37.616356
  ],
  "geometry": {"type":"Point","coordinates":[-122.386166,37.616356]}
}
