{
  "id": 1729360685,
  "type": "Feature",
  "properties": {
    "date:cessation_lower": "2016-05-25",
    "date:cessation_upper": "2016-05-25",
    "date:inception_lower": "2016-05-25",
    "date:inception_upper": "2016-05-25",
    "edtf:cessation": "2016-05-25T10:41:00-07:00",
    "edtf:inception": "2016-05-25T10:41:00-07:00",
    "geom:area": 0,
    "geom:bbox": "-122.386166,37.616356,-122.386166,37.616356",
    "geom:latitude": 37.616356,
    "geom:longitude": -122.386166,
    "instagram:post": {
      "caption": {
        "body": "For the 40th anniversary of United Air Lines, flight attendants Chloe Ann Cox (left) and Diane (DiAnn) Marcus dressed in uniforms from 1930 and 1967, with matching meal service trays. See these two uniforms on display in our upcoming exhibition, Fashion In Flight. #FashionInFlight #WomenInAviation  United Air Lines, flight attendants 1967 SFO Museum Collection Gift of DiAnn Bormes 2015.110.044",
        "excerpt": "For the 40th anniversary of United Air Lines, flight attendants Chloe Ann Cox (left) and Diane (DiAnn) Marcus dressed in uniforms from 1930 and 1967, with matching meal service trays.",
        "hashtags": [],
        "users": []
      },
      "media_id": "4bf26409b45aa68ddbbf1617e2b1366a",
      "path": "media/other/13285374_1580981112194715_531774477_n_17857185301000749.jpg",
      "perceptual_hash": "p:bdd0c1e5c63a329c",
      "taken": 1464198060,
      "taken_at": "May 25, 2016 5:41 pm"
    },
    "millsfield:similar": {
      "google/siglip2-so400m-patch16-naflex": [
        {
          "distance": 0.21893787384033203,
          "id": 1729360981
        },
        {
          "distance": 0.21958941221237183,
          "id": 1729357681
        },
        {
          "distance": 0.22062474489212036,
          "id": 1729360195
        },
        {
          "distance": 0.2371004819869995,
          "id": 1729359989
        },
        {
          "distance": 0.23796957731246948,
          "id": 1729360195
        },
        {
          "distance": 0.2433890700340271,
          "id": 1729359107
        },
        {
          "distance": 0.24707025289535522,
          "id": 1729360657
        },
        {
          "distance": 0.2540603280067444,
          "id": 1729359685
        },
        {
          "distance": 0.25446927547454834,
          "id": 1729355261
        },
        {
          "distance": 0.25461095571517944,
          "id": 1729357681
        }
      ]
    },
    "sfomuseum:placetype": "instagram",
    "src:geom": "sfomuseum",
    "wof:belongsto": [
      1159160869,
      102527513,
      102191575,
      85633793,
      102087579,
      85922583,
      85688637
    ],
    "wof:country": "US",
    "wof:created": 1464198060,
    "wof:geomhash": "b6e33f47475d56bc8da457bc31afadc8",
    "wof:hierarchy": [
      {
        "building_id": 1159160869,
        "campus_id": 102527513,
        "continent_id": 102191575,
        "country_id": 85633793,
        "county_id": 102087579,
        "custom_id": 1729360685,
        "instagram_id": 1729360685,
        "locality_id": 85922583,
        "neighbourhood_id": -1,
        "region_id": 85688637
      }
    ],
    "wof:id": 1729360685,
    "wof:lastmodified": 1787777640,
    "wof:name": "For the 40th anniversary of United Air Lines, flight attendants Chloe Ann Cox (left) and Diane (DiAnn) Marcus dressed in uniforms from 1930 and 1967, with matching meal service trays...",
    "wof:parent_id": 1159160869,
    "wof:placetype": "custom",
    "wof:placetype_alt": [
      "instagram"
    ],
    "wof:repo": "sfomuseum-data-socialmedia-instagram",
    "wof:superseded_by": [],
    "wof:supersedes": []
  },
  "bbox": [
    -122.386166,
    37.616356,
    -122.386166,
    37.616356
  ],
  "geometry": {"type":"Point","coordinates":[-122.386166,37.616356]}
}
