{
  "id": 1729362785,
  "type": "Feature",
  "properties": {
    "date:cessation_lower": "2013-03-05",
    "date:cessation_upper": "2013-03-05",
    "date:inception_lower": "2013-03-05",
    "date:inception_upper": "2013-03-05",
    "edtf:cessation": "2013-03-05T01:45:00-08:00",
    "edtf:inception": "2013-03-05T01:45:00-08:00",
    "geom:area": 0,
    "geom:bbox": "-122.386166,37.616356,-122.386166,37.616356",
    "geom:latitude": 37.616356,
    "geom:longitude": -122.386166,
    "instagram:post": {
      "caption": {
        "body": "Good day for a cleaning: conservators \u0026 #aviation curator tackle a Pratt \u0026 Whitney R-1830 Twin Wasp cutaway engine.",
        "excerpt": "Good day for a cleaning: conservators \u0026 #aviation curator tackle a Pratt \u0026 Whitney R-1830 Twin Wasp cutaway engine.",
        "hashtags": [],
        "users": []
      },
      "media_id": "c7dd0a94087e8886dfe21bd606790669",
      "path": "media/other/11258505_751203164978963_1355157492_n_17842305646062499.jpg",
      "perceptual_hash": "p:d0b11f78986f708e",
      "taken": 1362476700,
      "taken_at": "Mar 05, 2013 9:45 am"
    },
    "millsfield:similar": {
      "google/siglip2-so400m-patch16-naflex": [
        {
          "distance": 0.1624053716659546,
          "id": 1729362737
        },
        {
          "distance": 0.18593621253967285,
          "id": 1729362743
        },
        {
          "distance": 0.19434672594070435,
          "id": 1729363009
        },
        {
          "distance": 0.2014116644859314,
          "id": 1729362743
        },
        {
          "distance": 0.20747947692871094,
          "id": 1729356841
        },
        {
          "distance": 0.22330230474472046,
          "id": 1729362737
        },
        {
          "distance": 0.24445390701293945,
          "id": 1729356841
        },
        {
          "distance": 0.2606963515281677,
          "id": 1729363009
        },
        {
          "distance": 0.27309364080429077,
          "id": 1729356403
        },
        {
          "distance": 0.27761298418045044,
          "id": 1729361505
        }
      ]
    },
    "sfomuseum:placetype": "instagram",
    "src:geom": "sfomuseum",
    "wof:belongsto": [
      1159160869,
      102527513,
      102191575,
      85633793,
      102087579,
      85922583,
      85688637
    ],
    "wof:country": "US",
    "wof:created": 1362476700,
    "wof:geomhash": "b6e33f47475d56bc8da457bc31afadc8",
    "wof:hierarchy": [
      {
        "building_id": 1159160869,
        "campus_id": 102527513,
        "continent_id": 102191575,
        "country_id": 85633793,
        "county_id": 102087579,
        "custom_id": 1729362785,
        "instagram_id": 1729362785,
        "locality_id": 85922583,
        "neighbourhood_id": -1,
        "region_id": 85688637
      }
    ],
    "wof:id": 1729362785,
    "wof:lastmodified": 1787777647,
    "wof:name": "Good day for a cleaning: conservators \u0026 #aviation curator tackle a Pratt \u0026 Whitney R-1830 Twin Wasp cutaway engine...",
    "wof:parent_id": 1159160869,
    "wof:placetype": "custom",
    "wof:placetype_alt": [
      "instagram"
    ],
    "wof:repo": "sfomuseum-data-socialmedia-instagram",
    "wof:superseded_by": [],
    "wof:supersedes": []
  },
  "bbox": [
    -122.386166,
    37.616356,
    -122.386166,
    37.616356
  ],
  "geometry": {"type":"Point","coordinates":[-122.386166,37.616356]}
}
