{
  "id": 1729359847,
  "type": "Feature",
  "properties": {
    "date:cessation_lower": "2017-02-05",
    "date:cessation_upper": "2017-02-05",
    "date:inception_lower": "2017-02-05",
    "date:inception_upper": "2017-02-05",
    "edtf:cessation": "2017-02-05T04:49:00-08:00",
    "edtf:inception": "2017-02-05T04:49:00-08:00",
    "geom:area": 0,
    "geom:bbox": "-122.386166,37.616356,-122.386166,37.616356",
    "geom:latitude": 37.616356,
    "geom:longitude": -122.386166,
    "instagram:post": {
      "caption": {
        "body": "",
        "excerpt": "",
        "hashtags": [
          "SanazMazinani's",
          "airportart",
          "publicart",
          "clouds"
        ],
        "users": []
      },
      "media_id": "ce835355c82076635034b46b6684d4c9",
      "path": "media/posts/201702/16464278_1439612199424412_8511511216479272960_n_17874179074000533.jpg",
      "perceptual_hash": "p:d2d17d94a03f65e0",
      "taken": 1486298940,
      "taken_at": "Feb 05, 2017 12:49 pm"
    },
    "millsfield:similar": {
      "google/siglip2-so400m-patch16-naflex": [
        {
          "distance": 0.0985155701637268,
          "id": 1729356861
        },
        {
          "distance": 0.10562151670455933,
          "id": 1729355453
        },
        {
          "distance": 0.10971784591674805,
          "id": 1729355453
        },
        {
          "distance": 0.1133607029914856,
          "id": 1729356853
        },
        {
          "distance": 0.12389576435089111,
          "id": 1729356865
        },
        {
          "distance": 0.1276557445526123,
          "id": 1729356861
        },
        {
          "distance": 0.12988561391830444,
          "id": 1729355437
        },
        {
          "distance": 0.13730531930923462,
          "id": 1729356865
        },
        {
          "distance": 0.1411055326461792,
          "id": 1729356853
        },
        {
          "distance": 0.14270055294036865,
          "id": 1729355437
        }
      ]
    },
    "sfomuseum:placetype": "instagram",
    "src:geom": "sfomuseum",
    "wof:belongsto": [
      1159160869,
      102527513,
      102191575,
      85633793,
      102087579,
      85922583,
      85688637
    ],
    "wof:country": "US",
    "wof:created": 1486298940,
    "wof:geomhash": "b6e33f47475d56bc8da457bc31afadc8",
    "wof:hierarchy": [
      {
        "building_id": 1159160869,
        "campus_id": 102527513,
        "continent_id": 102191575,
        "country_id": 85633793,
        "county_id": 102087579,
        "custom_id": 1729359847,
        "instagram_id": 1729359847,
        "locality_id": 85922583,
        "neighbourhood_id": -1,
        "region_id": 85688637
      }
    ],
    "wof:id": 1729359847,
    "wof:lastmodified": 1787777637,
    "wof:name": "..",
    "wof:parent_id": 1159160869,
    "wof:placetype": "custom",
    "wof:placetype_alt": [
      "instagram"
    ],
    "wof:repo": "sfomuseum-data-socialmedia-instagram",
    "wof:superseded_by": [],
    "wof:supersedes": []
  },
  "bbox": [
    -122.386166,
    37.616356,
    -122.386166,
    37.616356
  ],
  "geometry": {"type":"Point","coordinates":[-122.386166,37.616356]}
}
