{
  "id": 1729355457,
  "type": "Feature",
  "properties": {
    "date:cessation_lower": "2020-03-12",
    "date:cessation_upper": "2020-03-12",
    "date:inception_lower": "2020-03-12",
    "date:inception_upper": "2020-03-12",
    "edtf:cessation": "2020-03-12T16:46:00-07:00",
    "edtf:inception": "2020-03-12T16:46:00-07:00",
    "geom:area": 0,
    "geom:bbox": "-122.386166,37.616356,-122.386166,37.616356",
    "geom:latitude": 37.616356,
    "geom:longitude": -122.386166,
    "instagram:post": {
      "caption": {
        "body": "In honor of our 40th anniversary, every week this year we are highlighting one of our past exhibitions. In 2013, we presented “The Art of Recology: The Artist in Residence Program 1990-2013,” which featured art from dozens of artists involved in Recology’s Artist in Residence program. This program’s mission is to inspire and educate by providing local artists with access to materials, a work space, and monetary and administrative support. Do you remember this exhibition? http://bit.ly/2Tnq2jQ",
        "excerpt": "In honor of our 40th anniversary, every week this year we are highlighting one of our past exhibitions.",
        "hashtags": [
          "TBTSFOM",
          "SFOMat40",
          "Recology",
          "art",
          "recycling",
          "recycledart"
        ],
        "users": []
      },
      "location": "",
      "media_id": "f92f8a8ddb2574086cc957434f934446",
      "path": "photos/202003/f92f8a8ddb2574086cc957434f934446.jpg",
      "perceptual_hash": "p:84fc5bdb3f24c02a",
      "taken": 1584027960,
      "taken_at": "Mar 12, 2020, 3:46 PM"
    },
    "millsfield:similar": {
      "google/siglip2-so400m-patch16-naflex": [
        {
          "distance": 0.269639253616333,
          "id": 1729355629
        },
        {
          "distance": 0.27728503942489624,
          "id": 1947425295
        },
        {
          "distance": 0.28016889095306396,
          "id": 1729362783
        },
        {
          "distance": 0.2817346453666687,
          "id": 1763559543
        },
        {
          "distance": 0.28200072050094604,
          "id": 1729362783
        },
        {
          "distance": 0.2821001410484314,
          "id": 1729355633
        },
        {
          "distance": 0.28543156385421753,
          "id": 1729357499
        },
        {
          "distance": 0.2867344617843628,
          "id": 1763559407
        },
        {
          "distance": 0.29174816608428955,
          "id": 1729357499
        },
        {
          "distance": 0.296869695186615,
          "id": 1880151339
        }
      ]
    },
    "sfomuseum:placetype": "instagram",
    "src:geom": "sfomuseum",
    "wof:belongsto": [
      1159160869,
      102527513,
      102191575,
      85633793,
      102087579,
      85922583,
      85688637
    ],
    "wof:country": "US",
    "wof:created": 1584056760,
    "wof:geomhash": "b6e33f47475d56bc8da457bc31afadc8",
    "wof:hierarchy": [
      {
        "building_id": 1159160869,
        "campus_id": 102527513,
        "continent_id": 102191575,
        "country_id": 85633793,
        "county_id": 102087579,
        "custom_id": 1729355457,
        "instagram_id": 1729355457,
        "locality_id": 85922583,
        "neighbourhood_id": -1,
        "region_id": 85688637
      }
    ],
    "wof:id": 1729355457,
    "wof:lastmodified": 1787777625,
    "wof:name": "In honor of our 40th anniversary, every week this year we are highlighting one of our past exhibitions...",
    "wof:parent_id": 1159160869,
    "wof:placetype": "custom",
    "wof:placetype_alt": [
      "instagram"
    ],
    "wof:repo": "sfomuseum-data-socialmedia-instagram",
    "wof:superseded_by": [],
    "wof:supersedes": []
  },
  "bbox": [
    -122.386166,
    37.616356,
    -122.386166,
    37.616356
  ],
  "geometry": {"type":"Point","coordinates":[-122.386166,37.616356]}
}
