{
  "id": 1729356279,
  "type": "Feature",
  "properties": {
    "date:cessation_lower": "2019-07-29",
    "date:cessation_upper": "2019-07-29",
    "date:inception_lower": "2019-07-29",
    "date:inception_upper": "2019-07-29",
    "edtf:cessation": "2019-07-29T03:49:00-07:00",
    "edtf:inception": "2019-07-29T03:49:00-07:00",
    "geom:area": 0,
    "geom:bbox": "-122.386166,37.616356,-122.386166,37.616356",
    "geom:latitude": 37.616356,
    "geom:longitude": -122.386166,
    "instagram:post": {
      "caption": {
        "body": "What is happening at SFO Museum? We are getting ready for our newest exhibition, \"Zuber: The Art of French Scenic Wallpaper!\" http://bit.ly/ZuberScenicWallpaper",
        "excerpt": "What is happening at SFO Museum?",
        "hashtags": [
          "wallpaper",
          "ZuberScenicWallpaper",
          "zuber",
          "scenicwallpaper",
          "interiordesign",
          "museummonday",
          "museum"
        ],
        "users": []
      },
      "media_id": "b6d0a6ae2ad0a6e69e63bd9fc738f881",
      "path": "media/other/67387245_413940462550930_6639010321489795953_n_18008545942238719.jpg",
      "perceptual_hash": "p:9fc3a039d5b4624e",
      "taken": 1564397340,
      "taken_at": "Jul 29, 2019 10:49 am"
    },
    "millsfield:similar": {
      "google/siglip2-so400m-patch16-naflex": [
        {
          "distance": 0.1473163366317749,
          "id": 1729355425
        },
        {
          "distance": 0.15059685707092285,
          "id": 1729356085
        },
        {
          "distance": 0.1515774130821228,
          "id": 1729356087
        },
        {
          "distance": 0.15207070112228394,
          "id": 1729356079
        },
        {
          "distance": 0.17136621475219727,
          "id": 1729356005
        },
        {
          "distance": 0.18225538730621338,
          "id": 1729355425
        },
        {
          "distance": 0.1833106279373169,
          "id": 1729355479
        },
        {
          "distance": 0.18850022554397583,
          "id": 1729356085
        },
        {
          "distance": 0.20210474729537964,
          "id": 1729355981
        },
        {
          "distance": 0.2023279070854187,
          "id": 1729356005
        }
      ]
    },
    "sfomuseum:placetype": "instagram",
    "src:geom": "sfomuseum",
    "wof:belongsto": [
      1159160869,
      102527513,
      102191575,
      85633793,
      102087579,
      85922583,
      85688637
    ],
    "wof:country": "US",
    "wof:created": 1564397340,
    "wof:geomhash": "b6e33f47475d56bc8da457bc31afadc8",
    "wof:hierarchy": [
      {
        "building_id": 1159160869,
        "campus_id": 102527513,
        "continent_id": 102191575,
        "country_id": 85633793,
        "county_id": 102087579,
        "custom_id": 1729356279,
        "instagram_id": 1729356279,
        "locality_id": 85922583,
        "neighbourhood_id": -1,
        "region_id": 85688637
      }
    ],
    "wof:id": 1729356279,
    "wof:lastmodified": 1787777629,
    "wof:name": "What is happening at SFO Museum?..",
    "wof:parent_id": 1159160869,
    "wof:placetype": "custom",
    "wof:placetype_alt": [
      "instagram"
    ],
    "wof:repo": "sfomuseum-data-socialmedia-instagram",
    "wof:superseded_by": [],
    "wof:supersedes": []
  },
  "bbox": [
    -122.386166,
    37.616356,
    -122.386166,
    37.616356
  ],
  "geometry": {"type":"Point","coordinates":[-122.386166,37.616356]}
}
