{
  "id": 1729358727,
  "type": "Feature",
  "properties": {
    "date:cessation_lower": "2018-01-10",
    "date:cessation_upper": "2018-01-10",
    "date:inception_lower": "2018-01-10",
    "date:inception_upper": "2018-01-10",
    "edtf:cessation": "2018-01-10T03:33:00-08:00",
    "edtf:inception": "2018-01-10T03:33:00-08:00",
    "geom:area": 0,
    "geom:bbox": "-122.386166,37.616356,-122.386166,37.616356",
    "geom:latitude": 37.616356,
    "geom:longitude": -122.386166,
    "instagram:post": {
      "caption": {
        "body": "The 727 was Boeing's only tri-jet aircraft and, at the time of its production from the 1960s to the 1980s was Boeing's best-selling jet with over 1,800 sold. Have you ever flown on a Boeing 727?  Learn more about United Airline's history \"Flying the Main Line: A History of United Airlines\", on display, post-security, in Terminal 3. http://bit.ly/TheMainLine",
        "excerpt": "The 727 was Boeing's only tri-jet aircraft and, at the time of its production from the 1960s to the 1980s was Boeing's best-selling jet with over 1,800 sold.",
        "hashtags": [
          "FlyingTheMainLine",
          "TheMainLine",
          "avgeek",
          "united",
          "aviationhistory",
          "unitedairlines",
          "aviationgeek",
          "aviation",
          "boeing",
          "boeing727",
          "trijet"
        ],
        "users": []
      },
      "media_id": "c9f67bf5d47f87818ebbb07111e6e929",
      "path": "media/other/26068061_534839680225194_8426558442696605696_n_17844277645232473.jpg",
      "perceptual_hash": "p:e655d44566a72d29",
      "taken": 1515583980,
      "taken_at": "Jan 10, 2018 11:33 am"
    },
    "millsfield:similar": {
      "google/siglip2-so400m-patch16-naflex": [
        {
          "distance": 0.18190765380859375,
          "id": 1729358929
        },
        {
          "distance": 0.18564438819885254,
          "id": 1729361153
        },
        {
          "distance": 0.18637120723724365,
          "id": 1763559073
        },
        {
          "distance": 0.1921072006225586,
          "id": 1763558705
        },
        {
          "distance": 0.19673967361450195,
          "id": 1729361465
        },
        {
          "distance": 0.19871288537979126,
          "id": 1729358087
        },
        {
          "distance": 0.2048751711845398,
          "id": 1729356407
        },
        {
          "distance": 0.20796096324920654,
          "id": 1729357345
        },
        {
          "distance": 0.21264761686325073,
          "id": 1880151805
        },
        {
          "distance": 0.21397143602371216,
          "id": 1880151013
        }
      ]
    },
    "sfomuseum:placetype": "instagram",
    "src:geom": "sfomuseum",
    "wof:belongsto": [
      1159160869,
      102527513,
      102191575,
      85633793,
      102087579,
      85922583,
      85688637
    ],
    "wof:country": "US",
    "wof:created": 1515583980,
    "wof:geomhash": "b6e33f47475d56bc8da457bc31afadc8",
    "wof:hierarchy": [
      {
        "building_id": 1159160869,
        "campus_id": 102527513,
        "continent_id": 102191575,
        "country_id": 85633793,
        "county_id": 102087579,
        "custom_id": 1729358727,
        "instagram_id": 1729358727,
        "locality_id": 85922583,
        "neighbourhood_id": -1,
        "region_id": 85688637
      }
    ],
    "wof:id": 1729358727,
    "wof:lastmodified": 1787777634,
    "wof:name": "The 727 was Boeing's only tri-jet aircraft and, at the time of its production from the 1960s to the 1980s was Boeing's best-selling jet with over 1,800 sold...",
    "wof:parent_id": 1159160869,
    "wof:placetype": "custom",
    "wof:placetype_alt": [
      "instagram"
    ],
    "wof:repo": "sfomuseum-data-socialmedia-instagram",
    "wof:superseded_by": [],
    "wof:supersedes": []
  },
  "bbox": [
    -122.386166,
    37.616356,
    -122.386166,
    37.616356
  ],
  "geometry": {"type":"Point","coordinates":[-122.386166,37.616356]}
}
