{
  "id": 1729361621,
  "type": "Feature",
  "properties": {
    "date:cessation_lower": "2015-08-12",
    "date:cessation_upper": "2015-08-12",
    "date:inception_lower": "2015-08-12",
    "date:inception_upper": "2015-08-12",
    "edtf:cessation": "2015-08-12T02:34:00-07:00",
    "edtf:inception": "2015-08-12T02:34:00-07:00",
    "geom:area": 0,
    "geom:bbox": "-122.386166,37.616356,-122.386166,37.616356",
    "geom:latitude": 37.616356,
    "geom:longitude": -122.386166,
    "instagram:post": {
      "caption": {
        "body": "Joyce Hsu's Namoo House is located in the International Terminal and combines science, nature, and imagination to create a stunning piece of art. The backgrounds are stylized aerial views of SFO's runways while the flowers and insects resemble planes coming in for landing.",
        "excerpt": "Joyce Hsu's Namoo House is located in the International Terminal and combines science, nature, and imagination to create a stunning piece of art.",
        "hashtags": [
          "regram",
          "Repost",
          "AirportArt",
          "publicart"
        ],
        "users": [
          "cheschire_cat"
        ]
      },
      "media_id": "ea5f11ba88e476447a1a21cf3dd40076",
      "path": "media/other/11809645_1628961397357240_2011332663_n_17842115944062499.jpg",
      "perceptual_hash": "p:9f974b38c360f069",
      "taken": 1439372040,
      "taken_at": "Aug 12, 2015 9:34 am"
    },
    "millsfield:similar": {
      "google/siglip2-so400m-patch16-naflex": [
        {
          "distance": 0.2605416178703308,
          "id": 1729359453
        },
        {
          "distance": 0.29110485315322876,
          "id": 1729359453
        },
        {
          "distance": 0.35226738452911377,
          "id": 1729356491
        },
        {
          "distance": 0.3600232005119324,
          "id": 1729361631
        },
        {
          "distance": 0.3664998412132263,
          "id": 1729356493
        },
        {
          "distance": 0.3792499303817749,
          "id": 1729357869
        },
        {
          "distance": 0.3942938446998596,
          "id": 1880151091
        },
        {
          "distance": 0.4012405276298523,
          "id": 1729362647
        },
        {
          "distance": 0.4050266742706299,
          "id": 1729361661
        },
        {
          "distance": 0.4062708020210266,
          "id": 1729357895
        }
      ]
    },
    "sfomuseum:placetype": "instagram",
    "src:geom": "sfomuseum",
    "wof:belongsto": [
      1159160869,
      102527513,
      102191575,
      85633793,
      102087579,
      85922583,
      85688637
    ],
    "wof:country": "US",
    "wof:created": 1439372040,
    "wof:geomhash": "b6e33f47475d56bc8da457bc31afadc8",
    "wof:hierarchy": [
      {
        "building_id": 1159160869,
        "campus_id": 102527513,
        "continent_id": 102191575,
        "country_id": 85633793,
        "county_id": 102087579,
        "custom_id": 1729361621,
        "instagram_id": 1729361621,
        "locality_id": 85922583,
        "neighbourhood_id": -1,
        "region_id": 85688637
      }
    ],
    "wof:id": 1729361621,
    "wof:lastmodified": 1787777646,
    "wof:name": "Joyce Hsu's Namoo House is located in the International Terminal and combines science, nature, and imagination to create a stunning piece of art...",
    "wof:parent_id": 1159160869,
    "wof:placetype": "custom",
    "wof:placetype_alt": [
      "instagram"
    ],
    "wof:repo": "sfomuseum-data-socialmedia-instagram",
    "wof:superseded_by": [],
    "wof:supersedes": []
  },
  "bbox": [
    -122.386166,
    37.616356,
    -122.386166,
    37.616356
  ],
  "geometry": {"type":"Point","coordinates":[-122.386166,37.616356]}
}
