{
  "id": 1763559159,
  "type": "Feature",
  "properties": {
    "date:cessation_lower": "2021-05-06",
    "date:cessation_upper": "2021-05-06",
    "date:inception_lower": "2021-05-06",
    "date:inception_upper": "2021-05-06",
    "edtf:cessation": "2021-05-06T08:18:00-07:00",
    "edtf:inception": "2021-05-06T08:18:00-07:00",
    "geom:area": 0,
    "geom:bbox": "-122.386166,37.616356,-122.386166,37.616356",
    "geom:latitude": 37.616356,
    "geom:longitude": -122.386166,
    "instagram:post": {
      "caption": {
        "body": "As one of the wealthiest African Americans of her time, Madam C. J. Walker commissioned Villa Lewaro, an Italianate-style, thirty-room mansion to be built in Irvington, New York - an area home to some of the wealthiest white Americans in the country, including John D. Rockefeller. The estate, designed by Vertner Woodson Tandy (1885–1949), one of New York's first licensed Black architects, is now a National Historic Landmark and National Trust for Historic Preservation National Treasure. In this photograph, Madam C. J. Walker Beauty Culturists conference attendees congregate around the back terraces and reflecting pool of Villa Lewaro.  Learn more about Madam C. J. Walker in our photography exhibition, \"In the Driver's Seat: The Rise of Madam C. J. Walker,\" which is on view post-security in Terminal 3 and online at: https://www.sfomuseum.org/exhibitions/madam-c-j-walker or via the link in bio.",
        "excerpt": "As one of the wealthiest African Americans of her time, Madam C. J. Walker commissioned Villa Lewaro, an Italianate-style, thirty-room mansion to be built in Irvington, New York - an area home to some of the wealthiest white Americans in the country, including John D. Rockefeller.",
        "hashtags": [
          "MadamCJWalker",
          "BlackHistory",
          "history",
          "photography",
          "architecture"
        ],
        "users": []
      },
      "media_id": "17d16e7d10ceb73574513d35b3074dae3e54902d",
      "path": "media/other/182871577_501396484219315_4311916862681479642_n_17895858071053134.jpg",
      "perceptual_hash": "p:d8b768cab582c1b5",
      "taken": 1620314280,
      "taken_at": "May 06, 2021 3:18 pm"
    },
    "millsfield:similar": {
      "google/siglip2-so400m-patch16-naflex": [
        {
          "distance": 0.2305203676223755,
          "id": 1729361805
        },
        {
          "distance": 0.24917739629745483,
          "id": 1729360199
        },
        {
          "distance": 0.27608412504196167,
          "id": 1880151097
        },
        {
          "distance": 0.2771443724632263,
          "id": 1729355277
        },
        {
          "distance": 0.2796056270599365,
          "id": 1729356843
        },
        {
          "distance": 0.27974367141723633,
          "id": 1947425253
        },
        {
          "distance": 0.2816275954246521,
          "id": 1729355093
        },
        {
          "distance": 0.28535544872283936,
          "id": 1729361161
        },
        {
          "distance": 0.28535544872283936,
          "id": 1763558609
        },
        {
          "distance": 0.28538060188293457,
          "id": 1729360729
        }
      ]
    },
    "sfomuseum:placetype": "instagram",
    "src:geom": "sfomuseum",
    "wof:belongsto": [
      1159160869,
      102527513,
      102191575,
      85633793,
      102087579,
      85922583,
      85688637
    ],
    "wof:country": "US",
    "wof:created": 1620314280,
    "wof:geomhash": "b6e33f47475d56bc8da457bc31afadc8",
    "wof:hierarchy": [
      {
        "building_id": 1159160869,
        "campus_id": 102527513,
        "continent_id": 102191575,
        "country_id": 85633793,
        "county_id": 102087579,
        "custom_id": 1763559159,
        "instagram_id": 1763559159,
        "locality_id": 85922583,
        "neighbourhood_id": -1,
        "region_id": 85688637
      }
    ],
    "wof:id": 1763559159,
    "wof:lastmodified": 1787777660,
    "wof:name": "As one of the wealthiest African Americans of her time, Madam C. J. Walker commissioned Villa Lewaro, an Italianate-style, thirty-room mansion to be built in Irvington, New York - an area home to some of the wealthiest white Americans in the country, including John D. Rockefeller...",
    "wof:parent_id": 1159160869,
    "wof:placetype": "custom",
    "wof:placetype_alt": [
      "instagram"
    ],
    "wof:repo": "sfomuseum-data-socialmedia-instagram",
    "wof:superseded_by": [],
    "wof:supersedes": []
  },
  "bbox": [
    -122.386166,
    37.616356,
    -122.386166,
    37.616356
  ],
  "geometry": {"type":"Point","coordinates":[-122.386166,37.616356]}
}
