{
  "id": 1729357097,
  "type": "Feature",
  "properties": {
    "date:cessation_lower": "2019-01-13",
    "date:cessation_upper": "2019-01-13",
    "date:inception_lower": "2019-01-13",
    "date:inception_upper": "2019-01-13",
    "edtf:cessation": "2019-01-13T11:17:00-08:00",
    "edtf:inception": "2019-01-13T11:17:00-08:00",
    "geom:area": 0,
    "geom:bbox": "-122.386166,37.616356,-122.386166,37.616356",
    "geom:latitude": 37.616356,
    "geom:longitude": -122.386166,
    "instagram:post": {
      "caption": {
        "body": "In his series, \"Standard Stars\", Eric William Carroll examines and engages with an archive of decaying astronomical glass plate negatives held by the Pisgah Astronomical Research Institute in Rosman, North Carolina. The institute’s Astronomical Photographic Data Archive (APDA) contains one of the largest collections of astronomical glass plates and represents nearly 150 years of efforts to study, catalog, and define the cosmos. Working directly with the photographic plates, Carroll composes new images from the emulsion that has peeled and separated from the glass backing over time. In revisiting the APDA and drawing focus on the deteriorating plates, Standard Stars recontextualizes the fragile objects to ask larger questions about the history of photography and the nature of obsolescence. \"Standard Stars\" by Eric William Carroll is on display pre-security, in Terminal 1. http://bit.ly/2CMrEez",
        "excerpt": "In his series, \"Standard Stars\", Eric William Carroll examines and engages with an archive of decaying astronomical glass plate negatives held by the Pisgah Astronomical Research Institute in Rosman, North Carolina.",
        "hashtags": [
          "EricCarroll",
          "StandardStars",
          "astronomy",
          "photography",
          "cosmos",
          "decay",
          "glassplatenegative",
          "negatives"
        ],
        "users": [
          "ericwilliamcarroll"
        ]
      },
      "media_id": "85129b0117818f1ef9d9885aceaf3518",
      "path": "media/other/47693113_295444974363614_8334242636025067113_n_18022377967016941.jpg",
      "perceptual_hash": "p:c573383c788785da",
      "taken": 1547407020,
      "taken_at": "Jan 13, 2019 7:17 pm"
    },
    "millsfield:similar": {
      "google/siglip2-so400m-patch16-naflex": [
        {
          "distance": 0.12048035860061646,
          "id": 1729359425
        },
        {
          "distance": 0.12564164400100708,
          "id": 1729355023
        },
        {
          "distance": 0.1498568058013916,
          "id": 1729356549
        },
        {
          "distance": 0.16242653131484985,
          "id": 1729358233
        },
        {
          "distance": 0.16242653131484985,
          "id": 1763558729
        },
        {
          "distance": 0.1649225354194641,
          "id": 1729359427
        },
        {
          "distance": 0.16899359226226807,
          "id": 1729357429
        },
        {
          "distance": 0.17013084888458252,
          "id": 1729356955
        },
        {
          "distance": 0.1750197410583496,
          "id": 1729357827
        },
        {
          "distance": 0.17617392539978027,
          "id": 1729356811
        }
      ]
    },
    "sfomuseum:placetype": "instagram",
    "src:geom": "sfomuseum",
    "wof:belongsto": [
      1159160869,
      102527513,
      102191575,
      85633793,
      102087579,
      85922583,
      85688637
    ],
    "wof:country": "US",
    "wof:created": 1547407020,
    "wof:geomhash": "b6e33f47475d56bc8da457bc31afadc8",
    "wof:hierarchy": [
      {
        "building_id": 1159160869,
        "campus_id": 102527513,
        "continent_id": 102191575,
        "country_id": 85633793,
        "county_id": 102087579,
        "custom_id": 1729357097,
        "instagram_id": 1729357097,
        "locality_id": 85922583,
        "neighbourhood_id": -1,
        "region_id": 85688637
      }
    ],
    "wof:id": 1729357097,
    "wof:lastmodified": 1787777630,
    "wof:name": "In his series, \"Standard Stars\", Eric William Carroll examines and engages with an archive of decaying astronomical glass plate negatives held by the Pisgah Astronomical Research Institute in Rosman, North Carolina...",
    "wof:parent_id": 1159160869,
    "wof:placetype": "custom",
    "wof:placetype_alt": [
      "instagram"
    ],
    "wof:repo": "sfomuseum-data-socialmedia-instagram",
    "wof:superseded_by": [],
    "wof:supersedes": []
  },
  "bbox": [
    -122.386166,
    37.616356,
    -122.386166,
    37.616356
  ],
  "geometry": {"type":"Point","coordinates":[-122.386166,37.616356]}
}
