{
  "id": 1763559209,
  "type": "Feature",
  "properties": {
    "date:cessation_lower": "2021-04-01",
    "date:cessation_upper": "2021-04-01",
    "date:inception_lower": "2021-04-01",
    "date:inception_upper": "2021-04-01",
    "edtf:cessation": "2021-04-01T08:20:00-07:00",
    "edtf:inception": "2021-04-01T08:20:00-07:00",
    "geom:area": 0,
    "geom:bbox": "-122.386166,37.616356,-122.386166,37.616356",
    "geom:latitude": 37.616356,
    "geom:longitude": -122.386166,
    "instagram:post": {
      "caption": {
        "body": "“I am a woman who came from the cotton fields of the South. From there I was promoted to the wash-tub. Then I was promoted to the cook kitchen, and from there I promoted myself into the business of manufacturing hair goods and preparations. I have built my own factory on my own ground!” —Madam C. J. Walker addressing the National Negro Business League in Chicago, 1912  Entrepreneur, philanthropist, and social activist, Madam C. J. Walker (1867–1919) created a haircare empire, including a product line, training schools, and salons, which made her one of the wealthiest African Americans of her time. Walker garnered the support of Booker T. Washington, one of the nation’s most powerful advocates for Black businesses, and she supported Black colleges, secondary schools, and social organizations, such as Black YMCA branches.   Learn more about Madam C. J. Walker in our newest photography exhibition, \"In the Driver's Seat: The Rise of Madam C. J. Walker,\" which is on view post-security in Terminal 3 and online at: https://www.sfomuseum.org/exhibitions/madam-c-j-walker  Link also via bio.",
        "excerpt": "“I am a woman who came from the cotton fields of the South.",
        "hashtags": [
          "MadamCJWalker",
          "BlackHistory",
          "history",
          "photography"
        ],
        "users": []
      },
      "media_id": "02a93965f89f073d81fd1c25ef33e8b60e563b78",
      "path": "media/posts/202104/167035349_166980951836414_4019649995058360247_n_17912454973672273.jpg",
      "perceptual_hash": "p:a99b566b32274237",
      "taken": 1617290400,
      "taken_at": "Apr 01, 2021 3:20 pm"
    },
    "millsfield:similar": {
      "google/siglip2-so400m-patch16-naflex": [
        {
          "distance": 0.30331486463546753,
          "id": 1763559221
        },
        {
          "distance": 0.3139423131942749,
          "id": 1763559177
        },
        {
          "distance": 0.317325234413147,
          "id": 1880151499
        },
        {
          "distance": 0.3270420432090759,
          "id": 1763558863
        },
        {
          "distance": 0.3284490704536438,
          "id": 1763559023
        },
        {
          "distance": 0.3293095827102661,
          "id": 1729359983
        },
        {
          "distance": 0.330569863319397,
          "id": 1763558885
        },
        {
          "distance": 0.33106887340545654,
          "id": 1729356535
        },
        {
          "distance": 0.33581459522247314,
          "id": 1729361783
        },
        {
          "distance": 0.3392692804336548,
          "id": 1729358987
        }
      ]
    },
    "sfomuseum:placetype": "instagram",
    "src:geom": "sfomuseum",
    "wof:belongsto": [
      1159160869,
      102527513,
      102191575,
      85633793,
      102087579,
      85922583,
      85688637
    ],
    "wof:country": "US",
    "wof:created": 1617290400,
    "wof:geomhash": "b6e33f47475d56bc8da457bc31afadc8",
    "wof:hierarchy": [
      {
        "building_id": 1159160869,
        "campus_id": 102527513,
        "continent_id": 102191575,
        "country_id": 85633793,
        "county_id": 102087579,
        "custom_id": 1763559209,
        "instagram_id": 1763559209,
        "locality_id": 85922583,
        "neighbourhood_id": -1,
        "region_id": 85688637
      }
    ],
    "wof:id": 1763559209,
    "wof:lastmodified": 1787777660,
    "wof:name": "“I am a woman who came from the cotton fields of the South...",
    "wof:parent_id": 1159160869,
    "wof:placetype": "custom",
    "wof:placetype_alt": [
      "instagram"
    ],
    "wof:repo": "sfomuseum-data-socialmedia-instagram",
    "wof:superseded_by": [],
    "wof:supersedes": []
  },
  "bbox": [
    -122.386166,
    37.616356,
    -122.386166,
    37.616356
  ],
  "geometry": {"type":"Point","coordinates":[-122.386166,37.616356]}
}
