{
  "id": 1729356163,
  "type": "Feature",
  "properties": {
    "date:cessation_lower": "2019-08-26",
    "date:cessation_upper": "2019-08-26",
    "date:inception_lower": "2019-08-26",
    "date:inception_upper": "2019-08-26",
    "edtf:cessation": "2019-08-26T02:33:00-07:00",
    "edtf:inception": "2019-08-26T02:33:00-07:00",
    "geom:area": 0,
    "geom:bbox": "-122.386166,37.616356,-122.386166,37.616356",
    "geom:latitude": 37.616356,
    "geom:longitude": -122.386166,
    "instagram:post": {
      "caption": {
        "body": "Sam Francis began painting while hospitalized at Letterman Hospital in San Francisco, where he studied privately with well-known Bay Area painter David Park. Later, as a student at U.C. Berkeley, he developed his distinctive brand of abstract expressionism. He was among the first of the American Abstract Expressionists to be exhibited in Europe, where his work was very influential. This commissioned painting is a good example of the artist’s signature stained and dripped “cells” of saturated color. “Untitled” by Sam Francis is on display, post-security, in Terminal 3. http://bit.ly/2L5G8ZR",
        "excerpt": "Sam Francis began painting while hospitalized at Letterman Hospital in San Francisco, where he studied privately with well-known Bay Area painter David Park.",
        "hashtags": [
          "SamFrancis",
          "Untitled",
          "publicart",
          "painting",
          "abstractexpressionist"
        ],
        "users": []
      },
      "media_id": "0dbc5a9badacfc1fa4f4c85d53ce9e46",
      "path": "media/other/70008707_1327204794093976_6833842208246217543_n_17974236139283308.jpg",
      "perceptual_hash": "p:96a3ff0678bd1061",
      "taken": 1566811980,
      "taken_at": "Aug 26, 2019 9:33 am"
    },
    "millsfield:similar": {
      "google/siglip2-so400m-patch16-naflex": [
        {
          "distance": 0.16990071535110474,
          "id": 1729357701
        },
        {
          "distance": 0.18944382667541504,
          "id": 1729359429
        },
        {
          "distance": 0.19642555713653564,
          "id": 1729355291
        },
        {
          "distance": 0.2060444951057434,
          "id": 1729357871
        },
        {
          "distance": 0.22198230028152466,
          "id": 1880151299
        },
        {
          "distance": 0.223649263381958,
          "id": 1729360153
        },
        {
          "distance": 0.23056989908218384,
          "id": 1947425003
        },
        {
          "distance": 0.23203611373901367,
          "id": 1947424907
        },
        {
          "distance": 0.23213595151901245,
          "id": 1880151053
        },
        {
          "distance": 0.23372769355773926,
          "id": 1880151069
        }
      ]
    },
    "sfomuseum:placetype": "instagram",
    "src:geom": "sfomuseum",
    "wof:belongsto": [
      1159160869,
      102527513,
      102191575,
      85633793,
      102087579,
      85922583,
      85688637
    ],
    "wof:country": "US",
    "wof:created": 1566811980,
    "wof:geomhash": "b6e33f47475d56bc8da457bc31afadc8",
    "wof:hierarchy": [
      {
        "building_id": 1159160869,
        "campus_id": 102527513,
        "continent_id": 102191575,
        "country_id": 85633793,
        "county_id": 102087579,
        "custom_id": 1729356163,
        "instagram_id": 1729356163,
        "locality_id": 85922583,
        "neighbourhood_id": -1,
        "region_id": 85688637
      }
    ],
    "wof:id": 1729356163,
    "wof:lastmodified": 1787777628,
    "wof:name": "Sam Francis began painting while hospitalized at Letterman Hospital in San Francisco, where he studied privately with well-known Bay Area painter David Park...",
    "wof:parent_id": 1159160869,
    "wof:placetype": "custom",
    "wof:placetype_alt": [
      "instagram"
    ],
    "wof:repo": "sfomuseum-data-socialmedia-instagram",
    "wof:superseded_by": [],
    "wof:supersedes": []
  },
  "bbox": [
    -122.386166,
    37.616356,
    -122.386166,
    37.616356
  ],
  "geometry": {"type":"Point","coordinates":[-122.386166,37.616356]}
}
