{
  "id": 1729355843,
  "type": "Feature",
  "properties": {
    "date:cessation_lower": "2019-11-27",
    "date:cessation_upper": "2019-11-27",
    "date:inception_lower": "2019-11-27",
    "date:inception_upper": "2019-11-27",
    "edtf:cessation": "2019-11-27T05:49:00-08:00",
    "edtf:inception": "2019-11-27T05:49:00-08:00",
    "geom:area": 0,
    "geom:bbox": "-122.386166,37.616356,-122.386166,37.616356",
    "geom:latitude": 37.616356,
    "geom:longitude": -122.386166,
    "instagram:post": {
      "caption": {
        "body": "#OnThisDay in 1962, the first #Boeing 727 rolled out of the factory. The Boeing 727 was a medium range, intermediate-capacity jetliner that featured a clean swept wing, a high horizontal stabilizer, and a unique tri-jet configuration. The only tri-jet to be developed by Boeing, the airframe design dictated that the horizontal stabilizer be placed well away from the middle engine, high on top of the vertical stabilizer. During the time of its production from the 1960s to the 1980s it was Boeing's best-selling jet with over 1,800 sold. Have you ever flown on a Boeing 727?  Image: Pacific Southwest Airlines (PSA) postcard, c. 1968. Gift of David Winckoski. 2011.195.046",
        "excerpt": "#OnThisDay in 1962, the first #Boeing 727 rolled out of the factory.",
        "hashtags": [
          "Boeing727",
          "avgeek",
          "postcard",
          "1960s",
          "boeing"
        ],
        "users": []
      },
      "media_id": "29260d9f7ed32bbc9a04aa952187f3b8",
      "path": "media/other/71338347_187678769026868_4858085514431337386_n_18011814424257337.jpg",
      "perceptual_hash": "p:97b8c1e6e9b69144",
      "taken": 1574862540,
      "taken_at": "Nov 27, 2019 1:49 pm"
    },
    "millsfield:similar": {
      "google/siglip2-so400m-patch16-naflex": [
        {
          "distance": 0.032752156257629395,
          "id": 1729360815
        },
        {
          "distance": 0.11465996503829956,
          "id": 1729360815
        },
        {
          "distance": 0.12126129865646362,
          "id": 1947425179
        },
        {
          "distance": 0.141160786151886,
          "id": 1947425179
        },
        {
          "distance": 0.18548119068145752,
          "id": 1729358365
        },
        {
          "distance": 0.1877824068069458,
          "id": 1763558657
        },
        {
          "distance": 0.1877824068069458,
          "id": 1729359895
        },
        {
          "distance": 0.19359612464904785,
          "id": 1880151413
        },
        {
          "distance": 0.20350706577301025,
          "id": 1763558997
        },
        {
          "distance": 0.2064732313156128,
          "id": 1763558979
        }
      ]
    },
    "sfomuseum:placetype": "instagram",
    "src:geom": "sfomuseum",
    "wof:belongsto": [
      1159160869,
      102527513,
      102191575,
      85633793,
      102087579,
      85922583,
      85688637
    ],
    "wof:country": "US",
    "wof:created": 1574862540,
    "wof:geomhash": "b6e33f47475d56bc8da457bc31afadc8",
    "wof:hierarchy": [
      {
        "building_id": 1159160869,
        "campus_id": 102527513,
        "continent_id": 102191575,
        "country_id": 85633793,
        "county_id": 102087579,
        "custom_id": 1729355843,
        "instagram_id": 1729355843,
        "locality_id": 85922583,
        "neighbourhood_id": -1,
        "region_id": 85688637
      }
    ],
    "wof:id": 1729355843,
    "wof:lastmodified": 1787777627,
    "wof:name": "#OnThisDay in 1962, the first #Boeing 727 rolled out of the factory...",
    "wof:parent_id": 1159160869,
    "wof:placetype": "custom",
    "wof:placetype_alt": [
      "instagram"
    ],
    "wof:repo": "sfomuseum-data-socialmedia-instagram",
    "wof:superseded_by": [],
    "wof:supersedes": []
  },
  "bbox": [
    -122.386166,
    37.616356,
    -122.386166,
    37.616356
  ],
  "geometry": {"type":"Point","coordinates":[-122.386166,37.616356]}
}
