{
  "id": 1729361257,
  "type": "Feature",
  "properties": {
    "date:cessation_lower": "2015-12-18",
    "date:cessation_upper": "2015-12-18",
    "date:inception_lower": "2015-12-18",
    "date:inception_upper": "2015-12-18",
    "edtf:cessation": "2015-12-18T01:05:00-08:00",
    "edtf:inception": "2015-12-18T01:05:00-08:00",
    "geom:area": 0,
    "geom:bbox": "-122.386166,37.616356,-122.386166,37.616356",
    "geom:latitude": 37.616356,
    "geom:longitude": -122.386166,
    "instagram:post": {
      "caption": {
        "body": "Air California (later renamed AirCal) was founded in 1965 by a group of Orange County businessmen, but after two decades of operation, the airline was acquired by American Airlines. Now American is paying homage to this historic airline by recently painting one of their 737s in the classic AirCal livery.  This timetable from 1985 shows a 737 flying the distinctive AirCal colors. Learn more about AirCal in our “Catch Our Style” exhibition, on display pre-security, in the Aviation Museum and Library in the International Terminal. The Aviation Museum and Library is open from Sunday through Friday, 10am to 4:30pm.",
        "excerpt": "Air California (later renamed AirCal) was founded in 1965 by a group of Orange County businessmen, but after two decades of operation, the airline was acquired by American Airlines.",
        "hashtags": [],
        "users": []
      },
      "media_id": "670b4799585c11aa03e169943b8f3103",
      "path": "media/other/12301170_221296361535856_148952330_n_17852143066042599.jpg",
      "perceptual_hash": "p:c5a7fa9a95254ac2",
      "taken": 1450429500,
      "taken_at": "Dec 18, 2015 9:05 am"
    },
    "millsfield:similar": {
      "google/siglip2-so400m-patch16-naflex": [
        {
          "distance": 0.2884800434112549,
          "id": 1729361153
        },
        {
          "distance": 0.3059777021408081,
          "id": 1729358293
        },
        {
          "distance": 0.31030839681625366,
          "id": 1729355269
        },
        {
          "distance": 0.3121204972267151,
          "id": 1729360551
        },
        {
          "distance": 0.31245577335357666,
          "id": 1729358243
        },
        {
          "distance": 0.3131372928619385,
          "id": 1729361017
        },
        {
          "distance": 0.31341874599456787,
          "id": 1763558837
        },
        {
          "distance": 0.3138777017593384,
          "id": 1729360171
        },
        {
          "distance": 0.31831657886505127,
          "id": 1729355269
        },
        {
          "distance": 0.3195616602897644,
          "id": 1763558837
        }
      ]
    },
    "sfomuseum:placetype": "instagram",
    "src:geom": "sfomuseum",
    "wof:belongsto": [
      1159160869,
      102527513,
      102191575,
      85633793,
      102087579,
      85922583,
      85688637
    ],
    "wof:country": "US",
    "wof:created": 1450429500,
    "wof:geomhash": "b6e33f47475d56bc8da457bc31afadc8",
    "wof:hierarchy": [
      {
        "building_id": 1159160869,
        "campus_id": 102527513,
        "continent_id": 102191575,
        "country_id": 85633793,
        "county_id": 102087579,
        "custom_id": 1729361257,
        "instagram_id": 1729361257,
        "locality_id": 85922583,
        "neighbourhood_id": -1,
        "region_id": 85688637
      }
    ],
    "wof:id": 1729361257,
    "wof:lastmodified": 1787777645,
    "wof:name": "Air California (later renamed AirCal) was founded in 1965 by a group of Orange County businessmen, but after two decades of operation, the airline was acquired by American Airlines...",
    "wof:parent_id": 1159160869,
    "wof:placetype": "custom",
    "wof:placetype_alt": [
      "instagram"
    ],
    "wof:repo": "sfomuseum-data-socialmedia-instagram",
    "wof:superseded_by": [],
    "wof:supersedes": []
  },
  "bbox": [
    -122.386166,
    37.616356,
    -122.386166,
    37.616356
  ],
  "geometry": {"type":"Point","coordinates":[-122.386166,37.616356]}
}
