{
  "id": 1729362067,
  "type": "Feature",
  "properties": {
    "date:cessation_lower": "2014-11-07",
    "date:cessation_upper": "2014-11-07",
    "date:inception_lower": "2014-11-07",
    "date:inception_upper": "2014-11-07",
    "edtf:cessation": "2014-11-07T03:18:00-08:00",
    "edtf:inception": "2014-11-07T03:18:00-08:00",
    "geom:area": 0,
    "geom:bbox": "-122.386166,37.616356,-122.386166,37.616356",
    "geom:latitude": 37.616356,
    "geom:longitude": -122.386166,
    "instagram:post": {
      "caption": {
        "body": "",
        "excerpt": "",
        "hashtags": [
          "Tiffany",
          "glass",
          "lava"
        ],
        "users": []
      },
      "media_id": "750a1b37df06ce868b84fbed01a7c19d",
      "path": "media/other/10723678_1554942748050745_427308720_n_17841782182062499.jpg",
      "perceptual_hash": "p:e81287ed1a3b2d96",
      "taken": 1415359080,
      "taken_at": "Nov 07, 2014 11:18 am"
    },
    "millsfield:similar": {
      "google/siglip2-so400m-patch16-naflex": [
        {
          "distance": 0.292169451713562,
          "id": 1729360453
        },
        {
          "distance": 0.34268832206726074,
          "id": 1729356621
        },
        {
          "distance": 0.3520357012748718,
          "id": 1729360871
        },
        {
          "distance": 0.3520679473876953,
          "id": 1729360453
        },
        {
          "distance": 0.3529546856880188,
          "id": 1729362017
        },
        {
          "distance": 0.3650144338607788,
          "id": 1729360533
        },
        {
          "distance": 0.36917954683303833,
          "id": 1729356767
        },
        {
          "distance": 0.3818995952606201,
          "id": 1729362023
        },
        {
          "distance": 0.383846640586853,
          "id": 1729360871
        },
        {
          "distance": 0.3865765929222107,
          "id": 1729360997
        }
      ]
    },
    "sfomuseum:placetype": "instagram",
    "src:geom": "sfomuseum",
    "wof:belongsto": [
      1159160869,
      102527513,
      102191575,
      85633793,
      102087579,
      85922583,
      85688637
    ],
    "wof:country": "US",
    "wof:created": 1415359080,
    "wof:geomhash": "b6e33f47475d56bc8da457bc31afadc8",
    "wof:hierarchy": [
      {
        "building_id": 1159160869,
        "campus_id": 102527513,
        "continent_id": 102191575,
        "country_id": 85633793,
        "county_id": 102087579,
        "custom_id": 1729362067,
        "instagram_id": 1729362067,
        "locality_id": 85922583,
        "neighbourhood_id": -1,
        "region_id": 85688637
      }
    ],
    "wof:id": 1729362067,
    "wof:lastmodified": 1787777646,
    "wof:name": "..",
    "wof:parent_id": 1159160869,
    "wof:placetype": "custom",
    "wof:placetype_alt": [
      "instagram"
    ],
    "wof:repo": "sfomuseum-data-socialmedia-instagram",
    "wof:superseded_by": [],
    "wof:supersedes": []
  },
  "bbox": [
    -122.386166,
    37.616356,
    -122.386166,
    37.616356
  ],
  "geometry": {"type":"Point","coordinates":[-122.386166,37.616356]}
}
