{
  "id": 1947425287,
  "type": "Feature",
  "properties": {
    "date:cessation_lower": "2023-09-19",
    "date:cessation_upper": "2023-09-19",
    "date:inception_lower": "2023-09-19",
    "date:inception_upper": "2023-09-19",
    "edtf:cessation": "2023-09-19T08:51:00-07:00",
    "edtf:inception": "2023-09-19T08:51:00-07:00",
    "geom:area": 0,
    "geom:bbox": "-122.386166,37.616356,-122.386166,37.616356",
    "geom:latitude": 37.616356,
    "geom:longitude": -122.386166,
    "instagram:post": {
      "caption": {
        "body": "Choreographer Dwight Rhoden’s third work for San Francisco Ballet, 𝘛𝘩𝘦 𝘗𝘳𝘰𝘮𝘪𝘴𝘦𝘥 𝘓𝘢𝘯𝘥, premiered as part of the 2022 Celebration, the Company’s first in-person season since the COVID-19 pandemic.   Rhoden has a distinctive choreographic style. Within Rhoden’s piece there is a range of textures, going from fast and chaotic to pensive and serene, paralleling the uncertainty of contemporary world events. While 𝘛𝘩𝘦 𝘗𝘳𝘰𝘮𝘪𝘴𝘦𝘥 𝘓𝘢𝘯𝘥 does not have a fixed story, there is a “wandering narrative” throughout inspired by circumstances of the past few years: the COVID-19 pandemic and the struggle for racial equality. But as Rhoden points out, his ballet is more about looking back and moving forward, or “how we recover.”   Special thank you to San Francisco Ballet for making this exhibition possible. See “San Francisco Ballet at 90” on display, pre-security, in the International Terminal and online at: https://bit.ly/SFBalletAt90",
        "excerpt": "Choreographer Dwight Rhoden’s third work for San Francisco Ballet, 𝘛𝘩𝘦 𝘗𝘳𝘰𝘮𝘪𝘴𝘦𝘥 𝘓𝘢𝘯𝘥, premiered as part of the 2022 Celebration, the Company’s first in-person season since the COVID-19 pandemic.",
        "hashtags": [
          "SFBalletAt90",
          "Ballet"
        ],
        "users": [
          "sfballet"
        ]
      },
      "media_id": "752a9f242db9fc19361ec57f1f76ae54094bcc08",
      "path": "media/posts/202309/379805877_773693028100962_8281307036505515487_n_18037410511553433.jpg",
      "perceptual_hash": "p:a08bcf44f06f3db0",
      "taken": 1695138660,
      "taken_at": "Sep 19, 2023 3:51 pm"
    },
    "millsfield:similar": {
      "google/siglip2-so400m-patch16-naflex": [
        {
          "distance": 0.19406557083129883,
          "id": 1729356193
        },
        {
          "distance": 0.2019575834274292,
          "id": 1880151033
        },
        {
          "distance": 0.2019575834274292,
          "id": 1947425245
        },
        {
          "distance": 0.20508742332458496,
          "id": 1947425119
        },
        {
          "distance": 0.205133855342865,
          "id": 1880150937
        },
        {
          "distance": 0.2083556056022644,
          "id": 1880150907
        },
        {
          "distance": 0.2105700969696045,
          "id": 1947425119
        },
        {
          "distance": 0.21456032991409302,
          "id": 1947425245
        },
        {
          "distance": 0.21456032991409302,
          "id": 1880151033
        },
        {
          "distance": 0.22301530838012695,
          "id": 1947425261
        }
      ]
    },
    "sfomuseum:placetype": "instagram",
    "src:geom": "sfomuseum",
    "wof:belongsto": [
      1159160869,
      102527513,
      102191575,
      85633793,
      102087579,
      85922583,
      85688637
    ],
    "wof:country": "US",
    "wof:created": 1695138660,
    "wof:geomhash": "b6e33f47475d56bc8da457bc31afadc8",
    "wof:hierarchy": [
      {
        "building_id": 1159160869,
        "campus_id": 102527513,
        "continent_id": 102191575,
        "country_id": 85633793,
        "county_id": 102087579,
        "custom_id": 1947425287,
        "locality_id": 85922583,
        "neighbourhood_id": -1,
        "region_id": 85688637
      }
    ],
    "wof:id": 1947425287,
    "wof:lastmodified": 1787777664,
    "wof:name": "Choreographer Dwight Rhoden’s third work for San Francisco Ballet, 𝘛𝘩𝘦 𝘗𝘳𝘰𝘮𝘪𝘴𝘦𝘥 𝘓𝘢𝘯𝘥, premiered as part of the 2022 Celebration, the Company’s first in-person season since the COVID-19 pandemic...",
    "wof:parent_id": 1159160869,
    "wof:placetype": "custom",
    "wof:repo": "sfomuseum-data-socialmedia-instagram",
    "wof:superseded_by": [],
    "wof:supersedes": []
  },
  "bbox": [
    -122.386166,
    37.616356,
    -122.386166,
    37.616356
  ],
  "geometry": {"type":"Point","coordinates":[-122.386166,37.616356]}
}
