{
  "id": 1729357797,
  "type": "Feature",
  "properties": {
    "date:cessation_lower": "2018-08-08",
    "date:cessation_upper": "2018-08-08",
    "date:inception_lower": "2018-08-08",
    "date:inception_upper": "2018-08-08",
    "edtf:cessation": "2018-08-08T09:18:00-07:00",
    "edtf:inception": "2018-08-08T09:18:00-07:00",
    "geom:area": 0,
    "geom:bbox": "-122.386166,37.616356,-122.386166,37.616356",
    "geom:latitude": 37.616356,
    "geom:longitude": -122.386166,
    "instagram:post": {
      "caption": {
        "body": "It's International Cat Day and we cannot get enough of cats at SFO Museum! We are presenting not one but TWO cat exhibitions! \"Maneki Neko: Japanese Beckoning Cat\" is on display post-security in Terminal 2 and \"Caticons: The Cat in Art\" is on display, pre-security in the International Terminal. Check out our website for more information. http://bit.ly/SFOExhibitions",
        "excerpt": "It's International Cat Day and we cannot get enough of cats at SFO Museum!",
        "hashtags": [
          "InternationalCatDay",
          "caticons",
          "beckoningcats",
          "manekineko",
          "catsofinstagram",
          "cats",
          "neko",
          "meow",
          "mewseum",
          "japan",
          "mingei",
          "japanese",
          "caticon",
          "cat",
          "catsofinstagram",
          "cats",
          "meow",
          "mewseum",
          "catstagram",
          "catsagram",
          "catscatscats",
          "catlover"
        ],
        "users": []
      },
      "media_id": "fd3575ec0471f1778d3e338b94c3ee47",
      "path": "media/posts/201808/38792576_260887911194532_4053880263300612096_n_17963232586071132.jpg",
      "perceptual_hash": "p:abd8911fc8669672",
      "taken": 1533745080,
      "taken_at": "Aug 08, 2018 4:18 pm"
    },
    "millsfield:similar": {
      "google/siglip2-so400m-patch16-naflex": [
        {
          "distance": 0.04485630989074707,
          "id": 1729357517
        },
        {
          "distance": 0.06111598014831543,
          "id": 1729356935
        },
        {
          "distance": 0.09567129611968994,
          "id": 1729357507
        },
        {
          "distance": 0.09601205587387085,
          "id": 1729357517
        },
        {
          "distance": 0.10333573818206787,
          "id": 1729356935
        },
        {
          "distance": 0.10735321044921875,
          "id": 1729357505
        },
        {
          "distance": 0.12138652801513672,
          "id": 1729357507
        },
        {
          "distance": 0.15518838167190552,
          "id": 1729357505
        },
        {
          "distance": 0.2088611125946045,
          "id": 1729358485
        },
        {
          "distance": 0.22758787870407104,
          "id": 1729358149
        }
      ]
    },
    "sfomuseum:placetype": "instagram",
    "src:geom": "sfomuseum",
    "wof:belongsto": [
      1159160869,
      102527513,
      102191575,
      85633793,
      102087579,
      85922583,
      85688637
    ],
    "wof:country": "US",
    "wof:created": 1533745080,
    "wof:geomhash": "b6e33f47475d56bc8da457bc31afadc8",
    "wof:hierarchy": [
      {
        "building_id": 1159160869,
        "campus_id": 102527513,
        "continent_id": 102191575,
        "country_id": 85633793,
        "county_id": 102087579,
        "custom_id": 1729357797,
        "instagram_id": 1729357797,
        "locality_id": 85922583,
        "neighbourhood_id": -1,
        "region_id": 85688637
      }
    ],
    "wof:id": 1729357797,
    "wof:lastmodified": 1787777632,
    "wof:name": "It's International Cat Day and we cannot get enough of cats at SFO Museum!..",
    "wof:parent_id": 1159160869,
    "wof:placetype": "custom",
    "wof:placetype_alt": [
      "instagram"
    ],
    "wof:repo": "sfomuseum-data-socialmedia-instagram",
    "wof:superseded_by": [],
    "wof:supersedes": []
  },
  "bbox": [
    -122.386166,
    37.616356,
    -122.386166,
    37.616356
  ],
  "geometry": {"type":"Point","coordinates":[-122.386166,37.616356]}
}
