{
  "id": 1729361681,
  "type": "Feature",
  "properties": {
    "date:cessation_lower": "2015-07-20",
    "date:cessation_upper": "2015-07-20",
    "date:inception_lower": "2015-07-20",
    "date:inception_upper": "2015-07-20",
    "edtf:cessation": "2015-07-20T08:24:00-07:00",
    "edtf:inception": "2015-07-20T08:24:00-07:00",
    "geom:area": 0,
    "geom:bbox": "-122.386166,37.616356,-122.386166,37.616356",
    "geom:latitude": 37.616356,
    "geom:longitude": -122.386166,
    "instagram:post": {
      "caption": {
        "body": "Thanks for stopping by and admiring! #regram  #Repost @atrips with @repostapp. ・・・",
        "excerpt": "Thanks for stopping by and admiring!",
        "hashtags": [
          "sfo",
          "travel",
          "usa",
          "art",
          "exhibition"
        ],
        "users": []
      },
      "media_id": "166ecd33e9bb142245169b44a20f055d",
      "path": "media/other/11419122_146213555710053_55079260_n_17842020106062499.jpg",
      "perceptual_hash": "p:b88f6615f98fe021",
      "taken": 1437405840,
      "taken_at": "Jul 20, 2015 3:24 pm"
    },
    "millsfield:similar": {
      "google/siglip2-so400m-patch16-naflex": [
        {
          "distance": 0.19730687141418457,
          "id": 1729362367
        },
        {
          "distance": 0.22813427448272705,
          "id": 1729357325
        },
        {
          "distance": 0.23303544521331787,
          "id": 1729361679
        },
        {
          "distance": 0.23807871341705322,
          "id": 1729357693
        },
        {
          "distance": 0.24248141050338745,
          "id": 1729362255
        },
        {
          "distance": 0.24746590852737427,
          "id": 1729360291
        },
        {
          "distance": 0.25187933444976807,
          "id": 1947424999
        },
        {
          "distance": 0.2525762915611267,
          "id": 1947424799
        },
        {
          "distance": 0.2547958493232727,
          "id": 1729357693
        },
        {
          "distance": 0.25553590059280396,
          "id": 1729362947
        }
      ]
    },
    "sfomuseum:placetype": "instagram",
    "src:geom": "sfomuseum",
    "wof:belongsto": [
      1159160869,
      102527513,
      102191575,
      85633793,
      102087579,
      85922583,
      85688637
    ],
    "wof:country": "US",
    "wof:created": 1437405840,
    "wof:geomhash": "b6e33f47475d56bc8da457bc31afadc8",
    "wof:hierarchy": [
      {
        "building_id": 1159160869,
        "campus_id": 102527513,
        "continent_id": 102191575,
        "country_id": 85633793,
        "county_id": 102087579,
        "custom_id": 1729361681,
        "instagram_id": 1729361681,
        "locality_id": 85922583,
        "neighbourhood_id": -1,
        "region_id": 85688637
      }
    ],
    "wof:id": 1729361681,
    "wof:lastmodified": 1787777646,
    "wof:name": "Thanks for stopping by and admiring!..",
    "wof:parent_id": 1159160869,
    "wof:placetype": "custom",
    "wof:placetype_alt": [
      "instagram"
    ],
    "wof:repo": "sfomuseum-data-socialmedia-instagram",
    "wof:superseded_by": [],
    "wof:supersedes": []
  },
  "bbox": [
    -122.386166,
    37.616356,
    -122.386166,
    37.616356
  ],
  "geometry": {"type":"Point","coordinates":[-122.386166,37.616356]}
}
