{
  "id": 1729361923,
  "type": "Feature",
  "properties": {
    "date:cessation_lower": "2015-02-17",
    "date:cessation_upper": "2015-02-17",
    "date:inception_lower": "2015-02-17",
    "date:inception_upper": "2015-02-17",
    "edtf:cessation": "2015-02-17T06:08:00-08:00",
    "edtf:inception": "2015-02-17T06:08:00-08:00",
    "geom:area": 0,
    "geom:bbox": "-122.386166,37.616356,-122.386166,37.616356",
    "geom:latitude": 37.616356,
    "geom:longitude": -122.386166,
    "instagram:post": {
      "caption": {
        "body": "",
        "excerpt": "",
        "hashtags": [
          "GoneFishing",
          "TravelTuesday",
          "IcelandAir",
          "LuggageLabel"
        ],
        "users": []
      },
      "media_id": "2317850732a9ac834ea7cfceb9c0bc8b",
      "path": "media/other/11008135_1535061876781863_794993686_n_17841840547062499.jpg",
      "perceptual_hash": "p:e9c3969ccc699383",
      "taken": 1424182080,
      "taken_at": "Feb 17, 2015 2:08 pm"
    },
    "millsfield:similar": {
      "google/siglip2-so400m-patch16-naflex": [
        {
          "distance": 0.3036825656890869,
          "id": 1729360475
        },
        {
          "distance": 0.3358834385871887,
          "id": 1763558725
        },
        {
          "distance": 0.3358834385871887,
          "id": 1729358623
        },
        {
          "distance": 0.3376440405845642,
          "id": 1763559353
        },
        {
          "distance": 0.3393843173980713,
          "id": 1729358625
        },
        {
          "distance": 0.3402485251426697,
          "id": 1729356257
        },
        {
          "distance": 0.3449298143386841,
          "id": 1729361575
        },
        {
          "distance": 0.3485950231552124,
          "id": 1729359015
        },
        {
          "distance": 0.35213911533355713,
          "id": 1729360489
        },
        {
          "distance": 0.35273855924606323,
          "id": 1729359015
        }
      ]
    },
    "sfomuseum:placetype": "instagram",
    "src:geom": "sfomuseum",
    "wof:belongsto": [
      1159160869,
      102527513,
      102191575,
      85633793,
      102087579,
      85922583,
      85688637
    ],
    "wof:country": "US",
    "wof:created": 1424182080,
    "wof:geomhash": "b6e33f47475d56bc8da457bc31afadc8",
    "wof:hierarchy": [
      {
        "building_id": 1159160869,
        "campus_id": 102527513,
        "continent_id": 102191575,
        "country_id": 85633793,
        "county_id": 102087579,
        "custom_id": 1729361923,
        "instagram_id": 1729361923,
        "locality_id": 85922583,
        "neighbourhood_id": -1,
        "region_id": 85688637
      }
    ],
    "wof:id": 1729361923,
    "wof:lastmodified": 1787777646,
    "wof:name": "..",
    "wof:parent_id": 1159160869,
    "wof:placetype": "custom",
    "wof:placetype_alt": [
      "instagram"
    ],
    "wof:repo": "sfomuseum-data-socialmedia-instagram",
    "wof:superseded_by": [],
    "wof:supersedes": []
  },
  "bbox": [
    -122.386166,
    37.616356,
    -122.386166,
    37.616356
  ],
  "geometry": {"type":"Point","coordinates":[-122.386166,37.616356]}
}
