{
  "id": 1729361563,
  "type": "Feature",
  "properties": {
    "date:cessation_lower": "2015-09-02",
    "date:cessation_upper": "2015-09-02",
    "date:inception_lower": "2015-09-02",
    "date:inception_upper": "2015-09-02",
    "edtf:cessation": "2015-09-02T00:48:00-07:00",
    "edtf:inception": "2015-09-02T00:48:00-07:00",
    "geom:area": 0,
    "geom:bbox": "-122.386166,37.616356,-122.386166,37.616356",
    "geom:latitude": 37.616356,
    "geom:longitude": -122.386166,
    "instagram:post": {
      "caption": {
        "body": "The eight-foot high Pan American World Airways floor globe featured in the aviation museum at SFO was exhibited at the 1939–1940 Golden Gate International Exposition on Treasure Island in San Francisco where the airline operated its famous flying boats.  Treasure Island was created both for the Exposition and to then become an airfield for a second municipal airport. The Exposition celebrated multiple themes including the promotion of commercial aviation. Pan American’s introduction of long-haul, over-ocean flights to Asia, Latin America, and Europe signaled a shift in the perception of how one could travel throughout the world. Far flung travel destinations became more accessible through new developments in aviation.  The globe became a symbol of Pan American signifying to their customers that they could now travel the world on an airline. This was an unprecedented development for the early 20th century.",
        "excerpt": "The eight-foot high Pan American World Airways floor globe featured in the aviation museum at SFO was exhibited at the 1939–1940 Golden Gate International Exposition on Treasure Island in San Francisco where the airline operated its famous flying boats.",
        "hashtags": [],
        "users": []
      },
      "media_id": "115b065563d5974e92a95d8fd6dd6a10",
      "path": "media/other/11849206_131993337146937_1330909478_n_17843163340062499.jpg",
      "perceptual_hash": "p:dbdb2c34b06426c7",
      "taken": 1441180080,
      "taken_at": "Sep 02, 2015 7:48 am"
    },
    "millsfield:similar": {
      "google/siglip2-so400m-patch16-naflex": [
        {
          "distance": 0.10973131656646729,
          "id": 1880151029
        },
        {
          "distance": 0.13915282487869263,
          "id": 1880151029
        },
        {
          "distance": 0.22326797246932983,
          "id": 1763559551
        },
        {
          "distance": 0.2271425724029541,
          "id": 1763559551
        },
        {
          "distance": 0.2639451026916504,
          "id": 1729357541
        },
        {
          "distance": 0.2742977738380432,
          "id": 1880151505
        },
        {
          "distance": 0.2788912057876587,
          "id": 1729361309
        },
        {
          "distance": 0.3088877201080322,
          "id": 1729360785
        },
        {
          "distance": 0.3142573833465576,
          "id": 1729361121
        },
        {
          "distance": 0.31711864471435547,
          "id": 1729361153
        }
      ]
    },
    "sfomuseum:placetype": "instagram",
    "src:geom": "sfomuseum",
    "wof:belongsto": [
      1159160869,
      102527513,
      102191575,
      85633793,
      102087579,
      85922583,
      85688637
    ],
    "wof:country": "US",
    "wof:created": 1441180080,
    "wof:geomhash": "b6e33f47475d56bc8da457bc31afadc8",
    "wof:hierarchy": [
      {
        "building_id": 1159160869,
        "campus_id": 102527513,
        "continent_id": 102191575,
        "country_id": 85633793,
        "county_id": 102087579,
        "custom_id": 1729361563,
        "instagram_id": 1729361563,
        "locality_id": 85922583,
        "neighbourhood_id": -1,
        "region_id": 85688637
      }
    ],
    "wof:id": 1729361563,
    "wof:lastmodified": 1787777646,
    "wof:name": "The eight-foot high Pan American World Airways floor globe featured in the aviation museum at SFO was exhibited at the 1939–1940 Golden Gate International Exposition on Treasure Island in San Francisco where the airline operated its famous flying boats...",
    "wof:parent_id": 1159160869,
    "wof:placetype": "custom",
    "wof:placetype_alt": [
      "instagram"
    ],
    "wof:repo": "sfomuseum-data-socialmedia-instagram",
    "wof:superseded_by": [],
    "wof:supersedes": []
  },
  "bbox": [
    -122.386166,
    37.616356,
    -122.386166,
    37.616356
  ],
  "geometry": {"type":"Point","coordinates":[-122.386166,37.616356]}
}
