{
  "id": 1763558999,
  "type": "Feature",
  "properties": {
    "date:cessation_lower": "2020-11-10",
    "date:cessation_upper": "2020-11-10",
    "date:inception_lower": "2020-11-10",
    "date:inception_upper": "2020-11-10",
    "edtf:cessation": "2020-11-10T03:52:00-08:00",
    "edtf:inception": "2020-11-10T03:52:00-08:00",
    "geom:area": 0,
    "geom:bbox": "-122.386166,37.616356,-122.386166,37.616356",
    "geom:latitude": 37.616356,
    "geom:longitude": -122.386166,
    "instagram:post": {
      "caption": {
        "body": "Standing thirty-five feet tall, “Ether” is the first permanent artwork in the United States by Japanese artist #KoheiNawa. Resonating with the movement of nearby airplanes, the sculpture explores the concept of gravity, defied during takeoff, but used during landing. The form of the sculpture visualizes a droplet of liquid falling from sky to earth. It changes shape as gravity propels it downward, but encounters an equal counter force thrusting skyward. The resulting form is a symmetrical and potentially infinite column created within a space of zero gravity.  See “Ether” by #KoheiNawa online at: https://bit.ly/362jD2p",
        "excerpt": "Standing thirty-five feet tall, “Ether” is the first permanent artwork in the United States by Japanese artist #KoheiNawa.",
        "hashtags": [
          "publicart",
          "MuseumFromHome"
        ],
        "users": []
      },
      "media_id": "9582d430b5fce7c27102ceb23f291c1b5abaea89",
      "path": "media/posts/202011/124119020_390202418769428_7520091611996988004_n_17855710874324991.jpg",
      "perceptual_hash": "p:8d627737728cdc88",
      "taken": 1605009120,
      "taken_at": "Nov 10, 2020 11:52 am"
    },
    "millsfield:similar": {
      "google/siglip2-so400m-patch16-naflex": [
        {
          "distance": 0.27966374158859253,
          "id": 1763559039
        },
        {
          "distance": 0.29302841424942017,
          "id": 1880151031
        },
        {
          "distance": 0.32494598627090454,
          "id": 1947424913
        },
        {
          "distance": 0.3282794952392578,
          "id": 1729359913
        },
        {
          "distance": 0.3362409472465515,
          "id": 1729355055
        },
        {
          "distance": 0.33761924505233765,
          "id": 1729355045
        },
        {
          "distance": 0.3405119776725769,
          "id": 1729361719
        },
        {
          "distance": 0.3409104347229004,
          "id": 1729360517
        },
        {
          "distance": 0.3410639762878418,
          "id": 1729361865
        },
        {
          "distance": 0.34403514862060547,
          "id": 1729362029
        }
      ]
    },
    "sfomuseum:placetype": "instagram",
    "src:geom": "sfomuseum",
    "wof:belongsto": [
      1159160869,
      102527513,
      102191575,
      85633793,
      102087579,
      85922583,
      85688637
    ],
    "wof:country": "US",
    "wof:created": 1605009120,
    "wof:geomhash": "b6e33f47475d56bc8da457bc31afadc8",
    "wof:hierarchy": [
      {
        "building_id": 1159160869,
        "campus_id": 102527513,
        "continent_id": 102191575,
        "country_id": 85633793,
        "county_id": 102087579,
        "custom_id": 1763558999,
        "instagram_id": 1763558999,
        "locality_id": 85922583,
        "neighbourhood_id": -1,
        "region_id": 85688637
      }
    ],
    "wof:id": 1763558999,
    "wof:lastmodified": 1787777660,
    "wof:name": "Standing thirty-five feet tall, “Ether” is the first permanent artwork in the United States by Japanese artist #KoheiNawa...",
    "wof:parent_id": 1159160869,
    "wof:placetype": "custom",
    "wof:placetype_alt": [
      "instagram"
    ],
    "wof:repo": "sfomuseum-data-socialmedia-instagram",
    "wof:superseded_by": [],
    "wof:supersedes": []
  },
  "bbox": [
    -122.386166,
    37.616356,
    -122.386166,
    37.616356
  ],
  "geometry": {"type":"Point","coordinates":[-122.386166,37.616356]}
}
