{
  "id": 1729357763,
  "type": "Feature",
  "properties": {
    "date:cessation_lower": "2018-08-24",
    "date:cessation_upper": "2018-08-24",
    "date:inception_lower": "2018-08-24",
    "date:inception_upper": "2018-08-24",
    "edtf:cessation": "2018-08-24T13:14:00-07:00",
    "edtf:inception": "2018-08-24T13:14:00-07:00",
    "geom:area": 0,
    "geom:bbox": "-122.386166,37.616356,-122.386166,37.616356",
    "geom:latitude": 37.616356,
    "geom:longitude": -122.386166,
    "instagram:post": {
      "caption": {
        "body": "At the end of World War II, the French aircraft manufacturer Breguet began designing a large-capacity, mid-range airliner that would ultimately become the four-engine, double-deck 763 Provence. The design featured a cantilevered wing mounted midway on a unique fish-shaped fuselage with a double tail. The cabin had a capacity for fifty-nine tourist-class passengers on the upper deck and forty-eight second-class passengers on the lower. It could also carry a combination of passengers on the upper deck and cargo on the lower deck, loaded through aft clamshell doors. Air France ordered twelve of the aircraft, which entered service in 1953, and were operated on routes to Algiers and Southern Europe for carrying both passengers and freight.  See \"Aviation Evolutions: The Jim Lund 1:72 Scale Model Airplane Collection\", which features more than 200 models, on display, pre-security, in the Aviation Museum. http://bit.ly/AviationEvolutions",
        "excerpt": "At the end of World War II, the French aircraft manufacturer Breguet began designing a large-capacity, mid-range airliner that would ultimately become the four-engine, double-deck 763 Provence.",
        "hashtags": [
          "AviationEvolutions",
          "jimlund",
          "avgeek",
          "aviationgeek",
          "aviation",
          "aviationhistory",
          "vintageaviation",
          "history",
          "aviationgeeks",
          "modelplane",
          "scalemodel",
          "avgeeks"
        ],
        "users": []
      },
      "media_id": "8876a8a0bb66a131cdfd18def1d264db",
      "path": "media/other/38920091_1862255877194371_9165021903956475904_n_17883328390249149.jpg",
      "perceptual_hash": "p:b607c93037cf6433",
      "taken": 1535141640,
      "taken_at": "Aug 24, 2018 8:14 pm"
    },
    "millsfield:similar": {
      "google/siglip2-so400m-patch16-naflex": [
        {
          "distance": 0.09864813089370728,
          "id": 1729358869
        },
        {
          "distance": 0.11812633275985718,
          "id": 1729358841
        },
        {
          "distance": 0.13018274307250977,
          "id": 1729357673
        },
        {
          "distance": 0.1338026523590088,
          "id": 1729357491
        },
        {
          "distance": 0.16372501850128174,
          "id": 1729357291
        },
        {
          "distance": 0.16394633054733276,
          "id": 1729357291
        },
        {
          "distance": 0.16430753469467163,
          "id": 1729356973
        },
        {
          "distance": 0.1662641167640686,
          "id": 1729358171
        },
        {
          "distance": 0.16778892278671265,
          "id": 1729357183
        },
        {
          "distance": 0.16942554712295532,
          "id": 1729358841
        }
      ]
    },
    "sfomuseum:placetype": "instagram",
    "src:geom": "sfomuseum",
    "wof:belongsto": [
      1159160869,
      102527513,
      102191575,
      85633793,
      102087579,
      85922583,
      85688637
    ],
    "wof:country": "US",
    "wof:created": 1535141640,
    "wof:geomhash": "b6e33f47475d56bc8da457bc31afadc8",
    "wof:hierarchy": [
      {
        "building_id": 1159160869,
        "campus_id": 102527513,
        "continent_id": 102191575,
        "country_id": 85633793,
        "county_id": 102087579,
        "custom_id": 1729357763,
        "instagram_id": 1729357763,
        "locality_id": 85922583,
        "neighbourhood_id": -1,
        "region_id": 85688637
      }
    ],
    "wof:id": 1729357763,
    "wof:lastmodified": 1787777632,
    "wof:name": "At the end of World War II, the French aircraft manufacturer Breguet began designing a large-capacity, mid-range airliner that would ultimately become the four-engine, double-deck 763 Provence...",
    "wof:parent_id": 1159160869,
    "wof:placetype": "custom",
    "wof:placetype_alt": [
      "instagram"
    ],
    "wof:repo": "sfomuseum-data-socialmedia-instagram",
    "wof:superseded_by": [],
    "wof:supersedes": []
  },
  "bbox": [
    -122.386166,
    37.616356,
    -122.386166,
    37.616356
  ],
  "geometry": {"type":"Point","coordinates":[-122.386166,37.616356]}
}
