{
  "id": 1729360423,
  "type": "Feature",
  "properties": {
    "date:cessation_lower": "2016-08-22",
    "date:cessation_upper": "2016-08-22",
    "date:inception_lower": "2016-08-22",
    "date:inception_upper": "2016-08-22",
    "edtf:cessation": "2016-08-22T03:11:00-07:00",
    "edtf:inception": "2016-08-22T03:11:00-07:00",
    "geom:area": 0,
    "geom:bbox": "-122.386166,37.616356,-122.386166,37.616356",
    "geom:latitude": 37.616356,
    "geom:longitude": -122.386166,
    "instagram:post": {
      "caption": {
        "body": "The inaugural flight of PSA's (Pacific Southwest Airlines) Lockheed L-1011 TriStar was on August 1, 1974 from San Diego to San Francisco via Los Angeles. Their first  L-1011, registration number N10112, was nicknamed ‘Mother Grinningbird’. Did you ever fly on a Lockheed L-1011 TriStar? #SFOHistory  Pacific Southwest Airlines (PSA), L-1011 inaugural flight certificate 1974 SFO Museum Collection Gift of the William Hough Collection 2006.010.706",
        "excerpt": "The inaugural flight of PSA's (Pacific Southwest Airlines) Lockheed L-1011 TriStar was on August 1, 1974 from San Diego to San Francisco via Los Angeles.",
        "hashtags": [],
        "users": []
      },
      "media_id": "e7d62f7a5e99a38da2a8c546e0bd32c4",
      "path": "media/other/13721325_322796028064881_760514657_n_17860974523018844.jpg",
      "perceptual_hash": "p:e666d1981ac1c9bd",
      "taken": 1471860660,
      "taken_at": "Aug 22, 2016 10:11 am"
    },
    "millsfield:similar": {
      "google/siglip2-so400m-patch16-naflex": [
        {
          "distance": 0.31198543310165405,
          "id": 1729356691
        },
        {
          "distance": 0.3184778094291687,
          "id": 1880151413
        },
        {
          "distance": 0.32262706756591797,
          "id": 1763558997
        },
        {
          "distance": 0.32496678829193115,
          "id": 1729358365
        },
        {
          "distance": 0.33094048500061035,
          "id": 1729358365
        },
        {
          "distance": 0.33113592863082886,
          "id": 1729356691
        },
        {
          "distance": 0.340137243270874,
          "id": 1763558997
        },
        {
          "distance": 0.3581947088241577,
          "id": 1880151413
        },
        {
          "distance": 0.36513394117355347,
          "id": 1763559453
        },
        {
          "distance": 0.3653850555419922,
          "id": 1729356033
        }
      ]
    },
    "sfomuseum:placetype": "instagram",
    "src:geom": "sfomuseum",
    "wof:belongsto": [
      1159160869,
      102527513,
      102191575,
      85633793,
      102087579,
      85922583,
      85688637
    ],
    "wof:country": "US",
    "wof:created": 1471860660,
    "wof:geomhash": "b6e33f47475d56bc8da457bc31afadc8",
    "wof:hierarchy": [
      {
        "building_id": 1159160869,
        "campus_id": 102527513,
        "continent_id": 102191575,
        "country_id": 85633793,
        "county_id": 102087579,
        "custom_id": 1729360423,
        "instagram_id": 1729360423,
        "locality_id": 85922583,
        "neighbourhood_id": -1,
        "region_id": 85688637
      }
    ],
    "wof:id": 1729360423,
    "wof:lastmodified": 1787777640,
    "wof:name": "The inaugural flight of PSA's (Pacific Southwest Airlines) Lockheed L-1011 TriStar was on August 1, 1974 from San Diego to San Francisco via Los Angeles...",
    "wof:parent_id": 1159160869,
    "wof:placetype": "custom",
    "wof:placetype_alt": [
      "instagram"
    ],
    "wof:repo": "sfomuseum-data-socialmedia-instagram",
    "wof:superseded_by": [],
    "wof:supersedes": []
  },
  "bbox": [
    -122.386166,
    37.616356,
    -122.386166,
    37.616356
  ],
  "geometry": {"type":"Point","coordinates":[-122.386166,37.616356]}
}
