{
  "id": 1729355483,
  "type": "Feature",
  "properties": {
    "date:cessation_lower": "2020-03-08",
    "date:cessation_upper": "2020-03-08",
    "date:inception_lower": "2020-03-08",
    "date:inception_upper": "2020-03-08",
    "edtf:cessation": "2020-03-08T01:34:00-08:00",
    "edtf:inception": "2020-03-08T01:34:00-08:00",
    "geom:area": 0,
    "geom:bbox": "-122.386166,37.616356,-122.386166,37.616356",
    "geom:latitude": 37.616356,
    "geom:longitude": -122.386166,
    "instagram:post": {
      "caption": {
        "body": "To celebrate International Women’s Day, our Video Arts program is presenting four shorts by women filmmakers from four parts of the world, including Chicago-based Naghmeh Farzaneh. Farzaneh, who left Iran for the United States during the Arab Spring of 2010–12, communicates the anxiety, alienation, and complex range of emotions shared with other immigrants in her beautifully composed, hand-drawn animation. See \"Scent of Geranium\" and three other shorts by Hannah Jacobs, Isabel Morales Bondy, and Heather Condo, now playing in the Video Arts screening room located pre-security in the International Terminal Departures Lobby. http://bit.ly/VideoArts",
        "excerpt": "To celebrate International Women’s Day, our Video Arts program is presenting four shorts by women filmmakers from four parts of the world, including Chicago-based Naghmeh Farzaneh.",
        "hashtags": [
          "NaghmehFarzaneh",
          "ScentOfGeranium",
          "InternationalWomensDay",
          "IranianWomen"
        ],
        "users": []
      },
      "media_id": "f6f2be73808879a7c66d4424cbc1bf67",
      "path": "media/other/88856876_204337157308866_4842749114817095842_n_17858787463766078.jpg",
      "perceptual_hash": "p:eccc449bea646b94",
      "taken": 1583660040,
      "taken_at": "Mar 08, 2020 9:34 am"
    },
    "millsfield:similar": {
      "google/siglip2-so400m-patch16-naflex": [
        {
          "distance": 0.18890893459320068,
          "id": 1763559213
        },
        {
          "distance": 0.19171446561813354,
          "id": 1729355541
        },
        {
          "distance": 0.20259231328964233,
          "id": 1763559193
        },
        {
          "distance": 0.23503845930099487,
          "id": 1947425011
        },
        {
          "distance": 0.24948203563690186,
          "id": 1729358551
        },
        {
          "distance": 0.2568356394767761,
          "id": 1729356941
        },
        {
          "distance": 0.25985199213027954,
          "id": 1729361401
        },
        {
          "distance": 0.26421916484832764,
          "id": 1947425011
        },
        {
          "distance": 0.2642514705657959,
          "id": 1729359425
        },
        {
          "distance": 0.27373504638671875,
          "id": 1729361401
        }
      ]
    },
    "sfomuseum:placetype": "instagram",
    "src:geom": "sfomuseum",
    "wof:belongsto": [
      1159160869,
      102527513,
      102191575,
      85633793,
      102087579,
      85922583,
      85688637
    ],
    "wof:country": "US",
    "wof:created": 1583660040,
    "wof:geomhash": "b6e33f47475d56bc8da457bc31afadc8",
    "wof:hierarchy": [
      {
        "building_id": 1159160869,
        "campus_id": 102527513,
        "continent_id": 102191575,
        "country_id": 85633793,
        "county_id": 102087579,
        "custom_id": 1729355483,
        "instagram_id": 1729355483,
        "locality_id": 85922583,
        "neighbourhood_id": -1,
        "region_id": 85688637
      }
    ],
    "wof:id": 1729355483,
    "wof:lastmodified": 1787777625,
    "wof:name": "To celebrate International Women’s Day, our Video Arts program is presenting four shorts by women filmmakers from four parts of the world, including Chicago-based Naghmeh Farzaneh...",
    "wof:parent_id": 1159160869,
    "wof:placetype": "custom",
    "wof:placetype_alt": [
      "instagram"
    ],
    "wof:repo": "sfomuseum-data-socialmedia-instagram",
    "wof:superseded_by": [],
    "wof:supersedes": []
  },
  "bbox": [
    -122.386166,
    37.616356,
    -122.386166,
    37.616356
  ],
  "geometry": {"type":"Point","coordinates":[-122.386166,37.616356]}
}
