{
  "id": 1729360703,
  "type": "Feature",
  "properties": {
    "date:cessation_lower": "2016-05-23",
    "date:cessation_upper": "2016-05-23",
    "date:inception_lower": "2016-05-23",
    "date:inception_upper": "2016-05-23",
    "edtf:cessation": "2016-05-23T09:13:00-07:00",
    "edtf:inception": "2016-05-23T09:13:00-07:00",
    "geom:area": 0,
    "geom:bbox": "-122.386166,37.616356,-122.386166,37.616356",
    "geom:latitude": 37.616356,
    "geom:longitude": -122.386166,
    "instagram:post": {
      "caption": {
        "body": "On airplanes, particularly propliners, airlines had to carefully consider weight or lode distribution between passengers, freight, and mail. This 1957 reserved seat card from American Airlines warns passengers to actually leave a seat unoccupied in order to maintain proper weight balance. Have you seen a load distribution card during your travels?  American Airlines load distribution card 1957 SFO Museum Collection Gift of Jane Glickman Cavala 2001.009.006",
        "excerpt": "On airplanes, particularly propliners, airlines had to carefully consider weight or lode distribution between passengers, freight, and mail.",
        "hashtags": [],
        "users": []
      },
      "media_id": "55e633269ba210a42d079532528c786e",
      "path": "media/other/13183360_224896407893613_2046697085_n_17857563328006558.jpg",
      "perceptual_hash": "p:f2500ee03eaa3fe8",
      "taken": 1464019980,
      "taken_at": "May 23, 2016 4:13 pm"
    },
    "millsfield:similar": {
      "google/siglip2-so400m-patch16-naflex": [
        {
          "distance": 0.4154990315437317,
          "id": 1880150995
        },
        {
          "distance": 0.41893625259399414,
          "id": 1880150995
        },
        {
          "distance": 0.43052828311920166,
          "id": 1729359097
        },
        {
          "distance": 0.4323187470436096,
          "id": 1729355419
        },
        {
          "distance": 0.43405741453170776,
          "id": 1729358023
        },
        {
          "distance": 0.4353777766227722,
          "id": 1763559557
        },
        {
          "distance": 0.4362126588821411,
          "id": 1729360141
        },
        {
          "distance": 0.4375481605529785,
          "id": 1729360861
        },
        {
          "distance": 0.44542092084884644,
          "id": 1729360943
        },
        {
          "distance": 0.4457714557647705,
          "id": 1763559291
        }
      ]
    },
    "sfomuseum:placetype": "instagram",
    "src:geom": "sfomuseum",
    "wof:belongsto": [
      1159160869,
      102527513,
      102191575,
      85633793,
      102087579,
      85922583,
      85688637
    ],
    "wof:country": "US",
    "wof:created": 1464019980,
    "wof:geomhash": "b6e33f47475d56bc8da457bc31afadc8",
    "wof:hierarchy": [
      {
        "building_id": 1159160869,
        "campus_id": 102527513,
        "continent_id": 102191575,
        "country_id": 85633793,
        "county_id": 102087579,
        "custom_id": 1729360703,
        "instagram_id": 1729360703,
        "locality_id": 85922583,
        "neighbourhood_id": -1,
        "region_id": 85688637
      }
    ],
    "wof:id": 1729360703,
    "wof:lastmodified": 1787777640,
    "wof:name": "On airplanes, particularly propliners, airlines had to carefully consider weight or lode distribution between passengers, freight, and mail...",
    "wof:parent_id": 1159160869,
    "wof:placetype": "custom",
    "wof:placetype_alt": [
      "instagram"
    ],
    "wof:repo": "sfomuseum-data-socialmedia-instagram",
    "wof:superseded_by": [],
    "wof:supersedes": []
  },
  "bbox": [
    -122.386166,
    37.616356,
    -122.386166,
    37.616356
  ],
  "geometry": {"type":"Point","coordinates":[-122.386166,37.616356]}
}
