{
  "id": 1729356139,
  "type": "Feature",
  "properties": {
    "date:cessation_lower": "2019-08-29",
    "date:cessation_upper": "2019-08-29",
    "date:inception_lower": "2019-08-29",
    "date:inception_upper": "2019-08-29",
    "edtf:cessation": "2019-08-29T13:44:09-07:00",
    "edtf:inception": "2019-08-29T13:44:09-07:00",
    "geom:area": 0,
    "geom:bbox": "-122.386166,37.616356,-122.386166,37.616356",
    "geom:latitude": 37.616356,
    "geom:longitude": -122.386166,
    "instagram:post": {
      "caption": {
        "body": "Scenic wallpaper from China for export starting in the late 17th century certainly served as an inspiration for the French scenic wallpaper that followed in the nineteenth century. Zuber et Cie’s Décor Chinois mimics Chinese wallpaper with its shallow perspective, foregoing the background and foreground typically depicted in French panoramic papers. “Zuber: The Art of French Scenic Wallpaper” is on display, pre-security in the International Terminal. http://bit.ly/ZuberScenicWallpaper",
        "excerpt": "Scenic wallpaper from China for export starting in the late 17th century certainly served as an inspiration for the French scenic wallpaper that followed in the nineteenth century.",
        "hashtags": [
          "ZuberScenicWallpaper",
          "wallpaper",
          "zuber",
          "scenicwallpaper",
          "interiordesign",
          "museum",
          "design"
        ],
        "users": []
      },
      "location": "",
      "media_id": "ad171c5f2e745c48cc2c0f8469163654",
      "path": "photos/201908/ad171c5f2e745c48cc2c0f8469163654.jpg",
      "perceptual_hash": "p:fc960b301dce2be4",
      "taken": 1567082640,
      "taken_at": "Aug 29, 2019, 12:44 PM"
    },
    "millsfield:similar": {
      "google/siglip2-so400m-patch16-naflex": [
        {
          "distance": 0.2138674259185791,
          "id": 1729356151
        },
        {
          "distance": 0.22761571407318115,
          "id": 1729356169
        },
        {
          "distance": 0.22825318574905396,
          "id": 1729356169
        },
        {
          "distance": 0.24364501237869263,
          "id": 1729355485
        },
        {
          "distance": 0.26263856887817383,
          "id": 1729355423
        },
        {
          "distance": 0.27035611867904663,
          "id": 1729356253
        },
        {
          "distance": 0.2821498513221741,
          "id": 1729356151
        },
        {
          "distance": 0.2933170795440674,
          "id": 1729355485
        },
        {
          "distance": 0.30795085430145264,
          "id": 1729355423
        },
        {
          "distance": 0.31741130352020264,
          "id": 1729356253
        }
      ]
    },
    "sfomuseum:placetype": "instagram",
    "src:geom": "sfomuseum",
    "wof:belongsto": [
      1159160869,
      102527513,
      102191575,
      85633793,
      102087579,
      85922583,
      85688637
    ],
    "wof:country": "US",
    "wof:created": 1567111449,
    "wof:geomhash": "b6e33f47475d56bc8da457bc31afadc8",
    "wof:hierarchy": [
      {
        "building_id": 1159160869,
        "campus_id": 102527513,
        "continent_id": 102191575,
        "country_id": 85633793,
        "county_id": 102087579,
        "custom_id": 1729356139,
        "instagram_id": 1729356139,
        "locality_id": 85922583,
        "neighbourhood_id": -1,
        "region_id": 85688637
      }
    ],
    "wof:id": 1729356139,
    "wof:lastmodified": 1787777628,
    "wof:name": "Scenic wallpaper from China for export starting in the late 17th century certainly served as an inspiration for the French scenic wallpaper that followed in the nineteenth century...",
    "wof:parent_id": 1159160869,
    "wof:placetype": "custom",
    "wof:placetype_alt": [
      "instagram"
    ],
    "wof:repo": "sfomuseum-data-socialmedia-instagram",
    "wof:superseded_by": [],
    "wof:supersedes": []
  },
  "bbox": [
    -122.386166,
    37.616356,
    -122.386166,
    37.616356
  ],
  "geometry": {"type":"Point","coordinates":[-122.386166,37.616356]}
}
