{
  "id": 1763558989,
  "type": "Feature",
  "properties": {
    "date:cessation_lower": "2020-11-24",
    "date:cessation_upper": "2020-11-24",
    "date:inception_lower": "2020-11-24",
    "date:inception_upper": "2020-11-24",
    "edtf:cessation": "2020-11-24T07:21:00-08:00",
    "edtf:inception": "2020-11-24T07:21:00-08:00",
    "geom:area": 0,
    "geom:bbox": "-122.386166,37.616356,-122.386166,37.616356",
    "geom:latitude": 37.616356,
    "geom:longitude": -122.386166,
    "instagram:post": {
      "caption": {
        "body": "Britain's former international flag carrier airline, British Overseas Airways Corporation, or BOAC was founded by an Act of the British Parliament #onthisday in 1939. The company was created as a merger of Imperial Airways and British Airways Ltd. In 1974, BOAC merged with British European Airways (BEA) to form British Airways, Britain’s current flag carrier. Did you ever fly on BOAC?   Image: BOAC (British Overseas Airways Corporation) postcard, (reproduction of c. 1950 poster) Great Britain, 1970s. Gift of Captain Jon Simmonds. 2015.057.223",
        "excerpt": "Britain's former international flag carrier airline, British Overseas Airways Corporation, or BOAC was founded by an Act of the British Parliament #onthisday in 1939.",
        "hashtags": [
          "BOAC",
          "avgeek",
          "MuseumFromHome"
        ],
        "users": []
      },
      "media_id": "96ca28daa1840999dfc19b0061ab926212e223ab",
      "path": "media/other/127002502_902551387151453_7825307041063585576_n_17907444946546495.jpg",
      "perceptual_hash": "p:bc9663693c866cc9",
      "taken": 1606231260,
      "taken_at": "Nov 24, 2020 3:21 pm"
    },
    "millsfield:similar": {
      "google/siglip2-so400m-patch16-naflex": [
        {
          "distance": 0.18580520153045654,
          "id": 1729360099
        },
        {
          "distance": 0.2125415802001953,
          "id": 1729360099
        },
        {
          "distance": 0.28196364641189575,
          "id": 1729360867
        },
        {
          "distance": 0.283926784992218,
          "id": 1729355197
        },
        {
          "distance": 0.28474098443984985,
          "id": 1729357961
        },
        {
          "distance": 0.28595900535583496,
          "id": 1729359319
        },
        {
          "distance": 0.29501616954803467,
          "id": 1947424859
        },
        {
          "distance": 0.30487364530563354,
          "id": 1729359931
        },
        {
          "distance": 0.305325984954834,
          "id": 1729359931
        },
        {
          "distance": 0.3256778120994568,
          "id": 1947424859
        }
      ]
    },
    "sfomuseum:placetype": "instagram",
    "src:geom": "sfomuseum",
    "wof:belongsto": [
      1159160869,
      102527513,
      102191575,
      85633793,
      102087579,
      85922583,
      85688637
    ],
    "wof:country": "US",
    "wof:created": 1606231260,
    "wof:geomhash": "b6e33f47475d56bc8da457bc31afadc8",
    "wof:hierarchy": [
      {
        "building_id": 1159160869,
        "campus_id": 102527513,
        "continent_id": 102191575,
        "country_id": 85633793,
        "county_id": 102087579,
        "custom_id": 1763558989,
        "instagram_id": 1763558989,
        "locality_id": 85922583,
        "neighbourhood_id": -1,
        "region_id": 85688637
      }
    ],
    "wof:id": 1763558989,
    "wof:lastmodified": 1787777660,
    "wof:name": "Britain's former international flag carrier airline, British Overseas Airways Corporation, or BOAC was founded by an Act of the British Parliament #onthisday in 1939...",
    "wof:parent_id": 1159160869,
    "wof:placetype": "custom",
    "wof:placetype_alt": [
      "instagram"
    ],
    "wof:repo": "sfomuseum-data-socialmedia-instagram",
    "wof:superseded_by": [],
    "wof:supersedes": []
  },
  "bbox": [
    -122.386166,
    37.616356,
    -122.386166,
    37.616356
  ],
  "geometry": {"type":"Point","coordinates":[-122.386166,37.616356]}
}
