{
  "id": 1729359601,
  "type": "Feature",
  "properties": {
    "date:cessation_lower": "2017-04-19",
    "date:cessation_upper": "2017-04-19",
    "date:inception_lower": "2017-04-19",
    "date:inception_upper": "2017-04-19",
    "edtf:cessation": "2017-04-18T19:10:53-07:00",
    "edtf:inception": "2017-04-18T19:10:53-07:00",
    "geom:area": 0,
    "geom:bbox": "-122.386166,37.616356,-122.386166,37.616356",
    "geom:latitude": 37.616356,
    "geom:longitude": -122.386166,
    "instagram:post": {
      "caption": {
        "body": "Have you ever wondered how aircraft are painted? These photos of a World Airways McDonnell Douglas DC-10 show the process of painting such a large aircraft",
        "excerpt": "Have you ever wondered how aircraft are painted?",
        "hashtags": [
          "avgeek",
          "aviationhistory",
          "worldairways",
          "McDonnellDouglas",
          "DC10"
        ],
        "users": []
      },
      "location": "",
      "media_id": "88c444bfc0a293565e6a5370056eb6b6",
      "path": "photos/201704/88c444bfc0a293565e6a5370056eb6b6.jpg",
      "perceptual_hash": "p:9604c91ba9c4b7f3",
      "taken": 1492539000,
      "taken_at": "Apr 18, 2017, 6:10 PM"
    },
    "millsfield:similar": {
      "google/siglip2-so400m-patch16-naflex": [
        {
          "distance": 0.08083587884902954,
          "id": 1729359591
        },
        {
          "distance": 0.08083587884902954,
          "id": 1763558659
        },
        {
          "distance": 0.0999981164932251,
          "id": 1729359593
        },
        {
          "distance": 0.11472868919372559,
          "id": 1729359043
        },
        {
          "distance": 0.12416845560073853,
          "id": 1729356303
        },
        {
          "distance": 0.12438267469406128,
          "id": 1763559015
        },
        {
          "distance": 0.1358579397201538,
          "id": 1729357627
        },
        {
          "distance": 0.1531466245651245,
          "id": 1729359043
        },
        {
          "distance": 0.15710300207138062,
          "id": 1729359593
        },
        {
          "distance": 0.15761911869049072,
          "id": 1763558659
        }
      ]
    },
    "sfomuseum:placetype": "instagram",
    "src:geom": "sfomuseum",
    "wof:belongsto": [
      1159160869,
      102527513,
      102191575,
      85633793,
      102087579,
      85922583,
      85688637
    ],
    "wof:country": "US",
    "wof:created": 1492567853,
    "wof:geomhash": "b6e33f47475d56bc8da457bc31afadc8",
    "wof:hierarchy": [
      {
        "building_id": 1159160869,
        "campus_id": 102527513,
        "continent_id": 102191575,
        "country_id": 85633793,
        "county_id": 102087579,
        "custom_id": 1729359601,
        "instagram_id": 1729359601,
        "locality_id": 85922583,
        "neighbourhood_id": -1,
        "region_id": 85688637
      }
    ],
    "wof:id": 1729359601,
    "wof:lastmodified": 1787777636,
    "wof:name": "Have you ever wondered how aircraft are painted?..",
    "wof:parent_id": 1159160869,
    "wof:placetype": "custom",
    "wof:placetype_alt": [
      "instagram"
    ],
    "wof:repo": "sfomuseum-data-socialmedia-instagram",
    "wof:superseded_by": [],
    "wof:supersedes": []
  },
  "bbox": [
    -122.386166,
    37.616356,
    -122.386166,
    37.616356
  ],
  "geometry": {"type":"Point","coordinates":[-122.386166,37.616356]}
}
