{
  "id": 1729360851,
  "type": "Feature",
  "properties": {
    "date:cessation_lower": "2016-04-07",
    "date:cessation_upper": "2016-04-07",
    "date:inception_lower": "2016-04-07",
    "date:inception_upper": "2016-04-07",
    "edtf:cessation": "2016-04-07T12:05:00-07:00",
    "edtf:inception": "2016-04-07T12:05:00-07:00",
    "geom:area": 0,
    "geom:bbox": "-122.386166,37.616356,-122.386166,37.616356",
    "geom:latitude": 37.616356,
    "geom:longitude": -122.386166,
    "instagram:post": {
      "caption": {
        "body": "During the 1940s, United Air Lines constructed a large West Coast Maintenance Base at San Francisco Airport, along with this beautiful office building. #ThrowbackThursday #TBT  United Air Lines, San Francisco Airport c. 1940 SFO Museum Collection Gift of United Airlines Archives 1999.047.245",
        "excerpt": "During the 1940s, United Air Lines constructed a large West Coast Maintenance Base at San Francisco Airport, along with this beautiful office building.",
        "hashtags": [],
        "users": []
      },
      "media_id": "d07cfab9289fdb96c92fd1f393b9256d",
      "path": "media/other/12905073_1583183591991782_1336767383_n_17855532343044304.jpg",
      "perceptual_hash": "p:91fc2a63dd42b1ac",
      "taken": 1460055900,
      "taken_at": "Apr 07, 2016 7:05 pm"
    },
    "millsfield:similar": {
      "google/siglip2-so400m-patch16-naflex": [
        {
          "distance": 0.14973682165145874,
          "id": 1729358903
        },
        {
          "distance": 0.15958738327026367,
          "id": 1729360111
        },
        {
          "distance": 0.1635074019432068,
          "id": 1729357513
        },
        {
          "distance": 0.17627942562103271,
          "id": 1729355393
        },
        {
          "distance": 0.18114686012268066,
          "id": 1729357513
        },
        {
          "distance": 0.1825011968612671,
          "id": 1763559233
        },
        {
          "distance": 0.184159517288208,
          "id": 1729361143
        },
        {
          "distance": 0.18942373991012573,
          "id": 1729361261
        },
        {
          "distance": 0.19566506147384644,
          "id": 1729361143
        },
        {
          "distance": 0.19608980417251587,
          "id": 1729360877
        }
      ]
    },
    "sfomuseum:placetype": "instagram",
    "src:geom": "sfomuseum",
    "wof:belongsto": [
      1159160869,
      102527513,
      102191575,
      85633793,
      102087579,
      85922583,
      85688637
    ],
    "wof:country": "US",
    "wof:created": 1460055900,
    "wof:geomhash": "b6e33f47475d56bc8da457bc31afadc8",
    "wof:hierarchy": [
      {
        "building_id": 1159160869,
        "campus_id": 102527513,
        "continent_id": 102191575,
        "country_id": 85633793,
        "county_id": 102087579,
        "custom_id": 1729360851,
        "instagram_id": 1729360851,
        "locality_id": 85922583,
        "neighbourhood_id": -1,
        "region_id": 85688637
      }
    ],
    "wof:id": 1729360851,
    "wof:lastmodified": 1787777640,
    "wof:name": "During the 1940s, United Air Lines constructed a large West Coast Maintenance Base at San Francisco Airport, along with this beautiful office building...",
    "wof:parent_id": 1159160869,
    "wof:placetype": "custom",
    "wof:placetype_alt": [
      "instagram"
    ],
    "wof:repo": "sfomuseum-data-socialmedia-instagram",
    "wof:superseded_by": [],
    "wof:supersedes": []
  },
  "bbox": [
    -122.386166,
    37.616356,
    -122.386166,
    37.616356
  ],
  "geometry": {"type":"Point","coordinates":[-122.386166,37.616356]}
}
