{
  "id": 1729362619,
  "type": "Feature",
  "properties": {
    "date:cessation_lower": "2013-07-23",
    "date:cessation_upper": "2013-07-23",
    "date:inception_lower": "2013-07-23",
    "date:inception_upper": "2013-07-23",
    "edtf:cessation": "2013-07-23T02:55:00-07:00",
    "edtf:inception": "2013-07-23T02:55:00-07:00",
    "geom:area": 0,
    "geom:bbox": "-122.386166,37.616356,-122.386166,37.616356",
    "geom:latitude": 37.616356,
    "geom:longitude": -122.386166,
    "instagram:post": {
      "caption": {
        "body": "Airlines have long embraced the use of #plastics for everything from meal service sets to flight bags to uniforms, such as this flight attendant dress by designer Emilio Pucci for Braniff International Airways.",
        "excerpt": "Airlines have long embraced the use of #plastics for everything from meal service sets to flight bags to uniforms, such as this flight attendant dress by designer Emilio Pucci for Braniff International Airways.",
        "hashtags": [],
        "users": []
      },
      "media_id": "d422b48b8648c0bac8a9ebcf1a8ce51d",
      "path": "media/other/11372400_1600564023518986_1898108853_n_17842025203062499.jpg",
      "perceptual_hash": "p:99cdb2924cb03377",
      "taken": 1374573300,
      "taken_at": "Jul 23, 2013 9:55 am"
    },
    "millsfield:similar": {
      "google/siglip2-so400m-patch16-naflex": [
        {
          "distance": 0.16449570655822754,
          "id": 1729362639
        },
        {
          "distance": 0.18663889169692993,
          "id": 1729362639
        },
        {
          "distance": 0.21525967121124268,
          "id": 1763559113
        },
        {
          "distance": 0.21781569719314575,
          "id": 1763559079
        },
        {
          "distance": 0.2208843231201172,
          "id": 1763559113
        },
        {
          "distance": 0.22359180450439453,
          "id": 1729360365
        },
        {
          "distance": 0.22681307792663574,
          "id": 1729360205
        },
        {
          "distance": 0.22751569747924805,
          "id": 1763558977
        },
        {
          "distance": 0.23384076356887817,
          "id": 1763559429
        },
        {
          "distance": 0.23428016901016235,
          "id": 1729359743
        }
      ]
    },
    "sfomuseum:placetype": "instagram",
    "src:geom": "sfomuseum",
    "wof:belongsto": [
      1159160869,
      102527513,
      102191575,
      85633793,
      102087579,
      85922583,
      85688637
    ],
    "wof:country": "US",
    "wof:created": 1374573300,
    "wof:geomhash": "b6e33f47475d56bc8da457bc31afadc8",
    "wof:hierarchy": [
      {
        "building_id": 1159160869,
        "campus_id": 102527513,
        "continent_id": 102191575,
        "country_id": 85633793,
        "county_id": 102087579,
        "custom_id": 1729362619,
        "instagram_id": 1729362619,
        "locality_id": 85922583,
        "neighbourhood_id": -1,
        "region_id": 85688637
      }
    ],
    "wof:id": 1729362619,
    "wof:lastmodified": 1787777647,
    "wof:name": "Airlines have long embraced the use of #plastics for everything from meal service sets to flight bags to uniforms, such as this flight attendant dress by designer Emilio Pucci for Braniff International Airways...",
    "wof:parent_id": 1159160869,
    "wof:placetype": "custom",
    "wof:placetype_alt": [
      "instagram"
    ],
    "wof:repo": "sfomuseum-data-socialmedia-instagram",
    "wof:superseded_by": [],
    "wof:supersedes": []
  },
  "bbox": [
    -122.386166,
    37.616356,
    -122.386166,
    37.616356
  ],
  "geometry": {"type":"Point","coordinates":[-122.386166,37.616356]}
}
