{
  "id": 1729360911,
  "type": "Feature",
  "properties": {
    "date:cessation_lower": "2016-03-20",
    "date:cessation_upper": "2016-03-20",
    "date:inception_lower": "2016-03-20",
    "date:inception_upper": "2016-03-20",
    "edtf:cessation": "2016-03-20T03:20:00-07:00",
    "edtf:inception": "2016-03-20T03:20:00-07:00",
    "geom:area": 0,
    "geom:bbox": "-122.386166,37.616356,-122.386166,37.616356",
    "geom:latitude": 37.616356,
    "geom:longitude": -122.386166,
    "instagram:post": {
      "caption": {
        "body": "",
        "excerpt": "",
        "hashtags": [
          "AVGeek"
        ],
        "users": []
      },
      "media_id": "d8b575ce3aebc60bacc3ac2624336ffd",
      "path": "media/other/12523617_530780400435843_1451964036_n_17854705543010554.jpg",
      "perceptual_hash": "p:e8a14b785a0efe92",
      "taken": 1458469200,
      "taken_at": "Mar 20, 2016 10:20 am"
    },
    "millsfield:similar": {
      "google/siglip2-so400m-patch16-naflex": [
        {
          "distance": 0.19676995277404785,
          "id": 1729359501
        },
        {
          "distance": 0.22127026319503784,
          "id": 1729357925
        },
        {
          "distance": 0.22525012493133545,
          "id": 1729357243
        },
        {
          "distance": 0.22688323259353638,
          "id": 1729359501
        },
        {
          "distance": 0.24925750494003296,
          "id": 1729362711
        },
        {
          "distance": 0.24970996379852295,
          "id": 1729362711
        },
        {
          "distance": 0.26069456338882446,
          "id": 1729357243
        },
        {
          "distance": 0.2607738971710205,
          "id": 1729357925
        },
        {
          "distance": 0.26978540420532227,
          "id": 1763559259
        },
        {
          "distance": 0.27259892225265503,
          "id": 1729361573
        }
      ]
    },
    "sfomuseum:placetype": "instagram",
    "src:geom": "sfomuseum",
    "wof:belongsto": [
      1159160869,
      102527513,
      102191575,
      85633793,
      102087579,
      85922583,
      85688637
    ],
    "wof:country": "US",
    "wof:created": 1458469200,
    "wof:geomhash": "b6e33f47475d56bc8da457bc31afadc8",
    "wof:hierarchy": [
      {
        "building_id": 1159160869,
        "campus_id": 102527513,
        "continent_id": 102191575,
        "country_id": 85633793,
        "county_id": 102087579,
        "custom_id": 1729360911,
        "instagram_id": 1729360911,
        "locality_id": 85922583,
        "neighbourhood_id": -1,
        "region_id": 85688637
      }
    ],
    "wof:id": 1729360911,
    "wof:lastmodified": 1787777640,
    "wof:name": "..",
    "wof:parent_id": 1159160869,
    "wof:placetype": "custom",
    "wof:placetype_alt": [
      "instagram"
    ],
    "wof:repo": "sfomuseum-data-socialmedia-instagram",
    "wof:superseded_by": [],
    "wof:supersedes": []
  },
  "bbox": [
    -122.386166,
    37.616356,
    -122.386166,
    37.616356
  ],
  "geometry": {"type":"Point","coordinates":[-122.386166,37.616356]}
}
