{
  "id": 1729361665,
  "type": "Feature",
  "properties": {
    "date:cessation_lower": "2015-07-28",
    "date:cessation_upper": "2015-07-28",
    "date:inception_lower": "2015-07-28",
    "date:inception_upper": "2015-07-28",
    "edtf:cessation": "2015-07-28T11:34:00-07:00",
    "edtf:inception": "2015-07-28T11:34:00-07:00",
    "geom:area": 0,
    "geom:bbox": "-122.386166,37.616356,-122.386166,37.616356",
    "geom:latitude": 37.616356,
    "geom:longitude": -122.386166,
    "instagram:post": {
      "caption": {
        "body": "This week for ‪#‎TravelTuesday‬, our Curator of Museum Affairs, Megan, would love to head off to ‪#‎Alaska‬ for her dream vacation! Though Alaska was not an declared official State until 1959, Pan American World Airways (‪#‎PanAm‬) was already flying to there as early as the 1930s. To entice tourists to visit Alaska, airlines would advertise Native Alaskan culture, untamed wilderness, and recreational activities. What would you do on a trip to Alaska?",
        "excerpt": "This week for ‪#‎TravelTuesday‬, our Curator of Museum Affairs, Megan, would love to head off to ‪#‎Alaska‬ for her dream vacation!",
        "hashtags": [],
        "users": []
      },
      "media_id": "d90ead608148cf588efb0d578542a8fd",
      "path": "media/other/11356554_733868483390418_2042922318_n_17842054603062499.jpg",
      "perceptual_hash": "p:9e48cc9df366cc60",
      "taken": 1438108440,
      "taken_at": "Jul 28, 2015 6:34 pm"
    },
    "millsfield:similar": {
      "google/siglip2-so400m-patch16-naflex": [
        {
          "distance": 0.20858913660049438,
          "id": 1729360339
        },
        {
          "distance": 0.25760847330093384,
          "id": 1729360331
        },
        {
          "distance": 0.2608211040496826,
          "id": 1729360339
        },
        {
          "distance": 0.26189345121383667,
          "id": 1729360331
        },
        {
          "distance": 0.2626008987426758,
          "id": 1729360397
        },
        {
          "distance": 0.2699999213218689,
          "id": 1729359833
        },
        {
          "distance": 0.2774631977081299,
          "id": 1729361533
        },
        {
          "distance": 0.2825325131416321,
          "id": 1729361531
        },
        {
          "distance": 0.28281182050704956,
          "id": 1729362259
        },
        {
          "distance": 0.2911534905433655,
          "id": 1729359833
        }
      ]
    },
    "sfomuseum:placetype": "instagram",
    "src:geom": "sfomuseum",
    "wof:belongsto": [
      1159160869,
      102527513,
      102191575,
      85633793,
      102087579,
      85922583,
      85688637
    ],
    "wof:country": "US",
    "wof:created": 1438108440,
    "wof:geomhash": "b6e33f47475d56bc8da457bc31afadc8",
    "wof:hierarchy": [
      {
        "building_id": 1159160869,
        "campus_id": 102527513,
        "continent_id": 102191575,
        "country_id": 85633793,
        "county_id": 102087579,
        "custom_id": 1729361665,
        "instagram_id": 1729361665,
        "locality_id": 85922583,
        "neighbourhood_id": -1,
        "region_id": 85688637
      }
    ],
    "wof:id": 1729361665,
    "wof:lastmodified": 1787777646,
    "wof:name": "This week for ‪#‎TravelTuesday‬, our Curator of Museum Affairs, Megan, would love to head off to ‪#‎Alaska‬ for her dream vacation!..",
    "wof:parent_id": 1159160869,
    "wof:placetype": "custom",
    "wof:placetype_alt": [
      "instagram"
    ],
    "wof:repo": "sfomuseum-data-socialmedia-instagram",
    "wof:superseded_by": [],
    "wof:supersedes": []
  },
  "bbox": [
    -122.386166,
    37.616356,
    -122.386166,
    37.616356
  ],
  "geometry": {"type":"Point","coordinates":[-122.386166,37.616356]}
}
