{
  "id": 1729362743,
  "type": "Feature",
  "properties": {
    "date:cessation_lower": "2013-04-15",
    "date:cessation_upper": "2013-04-15",
    "date:inception_lower": "2013-04-15",
    "date:inception_upper": "2013-04-15",
    "edtf:cessation": "2013-04-15T05:52:00-07:00",
    "edtf:inception": "2013-04-15T05:52:00-07:00",
    "geom:area": 0,
    "geom:bbox": "-122.386166,37.616356,-122.386166,37.616356",
    "geom:latitude": 37.616356,
    "geom:longitude": -122.386166,
    "instagram:post": {
      "caption": {
        "body": "When rotating it \"a little to the left\" becomes a challenge.",
        "excerpt": "When rotating it \"a little to the left\" becomes a challenge.",
        "hashtags": [],
        "users": []
      },
      "media_id": "25f4e5e8bb8d0e0cc0a82e723841bbf3",
      "path": "media/other/11288202_1432056023768706_22481720_n_17842315516062499.jpg",
      "perceptual_hash": "p:f0e74fa46d501978",
      "taken": 1366030320,
      "taken_at": "Apr 15, 2013 12:52 pm"
    },
    "millsfield:similar": {
      "google/siglip2-so400m-patch16-naflex": [
        {
          "distance": 0.14661812782287598,
          "id": 1729362737
        },
        {
          "distance": 0.18619292974472046,
          "id": 1729362785
        },
        {
          "distance": 0.19593912363052368,
          "id": 1729362737
        },
        {
          "distance": 0.20453840494155884,
          "id": 1729362949
        },
        {
          "distance": 0.22190183401107788,
          "id": 1729356841
        },
        {
          "distance": 0.23041921854019165,
          "id": 1729362785
        },
        {
          "distance": 0.2480696439743042,
          "id": 1729362473
        },
        {
          "distance": 0.25153112411499023,
          "id": 1729363009
        },
        {
          "distance": 0.25642168521881104,
          "id": 1729362913
        },
        {
          "distance": 0.25647473335266113,
          "id": 1729362291
        }
      ]
    },
    "sfomuseum:placetype": "instagram",
    "src:geom": "sfomuseum",
    "wof:belongsto": [
      1159160869,
      102527513,
      102191575,
      85633793,
      102087579,
      85922583,
      85688637
    ],
    "wof:country": "US",
    "wof:created": 1366030320,
    "wof:geomhash": "b6e33f47475d56bc8da457bc31afadc8",
    "wof:hierarchy": [
      {
        "building_id": 1159160869,
        "campus_id": 102527513,
        "continent_id": 102191575,
        "country_id": 85633793,
        "county_id": 102087579,
        "custom_id": 1729362743,
        "instagram_id": 1729362743,
        "locality_id": 85922583,
        "neighbourhood_id": -1,
        "region_id": 85688637
      }
    ],
    "wof:id": 1729362743,
    "wof:lastmodified": 1787777647,
    "wof:name": "When rotating it \"a little to the left\" becomes a challenge...",
    "wof:parent_id": 1159160869,
    "wof:placetype": "custom",
    "wof:placetype_alt": [
      "instagram"
    ],
    "wof:repo": "sfomuseum-data-socialmedia-instagram",
    "wof:superseded_by": [],
    "wof:supersedes": []
  },
  "bbox": [
    -122.386166,
    37.616356,
    -122.386166,
    37.616356
  ],
  "geometry": {"type":"Point","coordinates":[-122.386166,37.616356]}
}
