{
  "id": 1729362905,
  "type": "Feature",
  "properties": {
    "date:cessation_lower": "2012-09-13",
    "date:cessation_upper": "2012-09-13",
    "date:inception_lower": "2012-09-13",
    "date:inception_upper": "2012-09-13",
    "edtf:cessation": "2012-09-13T03:09:00-07:00",
    "edtf:inception": "2012-09-13T03:09:00-07:00",
    "geom:area": 0,
    "geom:bbox": "-122.386166,37.616356,-122.386166,37.616356",
    "geom:latitude": 37.616356,
    "geom:longitude": -122.386166,
    "instagram:post": {
      "caption": {
        "body": "Even rivets are included in this model of a 1932 Curtiss Condor AT-32-A! On view, T3.",
        "excerpt": "Even rivets are included in this model of a 1932 Curtiss Condor AT-32-A!",
        "hashtags": [],
        "users": []
      },
      "media_id": "3b3f471f36e4b769811c8f3d10a9c40b",
      "path": "media/other/11232873_1651720945058086_569942025_n_17842269832062499.jpg",
      "perceptual_hash": "p:bec2f385d8328d62",
      "taken": 1347530940,
      "taken_at": "Sep 13, 2012 10:09 am"
    },
    "millsfield:similar": {
      "google/siglip2-so400m-patch16-naflex": [
        {
          "distance": 0.1357749104499817,
          "id": 1729363009
        },
        {
          "distance": 0.1487826704978943,
          "id": 1729363009
        },
        {
          "distance": 0.1851181983947754,
          "id": 1729362201
        },
        {
          "distance": 0.18887192010879517,
          "id": 1729362041
        },
        {
          "distance": 0.21015262603759766,
          "id": 1729362201
        },
        {
          "distance": 0.21114760637283325,
          "id": 1729360497
        },
        {
          "distance": 0.2126833200454712,
          "id": 1729362041
        },
        {
          "distance": 0.21342778205871582,
          "id": 1729360497
        },
        {
          "distance": 0.21548211574554443,
          "id": 1729356411
        },
        {
          "distance": 0.21917450428009033,
          "id": 1729362997
        }
      ]
    },
    "sfomuseum:placetype": "instagram",
    "src:geom": "sfomuseum",
    "wof:belongsto": [
      1159160869,
      102527513,
      102191575,
      85633793,
      102087579,
      85922583,
      85688637
    ],
    "wof:country": "US",
    "wof:created": 1347530940,
    "wof:geomhash": "b6e33f47475d56bc8da457bc31afadc8",
    "wof:hierarchy": [
      {
        "building_id": 1159160869,
        "campus_id": 102527513,
        "continent_id": 102191575,
        "country_id": 85633793,
        "county_id": 102087579,
        "custom_id": 1729362905,
        "instagram_id": 1729362905,
        "locality_id": 85922583,
        "neighbourhood_id": -1,
        "region_id": 85688637
      }
    ],
    "wof:id": 1729362905,
    "wof:lastmodified": 1787777656,
    "wof:name": "Even rivets are included in this model of a 1932 Curtiss Condor AT-32-A!..",
    "wof:parent_id": 1159160869,
    "wof:placetype": "custom",
    "wof:placetype_alt": [
      "instagram"
    ],
    "wof:repo": "sfomuseum-data-socialmedia-instagram",
    "wof:superseded_by": [],
    "wof:supersedes": []
  },
  "bbox": [
    -122.386166,
    37.616356,
    -122.386166,
    37.616356
  ],
  "geometry": {"type":"Point","coordinates":[-122.386166,37.616356]}
}
