{
  "id": 1729359265,
  "type": "Feature",
  "properties": {
    "date:cessation_lower": "2017-07-29",
    "date:cessation_upper": "2017-07-29",
    "date:inception_lower": "2017-07-29",
    "date:inception_upper": "2017-07-29",
    "edtf:cessation": "2017-07-28T17:05:54-07:00",
    "edtf:inception": "2017-07-28T17:05:54-07:00",
    "geom:area": 0,
    "geom:bbox": "-122.386166,37.616356,-122.386166,37.616356",
    "geom:latitude": 37.616356,
    "geom:longitude": -122.386166,
    "instagram:post": {
      "caption": {
        "body": "In the late 1920s, airline passenger seats needed to be light, yet strong, durable, and sufficiently comfortable to sit in for long hours. This United Air Lines wicker seat was installed in a Ford Tri-Motor with a single seat on each side of the aisle. It has a metal tubing frame and was mounted to the cabin floor with fittings at the feet. Wicker attached to the frame forms the back, seat, and armrests. The strength, lightness, and flexibility of wicker, a woven plant fiber, made it a natural choice for early aviation, including the basketry for hot air balloons.  Chair courtesy of the United Airlines Archives. Learn more about the early days of aviation in \"Flying the Main Line: A History of United Airlines\" on display, post-security, in Terminal 3. http://bit.ly/TheMainLine",
        "excerpt": "In the late 1920s, airline passenger seats needed to be light, yet strong, durable, and sufficiently comfortable to sit in for long hours.",
        "hashtags": [],
        "users": []
      },
      "location": "",
      "media_id": "b667c5824535962de9767ca7c3790dc8",
      "path": "photos/201707/b667c5824535962de9767ca7c3790dc8.jpg",
      "perceptual_hash": "p:f44d933cc833c63c",
      "taken": 1501257900,
      "taken_at": "Jul 28, 2017, 4:05 PM"
    },
    "millsfield:similar": {
      "google/siglip2-so400m-patch16-naflex": [
        {
          "distance": 0.2671005129814148,
          "id": 1729356591
        },
        {
          "distance": 0.2976972460746765,
          "id": 1729360699
        },
        {
          "distance": 0.30205100774765015,
          "id": 1729360303
        },
        {
          "distance": 0.30921000242233276,
          "id": 1729359763
        },
        {
          "distance": 0.31909966468811035,
          "id": 1729356591
        },
        {
          "distance": 0.3338124752044678,
          "id": 1729358769
        },
        {
          "distance": 0.3400193452835083,
          "id": 1729358745
        },
        {
          "distance": 0.3448217511177063,
          "id": 1729358891
        },
        {
          "distance": 0.3480129837989807,
          "id": 1729358769
        },
        {
          "distance": 0.35004788637161255,
          "id": 1729356251
        }
      ]
    },
    "sfomuseum:placetype": "instagram",
    "src:geom": "sfomuseum",
    "wof:belongsto": [
      1159160869,
      102527513,
      102191575,
      85633793,
      102087579,
      85922583,
      85688637
    ],
    "wof:country": "US",
    "wof:created": 1501286754,
    "wof:geomhash": "b6e33f47475d56bc8da457bc31afadc8",
    "wof:hierarchy": [
      {
        "building_id": 1159160869,
        "campus_id": 102527513,
        "continent_id": 102191575,
        "country_id": 85633793,
        "county_id": 102087579,
        "custom_id": 1729359265,
        "instagram_id": 1729359265,
        "locality_id": 85922583,
        "neighbourhood_id": -1,
        "region_id": 85688637
      }
    ],
    "wof:id": 1729359265,
    "wof:lastmodified": 1787777635,
    "wof:name": "In the late 1920s, airline passenger seats needed to be light, yet strong, durable, and sufficiently comfortable to sit in for long hours...",
    "wof:parent_id": 1159160869,
    "wof:placetype": "custom",
    "wof:placetype_alt": [
      "instagram"
    ],
    "wof:repo": "sfomuseum-data-socialmedia-instagram",
    "wof:superseded_by": [],
    "wof:supersedes": []
  },
  "bbox": [
    -122.386166,
    37.616356,
    -122.386166,
    37.616356
  ],
  "geometry": {"type":"Point","coordinates":[-122.386166,37.616356]}
}
