{
  "id": 1729355075,
  "type": "Feature",
  "properties": {
    "date:cessation_lower": "2020-09-10",
    "date:cessation_upper": "2020-09-10",
    "date:inception_lower": "2020-09-10",
    "date:inception_upper": "2020-09-10",
    "edtf:cessation": "2020-09-10T16:51:32-07:00",
    "edtf:inception": "2020-09-10T16:51:32-07:00",
    "geom:area": 0,
    "geom:bbox": "-122.386166,37.616356,-122.386166,37.616356",
    "geom:latitude": 37.616356,
    "geom:longitude": -122.386166,
    "instagram:post": {
      "caption": {
        "body": "In honor of our 40th anniversary, every week this year we are highlighting one of our past exhibitions. In 2001, we presented “Eames Connection” celebrating the creations of the husband-and-wife team of Charles (1907–78) and Ray (1912–88) Eames. Their philosophy was practical and personal, characterized by a drive to bring good design and artfully modern products to the general public. For over forty years, the Eames Office created items that were beautiful, useful, and meant to provide \"the most of the best to the greatest number of people for the least.\" Do you remember this exhibition?",
        "excerpt": "In honor of our 40th anniversary, every week this year we are highlighting one of our past exhibitions.",
        "hashtags": [
          "MuseumFromHome",
          "SFOMat40",
          "eames",
          "design"
        ],
        "users": []
      },
      "location": "",
      "media_id": "d25df20bfd435bbf9b19b9ae52a8a13f",
      "path": "photos/202009/d25df20bfd435bbf9b19b9ae52a8a13f.jpg",
      "perceptual_hash": "p:83addb833ec2361a",
      "taken": 1599753060,
      "taken_at": "Sep 10, 2020, 3:51 PM"
    },
    "millsfield:similar": {
      "google/siglip2-so400m-patch16-naflex": [
        {
          "distance": 0.11269092559814453,
          "id": 1729355079
        },
        {
          "distance": 0.14021319150924683,
          "id": 1729355089
        },
        {
          "distance": 0.14542484283447266,
          "id": 1729355079
        },
        {
          "distance": 0.16937386989593506,
          "id": 1729360303
        },
        {
          "distance": 0.17275971174240112,
          "id": 1729355089
        },
        {
          "distance": 0.19081157445907593,
          "id": 1729359763
        },
        {
          "distance": 0.196954607963562,
          "id": 1729355047
        },
        {
          "distance": 0.2039092779159546,
          "id": 1729355047
        },
        {
          "distance": 0.22323697805404663,
          "id": 1729360303
        },
        {
          "distance": 0.23404747247695923,
          "id": 1729359763
        }
      ]
    },
    "sfomuseum:placetype": "instagram",
    "src:geom": "sfomuseum",
    "wof:belongsto": [
      1159160869,
      102527513,
      102191575,
      85633793,
      102087579,
      85922583,
      85688637
    ],
    "wof:country": "US",
    "wof:created": 1599781892,
    "wof:geomhash": "b6e33f47475d56bc8da457bc31afadc8",
    "wof:hierarchy": [
      {
        "building_id": 1159160869,
        "campus_id": 102527513,
        "continent_id": 102191575,
        "country_id": 85633793,
        "county_id": 102087579,
        "custom_id": 1729355075,
        "instagram_id": 1729355075,
        "locality_id": 85922583,
        "neighbourhood_id": -1,
        "region_id": 85688637
      }
    ],
    "wof:id": 1729355075,
    "wof:lastmodified": 1787777615,
    "wof:name": "In honor of our 40th anniversary, every week this year we are highlighting one of our past exhibitions...",
    "wof:parent_id": 1159160869,
    "wof:placetype": "custom",
    "wof:placetype_alt": [
      "instagram"
    ],
    "wof:repo": "sfomuseum-data-socialmedia-instagram",
    "wof:superseded_by": [],
    "wof:supersedes": []
  },
  "bbox": [
    -122.386166,
    37.616356,
    -122.386166,
    37.616356
  ],
  "geometry": {"type":"Point","coordinates":[-122.386166,37.616356]}
}
