{
  "id": 1729361221,
  "type": "Feature",
  "properties": {
    "date:cessation_lower": "2016-01-04",
    "date:cessation_upper": "2016-01-04",
    "date:inception_lower": "2016-01-04",
    "date:inception_upper": "2016-01-04",
    "edtf:cessation": "2016-01-04T02:56:00-08:00",
    "edtf:inception": "2016-01-04T02:56:00-08:00",
    "geom:area": 0,
    "geom:bbox": "-122.386166,37.616356,-122.386166,37.616356",
    "geom:latitude": 37.616356,
    "geom:longitude": -122.386166,
    "instagram:post": {
      "caption": {
        "body": "Happy New Year! We are looking forward to another great year of bringing you exciting programming on a diverse array of topics ranging from vintage purses to Ouija boards. This year we have so many great new exhibitions in store. There’s a lot to look forward to - and don’t forget, all our exhibitions are also online on our website! ‪#‎MuseumMonday‬ http://www.sfomuseum.org/",
        "excerpt": "Happy New Year!",
        "hashtags": [],
        "users": []
      },
      "media_id": "add506094ddf84f29c16d4efb455081e",
      "path": "media/other/10175337_1218050761541732_1677542477_n_17852545090062125.jpg",
      "perceptual_hash": "p:faa7cd18b4488747",
      "taken": 1451904960,
      "taken_at": "Jan 04, 2016 10:56 am"
    },
    "millsfield:similar": {
      "google/siglip2-so400m-patch16-naflex": [
        {
          "distance": 0.18654733896255493,
          "id": 1729361401
        },
        {
          "distance": 0.1927357316017151,
          "id": 1729361401
        },
        {
          "distance": 0.2871870994567871,
          "id": 1880151439
        },
        {
          "distance": 0.29471081495285034,
          "id": 1880151115
        },
        {
          "distance": 0.3043782711029053,
          "id": 1880151259
        },
        {
          "distance": 0.3054696321487427,
          "id": 1729355221
        },
        {
          "distance": 0.31054437160491943,
          "id": 1729356695
        },
        {
          "distance": 0.3114532232284546,
          "id": 1880151555
        },
        {
          "distance": 0.31169986724853516,
          "id": 1880151439
        },
        {
          "distance": 0.3130229711532593,
          "id": 1729362959
        }
      ]
    },
    "sfomuseum:placetype": "instagram",
    "src:geom": "sfomuseum",
    "wof:belongsto": [
      1159160869,
      102527513,
      102191575,
      85633793,
      102087579,
      85922583,
      85688637
    ],
    "wof:country": "US",
    "wof:created": 1451904960,
    "wof:geomhash": "b6e33f47475d56bc8da457bc31afadc8",
    "wof:hierarchy": [
      {
        "building_id": 1159160869,
        "campus_id": 102527513,
        "continent_id": 102191575,
        "country_id": 85633793,
        "county_id": 102087579,
        "custom_id": 1729361221,
        "instagram_id": 1729361221,
        "locality_id": 85922583,
        "neighbourhood_id": -1,
        "region_id": 85688637
      }
    ],
    "wof:id": 1729361221,
    "wof:lastmodified": 1787777645,
    "wof:name": "Happy New Year!..",
    "wof:parent_id": 1159160869,
    "wof:placetype": "custom",
    "wof:placetype_alt": [
      "instagram"
    ],
    "wof:repo": "sfomuseum-data-socialmedia-instagram",
    "wof:superseded_by": [],
    "wof:supersedes": []
  },
  "bbox": [
    -122.386166,
    37.616356,
    -122.386166,
    37.616356
  ],
  "geometry": {"type":"Point","coordinates":[-122.386166,37.616356]}
}
