{
  "id": 1729355689,
  "type": "Feature",
  "properties": {
    "date:cessation_lower": "2020-01-08",
    "date:cessation_upper": "2020-01-08",
    "date:inception_lower": "2020-01-08",
    "date:inception_upper": "2020-01-08",
    "edtf:cessation": "2020-01-08T06:10:00-08:00",
    "edtf:inception": "2020-01-08T06:10:00-08:00",
    "geom:area": 0,
    "geom:bbox": "-122.386166,37.616356,-122.386166,37.616356",
    "geom:latitude": 37.616356,
    "geom:longitude": -122.386166,
    "instagram:post": {
      "caption": {
        "body": "In 1971, TWA (Trans World Airlines) introduced a new group of flight attendant uniforms conceived by Rome-based fashion designer Valentino Garavani. The uniform came in three colors: purple, brown, or beige. It featured a range of wardrobe combinations in a polyester knit fabric, including a form-fitting minidress, pants, and a frock coat. The outfits came with signature Valentino buttons and matching scarves, and could be worn with pumps or go-go boots. In promotions, flight attendants were featured wearing various colors and combinations of the uniform. This promotional image shows a flight attendant wearing the beige frock coat over the minidress. “Widebody: The Launch of the Jumbojets in the Early 1970s” is on display, pre-security, in the Aviation Museum and Library. http://bit.ly/WidebodyAV",
        "excerpt": "In 1971, TWA (Trans World Airlines) introduced a new group of flight attendant uniforms conceived by Rome-based fashion designer Valentino Garavani.",
        "hashtags": [
          "WidebodyAV",
          "avgeek",
          "Widebody",
          "jumbojet",
          "jetage",
          "valentino",
          "fashion",
          "crewlife",
          "uniform",
          "flightattendant"
        ],
        "users": []
      },
      "media_id": "7bb473985cb524e30162cb21a4d4e0fb",
      "path": "media/posts/202001/82156889_2542775419377489_1885908097453906669_n_17896074418436864.jpg",
      "perceptual_hash": "p:9be2345cec135b23",
      "taken": 1578492600,
      "taken_at": "Jan 08, 2020 2:10 pm"
    },
    "millsfield:similar": {
      "google/siglip2-so400m-patch16-naflex": [
        {
          "distance": 0.09665405750274658,
          "id": 1729355725
        },
        {
          "distance": 0.10160958766937256,
          "id": 1729356031
        },
        {
          "distance": 0.1447770595550537,
          "id": 1729356031
        },
        {
          "distance": 0.16452527046203613,
          "id": 1729355725
        },
        {
          "distance": 0.16780847311019897,
          "id": 1729360547
        },
        {
          "distance": 0.1795945167541504,
          "id": 1729355403
        },
        {
          "distance": 0.18074852228164673,
          "id": 1729357069
        },
        {
          "distance": 0.18140733242034912,
          "id": 1947425297
        },
        {
          "distance": 0.18368369340896606,
          "id": 1729355501
        },
        {
          "distance": 0.18377745151519775,
          "id": 1880151191
        }
      ]
    },
    "sfomuseum:placetype": "instagram",
    "src:geom": "sfomuseum",
    "wof:belongsto": [
      1159160869,
      102527513,
      102191575,
      85633793,
      102087579,
      85922583,
      85688637
    ],
    "wof:country": "US",
    "wof:created": 1578492600,
    "wof:geomhash": "b6e33f47475d56bc8da457bc31afadc8",
    "wof:hierarchy": [
      {
        "building_id": 1159160869,
        "campus_id": 102527513,
        "continent_id": 102191575,
        "country_id": 85633793,
        "county_id": 102087579,
        "custom_id": 1729355689,
        "instagram_id": 1729355689,
        "locality_id": 85922583,
        "neighbourhood_id": -1,
        "region_id": 85688637
      }
    ],
    "wof:id": 1729355689,
    "wof:lastmodified": 1787777627,
    "wof:name": "In 1971, TWA (Trans World Airlines) introduced a new group of flight attendant uniforms conceived by Rome-based fashion designer Valentino Garavani...",
    "wof:parent_id": 1159160869,
    "wof:placetype": "custom",
    "wof:placetype_alt": [
      "instagram"
    ],
    "wof:repo": "sfomuseum-data-socialmedia-instagram",
    "wof:superseded_by": [],
    "wof:supersedes": []
  },
  "bbox": [
    -122.386166,
    37.616356,
    -122.386166,
    37.616356
  ],
  "geometry": {"type":"Point","coordinates":[-122.386166,37.616356]}
}
