{
  "id": 1729362877,
  "type": "Feature",
  "properties": {
    "date:cessation_lower": "2012-10-11",
    "date:cessation_upper": "2012-10-11",
    "date:inception_lower": "2012-10-11",
    "date:inception_upper": "2012-10-11",
    "edtf:cessation": "2012-10-11T02:45:00-07:00",
    "edtf:inception": "2012-10-11T02:45:00-07:00",
    "geom:area": 0,
    "geom:bbox": "-122.386166,37.616356,-122.386166,37.616356",
    "geom:latitude": 37.616356,
    "geom:longitude": -122.386166,
    "instagram:post": {
      "caption": {
        "body": "Casket, c. 1903. Copper was a favored material for British craftsmen at the turn of the 20th C. Pops the silver nautical details, too!",
        "excerpt": "Casket, c. 1903.",
        "hashtags": [],
        "users": []
      },
      "media_id": "8723fa180f0d7a70552343cb23ba9dac",
      "path": "media/other/11203450_391687924289910_970710529_n_17842274827062499.jpg",
      "perceptual_hash": "p:afccd439e1b0a29a",
      "taken": 1349948700,
      "taken_at": "Oct 11, 2012 9:45 am"
    },
    "millsfield:similar": {
      "google/siglip2-so400m-patch16-naflex": [
        {
          "distance": 0.23955827951431274,
          "id": 1729362967
        },
        {
          "distance": 0.24395573139190674,
          "id": 1729362999
        },
        {
          "distance": 0.2616533637046814,
          "id": 1729362999
        },
        {
          "distance": 0.27877873182296753,
          "id": 1729362967
        },
        {
          "distance": 0.2798178195953369,
          "id": 1729362129
        },
        {
          "distance": 0.28460997343063354,
          "id": 1729362961
        },
        {
          "distance": 0.2889459729194641,
          "id": 1729362163
        },
        {
          "distance": 0.29809004068374634,
          "id": 1729362129
        },
        {
          "distance": 0.30315935611724854,
          "id": 1729362107
        },
        {
          "distance": 0.3093612790107727,
          "id": 1729363015
        }
      ]
    },
    "sfomuseum:placetype": "instagram",
    "src:geom": "sfomuseum",
    "wof:belongsto": [
      1159160869,
      102527513,
      102191575,
      85633793,
      102087579,
      85922583,
      85688637
    ],
    "wof:country": "US",
    "wof:created": 1349948700,
    "wof:geomhash": "b6e33f47475d56bc8da457bc31afadc8",
    "wof:hierarchy": [
      {
        "building_id": 1159160869,
        "campus_id": 102527513,
        "continent_id": 102191575,
        "country_id": 85633793,
        "county_id": 102087579,
        "custom_id": 1729362877,
        "instagram_id": 1729362877,
        "locality_id": 85922583,
        "neighbourhood_id": -1,
        "region_id": 85688637
      }
    ],
    "wof:id": 1729362877,
    "wof:lastmodified": 1787777654,
    "wof:name": "Casket, c. 1903...",
    "wof:parent_id": 1159160869,
    "wof:placetype": "custom",
    "wof:placetype_alt": [
      "instagram"
    ],
    "wof:repo": "sfomuseum-data-socialmedia-instagram",
    "wof:superseded_by": [],
    "wof:supersedes": []
  },
  "bbox": [
    -122.386166,
    37.616356,
    -122.386166,
    37.616356
  ],
  "geometry": {"type":"Point","coordinates":[-122.386166,37.616356]}
}
