{
  "id": 1729356073,
  "type": "Feature",
  "properties": {
    "date:cessation_lower": "2019-09-20",
    "date:cessation_upper": "2019-09-20",
    "date:inception_lower": "2019-09-20",
    "date:inception_upper": "2019-09-20",
    "edtf:cessation": "2019-09-20T08:07:00-07:00",
    "edtf:inception": "2019-09-20T08:07:00-07:00",
    "geom:area": 0,
    "geom:bbox": "-122.386166,37.616356,-122.386166,37.616356",
    "geom:latitude": 37.616356,
    "geom:longitude": -122.386166,
    "instagram:post": {
      "caption": {
        "body": "The Boeing 747, which was first flown in 1969 and launched into service in 1970 by Pan American World Airways, revolutionized long-distance commercial air travel and set a completely new standard in airliner design, the “widebody” or “jumbojet.” Not to be left behind in the widebody market, aircraft manufacturers McDonnell Douglas and Lockheed Aircraft followed with their own widebody airliners, the DC-10 and L-1011 TriStar. Our newest exhibition “Widebody: The Launch of the Jumbojets in the Early 1970s” presents promotional objects and images from airlines that operated these three first widebody jetliners introduced in the early 1970s.  See “Widebody: The Launch of the Jumbojets in the Early 1970s” in on display, pre-security, is on the Aviation Museum and Library. http://bit.ly/WidebodyAV",
        "excerpt": "The Boeing 747, which was first flown in 1969 and launched into service in 1970 by Pan American World Airways, revolutionized long-distance commercial air travel and set a completely new standard in airliner design, the “widebody” or “jumbojet.” Not to be left behind in the widebody market, aircraft manufacturers McDonnell Douglas and Lockheed Aircraft followed with their own widebody airliners, the DC-10 and L-1011 TriStar.",
        "hashtags": [
          "WidebodyAV",
          "avgeek",
          "widebody",
          "jetage",
          "Boeing747",
          "DC10",
          "Lockheed"
        ],
        "users": []
      },
      "media_id": "a22fbfbbb3a0b39ad080ec704a02ab4e",
      "path": "media/other/69900474_148973759679242_33639836538620797_n_17860540183519777.jpg",
      "perceptual_hash": "p:9d85627a152cfe2a",
      "taken": 1568992020,
      "taken_at": "Sep 20, 2019 3:07 pm"
    },
    "millsfield:similar": {
      "google/siglip2-so400m-patch16-naflex": [
        {
          "distance": 0.3205854296684265,
          "id": 1729355501
        },
        {
          "distance": 0.32088953256607056,
          "id": 1729355987
        },
        {
          "distance": 0.342502236366272,
          "id": 1729361153
        },
        {
          "distance": 0.3540615439414978,
          "id": 1880151013
        },
        {
          "distance": 0.35805755853652954,
          "id": 1729357345
        },
        {
          "distance": 0.35884737968444824,
          "id": 1729361153
        },
        {
          "distance": 0.368827223777771,
          "id": 1729360551
        },
        {
          "distance": 0.37072497606277466,
          "id": 1729356289
        },
        {
          "distance": 0.3707444667816162,
          "id": 1729357769
        },
        {
          "distance": 0.3719836473464966,
          "id": 1729358963
        }
      ]
    },
    "sfomuseum:placetype": "instagram",
    "src:geom": "sfomuseum",
    "wof:belongsto": [
      1159160869,
      102527513,
      102191575,
      85633793,
      102087579,
      85922583,
      85688637
    ],
    "wof:country": "US",
    "wof:created": 1568992020,
    "wof:geomhash": "b6e33f47475d56bc8da457bc31afadc8",
    "wof:hierarchy": [
      {
        "building_id": 1159160869,
        "campus_id": 102527513,
        "continent_id": 102191575,
        "country_id": 85633793,
        "county_id": 102087579,
        "custom_id": 1729356073,
        "instagram_id": 1729356073,
        "locality_id": 85922583,
        "neighbourhood_id": -1,
        "region_id": 85688637
      }
    ],
    "wof:id": 1729356073,
    "wof:lastmodified": 1787777628,
    "wof:name": "The Boeing 747, which was first flown in 1969 and launched into service in 1970 by Pan American World Airways, revolutionized long-distance commercial air travel and set a completely new standard in airliner design, the “widebody” or “jumbojet.” Not to be left behind in the widebody market, aircraft manufacturers McDonnell Douglas and Lockheed Aircraft followed with their own widebody airliners, the DC-10 and L-1011 TriStar...",
    "wof:parent_id": 1159160869,
    "wof:placetype": "custom",
    "wof:placetype_alt": [
      "instagram"
    ],
    "wof:repo": "sfomuseum-data-socialmedia-instagram",
    "wof:superseded_by": [],
    "wof:supersedes": []
  },
  "bbox": [
    -122.386166,
    37.616356,
    -122.386166,
    37.616356
  ],
  "geometry": {"type":"Point","coordinates":[-122.386166,37.616356]}
}
