{
  "id": 1729357453,
  "type": "Feature",
  "properties": {
    "date:cessation_lower": "2018-11-01",
    "date:cessation_upper": "2018-11-01",
    "date:inception_lower": "2018-11-01",
    "date:inception_upper": "2018-11-01",
    "edtf:cessation": "2018-11-01T10:04:01-07:00",
    "edtf:inception": "2018-11-01T10:04:01-07:00",
    "geom:area": 0,
    "geom:bbox": "-122.386166,37.616356,-122.386166,37.616356",
    "geom:latitude": 37.616356,
    "geom:longitude": -122.386166,
    "instagram:post": {
      "caption": {
        "body": "Limited edition, bronze animal sculptures were a specialty of many Art Nouveau artists. Rembrandt Bugatti (1884–1916), the son of furniture designer Carlo Bugatti (1856–1940) and younger brother to automobile maker Ettore Bugatti (1881–1947), was one of the most celebrated animal sculptors of the early 20th century. Self-trained in the arts, Bugatti made his first sculpture at age sixteen and exhibited in numerous European galleries including the prestigious Société Nationale des Beaux-Arts in Paris.  A very special thank you to Sandy Lerner for making this exhibition possible. See \"Caticons: The Cat in Art\" is on display, pre-security, in the International Terminal. http://bit.ly/Caticons",
        "excerpt": "Limited edition, bronze animal sculptures were a specialty of many Art Nouveau artists.",
        "hashtags": [
          "caticons",
          "catsofinstagram",
          "cats",
          "mewseum",
          "caticon",
          "cat",
          "leonunderwood",
          "modernist",
          "sculptor",
          "sculpture",
          "RembrandtBugatti"
        ],
        "users": []
      },
      "location": "",
      "media_id": "4d6e312f13e99fd6e13594b595c3cc98",
      "path": "photos/201811/4d6e312f13e99fd6e13594b595c3cc98.jpg",
      "perceptual_hash": "p:e4459a32c76dc9b4",
      "taken": 1541063040,
      "taken_at": "Nov 1, 2018, 9:04 AM"
    },
    "millsfield:similar": {
      "google/siglip2-so400m-patch16-naflex": [
        {
          "distance": 0.054880380630493164,
          "id": 1729357457
        },
        {
          "distance": 0.09585374593734741,
          "id": 1729357457
        },
        {
          "distance": 0.1461946964263916,
          "id": 1729356887
        },
        {
          "distance": 0.22358614206314087,
          "id": 1729356887
        },
        {
          "distance": 0.23661869764328003,
          "id": 1729357451
        },
        {
          "distance": 0.27124011516571045,
          "id": 1729358445
        },
        {
          "distance": 0.2734289765357971,
          "id": 1729356743
        },
        {
          "distance": 0.27941715717315674,
          "id": 1729357505
        },
        {
          "distance": 0.2836751937866211,
          "id": 1729358591
        },
        {
          "distance": 0.2859104871749878,
          "id": 1729357067
        }
      ]
    },
    "sfomuseum:placetype": "instagram",
    "src:geom": "sfomuseum",
    "wof:belongsto": [
      1159160869,
      102527513,
      102191575,
      85633793,
      102087579,
      85922583,
      85688637
    ],
    "wof:country": "US",
    "wof:created": 1541091841,
    "wof:geomhash": "b6e33f47475d56bc8da457bc31afadc8",
    "wof:hierarchy": [
      {
        "building_id": 1159160869,
        "campus_id": 102527513,
        "continent_id": 102191575,
        "country_id": 85633793,
        "county_id": 102087579,
        "custom_id": 1729357453,
        "instagram_id": 1729357453,
        "locality_id": 85922583,
        "neighbourhood_id": -1,
        "region_id": 85688637
      }
    ],
    "wof:id": 1729357453,
    "wof:lastmodified": 1787777631,
    "wof:name": "Limited edition, bronze animal sculptures were a specialty of many Art Nouveau artists...",
    "wof:parent_id": 1159160869,
    "wof:placetype": "custom",
    "wof:placetype_alt": [
      "instagram"
    ],
    "wof:repo": "sfomuseum-data-socialmedia-instagram",
    "wof:superseded_by": [],
    "wof:supersedes": []
  },
  "bbox": [
    -122.386166,
    37.616356,
    -122.386166,
    37.616356
  ],
  "geometry": {"type":"Point","coordinates":[-122.386166,37.616356]}
}
