{
  "id": 1729356013,
  "type": "Feature",
  "properties": {
    "date:cessation_lower": "2019-10-09",
    "date:cessation_upper": "2019-10-09",
    "date:inception_lower": "2019-10-09",
    "date:inception_upper": "2019-10-09",
    "edtf:cessation": "2019-10-09T02:05:00-07:00",
    "edtf:inception": "2019-10-09T02:05:00-07:00",
    "geom:area": 0,
    "geom:bbox": "-122.386166,37.616356,-122.386166,37.616356",
    "geom:latitude": 37.616356,
    "geom:longitude": -122.386166,
    "instagram:post": {
      "caption": {
        "body": "“Welcome North, Welcome South, Welcome East, Welcome West” by Dan Snyder is a series of exuberant, waving figures and depictions of San Francisco landmarks highlight the wall piece, designed to greet and welcome visitors from around the world.  See “Welcome North, Welcome South, Welcome East, Welcome West” on display in the arrivals level of Terminal 2. http://bit.ly/2oGsi8J",
        "excerpt": "“Welcome North, Welcome South, Welcome East, Welcome West” by Dan Snyder is a series of exuberant, waving figures and depictions of San Francisco landmarks highlight the wall piece, designed to greet and welcome visitors from around the world.",
        "hashtags": [
          "publicart",
          "SFAC",
          "DanSnyder"
        ],
        "users": []
      },
      "media_id": "00944d337d24bafeb65c34e572a092c2",
      "path": "media/posts/201910/71097097_151409236065699_1813543664802998576_n_17844225088716103.jpg",
      "perceptual_hash": "p:c1e0c855eda36756",
      "taken": 1570611900,
      "taken_at": "Oct 09, 2019 9:05 am"
    },
    "millsfield:similar": {
      "google/siglip2-so400m-patch16-naflex": [
        {
          "distance": 0.2065851092338562,
          "id": 1763559521
        },
        {
          "distance": 0.2100335955619812,
          "id": 1729357999
        },
        {
          "distance": 0.22136694192886353,
          "id": 1729359429
        },
        {
          "distance": 0.2291886806488037,
          "id": 1880151285
        },
        {
          "distance": 0.23453950881958008,
          "id": 1763559685
        },
        {
          "distance": 0.23892277479171753,
          "id": 1763558931
        },
        {
          "distance": 0.2412891387939453,
          "id": 1763559555
        },
        {
          "distance": 0.24161982536315918,
          "id": 1729355723
        },
        {
          "distance": 0.24178004264831543,
          "id": 1880151253
        },
        {
          "distance": 0.24476563930511475,
          "id": 1763559521
        }
      ]
    },
    "sfomuseum:placetype": "instagram",
    "src:geom": "sfomuseum",
    "wof:belongsto": [
      1159160869,
      102527513,
      102191575,
      85633793,
      102087579,
      85922583,
      85688637
    ],
    "wof:country": "US",
    "wof:created": 1570611900,
    "wof:geomhash": "b6e33f47475d56bc8da457bc31afadc8",
    "wof:hierarchy": [
      {
        "building_id": 1159160869,
        "campus_id": 102527513,
        "continent_id": 102191575,
        "country_id": 85633793,
        "county_id": 102087579,
        "custom_id": 1729356013,
        "instagram_id": 1729356013,
        "locality_id": 85922583,
        "neighbourhood_id": -1,
        "region_id": 85688637
      }
    ],
    "wof:id": 1729356013,
    "wof:lastmodified": 1787777627,
    "wof:name": "“Welcome North, Welcome South, Welcome East, Welcome West” by Dan Snyder is a series of exuberant, waving figures and depictions of San Francisco landmarks highlight the wall piece, designed to greet and welcome visitors from around the world...",
    "wof:parent_id": 1159160869,
    "wof:placetype": "custom",
    "wof:placetype_alt": [
      "instagram"
    ],
    "wof:repo": "sfomuseum-data-socialmedia-instagram",
    "wof:superseded_by": [],
    "wof:supersedes": []
  },
  "bbox": [
    -122.386166,
    37.616356,
    -122.386166,
    37.616356
  ],
  "geometry": {"type":"Point","coordinates":[-122.386166,37.616356]}
}
