{
  "id": 1729362671,
  "type": "Feature",
  "properties": {
    "date:cessation_lower": "2013-06-07",
    "date:cessation_upper": "2013-06-07",
    "date:inception_lower": "2013-06-07",
    "date:inception_upper": "2013-06-07",
    "edtf:cessation": "2013-06-07T05:27:00-07:00",
    "edtf:inception": "2013-06-07T05:27:00-07:00",
    "geom:area": 0,
    "geom:bbox": "-122.386166,37.616356,-122.386166,37.616356",
    "geom:latitude": 37.616356,
    "geom:longitude": -122.386166,
    "instagram:post": {
      "caption": {
        "body": "Figurehead fragment from the Roderick Dhu 1873 came from a ship that made many voyages from England to San Francisco.",
        "excerpt": "Figurehead fragment from the Roderick Dhu 1873 came from a ship that made many voyages from England to San Francisco.",
        "hashtags": [],
        "users": []
      },
      "media_id": "432753d9c2bbb0bebcd7ca2ddad87ea8",
      "path": "media/other/11282114_797564293691054_254718358_n_17842329229062499.jpg",
      "perceptual_hash": "p:acd44267c3cf0cb6",
      "taken": 1370608020,
      "taken_at": "Jun 07, 2013 12:27 pm"
    },
    "millsfield:similar": {
      "google/siglip2-so400m-patch16-naflex": [
        {
          "distance": 0.2937750220298767,
          "id": 1729362551
        },
        {
          "distance": 0.3143794536590576,
          "id": 1729362551
        },
        {
          "distance": 0.32837891578674316,
          "id": 1729362723
        },
        {
          "distance": 0.34879815578460693,
          "id": 1729362621
        },
        {
          "distance": 0.3564138412475586,
          "id": 1729358257
        },
        {
          "distance": 0.3585968613624573,
          "id": 1729361425
        },
        {
          "distance": 0.35926419496536255,
          "id": 1729358207
        },
        {
          "distance": 0.3650627136230469,
          "id": 1729361757
        },
        {
          "distance": 0.36527448892593384,
          "id": 1729361927
        },
        {
          "distance": 0.3661026954650879,
          "id": 1729362621
        }
      ]
    },
    "sfomuseum:placetype": "instagram",
    "src:geom": "sfomuseum",
    "wof:belongsto": [
      1159160869,
      102527513,
      102191575,
      85633793,
      102087579,
      85922583,
      85688637
    ],
    "wof:country": "US",
    "wof:created": 1370608020,
    "wof:geomhash": "b6e33f47475d56bc8da457bc31afadc8",
    "wof:hierarchy": [
      {
        "building_id": 1159160869,
        "campus_id": 102527513,
        "continent_id": 102191575,
        "country_id": 85633793,
        "county_id": 102087579,
        "custom_id": 1729362671,
        "instagram_id": 1729362671,
        "locality_id": 85922583,
        "neighbourhood_id": -1,
        "region_id": 85688637
      }
    ],
    "wof:id": 1729362671,
    "wof:lastmodified": 1787777647,
    "wof:name": "Figurehead fragment from the Roderick Dhu 1873 came from a ship that made many voyages from England to San Francisco...",
    "wof:parent_id": 1159160869,
    "wof:placetype": "custom",
    "wof:placetype_alt": [
      "instagram"
    ],
    "wof:repo": "sfomuseum-data-socialmedia-instagram",
    "wof:superseded_by": [],
    "wof:supersedes": []
  },
  "bbox": [
    -122.386166,
    37.616356,
    -122.386166,
    37.616356
  ],
  "geometry": {"type":"Point","coordinates":[-122.386166,37.616356]}
}
