{
  "id": 1729355593,
  "type": "Feature",
  "properties": {
    "date:cessation_lower": "2020-02-04",
    "date:cessation_upper": "2020-02-04",
    "date:inception_lower": "2020-02-04",
    "date:inception_upper": "2020-02-04",
    "edtf:cessation": "2020-02-04T05:26:00-08:00",
    "edtf:inception": "2020-02-04T05:26:00-08:00",
    "geom:area": 0,
    "geom:bbox": "-122.386166,37.616356,-122.386166,37.616356",
    "geom:latitude": 37.616356,
    "geom:longitude": -122.386166,
    "instagram:post": {
      "caption": {
        "body": "#Onthisday in 1977, Kenya Airways, the flag carrier of Kenya, commenced operations. The first scheduled flight was service from Nairobi to London via Frankfurt flown on a Boeing 707. The airline’s livery has always featured the three colors of the Kenyan flag; in 2005, a redesigned livery added the slogan, “The Pride of Africa” to their aircraft. Have you ever flown on Kenya Airways?  Image: Kenya Airways postcard, Boeing 720, c. 1980. Gift of George Gayuski. 2001.082.257",
        "excerpt": "#Onthisday in 1977, Kenya Airways, the flag carrier of Kenya, commenced operations.",
        "hashtags": [
          "TravelTuesday",
          "Kenya",
          "Boeing",
          "Africa",
          "Nairobi",
          "postcard",
          "avgeek"
        ],
        "users": []
      },
      "media_id": "189f7d77fdffa0cabb1f3e1c1b65029a",
      "path": "media/other/84348373_1036041316776927_5464836182637315902_n_17997325870304615.jpg",
      "perceptual_hash": "p:d285476baf85323a",
      "taken": 1580822760,
      "taken_at": "Feb 04, 2020 1:26 pm"
    },
    "millsfield:similar": {
      "google/siglip2-so400m-patch16-naflex": [
        {
          "distance": 0.18719929456710815,
          "id": 1729358831
        },
        {
          "distance": 0.19116556644439697,
          "id": 1763559637
        },
        {
          "distance": 0.19238001108169556,
          "id": 1729355783
        },
        {
          "distance": 0.19347399473190308,
          "id": 1729357465
        },
        {
          "distance": 0.20948022603988647,
          "id": 1729357575
        },
        {
          "distance": 0.2096201777458191,
          "id": 1729357043
        },
        {
          "distance": 0.2144012451171875,
          "id": 1729358651
        },
        {
          "distance": 0.21517378091812134,
          "id": 1729359691
        },
        {
          "distance": 0.21588420867919922,
          "id": 1729357769
        },
        {
          "distance": 0.21650177240371704,
          "id": 1729357465
        }
      ]
    },
    "sfomuseum:placetype": "instagram",
    "src:geom": "sfomuseum",
    "wof:belongsto": [
      1159160869,
      102527513,
      102191575,
      85633793,
      102087579,
      85922583,
      85688637
    ],
    "wof:country": "US",
    "wof:created": 1580822760,
    "wof:geomhash": "b6e33f47475d56bc8da457bc31afadc8",
    "wof:hierarchy": [
      {
        "building_id": 1159160869,
        "campus_id": 102527513,
        "continent_id": 102191575,
        "country_id": 85633793,
        "county_id": 102087579,
        "custom_id": 1729355593,
        "instagram_id": 1729355593,
        "locality_id": 85922583,
        "neighbourhood_id": -1,
        "region_id": 85688637
      }
    ],
    "wof:id": 1729355593,
    "wof:lastmodified": 1787777626,
    "wof:name": "#Onthisday in 1977, Kenya Airways, the flag carrier of Kenya, commenced operations...",
    "wof:parent_id": 1159160869,
    "wof:placetype": "custom",
    "wof:placetype_alt": [
      "instagram"
    ],
    "wof:repo": "sfomuseum-data-socialmedia-instagram",
    "wof:superseded_by": [],
    "wof:supersedes": []
  },
  "bbox": [
    -122.386166,
    37.616356,
    -122.386166,
    37.616356
  ],
  "geometry": {"type":"Point","coordinates":[-122.386166,37.616356]}
}
