{
  "id": 1729355479,
  "type": "Feature",
  "properties": {
    "date:cessation_lower": "2020-03-04",
    "date:cessation_upper": "2020-03-04",
    "date:inception_lower": "2020-03-04",
    "date:inception_upper": "2020-03-04",
    "edtf:cessation": "2020-03-04T09:55:00-08:00",
    "edtf:inception": "2020-03-04T09:55:00-08:00",
    "geom:area": 0,
    "geom:bbox": "-122.386166,37.616356,-122.386166,37.616356",
    "geom:latitude": 37.616356,
    "geom:longitude": -122.386166,
    "instagram:post": {
      "caption": {
        "body": "Eldorado (1849), one of the most popular scenic wallpapers created by Zuber et Cie, showcases the continents of Africa, Asia, Europe, and North America through both natural scenery and stunning architectural elements. A deteriorating Egyptian temple depicts Africa; while Asia is represented by the Bosporus River and a building reminiscent of the Hagia Sofia; a fertile staircase overlooking an Italian lake paints a romantic picture of Europe; verdant flora, remote mountains, and a view of the Veracruz region of Mexico represent North America. Can you imagine this beautiful wallpaper in your home? “Zuber: The Art of French Scenic Wallpaper” is on display, pre-security in the International Terminal. http://bit.ly/ZuberScenicWallpaper",
        "excerpt": "Eldorado (1849), one of the most popular scenic wallpapers created by Zuber et Cie, showcases the continents of Africa, Asia, Europe, and North America through both natural scenery and stunning architectural elements.",
        "hashtags": [
          "ZuberScenicWallpaper",
          "wallpaper",
          "zuber",
          "interiordesign",
          "design",
          "wallpaperWednesday"
        ],
        "users": []
      },
      "media_id": "0dab6725da326fbdc4fb094842cc8022",
      "path": "media/posts/202003/89095814_2481991705238210_7439886443411833399_n_18046221358229992.jpg",
      "perceptual_hash": "p:caea25d57cc8b682",
      "taken": 1583344500,
      "taken_at": "Mar 04, 2020 5:55 pm"
    },
    "millsfield:similar": {
      "google/siglip2-so400m-patch16-naflex": [
        {
          "distance": 0.09375548362731934,
          "id": 1729356101
        },
        {
          "distance": 0.13834387063980103,
          "id": 1729356095
        },
        {
          "distance": 0.14016038179397583,
          "id": 1729356101
        },
        {
          "distance": 0.1495363712310791,
          "id": 1729356005
        },
        {
          "distance": 0.15583568811416626,
          "id": 1729355425
        },
        {
          "distance": 0.15834271907806396,
          "id": 1729356085
        },
        {
          "distance": 0.15925943851470947,
          "id": 1729356095
        },
        {
          "distance": 0.15952450037002563,
          "id": 1729356079
        },
        {
          "distance": 0.1646406054496765,
          "id": 1729356087
        },
        {
          "distance": 0.17707198858261108,
          "id": 1729356005
        }
      ]
    },
    "sfomuseum:placetype": "instagram",
    "src:geom": "sfomuseum",
    "wof:belongsto": [
      1159160869,
      102527513,
      102191575,
      85633793,
      102087579,
      85922583,
      85688637
    ],
    "wof:country": "US",
    "wof:created": 1583344500,
    "wof:geomhash": "b6e33f47475d56bc8da457bc31afadc8",
    "wof:hierarchy": [
      {
        "building_id": 1159160869,
        "campus_id": 102527513,
        "continent_id": 102191575,
        "country_id": 85633793,
        "county_id": 102087579,
        "custom_id": 1729355479,
        "instagram_id": 1729355479,
        "locality_id": 85922583,
        "neighbourhood_id": -1,
        "region_id": 85688637
      }
    ],
    "wof:id": 1729355479,
    "wof:lastmodified": 1787777625,
    "wof:name": "Eldorado (1849), one of the most popular scenic wallpapers created by Zuber et Cie, showcases the continents of Africa, Asia, Europe, and North America through both natural scenery and stunning architectural elements...",
    "wof:parent_id": 1159160869,
    "wof:placetype": "custom",
    "wof:placetype_alt": [
      "instagram"
    ],
    "wof:repo": "sfomuseum-data-socialmedia-instagram",
    "wof:superseded_by": [],
    "wof:supersedes": []
  },
  "bbox": [
    -122.386166,
    37.616356,
    -122.386166,
    37.616356
  ],
  "geometry": {"type":"Point","coordinates":[-122.386166,37.616356]}
}
