{
  "id": 1729358765,
  "type": "Feature",
  "properties": {
    "date:cessation_lower": "2018-01-01",
    "date:cessation_upper": "2018-01-01",
    "date:inception_lower": "2018-01-01",
    "date:inception_upper": "2018-01-01",
    "edtf:cessation": "2017-12-31T18:07:00-08:00",
    "edtf:inception": "2017-12-31T18:07:00-08:00",
    "geom:area": 0,
    "geom:bbox": "-122.386166,37.616356,-122.386166,37.616356",
    "geom:latitude": 37.616356,
    "geom:longitude": -122.386166,
    "instagram:post": {
      "caption": {
        "body": "On the last day of 2017, we are ringing in the new year with fireworks! How will you be celebrating?  Image: JAL (Japan Air Lines) poster, Japan, 1976. Gift of Thomas G. Dragges. 2001.135.006",
        "excerpt": "On the last day of 2017, we are ringing in the new year with fireworks!",
        "hashtags": [],
        "users": []
      },
      "media_id": "7f9ef341730e7d339557ceae2ee6afa2",
      "path": "media/other/25015568_941145722712133_7024526193516871680_n_17916213352027324.jpg",
      "perceptual_hash": "p:925e36ed19a61eb0",
      "taken": 1514772420,
      "taken_at": "Jan 01, 2018 2:07 am"
    },
    "millsfield:similar": {
      "google/siglip2-so400m-patch16-naflex": [
        {
          "distance": 0.17671948671340942,
          "id": 1947425137
        },
        {
          "distance": 0.23452836275100708,
          "id": 1947425137
        },
        {
          "distance": 0.25616133213043213,
          "id": 1729355281
        },
        {
          "distance": 0.281613826751709,
          "id": 1729355281
        },
        {
          "distance": 0.30707651376724243,
          "id": 1729358479
        },
        {
          "distance": 0.31586211919784546,
          "id": 1947425095
        },
        {
          "distance": 0.3405059576034546,
          "id": 1729355683
        },
        {
          "distance": 0.34259504079818726,
          "id": 1729360613
        },
        {
          "distance": 0.3514442443847656,
          "id": 1947425117
        },
        {
          "distance": 0.35622841119766235,
          "id": 1880151005
        }
      ]
    },
    "sfomuseum:placetype": "instagram",
    "src:geom": "sfomuseum",
    "wof:belongsto": [
      1159160869,
      102527513,
      102191575,
      85633793,
      102087579,
      85922583,
      85688637
    ],
    "wof:country": "US",
    "wof:created": 1514772420,
    "wof:geomhash": "b6e33f47475d56bc8da457bc31afadc8",
    "wof:hierarchy": [
      {
        "building_id": 1159160869,
        "campus_id": 102527513,
        "continent_id": 102191575,
        "country_id": 85633793,
        "county_id": 102087579,
        "custom_id": 1729358765,
        "instagram_id": 1729358765,
        "locality_id": 85922583,
        "neighbourhood_id": -1,
        "region_id": 85688637
      }
    ],
    "wof:id": 1729358765,
    "wof:lastmodified": 1787777634,
    "wof:name": "On the last day of 2017, we are ringing in the new year with fireworks!..",
    "wof:parent_id": 1159160869,
    "wof:placetype": "custom",
    "wof:placetype_alt": [
      "instagram"
    ],
    "wof:repo": "sfomuseum-data-socialmedia-instagram",
    "wof:superseded_by": [],
    "wof:supersedes": []
  },
  "bbox": [
    -122.386166,
    37.616356,
    -122.386166,
    37.616356
  ],
  "geometry": {"type":"Point","coordinates":[-122.386166,37.616356]}
}
