{
  "id": 1729360855,
  "type": "Feature",
  "properties": {
    "date:cessation_lower": "2016-04-05",
    "date:cessation_upper": "2016-04-05",
    "date:inception_lower": "2016-04-05",
    "date:inception_upper": "2016-04-05",
    "edtf:cessation": "2016-04-05T09:08:00-07:00",
    "edtf:inception": "2016-04-05T09:08:00-07:00",
    "geom:area": 0,
    "geom:bbox": "-122.386166,37.616356,-122.386166,37.616356",
    "geom:latitude": 37.616356,
    "geom:longitude": -122.386166,
    "instagram:post": {
      "caption": {
        "body": "",
        "excerpt": "",
        "hashtags": [
          "TravelTuesday"
        ],
        "users": []
      },
      "media_id": "b01429bf99b8f03bce33ea36d972a7a0",
      "path": "media/other/12950428_1684991638421518_939647646_n_17846455516121584.jpg",
      "perceptual_hash": "p:9b649a93659b9463",
      "taken": 1459872480,
      "taken_at": "Apr 05, 2016 4:08 pm"
    },
    "millsfield:similar": {
      "google/siglip2-so400m-patch16-naflex": [
        {
          "distance": 0.25185734033584595,
          "id": 1729361455
        },
        {
          "distance": 0.2579941749572754,
          "id": 1729361455
        },
        {
          "distance": 0.28098922967910767,
          "id": 1763558689
        },
        {
          "distance": 0.28098922967910767,
          "id": 1729359221
        },
        {
          "distance": 0.2915085554122925,
          "id": 1880151303
        },
        {
          "distance": 0.2955735921859741,
          "id": 1729360029
        },
        {
          "distance": 0.29613733291625977,
          "id": 1729361167
        },
        {
          "distance": 0.30477482080459595,
          "id": 1729359049
        },
        {
          "distance": 0.3084383010864258,
          "id": 1729359227
        },
        {
          "distance": 0.30950987339019775,
          "id": 1729359227
        }
      ]
    },
    "sfomuseum:placetype": "instagram",
    "src:geom": "sfomuseum",
    "wof:belongsto": [
      1159160869,
      102527513,
      102191575,
      85633793,
      102087579,
      85922583,
      85688637
    ],
    "wof:country": "US",
    "wof:created": 1459872480,
    "wof:geomhash": "b6e33f47475d56bc8da457bc31afadc8",
    "wof:hierarchy": [
      {
        "building_id": 1159160869,
        "campus_id": 102527513,
        "continent_id": 102191575,
        "country_id": 85633793,
        "county_id": 102087579,
        "custom_id": 1729360855,
        "instagram_id": 1729360855,
        "locality_id": 85922583,
        "neighbourhood_id": -1,
        "region_id": 85688637
      }
    ],
    "wof:id": 1729360855,
    "wof:lastmodified": 1787777640,
    "wof:name": "..",
    "wof:parent_id": 1159160869,
    "wof:placetype": "custom",
    "wof:placetype_alt": [
      "instagram"
    ],
    "wof:repo": "sfomuseum-data-socialmedia-instagram",
    "wof:superseded_by": [],
    "wof:supersedes": []
  },
  "bbox": [
    -122.386166,
    37.616356,
    -122.386166,
    37.616356
  ],
  "geometry": {"type":"Point","coordinates":[-122.386166,37.616356]}
}
