{
  "id": 1729360835,
  "type": "Feature",
  "properties": {
    "date:cessation_lower": "2016-04-12",
    "date:cessation_upper": "2016-04-12",
    "date:inception_lower": "2016-04-12",
    "date:inception_upper": "2016-04-12",
    "edtf:cessation": "2016-04-12T01:43:00-07:00",
    "edtf:inception": "2016-04-12T01:43:00-07:00",
    "geom:area": 0,
    "geom:bbox": "-122.386166,37.616356,-122.386166,37.616356",
    "geom:latitude": 37.616356,
    "geom:longitude": -122.386166,
    "instagram:post": {
      "caption": {
        "body": "Leather is one of the oldest materials used by man and has long been a valued material in the production of handbags. Exotic leather skins such as snake, crocodile, alligator, ostrich, lizard, and armadillo are not only durable but display striking textures. Victorian and Edwardian era handbags and clutches made from alligator leather emphasize the natural texture and color of the skins, often featuring head and back horns in a range of browns and tans. Some of these antique purses even have heads and claws sewn onto the bags, and coin purses were commonly offered in the form of clawed feet. The popularity of exotic animal skins continued in later decades: In 1953, Sears catalogs offered alligator bags with or without the head and the claws for the price of $16.98 for either style.",
        "excerpt": "Leather is one of the oldest materials used by man and has long been a valued material in the production of handbags.",
        "hashtags": [
          "EssentialPurses"
        ],
        "users": []
      },
      "media_id": "43c0ff50766ac669e81f3eb5e1f12639",
      "path": "media/other/12930826_1761415570811724_1556918732_n_17855681335022565.jpg",
      "perceptual_hash": "p:ff80945ba37ec888",
      "taken": 1460450580,
      "taken_at": "Apr 12, 2016 8:43 am"
    },
    "millsfield:similar": {
      "google/siglip2-so400m-patch16-naflex": [
        {
          "distance": 0.22183763980865479,
          "id": 1729360895
        },
        {
          "distance": 0.27247464656829834,
          "id": 1729360947
        },
        {
          "distance": 0.28890126943588257,
          "id": 1729360895
        },
        {
          "distance": 0.3123828172683716,
          "id": 1729360505
        },
        {
          "distance": 0.3123828172683716,
          "id": 1763558635
        },
        {
          "distance": 0.3256149888038635,
          "id": 1729361011
        },
        {
          "distance": 0.3347620964050293,
          "id": 1729360635
        },
        {
          "distance": 0.3380590081214905,
          "id": 1729359309
        },
        {
          "distance": 0.3424363136291504,
          "id": 1729361849
        },
        {
          "distance": 0.34546446800231934,
          "id": 1729360601
        }
      ]
    },
    "sfomuseum:placetype": "instagram",
    "src:geom": "sfomuseum",
    "wof:belongsto": [
      1159160869,
      102527513,
      102191575,
      85633793,
      102087579,
      85922583,
      85688637
    ],
    "wof:country": "US",
    "wof:created": 1460450580,
    "wof:geomhash": "b6e33f47475d56bc8da457bc31afadc8",
    "wof:hierarchy": [
      {
        "building_id": 1159160869,
        "campus_id": 102527513,
        "continent_id": 102191575,
        "country_id": 85633793,
        "county_id": 102087579,
        "custom_id": 1729360835,
        "instagram_id": 1729360835,
        "locality_id": 85922583,
        "neighbourhood_id": -1,
        "region_id": 85688637
      }
    ],
    "wof:id": 1729360835,
    "wof:lastmodified": 1787777640,
    "wof:name": "Leather is one of the oldest materials used by man and has long been a valued material in the production of handbags...",
    "wof:parent_id": 1159160869,
    "wof:placetype": "custom",
    "wof:placetype_alt": [
      "instagram"
    ],
    "wof:repo": "sfomuseum-data-socialmedia-instagram",
    "wof:superseded_by": [],
    "wof:supersedes": []
  },
  "bbox": [
    -122.386166,
    37.616356,
    -122.386166,
    37.616356
  ],
  "geometry": {"type":"Point","coordinates":[-122.386166,37.616356]}
}
