{
  "id": 1729359385,
  "type": "Feature",
  "properties": {
    "date:cessation_lower": "2017-06-27",
    "date:cessation_upper": "2017-06-27",
    "date:inception_lower": "2017-06-27",
    "date:inception_upper": "2017-06-27",
    "edtf:cessation": "2017-06-27T02:33:00-07:00",
    "edtf:inception": "2017-06-27T02:33:00-07:00",
    "geom:area": 0,
    "geom:bbox": "-122.386166,37.616356,-122.386166,37.616356",
    "geom:latitude": 37.616356,
    "geom:longitude": -122.386166,
    "instagram:post": {
      "caption": {
        "body": "Iraqi Airways was founded in 1945. When Iraqi Airways expanded service to the United States via JFK International Airport in New York in the 1970s, the airline needed a bigger jet to accommodate all their passengers, thus they began to offer service on Boeing 707s. Have you ever flown on Iraqi Airways?  Image:  Iraqi Airways print, 1970s. Gift of the William Hough Collection. 2006.010.485",
        "excerpt": "Iraqi Airways was founded in 1945.",
        "hashtags": [
          "avgeek",
          "aviationhistory",
          "TravelTuesday"
        ],
        "users": []
      },
      "media_id": "178b3a20a45cbc6a1d746e5a26418436",
      "path": "media/posts/201706/19429096_1799787113666711_2410364689084055552_n_17861030041183869.jpg",
      "perceptual_hash": "p:bf2e0ce86860e7c3",
      "taken": 1498555980,
      "taken_at": "Jun 27, 2017 9:33 am"
    },
    "millsfield:similar": {
      "google/siglip2-so400m-patch16-naflex": [
        {
          "distance": 0.20380562543869019,
          "id": 1729357769
        },
        {
          "distance": 0.21134215593338013,
          "id": 1729358231
        },
        {
          "distance": 0.22332924604415894,
          "id": 1763558623
        },
        {
          "distance": 0.22386032342910767,
          "id": 1729358831
        },
        {
          "distance": 0.22628474235534668,
          "id": 1729361039
        },
        {
          "distance": 0.22670745849609375,
          "id": 1729358831
        },
        {
          "distance": 0.22722870111465454,
          "id": 1729357769
        },
        {
          "distance": 0.22889739274978638,
          "id": 1729358651
        },
        {
          "distance": 0.22894930839538574,
          "id": 1729355783
        },
        {
          "distance": 0.22944003343582153,
          "id": 1729357043
        }
      ]
    },
    "sfomuseum:placetype": "instagram",
    "src:geom": "sfomuseum",
    "wof:belongsto": [
      1159160869,
      102527513,
      102191575,
      85633793,
      102087579,
      85922583,
      85688637
    ],
    "wof:country": "US",
    "wof:created": 1498555980,
    "wof:geomhash": "b6e33f47475d56bc8da457bc31afadc8",
    "wof:hierarchy": [
      {
        "building_id": 1159160869,
        "campus_id": 102527513,
        "continent_id": 102191575,
        "country_id": 85633793,
        "county_id": 102087579,
        "custom_id": 1729359385,
        "instagram_id": 1729359385,
        "locality_id": 85922583,
        "neighbourhood_id": -1,
        "region_id": 85688637
      }
    ],
    "wof:id": 1729359385,
    "wof:lastmodified": 1787777635,
    "wof:name": "Iraqi Airways was founded in 1945...",
    "wof:parent_id": 1159160869,
    "wof:placetype": "custom",
    "wof:placetype_alt": [
      "instagram"
    ],
    "wof:repo": "sfomuseum-data-socialmedia-instagram",
    "wof:superseded_by": [],
    "wof:supersedes": []
  },
  "bbox": [
    -122.386166,
    37.616356,
    -122.386166,
    37.616356
  ],
  "geometry": {"type":"Point","coordinates":[-122.386166,37.616356]}
}
