{
  "id": 1729360047,
  "type": "Feature",
  "properties": {
    "date:cessation_lower": "2016-12-05",
    "date:cessation_upper": "2016-12-05",
    "date:inception_lower": "2016-12-05",
    "date:inception_upper": "2016-12-05",
    "edtf:cessation": "2016-12-05T11:40:00-08:00",
    "edtf:inception": "2016-12-05T11:40:00-08:00",
    "geom:area": 0,
    "geom:bbox": "-122.386166,37.616356,-122.386166,37.616356",
    "geom:latitude": 37.616356,
    "geom:longitude": -122.386166,
    "instagram:post": {
      "caption": {
        "body": "This circa 1960 photograph shows several Boeing 707 jetliners in their introduction liveries. Which one is your favorite?",
        "excerpt": "This circa 1960 photograph shows several Boeing 707 jetliners in their introduction liveries.",
        "hashtags": [
          "Boeing",
          "707",
          "Boeing100",
          "1960s",
          "livery",
          "aviationhistory",
          "avgeek"
        ],
        "users": []
      },
      "media_id": "3a56c8df9a759d52fb018cee17646584",
      "path": "media/posts/201612/15337143_1137520166344017_4177455642161709056_n_17856522511097559.jpg",
      "perceptual_hash": "p:89c27e3f9ec0e113",
      "taken": 1480966800,
      "taken_at": "Dec 05, 2016 7:40 pm"
    },
    "millsfield:similar": {
      "google/siglip2-so400m-patch16-naflex": [
        {
          "distance": 0.005197703838348389,
          "id": 1729355795
        },
        {
          "distance": 0.0850786566734314,
          "id": 1729355795
        },
        {
          "distance": 0.16770297288894653,
          "id": 1729359051
        },
        {
          "distance": 0.1752801537513733,
          "id": 1880151167
        },
        {
          "distance": 0.17755645513534546,
          "id": 1729358851
        },
        {
          "distance": 0.1815488338470459,
          "id": 1729357059
        },
        {
          "distance": 0.18281936645507812,
          "id": 1729355165
        },
        {
          "distance": 0.1854320764541626,
          "id": 1729358863
        },
        {
          "distance": 0.18654322624206543,
          "id": 1729358963
        },
        {
          "distance": 0.19029533863067627,
          "id": 1729358437
        }
      ]
    },
    "sfomuseum:placetype": "instagram",
    "src:geom": "sfomuseum",
    "wof:belongsto": [
      1159160869,
      102527513,
      102191575,
      85633793,
      102087579,
      85922583,
      85688637
    ],
    "wof:country": "US",
    "wof:created": 1480966800,
    "wof:geomhash": "b6e33f47475d56bc8da457bc31afadc8",
    "wof:hierarchy": [
      {
        "building_id": 1159160869,
        "campus_id": 102527513,
        "continent_id": 102191575,
        "country_id": 85633793,
        "county_id": 102087579,
        "custom_id": 1729360047,
        "instagram_id": 1729360047,
        "locality_id": 85922583,
        "neighbourhood_id": -1,
        "region_id": 85688637
      }
    ],
    "wof:id": 1729360047,
    "wof:lastmodified": 1787777639,
    "wof:name": "This circa 1960 photograph shows several Boeing 707 jetliners in their introduction liveries...",
    "wof:parent_id": 1159160869,
    "wof:placetype": "custom",
    "wof:placetype_alt": [
      "instagram"
    ],
    "wof:repo": "sfomuseum-data-socialmedia-instagram",
    "wof:superseded_by": [],
    "wof:supersedes": []
  },
  "bbox": [
    -122.386166,
    37.616356,
    -122.386166,
    37.616356
  ],
  "geometry": {"type":"Point","coordinates":[-122.386166,37.616356]}
}
