{
  "id": 1729363057,
  "type": "Feature",
  "properties": {
    "date:cessation_lower": "2012-02-17",
    "date:cessation_upper": "2012-02-17",
    "date:inception_lower": "2012-02-17",
    "date:inception_upper": "2012-02-17",
    "edtf:cessation": "2012-02-17T02:54:00-08:00",
    "edtf:inception": "2012-02-17T02:54:00-08:00",
    "geom:area": 0,
    "geom:bbox": "-122.386166,37.616356,-122.386166,37.616356",
    "geom:latitude": 37.616356,
    "geom:longitude": -122.386166,
    "instagram:post": {
      "caption": {
        "body": "",
        "excerpt": "",
        "hashtags": [
          "CAM2012!"
        ],
        "users": []
      },
      "media_id": "b1213e6299af4df86f168f910f4f69f1",
      "path": "media/other/11186963_1436844543294475_914598342_n_17842245124062499.jpg",
      "perceptual_hash": "p:d1f246cd93b10c37",
      "taken": 1329476040,
      "taken_at": "Feb 17, 2012 10:54 am"
    },
    "millsfield:similar": {
      "google/siglip2-so400m-patch16-naflex": [
        {
          "distance": 0.27057552337646484,
          "id": 1729356449
        },
        {
          "distance": 0.28779053688049316,
          "id": 1729362911
        },
        {
          "distance": 0.28908324241638184,
          "id": 1729362959
        },
        {
          "distance": 0.28992676734924316,
          "id": 1729362535
        },
        {
          "distance": 0.2985761761665344,
          "id": 1729363025
        },
        {
          "distance": 0.30216240882873535,
          "id": 1729362027
        },
        {
          "distance": 0.31153297424316406,
          "id": 1763558601
        },
        {
          "distance": 0.31153297424316406,
          "id": 1729361899
        },
        {
          "distance": 0.3207772374153137,
          "id": 1729361913
        },
        {
          "distance": 0.3233386278152466,
          "id": 1729363025
        }
      ]
    },
    "sfomuseum:placetype": "instagram",
    "src:geom": "sfomuseum",
    "wof:belongsto": [
      1159160869,
      102527513,
      102191575,
      85633793,
      102087579,
      85922583,
      85688637
    ],
    "wof:country": "US",
    "wof:created": 1329476040,
    "wof:geomhash": "b6e33f47475d56bc8da457bc31afadc8",
    "wof:hierarchy": [
      {
        "building_id": 1159160869,
        "campus_id": 102527513,
        "continent_id": 102191575,
        "country_id": 85633793,
        "county_id": 102087579,
        "custom_id": 1729363057,
        "instagram_id": 1729363057,
        "locality_id": 85922583,
        "neighbourhood_id": -1,
        "region_id": 85688637
      }
    ],
    "wof:id": 1729363057,
    "wof:lastmodified": 1787777658,
    "wof:name": "..",
    "wof:parent_id": 1159160869,
    "wof:placetype": "custom",
    "wof:placetype_alt": [
      "instagram"
    ],
    "wof:repo": "sfomuseum-data-socialmedia-instagram",
    "wof:superseded_by": [],
    "wof:supersedes": []
  },
  "bbox": [
    -122.386166,
    37.616356,
    -122.386166,
    37.616356
  ],
  "geometry": {"type":"Point","coordinates":[-122.386166,37.616356]}
}
