{
  "id": 1880151573,
  "type": "Feature",
  "properties": {
    "date:cessation_lower": "2022-07-19",
    "date:cessation_upper": "2022-07-19",
    "date:inception_lower": "2022-07-19",
    "date:inception_upper": "2022-07-19",
    "edtf:cessation": "2022-07-19T03:46:00-07:00",
    "edtf:inception": "2022-07-19T03:46:00-07:00",
    "geom:area": 0,
    "geom:bbox": "-122.386166,37.616356,-122.386166,37.616356",
    "geom:latitude": 37.616356,
    "geom:longitude": -122.386166,
    "instagram:post": {
      "caption": {
        "body": "Norie Sato’s imagery was inspired by our relationship to clouds and flight. Specifically, her work delves into some of flight’s inherent qualities: ephemeral, abstract, pictorial, natural, man-made, symmetrical and changeable. The artwork depicts the dual experience of being under or over clouds when flying in a plane. According to the artist, “Air Over Under is about perception, relativity and how our position and situations are never static.”  The façade installation is comprised of a grid of 120 pieces of laminated glass panels approximately 4’ x 10’ each covering two 16’ x 150’ areas. Produced at Franz Mayer Studios in Munich, Germany, the laminated panels are comprised of one layer of glass with hand-painted glass enamels and another layer that includes a silkscreened pixelated image in white. The combined effect is of a photographic image that, depending on the viewer’s distance or point of view, either looks clear or more abstract and atmospheric. The colors are subtle, and change gradually from blue to green on one side and from blue to purple on the other side.  See “Air Over Under” by Norie Sato on display, pre-security, on the façade of Terminal 2 or online at: https://bit.ly/3gWJCOA",
        "excerpt": "Norie Sato’s imagery was inspired by our relationship to clouds and flight.",
        "hashtags": [
          "PublicArt",
          "NorieSato",
          "womenartists",
          "installationart"
        ],
        "users": [
          "sf_arts_commission",
          "sfac_public_art_collection"
        ]
      },
      "media_id": "e14d42bae10518fd486e90276016a376ee3bdd55",
      "path": "media/posts/202207/294306422_130490029461434_6260998345382039039_n_18021943189392479.jpg",
      "perceptual_hash": "p:84e4707ad4793d9c",
      "taken": 1658227560,
      "taken_at": "Jul 19, 2022 10:46 am"
    },
    "millsfield:similar": {
      "google/siglip2-so400m-patch16-naflex": [
        {
          "distance": 0.14785492420196533,
          "id": 1763559037
        },
        {
          "distance": 0.16437184810638428,
          "id": 1763559057
        },
        {
          "distance": 0.17016780376434326,
          "id": 1763559037
        },
        {
          "distance": 0.1967197060585022,
          "id": 1763559057
        },
        {
          "distance": 0.20422333478927612,
          "id": 1729360983
        },
        {
          "distance": 0.20868593454360962,
          "id": 1763559183
        },
        {
          "distance": 0.21376532316207886,
          "id": 1729356893
        },
        {
          "distance": 0.2193223237991333,
          "id": 1729359011
        },
        {
          "distance": 0.2256128191947937,
          "id": 1729359011
        },
        {
          "distance": 0.2271592617034912,
          "id": 1729355207
        }
      ]
    },
    "sfomuseum:placetype": "instagram",
    "src:geom": "sfomuseum",
    "wof:belongsto": [
      1159160869,
      102527513,
      102191575,
      85633793,
      102087579,
      85922583,
      85688637
    ],
    "wof:country": "US",
    "wof:created": 1658227560,
    "wof:geomhash": "b6e33f47475d56bc8da457bc31afadc8",
    "wof:hierarchy": [
      {
        "building_id": 1159160869,
        "campus_id": 102527513,
        "continent_id": 102191575,
        "country_id": 85633793,
        "county_id": 102087579,
        "custom_id": 1880151573,
        "instagram_id": 1880151573,
        "locality_id": 85922583,
        "neighbourhood_id": -1,
        "region_id": 85688637
      }
    ],
    "wof:id": 1880151573,
    "wof:lastmodified": 1787777662,
    "wof:name": "Norie Sato’s imagery was inspired by our relationship to clouds and flight...",
    "wof:parent_id": 1159160869,
    "wof:placetype": "custom",
    "wof:placetype_alt": [
      "instagram"
    ],
    "wof:repo": "sfomuseum-data-socialmedia-instagram",
    "wof:superseded_by": [],
    "wof:supersedes": []
  },
  "bbox": [
    -122.386166,
    37.616356,
    -122.386166,
    37.616356
  ],
  "geometry": {"type":"Point","coordinates":[-122.386166,37.616356]}
}
