{
  "id": 1729361661,
  "type": "Feature",
  "properties": {
    "date:cessation_lower": "2015-07-29",
    "date:cessation_upper": "2015-07-29",
    "date:inception_lower": "2015-07-29",
    "date:inception_upper": "2015-07-29",
    "edtf:cessation": "2015-07-29T04:57:00-07:00",
    "edtf:inception": "2015-07-29T04:57:00-07:00",
    "geom:area": 0,
    "geom:bbox": "-122.386166,37.616356,-122.386166,37.616356",
    "geom:latitude": 37.616356,
    "geom:longitude": -122.386166,
    "instagram:post": {
      "caption": {
        "body": "Every Beating Sound by Janet Echelman can be found in Terminal 2 Post-Security. It is an amazingly serene piece of #airportart. Thanks for sharing  @architravelust! #repost #regram ・・・ San Francisco airport installation.",
        "excerpt": "Every Beating Sound by Janet Echelman can be found in Terminal 2 Post-Security.",
        "hashtags": [],
        "users": []
      },
      "media_id": "4d59023dbbc1fb34799138cbaff3e6e0",
      "path": "media/other/11358050_653368964762789_1064267870_n_17842057345062499.jpg",
      "perceptual_hash": "p:fb8cc0738d3432cb",
      "taken": 1438171020,
      "taken_at": "Jul 29, 2015 11:57 am"
    },
    "millsfield:similar": {
      "google/siglip2-so400m-patch16-naflex": [
        {
          "distance": 0.17758411169052124,
          "id": 1729362273
        },
        {
          "distance": 0.2019924521446228,
          "id": 1729362851
        },
        {
          "distance": 0.24602091312408447,
          "id": 1729362851
        },
        {
          "distance": 0.25947797298431396,
          "id": 1729362273
        },
        {
          "distance": 0.2797374725341797,
          "id": 1729362995
        },
        {
          "distance": 0.2816160321235657,
          "id": 1729361679
        },
        {
          "distance": 0.29635506868362427,
          "id": 1729361631
        },
        {
          "distance": 0.30269068479537964,
          "id": 1729361591
        },
        {
          "distance": 0.3229954242706299,
          "id": 1729361865
        },
        {
          "distance": 0.3256070613861084,
          "id": 1947424913
        }
      ]
    },
    "sfomuseum:placetype": "instagram",
    "src:geom": "sfomuseum",
    "wof:belongsto": [
      1159160869,
      102527513,
      102191575,
      85633793,
      102087579,
      85922583,
      85688637
    ],
    "wof:country": "US",
    "wof:created": 1438171020,
    "wof:geomhash": "b6e33f47475d56bc8da457bc31afadc8",
    "wof:hierarchy": [
      {
        "building_id": 1159160869,
        "campus_id": 102527513,
        "continent_id": 102191575,
        "country_id": 85633793,
        "county_id": 102087579,
        "custom_id": 1729361661,
        "instagram_id": 1729361661,
        "locality_id": 85922583,
        "neighbourhood_id": -1,
        "region_id": 85688637
      }
    ],
    "wof:id": 1729361661,
    "wof:lastmodified": 1787777646,
    "wof:name": "Every Beating Sound by Janet Echelman can be found in Terminal 2 Post-Security...",
    "wof:parent_id": 1159160869,
    "wof:placetype": "custom",
    "wof:placetype_alt": [
      "instagram"
    ],
    "wof:repo": "sfomuseum-data-socialmedia-instagram",
    "wof:superseded_by": [],
    "wof:supersedes": []
  },
  "bbox": [
    -122.386166,
    37.616356,
    -122.386166,
    37.616356
  ],
  "geometry": {"type":"Point","coordinates":[-122.386166,37.616356]}
}
