{
  "id": 1763559157,
  "type": "Feature",
  "properties": {
    "date:cessation_lower": "2021-05-10",
    "date:cessation_upper": "2021-05-10",
    "date:inception_lower": "2021-05-10",
    "date:inception_upper": "2021-05-10",
    "edtf:cessation": "2021-05-10T09:21:00-07:00",
    "edtf:inception": "2021-05-10T09:21:00-07:00",
    "geom:area": 0,
    "geom:bbox": "-122.386166,37.616356,-122.386166,37.616356",
    "geom:latitude": 37.616356,
    "geom:longitude": -122.386166,
    "instagram:post": {
      "caption": {
        "body": "Excelsior was one of the “Big Three” American motorcycle brands during the 1910s, along with rivals Harley-Davidson and Indian. While their first model used a Thor engine built under license, The Excelsior Motor and Manufacturing Company introduced the Auto-Cycle in 1908, a new design made at their seven-story facility in Chicago. The 3 ¼-horsepower Auto-Cycle was a success and demand quickly surpassed supply.  Bicycle maker Ignaz Schwinn (1860–1948) purchased Excelsior in 1911 and gave the motorcycle division another boost. A factory-backed racing team promoted Excelsior’s road bikes, and in 1912 at the Playa del Rey motordrome near Los Angeles, Lee Humiston (1889–1949) became the first racer—in an automobile or on a motorcycle—to exceed 100 miles-per-hour on a closed-course track. Production of Excelsior motorcycles continued until 1931, when Schwinn refocused on marketing bicycles to a Depression-era public.   “Early American Motorcycles” is on view pre-security in the International Terminal Main Hall and online - link in bio.",
        "excerpt": "Excelsior was one of the “Big Three” American motorcycle brands during the 1910s, along with rivals Harley-Davidson and Indian.",
        "hashtags": [
          "EarlyAmericanMotorcycles",
          "motorcycle",
          "vintagemotorcycle"
        ],
        "users": []
      },
      "media_id": "81bccf15f98a5e9fc6b8e6a1a2cf614193e5b74c",
      "path": "media/posts/202105/183889426_997086681035843_2143956321394647972_n_17928407470561012.jpg",
      "perceptual_hash": "p:809785c07fe19f66",
      "taken": 1620663660,
      "taken_at": "May 10, 2021 4:21 pm"
    },
    "millsfield:similar": {
      "google/siglip2-so400m-patch16-naflex": [
        {
          "distance": 0.1578395962715149,
          "id": 1763559463
        },
        {
          "distance": 0.16599386930465698,
          "id": 1763559205
        },
        {
          "distance": 0.17208081483840942,
          "id": 1763559205
        },
        {
          "distance": 0.1722293496131897,
          "id": 1763559463
        },
        {
          "distance": 0.19636201858520508,
          "id": 1763559245
        },
        {
          "distance": 0.20351970195770264,
          "id": 1763559227
        },
        {
          "distance": 0.20422714948654175,
          "id": 1763559401
        },
        {
          "distance": 0.20501434803009033,
          "id": 1763559401
        },
        {
          "distance": 0.21305209398269653,
          "id": 1763559433
        },
        {
          "distance": 0.21799230575561523,
          "id": 1763559227
        }
      ]
    },
    "sfomuseum:placetype": "instagram",
    "src:geom": "sfomuseum",
    "wof:belongsto": [
      1159160869,
      102527513,
      102191575,
      85633793,
      102087579,
      85922583,
      85688637
    ],
    "wof:country": "US",
    "wof:created": 1620663660,
    "wof:geomhash": "b6e33f47475d56bc8da457bc31afadc8",
    "wof:hierarchy": [
      {
        "building_id": 1159160869,
        "campus_id": 102527513,
        "continent_id": 102191575,
        "country_id": 85633793,
        "county_id": 102087579,
        "custom_id": 1763559157,
        "instagram_id": 1763559157,
        "locality_id": 85922583,
        "neighbourhood_id": -1,
        "region_id": 85688637
      }
    ],
    "wof:id": 1763559157,
    "wof:lastmodified": 1787777660,
    "wof:name": "Excelsior was one of the “Big Three” American motorcycle brands during the 1910s, along with rivals Harley-Davidson and Indian...",
    "wof:parent_id": 1159160869,
    "wof:placetype": "custom",
    "wof:placetype_alt": [
      "instagram"
    ],
    "wof:repo": "sfomuseum-data-socialmedia-instagram",
    "wof:superseded_by": [],
    "wof:supersedes": []
  },
  "bbox": [
    -122.386166,
    37.616356,
    -122.386166,
    37.616356
  ],
  "geometry": {"type":"Point","coordinates":[-122.386166,37.616356]}
}
