{
  "id": 1729360253,
  "type": "Feature",
  "properties": {
    "date:cessation_lower": "2016-10-14",
    "date:cessation_upper": "2016-10-14",
    "date:inception_lower": "2016-10-14",
    "date:inception_upper": "2016-10-14",
    "edtf:cessation": "2016-10-14T11:33:00-07:00",
    "edtf:inception": "2016-10-14T11:33:00-07:00",
    "geom:area": 0,
    "geom:bbox": "-122.386166,37.616356,-122.386166,37.616356",
    "geom:latitude": 37.616356,
    "geom:longitude": -122.386166,
    "instagram:post": {
      "caption": {
        "body": "Delta’s 1969 to 1970 uniform came in three solid pastels, Aquanox Blue, Sunshine Yellow, and the Grenelle Green color of this polyester-knit dress. With accessories and reversible serving smocks, six combinations were possible. The tall huntsman-style hat, by renowned New York milliner Mae Hanauer, fit over a beehive hairdo. It has a “chimney top” and a color-coordinated band.  See more uniforms from Delta Air Lines in \"#FashionInFlight: A History of Airline Uniform Design\", on display, pre-security, in the Aviation Museum and Library and in the Main Hall of the International Terminal. The Aviation Museum and Library is open daily from 10am to 4:30pm. http://bit.ly/fashioninflight #delta #crewlife #uniform #fashion #HarryGilbert  Delta Airlines stewardess uniform  1969 Harry Gilbert of Lady Simpson Hat by Mae Hanauer SFO Museum Hat: Gift of Thomas G. Dragges Dress insignia: Museum purchase Dress and hat insignia: Courtesy of Delta Flight Museum L2016.0301.272, .273, L2016.0305.001-.002 2001.134.043 a, 2009.100.088",
        "excerpt": "Delta’s 1969 to 1970 uniform came in three solid pastels, Aquanox Blue, Sunshine Yellow, and the Grenelle Green color of this polyester-knit dress.",
        "hashtags": [],
        "users": []
      },
      "media_id": "22602975e8703912eaa444577214c10a",
      "path": "media/other/14677245_160986177692483_195406297410043904_n_17873441194025020.jpg",
      "perceptual_hash": "p:9978664bef4648ac",
      "taken": 1476469980,
      "taken_at": "Oct 14, 2016 6:33 pm"
    },
    "millsfield:similar": {
      "google/siglip2-so400m-patch16-naflex": [
        {
          "distance": 0.1378505825996399,
          "id": 1729359743
        },
        {
          "distance": 0.1470099687576294,
          "id": 1729360365
        },
        {
          "distance": 0.155997633934021,
          "id": 1729359113
        },
        {
          "distance": 0.16600942611694336,
          "id": 1729360523
        },
        {
          "distance": 0.17242199182510376,
          "id": 1729357873
        },
        {
          "distance": 0.1749558448791504,
          "id": 1729359743
        },
        {
          "distance": 0.17709845304489136,
          "id": 1729360981
        },
        {
          "distance": 0.17783331871032715,
          "id": 1729360211
        },
        {
          "distance": 0.18042510747909546,
          "id": 1729360551
        },
        {
          "distance": 0.1806618571281433,
          "id": 1729359113
        }
      ]
    },
    "sfomuseum:placetype": "instagram",
    "src:geom": "sfomuseum",
    "wof:belongsto": [
      1159160869,
      102527513,
      102191575,
      85633793,
      102087579,
      85922583,
      85688637
    ],
    "wof:country": "US",
    "wof:created": 1476469980,
    "wof:geomhash": "b6e33f47475d56bc8da457bc31afadc8",
    "wof:hierarchy": [
      {
        "building_id": 1159160869,
        "campus_id": 102527513,
        "continent_id": 102191575,
        "country_id": 85633793,
        "county_id": 102087579,
        "custom_id": 1729360253,
        "instagram_id": 1729360253,
        "locality_id": 85922583,
        "neighbourhood_id": -1,
        "region_id": 85688637
      }
    ],
    "wof:id": 1729360253,
    "wof:lastmodified": 1787777639,
    "wof:name": "Delta’s 1969 to 1970 uniform came in three solid pastels, Aquanox Blue, Sunshine Yellow, and the Grenelle Green color of this polyester-knit dress...",
    "wof:parent_id": 1159160869,
    "wof:placetype": "custom",
    "wof:placetype_alt": [
      "instagram"
    ],
    "wof:repo": "sfomuseum-data-socialmedia-instagram",
    "wof:superseded_by": [],
    "wof:supersedes": []
  },
  "bbox": [
    -122.386166,
    37.616356,
    -122.386166,
    37.616356
  ],
  "geometry": {"type":"Point","coordinates":[-122.386166,37.616356]}
}
