{
  "id": 1729358629,
  "type": "Feature",
  "properties": {
    "date:cessation_lower": "2018-02-01",
    "date:cessation_upper": "2018-02-01",
    "date:inception_lower": "2018-02-01",
    "date:inception_upper": "2018-02-01",
    "edtf:cessation": "2018-02-01T04:10:00-08:00",
    "edtf:inception": "2018-02-01T04:10:00-08:00",
    "geom:area": 0,
    "geom:bbox": "-122.386166,37.616356,-122.386166,37.616356",
    "geom:latitude": 37.616356,
    "geom:longitude": -122.386166,
    "instagram:post": {
      "caption": {
        "body": "Flight attendants from multiple airlines wave at the thousands of visitors below, part of the dedication ceremony for the Central Terminal (now T2) in 1954.  Image: San Francisco International Airport (SFO), Terminal Building, 1954. SFO Museum Collection, 1997.52.054.001",
        "excerpt": "Flight attendants from multiple airlines wave at the thousands of visitors below, part of the dedication ceremony for the Central Terminal (now T2) in 1954.",
        "hashtags": [
          "ThrowbackThursday",
          "avgeek",
          "avationgeek",
          "aviation",
          "aviationhistory",
          "vintageaviation",
          "history",
          "avhistory",
          "aviationgeeks",
          "avgeeks"
        ],
        "users": []
      },
      "media_id": "074b4eb55eb8edaa8d0a8aed0de3c039",
      "path": "media/other/26863299_1706047399457039_8315133315862495232_n_17921267173044075.jpg",
      "perceptual_hash": "p:e3259e5a8d93703c",
      "taken": 1517487000,
      "taken_at": "Feb 01, 2018 12:10 pm"
    },
    "millsfield:similar": {
      "google/siglip2-so400m-patch16-naflex": [
        {
          "distance": 0.17588895559310913,
          "id": 1763559449
        },
        {
          "distance": 0.17669349908828735,
          "id": 1880151675
        },
        {
          "distance": 0.18496400117874146,
          "id": 1729360877
        },
        {
          "distance": 0.18913626670837402,
          "id": 1729358519
        },
        {
          "distance": 0.19056737422943115,
          "id": 1729357593
        },
        {
          "distance": 0.19580477476119995,
          "id": 1729359523
        },
        {
          "distance": 0.19694650173187256,
          "id": 1729358903
        },
        {
          "distance": 0.19723999500274658,
          "id": 1729357513
        },
        {
          "distance": 0.19840127229690552,
          "id": 1729360111
        },
        {
          "distance": 0.20326507091522217,
          "id": 1729360559
        }
      ]
    },
    "sfomuseum:placetype": "instagram",
    "src:geom": "sfomuseum",
    "wof:belongsto": [
      1159160869,
      102527513,
      102191575,
      85633793,
      102087579,
      85922583,
      85688637
    ],
    "wof:country": "US",
    "wof:created": 1517487000,
    "wof:geomhash": "b6e33f47475d56bc8da457bc31afadc8",
    "wof:hierarchy": [
      {
        "building_id": 1159160869,
        "campus_id": 102527513,
        "continent_id": 102191575,
        "country_id": 85633793,
        "county_id": 102087579,
        "custom_id": 1729358629,
        "instagram_id": 1729358629,
        "locality_id": 85922583,
        "neighbourhood_id": -1,
        "region_id": 85688637
      }
    ],
    "wof:id": 1729358629,
    "wof:lastmodified": 1787777634,
    "wof:name": "Flight attendants from multiple airlines wave at the thousands of visitors below, part of the dedication ceremony for the Central Terminal (now T2) in 1954...",
    "wof:parent_id": 1159160869,
    "wof:placetype": "custom",
    "wof:placetype_alt": [
      "instagram"
    ],
    "wof:repo": "sfomuseum-data-socialmedia-instagram",
    "wof:superseded_by": [],
    "wof:supersedes": []
  },
  "bbox": [
    -122.386166,
    37.616356,
    -122.386166,
    37.616356
  ],
  "geometry": {"type":"Point","coordinates":[-122.386166,37.616356]}
}
