{
  "id": 1763558747,
  "type": "Feature",
  "properties": {
    "date:cessation_lower": "2018-08-06",
    "date:cessation_upper": "2018-08-06",
    "date:inception_lower": "2018-08-06",
    "date:inception_upper": "2018-08-06",
    "edtf:cessation": "2018-08-06T09:19:00-07:00",
    "edtf:inception": "2018-08-06T09:19:00-07:00",
    "geom:area": 0,
    "geom:bbox": "-122.386166,37.616356,-122.386166,37.616356",
    "geom:latitude": 37.616356,
    "geom:longitude": -122.386166,
    "instagram:post": {
      "caption": {
        "body": "Whoo HOO! SFO Museum’s move is well underway! Our new shiny collections storage is ready for our objects. This state-of-the-art storage room was constructed with our collection in mind and will house much of our 3D items. Stay tuned for more updates about SFO Museum’s move. ",
        "excerpt": "Whoo HOO!",
        "hashtags": [
          "museummonday",
          "behindthescenes",
          "museumlife"
        ],
        "users": []
      },
      "media_id": "ee19ac0f8f2304dbd20d63610d9f386c6ccc0c00",
      "path": "media/posts/201808/37681725_196429361232165_27382297707675648_n_17859722335274911.jpg",
      "perceptual_hash": "p:e59991621b5e9e46",
      "taken": 1533572340,
      "taken_at": "Aug 06, 2018 4:19 pm"
    },
    "millsfield:similar": {
      "google/siglip2-so400m-patch16-naflex": [
        {
          "distance": 0.00005441904067993164,
          "id": 1729357823
        },
        {
          "distance": 0.06936252117156982,
          "id": 1729357823
        },
        {
          "distance": 0.14584964513778687,
          "id": 1729357313
        },
        {
          "distance": 0.1598818302154541,
          "id": 1729356249
        },
        {
          "distance": 0.16693121194839478,
          "id": 1729357313
        },
        {
          "distance": 0.17107373476028442,
          "id": 1729357819
        },
        {
          "distance": 0.1844867467880249,
          "id": 1729357829
        },
        {
          "distance": 0.1919371485710144,
          "id": 1729358093
        },
        {
          "distance": 0.19196277856826782,
          "id": 1729357819
        },
        {
          "distance": 0.19358974695205688,
          "id": 1729357829
        }
      ]
    },
    "sfomuseum:placetype": "instagram",
    "src:geom": "sfomuseum",
    "wof:belongsto": [
      1159160869,
      102527513,
      102191575,
      85633793,
      102087579,
      85922583,
      85688637
    ],
    "wof:country": "US",
    "wof:created": 1533572340,
    "wof:geomhash": "b6e33f47475d56bc8da457bc31afadc8",
    "wof:hierarchy": [
      {
        "building_id": 1159160869,
        "campus_id": 102527513,
        "continent_id": 102191575,
        "country_id": 85633793,
        "county_id": 102087579,
        "custom_id": 1763558747,
        "instagram_id": 1763558747,
        "locality_id": 85922583,
        "neighbourhood_id": -1,
        "region_id": 85688637
      }
    ],
    "wof:id": 1763558747,
    "wof:lastmodified": 1787777659,
    "wof:name": "Whoo HOO!..",
    "wof:parent_id": 1159160869,
    "wof:placetype": "custom",
    "wof:placetype_alt": [
      "instagram"
    ],
    "wof:repo": "sfomuseum-data-socialmedia-instagram",
    "wof:superseded_by": [],
    "wof:supersedes": []
  },
  "bbox": [
    -122.386166,
    37.616356,
    -122.386166,
    37.616356
  ],
  "geometry": {"type":"Point","coordinates":[-122.386166,37.616356]}
}
