{
  "id": 1729356979,
  "type": "Feature",
  "properties": {
    "date:cessation_lower": "2019-02-07",
    "date:cessation_upper": "2019-02-07",
    "date:inception_lower": "2019-02-07",
    "date:inception_upper": "2019-02-07",
    "edtf:cessation": "2019-02-07T12:04:58-08:00",
    "edtf:inception": "2019-02-07T12:04:58-08:00",
    "geom:area": 0,
    "geom:bbox": "-122.386166,37.616356,-122.386166,37.616356",
    "geom:latitude": 37.616356,
    "geom:longitude": -122.386166,
    "instagram:post": {
      "caption": {
        "body": "The Douglas DC-3 was arguably the most significant commercial airliner introduced before World War II. Conceived by Arthur Raymond, the DC-3 incorporated numerous advancements, including a strong, highly streamlined, all-aluminum, semi-monocoque fuselage, and an ingenious modular, high-aspect-ratio, ultra-strong, low-drag wing design. The aircraft proved aerodynamically superior, highly reliable, easy to maintain, and brought carriers their first profits from passenger service. More than four hundred were initially ordered by major airlines beginning in 1937. By 1940, nearly three million passengers had flown in DC-3s, and they collectively logged over one hundred million miles. By the end of production, over ten thousand commercial and military transport versions had been built.  See \"Aviation Evolutions: The Jim Lund 1:72 Scale Model Airplane Collection\", which features more than 200 models, on display, pre-security, in the Aviation Museum. http://bit.ly/AviationEvolutions",
        "excerpt": "The Douglas DC-3 was arguably the most significant commercial airliner introduced before World War II.",
        "hashtags": [
          "AviationEvolutions",
          "jimlund",
          "avgeek",
          "aviationgeek",
          "aviation",
          "aviationhistory",
          "vintageaviation",
          "history",
          "aviationgeeks",
          "modelplane",
          "scalemodel",
          "avgeeks"
        ],
        "users": []
      },
      "location": "",
      "media_id": "4eb600eed5607234acc578843d6bcc10",
      "path": "photos/201902/4eb600eed5607234acc578843d6bcc10.jpg",
      "perceptual_hash": "p:aa0f5418296fdcf4",
      "taken": 1549541040,
      "taken_at": "Feb 7, 2019, 12:04 PM"
    },
    "millsfield:similar": {
      "google/siglip2-so400m-patch16-naflex": [
        {
          "distance": 0.09422314167022705,
          "id": 1729358009
        },
        {
          "distance": 0.10094887018203735,
          "id": 1763559505
        },
        {
          "distance": 0.11279618740081787,
          "id": 1880151589
        },
        {
          "distance": 0.1153135895729065,
          "id": 1729359361
        },
        {
          "distance": 0.12158393859863281,
          "id": 1729356043
        },
        {
          "distance": 0.12294340133666992,
          "id": 1763559547
        },
        {
          "distance": 0.1382015347480774,
          "id": 1729357145
        },
        {
          "distance": 0.14516586065292358,
          "id": 1729357943
        },
        {
          "distance": 0.15553373098373413,
          "id": 1729357687
        },
        {
          "distance": 0.15767121315002441,
          "id": 1729355569
        }
      ]
    },
    "sfomuseum:placetype": "instagram",
    "src:geom": "sfomuseum",
    "wof:belongsto": [
      1159160869,
      102527513,
      102191575,
      85633793,
      102087579,
      85922583,
      85688637
    ],
    "wof:country": "US",
    "wof:created": 1549569898,
    "wof:geomhash": "b6e33f47475d56bc8da457bc31afadc8",
    "wof:hierarchy": [
      {
        "building_id": 1159160869,
        "campus_id": 102527513,
        "continent_id": 102191575,
        "country_id": 85633793,
        "county_id": 102087579,
        "custom_id": 1729356979,
        "instagram_id": 1729356979,
        "locality_id": 85922583,
        "neighbourhood_id": -1,
        "region_id": 85688637
      }
    ],
    "wof:id": 1729356979,
    "wof:lastmodified": 1787777629,
    "wof:name": "The Douglas DC-3 was arguably the most significant commercial airliner introduced before World War II...",
    "wof:parent_id": 1159160869,
    "wof:placetype": "custom",
    "wof:placetype_alt": [
      "instagram"
    ],
    "wof:repo": "sfomuseum-data-socialmedia-instagram",
    "wof:superseded_by": [],
    "wof:supersedes": []
  },
  "bbox": [
    -122.386166,
    37.616356,
    -122.386166,
    37.616356
  ],
  "geometry": {"type":"Point","coordinates":[-122.386166,37.616356]}
}
