{
  "id": 1763558815,
  "type": "Feature",
  "properties": {
    "date:cessation_lower": "2019-07-08",
    "date:cessation_upper": "2019-07-08",
    "date:inception_lower": "2019-07-08",
    "date:inception_upper": "2019-07-08",
    "edtf:cessation": "2019-07-08T08:52:00-07:00",
    "edtf:inception": "2019-07-08T08:52:00-07:00",
    "geom:area": 0,
    "geom:bbox": "-122.386166,37.616356,-122.386166,37.616356",
    "geom:latitude": 37.616356,
    "geom:longitude": -122.386166,
    "instagram:post": {
      "caption": {
        "body": "The first flight of the Boeing 377 took place #onthisday in 1947. The 377, named the #Stratocruiser, was Boeing's first commercial post-war airliner. Pan American World Airways’ first aircraft was delivered on January 31, 1949. With passenger accommodations for up to 100, depending on the seating configuration, the Boeing 377 Stratocruiser was a fast, pressurized, large capacity airliner. Following its introduction in 1949, brochures and advertisements promoted its exceedingly smooth ride, its large, roomy, upper deck, and, in particular, the Stratocruiser's unique and luxurious lower-deck lounge. Often regarded as \"the queen of the skies,\" the Stratocruiser became a favorite with passengers due in great part to its lounge.  Image: Pan American World Airways, Boeing 377 Stratocruiser, c. 1955. SFO Museum Collection. 1993.12.01 b",
        "excerpt": "The first flight of the Boeing 377 took place #onthisday in 1947.",
        "hashtags": [
          "avgeek",
          "aviationgeek",
          "aviation",
          "aviationhistory",
          "vintageaviation",
          "history",
          "avhistory",
          "aviationgeeks",
          "avgeeks",
          "boeing",
          "boeing377",
          "Stratocruiser"
        ],
        "users": []
      },
      "media_id": "6bdf8d875161fd38e8cbd8adf08e74af14666284",
      "path": "media/other/62553019_108609123648755_6417959103155548582_n_17846468326502258.jpg",
      "perceptual_hash": "p:a1a96f5652c2f878",
      "taken": 1562601120,
      "taken_at": "Jul 08, 2019 3:52 pm"
    },
    "millsfield:similar": {
      "google/siglip2-so400m-patch16-naflex": [
        {
          "distance": 0.011630475521087646,
          "id": 1729356337
        },
        {
          "distance": 0.1295592188835144,
          "id": 1729356337
        },
        {
          "distance": 0.1296970248222351,
          "id": 1729360847
        },
        {
          "distance": 0.16229307651519775,
          "id": 1729358009
        },
        {
          "distance": 0.1658039093017578,
          "id": 1763559547
        },
        {
          "distance": 0.1740754246711731,
          "id": 1729360847
        },
        {
          "distance": 0.1809253692626953,
          "id": 1880151589
        },
        {
          "distance": 0.18480032682418823,
          "id": 1729359361
        },
        {
          "distance": 0.19118130207061768,
          "id": 1729356729
        },
        {
          "distance": 0.19525867700576782,
          "id": 1729355033
        }
      ]
    },
    "sfomuseum:placetype": "instagram",
    "src:geom": "sfomuseum",
    "wof:belongsto": [
      1159160869,
      102527513,
      102191575,
      85633793,
      102087579,
      85922583,
      85688637
    ],
    "wof:country": "US",
    "wof:created": 1562601120,
    "wof:geomhash": "b6e33f47475d56bc8da457bc31afadc8",
    "wof:hierarchy": [
      {
        "building_id": 1159160869,
        "campus_id": 102527513,
        "continent_id": 102191575,
        "country_id": 85633793,
        "county_id": 102087579,
        "custom_id": 1763558815,
        "instagram_id": 1763558815,
        "locality_id": 85922583,
        "neighbourhood_id": -1,
        "region_id": 85688637
      }
    ],
    "wof:id": 1763558815,
    "wof:lastmodified": 1787777659,
    "wof:name": "The first flight of the Boeing 377 took place #onthisday in 1947...",
    "wof:parent_id": 1159160869,
    "wof:placetype": "custom",
    "wof:placetype_alt": [
      "instagram"
    ],
    "wof:repo": "sfomuseum-data-socialmedia-instagram",
    "wof:superseded_by": [],
    "wof:supersedes": []
  },
  "bbox": [
    -122.386166,
    37.616356,
    -122.386166,
    37.616356
  ],
  "geometry": {"type":"Point","coordinates":[-122.386166,37.616356]}
}
