{
  "id": 1947425161,
  "type": "Feature",
  "properties": {
    "date:cessation_lower": "2024-01-22",
    "date:cessation_upper": "2024-01-22",
    "date:inception_lower": "2024-01-22",
    "date:inception_upper": "2024-01-22",
    "edtf:cessation": "2024-01-22T09:09:00-08:00",
    "edtf:inception": "2024-01-22T09:09:00-08:00",
    "geom:area": 0,
    "geom:bbox": "-122.386166,37.616356,-122.386166,37.616356",
    "geom:latitude": 37.616356,
    "geom:longitude": -122.386166,
    "instagram:post": {
      "caption": {
        "body": "Our newest exhibition, “Everyday Elegance in Chinese Ceramics” is now on display! A celebration of Chinese utilitarian ceramics, produced for popular consumption, the exhibition features variety of functional wares from the nineteenth and twentieth centuries from various regions in China.  Special thank you to Sally Yu Leung and Guangzhen Zhou for making this exhibition possible, and to Dr. William Ma, Assistant Professor, College of Art \u0026 Design, Louisiana State University, for his curatorial contributions. See \"Everyday Elegance in Chinese Ceramics\" on \"display, pre-security, in the Mayor Edwin M. Lee International Terminal Departures Hall and online at: https://www.sfomuseum.org/exhibitions/chinese-ceramics",
        "excerpt": "Our newest exhibition, “Everyday Elegance in Chinese Ceramics” is now on display!",
        "hashtags": [
          "ChineseCeramics",
          "China",
          "pottery",
          "ceramics"
        ],
        "users": []
      },
      "media_id": "f90393d5c8eae3e6617d96afdfb4720a0ba76c3c",
      "path": "media/other/420869853_858577856279145_7587588363356606681_n_18017563928020232.jpg",
      "perceptual_hash": "p:ee9995a5c262f492",
      "taken": 1705943340,
      "taken_at": "Jan 22, 2024 5:09 pm"
    },
    "millsfield:similar": {
      "google/siglip2-so400m-patch16-naflex": [
        {
          "distance": 0.29692542552948,
          "id": 1947425047
        },
        {
          "distance": 0.3011360168457031,
          "id": 1729362675
        },
        {
          "distance": 0.32538557052612305,
          "id": 1947424897
        },
        {
          "distance": 0.3374541997909546,
          "id": 1947424879
        },
        {
          "distance": 0.34161651134490967,
          "id": 1729362675
        },
        {
          "distance": 0.3443201780319214,
          "id": 1947424823
        },
        {
          "distance": 0.34684741497039795,
          "id": 1947425047
        },
        {
          "distance": 0.35402143001556396,
          "id": 1947424945
        },
        {
          "distance": 0.36195945739746094,
          "id": 1947424945
        },
        {
          "distance": 0.3636714220046997,
          "id": 1947424823
        }
      ]
    },
    "sfomuseum:placetype": "instagram",
    "src:geom": "sfomuseum",
    "wof:belongsto": [
      1159160869,
      102527513,
      102191575,
      85633793,
      102087579,
      85922583,
      85688637
    ],
    "wof:country": "US",
    "wof:created": 1705943340,
    "wof:geomhash": "b6e33f47475d56bc8da457bc31afadc8",
    "wof:hierarchy": [
      {
        "building_id": 1159160869,
        "campus_id": 102527513,
        "continent_id": 102191575,
        "country_id": 85633793,
        "county_id": 102087579,
        "custom_id": 1947425161,
        "locality_id": 85922583,
        "neighbourhood_id": -1,
        "region_id": 85688637
      }
    ],
    "wof:id": 1947425161,
    "wof:lastmodified": 1787777664,
    "wof:name": "Our newest exhibition, “Everyday Elegance in Chinese Ceramics” is now on display!..",
    "wof:parent_id": 1159160869,
    "wof:placetype": "custom",
    "wof:repo": "sfomuseum-data-socialmedia-instagram",
    "wof:superseded_by": [],
    "wof:supersedes": []
  },
  "bbox": [
    -122.386166,
    37.616356,
    -122.386166,
    37.616356
  ],
  "geometry": {"type":"Point","coordinates":[-122.386166,37.616356]}
}
