{
  "id": 1729362011,
  "type": "Feature",
  "properties": {
    "date:cessation_lower": "2014-12-09",
    "date:cessation_upper": "2014-12-09",
    "date:inception_lower": "2014-12-09",
    "date:inception_upper": "2014-12-09",
    "edtf:cessation": "2014-12-09T06:03:00-08:00",
    "edtf:inception": "2014-12-09T06:03:00-08:00",
    "geom:area": 0,
    "geom:bbox": "-122.386166,37.616356,-122.386166,37.616356",
    "geom:latitude": 37.616356,
    "geom:longitude": -122.386166,
    "instagram:post": {
      "caption": {
        "body": "So this is what a years worth of brochures look like! 😳",
        "excerpt": "So this is what a years worth of brochures look like!",
        "hashtags": [],
        "users": []
      },
      "media_id": "0139ed020851fb55d3a55b7cb0dafe8f",
      "path": "media/other/10838868_412793068871976_455165822_n_17842501450062499.jpg",
      "perceptual_hash": "p:d0b1393b664e28de",
      "taken": 1418133780,
      "taken_at": "Dec 09, 2014 2:03 pm"
    },
    "millsfield:similar": {
      "google/siglip2-so400m-patch16-naflex": [
        {
          "distance": 0.2965129017829895,
          "id": 1729361859
        },
        {
          "distance": 0.3059634566307068,
          "id": 1729362371
        },
        {
          "distance": 0.3136816620826721,
          "id": 1729363055
        },
        {
          "distance": 0.31373846530914307,
          "id": 1729362115
        },
        {
          "distance": 0.32025134563446045,
          "id": 1729362581
        },
        {
          "distance": 0.325373113155365,
          "id": 1729362799
        },
        {
          "distance": 0.3289217948913574,
          "id": 1729361885
        },
        {
          "distance": 0.3311924934387207,
          "id": 1729360333
        },
        {
          "distance": 0.3330247402191162,
          "id": 1729360333
        },
        {
          "distance": 0.3333714008331299,
          "id": 1729362799
        }
      ]
    },
    "sfomuseum:placetype": "instagram",
    "src:geom": "sfomuseum",
    "wof:belongsto": [
      1159160869,
      102527513,
      102191575,
      85633793,
      102087579,
      85922583,
      85688637
    ],
    "wof:country": "US",
    "wof:created": 1418133780,
    "wof:geomhash": "b6e33f47475d56bc8da457bc31afadc8",
    "wof:hierarchy": [
      {
        "building_id": 1159160869,
        "campus_id": 102527513,
        "continent_id": 102191575,
        "country_id": 85633793,
        "county_id": 102087579,
        "custom_id": 1729362011,
        "instagram_id": 1729362011,
        "locality_id": 85922583,
        "neighbourhood_id": -1,
        "region_id": 85688637
      }
    ],
    "wof:id": 1729362011,
    "wof:lastmodified": 1787777646,
    "wof:name": "So this is what a years worth of brochures look like!..",
    "wof:parent_id": 1159160869,
    "wof:placetype": "custom",
    "wof:placetype_alt": [
      "instagram"
    ],
    "wof:repo": "sfomuseum-data-socialmedia-instagram",
    "wof:superseded_by": [],
    "wof:supersedes": []
  },
  "bbox": [
    -122.386166,
    37.616356,
    -122.386166,
    37.616356
  ],
  "geometry": {"type":"Point","coordinates":[-122.386166,37.616356]}
}
