{
  "id": 1729355285,
  "type": "Feature",
  "properties": {
    "date:cessation_lower": "2020-05-04",
    "date:cessation_upper": "2020-05-04",
    "date:inception_lower": "2020-05-04",
    "date:inception_upper": "2020-05-04",
    "edtf:cessation": "2020-05-04T13:17:13-07:00",
    "edtf:inception": "2020-05-04T13:17:13-07:00",
    "geom:area": 0,
    "geom:bbox": "-122.386166,37.616356,-122.386166,37.616356",
    "geom:latitude": 37.616356,
    "geom:longitude": -122.386166,
    "instagram:post": {
      "caption": {
        "body": "Happy #BirdDay from our public art collection! The work featured here is by the artists Bob Zoell, Walter Kitundu, Hung Liu, and Rupert Garcia. Check out our website for locations and more information: https://bit.ly/2ygLHCx",
        "excerpt": "Happy #BirdDay from our public art collection!",
        "hashtags": [],
        "users": []
      },
      "location": "",
      "media_id": "097a68e2bc59ea49bfbbb1458f1be967",
      "path": "photos/202005/097a68e2bc59ea49bfbbb1458f1be967.jpg",
      "perceptual_hash": "p:b8e60d9d43da43b4",
      "taken": 1588594620,
      "taken_at": "May 4, 2020, 12:17 PM"
    },
    "millsfield:similar": {
      "google/siglip2-so400m-patch16-naflex": [
        {
          "distance": 0.1531347632408142,
          "id": 1763559493
        },
        {
          "distance": 0.1533663272857666,
          "id": 1729362763
        },
        {
          "distance": 0.18087029457092285,
          "id": 1763559493
        },
        {
          "distance": 0.18951153755187988,
          "id": 1729362763
        },
        {
          "distance": 0.1922338604927063,
          "id": 1729359429
        },
        {
          "distance": 0.2172827124595642,
          "id": 1729357871
        },
        {
          "distance": 0.22139716148376465,
          "id": 1729355701
        },
        {
          "distance": 0.22963273525238037,
          "id": 1947425089
        },
        {
          "distance": 0.2428833246231079,
          "id": 1880151053
        },
        {
          "distance": 0.2474503517150879,
          "id": 1880150959
        }
      ]
    },
    "sfomuseum:placetype": "instagram",
    "src:geom": "sfomuseum",
    "wof:belongsto": [
      1159160869,
      102527513,
      102191575,
      85633793,
      102087579,
      85922583,
      85688637
    ],
    "wof:country": "US",
    "wof:created": 1588623433,
    "wof:geomhash": "b6e33f47475d56bc8da457bc31afadc8",
    "wof:hierarchy": [
      {
        "building_id": 1159160869,
        "campus_id": 102527513,
        "continent_id": 102191575,
        "country_id": 85633793,
        "county_id": 102087579,
        "custom_id": 1729355285,
        "instagram_id": 1729355285,
        "locality_id": 85922583,
        "neighbourhood_id": -1,
        "region_id": 85688637
      }
    ],
    "wof:id": 1729355285,
    "wof:lastmodified": 1787777622,
    "wof:name": "Happy #BirdDay from our public art collection!..",
    "wof:parent_id": 1159160869,
    "wof:placetype": "custom",
    "wof:placetype_alt": [
      "instagram"
    ],
    "wof:repo": "sfomuseum-data-socialmedia-instagram",
    "wof:superseded_by": [],
    "wof:supersedes": []
  },
  "bbox": [
    -122.386166,
    37.616356,
    -122.386166,
    37.616356
  ],
  "geometry": {"type":"Point","coordinates":[-122.386166,37.616356]}
}
