{
  "id": 1880150971,
  "type": "Feature",
  "properties": {
    "date:cessation_lower": "2023-04-18",
    "date:cessation_upper": "2023-04-18",
    "date:inception_lower": "2023-04-18",
    "date:inception_upper": "2023-04-18",
    "edtf:cessation": "2023-04-18T09:20:00-07:00",
    "edtf:inception": "2023-04-18T09:20:00-07:00",
    "geom:area": 0,
    "geom:bbox": "-122.386166,37.616356,-122.386166,37.616356",
    "geom:latitude": 37.616356,
    "geom:longitude": -122.386166,
    "instagram:post": {
      "caption": {
        "body": "Annabelle Lopez Ochoa was selected as one of twelve choreographers to create a thirty-minute ballet for San Francisco Ballet’s 𝘜𝘯𝘣𝘰𝘶𝘯𝘥: 𝘈 𝘍𝘦𝘴𝘵𝘪𝘷𝘢𝘭 𝘰𝘧 𝘕𝘦𝘸 𝘞𝘰𝘳𝘬𝘴 (2018). For her first San Francisco Ballet commission, 𝘎𝘶𝘦𝘳𝘯𝘪𝘤𝘢, Lopez Ochoa drew inspiration from painter Pablo Picasso (1881–1973), particularly 𝘎𝘶𝘦𝘳𝘯𝘪𝘤𝘢 (1937), which he painted in response to the devastating bombing of the Basque town Guernica during the Spanish Civil War.  In her choreography, Lopez Ochoa sought to answer the question “How do you put cubism into movement?” She created cubist effects by arranging dancers into poses, so that the brain appears to see four heads and only two legs. The four principal dancers appear on stage as four embodiments of a person, sometimes separate, sometimes in pairs, or as a foursome.   Lopez Ochoa’s ballet also encompasses flamenco dance and bullfighting. The four principal dancers wear bull horns; the bull symbolizes violence and power—aggressor and victim.  Special thank you to San Francisco Ballet for making this exhibition possible. See “San Francisco Ballet at 90” on display, pre-security, in the International Terminal and online at: https://bit.ly/SFBalletAt90",
        "excerpt": "Annabelle Lopez Ochoa was selected as one of twelve choreographers to create a thirty-minute ballet for San Francisco Ballet’s 𝘜𝘯𝘣𝘰𝘶𝘯𝘥: 𝘈 𝘍𝘦𝘴𝘵𝘪𝘷𝘢𝘭 𝘰𝘧 𝘕𝘦𝘸 𝘞𝘰𝘳𝘬𝘴 (2018).",
        "hashtags": [
          "SFBalletAt90",
          "Ballet",
          "choreography"
        ],
        "users": [
          "SFBallet"
        ]
      },
      "media_id": "509533c45a3de80980adb2fd38d9cf6ec5fd1f74",
      "path": "media/posts/202304/341679547_789106352636438_2755645782180472904_n_17985841225953671.jpg",
      "perceptual_hash": "p:de89a0a6db99a466",
      "taken": 1681834800,
      "taken_at": "Apr 18, 2023 4:20 pm"
    },
    "millsfield:similar": {
      "google/siglip2-so400m-patch16-naflex": [
        {
          "distance": 0.07192063331604004,
          "id": 1880150937
        },
        {
          "distance": 0.10649937391281128,
          "id": 1880150937
        },
        {
          "distance": 0.16715365648269653,
          "id": 1947425219
        },
        {
          "distance": 0.16876232624053955,
          "id": 1947425307
        },
        {
          "distance": 0.18819236755371094,
          "id": 1880150907
        },
        {
          "distance": 0.19315391778945923,
          "id": 1947425219
        },
        {
          "distance": 0.20850872993469238,
          "id": 1947425307
        },
        {
          "distance": 0.20890527963638306,
          "id": 1880150907
        },
        {
          "distance": 0.22573792934417725,
          "id": 1947425261
        },
        {
          "distance": 0.23061662912368774,
          "id": 1880150997
        }
      ]
    },
    "sfomuseum:placetype": "instagram",
    "src:geom": "sfomuseum",
    "wof:belongsto": [
      1159160869,
      102527513,
      102191575,
      85633793,
      102087579,
      85922583,
      85688637
    ],
    "wof:country": "US",
    "wof:created": 1681834800,
    "wof:geomhash": "b6e33f47475d56bc8da457bc31afadc8",
    "wof:hierarchy": [
      {
        "building_id": 1159160869,
        "campus_id": 102527513,
        "continent_id": 102191575,
        "country_id": 85633793,
        "county_id": 102087579,
        "custom_id": 1880150971,
        "instagram_id": 1880150971,
        "locality_id": 85922583,
        "neighbourhood_id": -1,
        "region_id": 85688637
      }
    ],
    "wof:id": 1880150971,
    "wof:lastmodified": 1787777661,
    "wof:name": "Annabelle Lopez Ochoa was selected as one of twelve choreographers to create a thirty-minute ballet for San Francisco Ballet’s 𝘜𝘯𝘣𝘰𝘶𝘯𝘥: 𝘈 𝘍𝘦𝘴𝘵𝘪𝘷𝘢𝘭 𝘰𝘧 𝘕𝘦𝘸 𝘞𝘰𝘳𝘬𝘴 (2018)...",
    "wof:parent_id": 1159160869,
    "wof:placetype": "custom",
    "wof:placetype_alt": [
      "instagram"
    ],
    "wof:repo": "sfomuseum-data-socialmedia-instagram",
    "wof:superseded_by": [],
    "wof:supersedes": []
  },
  "bbox": [
    -122.386166,
    37.616356,
    -122.386166,
    37.616356
  ],
  "geometry": {"type":"Point","coordinates":[-122.386166,37.616356]}
}
