{
  "id": 1729359443,
  "type": "Feature",
  "properties": {
    "date:cessation_lower": "2017-06-05",
    "date:cessation_upper": "2017-06-05",
    "date:inception_lower": "2017-06-05",
    "date:inception_upper": "2017-06-05",
    "edtf:cessation": "2017-06-05T02:49:00-07:00",
    "edtf:inception": "2017-06-05T02:49:00-07:00",
    "geom:area": 0,
    "geom:bbox": "-122.386166,37.616356,-122.386166,37.616356",
    "geom:latitude": 37.616356,
    "geom:longitude": -122.386166,
    "instagram:post": {
      "caption": {
        "body": "#Onthisday in 1934, Pan American Airways received its first Sikorsky S-42. Its inaugural flight, commanded by Captain Edwin C. Musick, began in Miami, Florida, on August 16, followed the Latin America route, and arrived in Rio de Janiero on August 18, where it was christened the Brazilian Clipper by Darci Lima Sarmanho Vargas, the wife of Brazilian President Getúlio Dornelles Vargas.  Image: John T. McCoy, Pan American World Airways painting, Sikorsky S-42, 1962. Gift of Pan Am Historical Foundation. 2003.058.004 . . .",
        "excerpt": "#Onthisday in 1934, Pan American Airways received its first Sikorsky S-42.",
        "hashtags": [
          "avgeek",
          "aviationhistory",
          "panam",
          "panagra",
          "sikorsky",
          "flyingboat",
          "chinaclipper",
          "florida",
          "miami",
          "rio",
          "brazil"
        ],
        "users": []
      },
      "media_id": "b1c4161247aa4c7579bb7a3004e50f0b",
      "path": "media/posts/201706/18879497_127577614487695_3969574006650044416_n_17870772817119983.jpg",
      "perceptual_hash": "p:86fddfa0c080379e",
      "taken": 1496656140,
      "taken_at": "Jun 05, 2017 9:49 am"
    },
    "millsfield:similar": {
      "google/siglip2-so400m-patch16-naflex": [
        {
          "distance": 0.20296001434326172,
          "id": 1729361605
        },
        {
          "distance": 0.205274760723114,
          "id": 1729360207
        },
        {
          "distance": 0.21508407592773438,
          "id": 1880151263
        },
        {
          "distance": 0.23403286933898926,
          "id": 1763558983
        },
        {
          "distance": 0.24152731895446777,
          "id": 1947425309
        },
        {
          "distance": 0.24162298440933228,
          "id": 1880150943
        },
        {
          "distance": 0.24203401803970337,
          "id": 1729360091
        },
        {
          "distance": 0.24285221099853516,
          "id": 1729357437
        },
        {
          "distance": 0.246118426322937,
          "id": 1729358627
        },
        {
          "distance": 0.246118426322937,
          "id": 1763558723
        }
      ]
    },
    "sfomuseum:placetype": "instagram",
    "src:geom": "sfomuseum",
    "wof:belongsto": [
      1159160869,
      102527513,
      102191575,
      85633793,
      102087579,
      85922583,
      85688637
    ],
    "wof:country": "US",
    "wof:created": 1496656140,
    "wof:geomhash": "b6e33f47475d56bc8da457bc31afadc8",
    "wof:hierarchy": [
      {
        "building_id": 1159160869,
        "campus_id": 102527513,
        "continent_id": 102191575,
        "country_id": 85633793,
        "county_id": 102087579,
        "custom_id": 1729359443,
        "instagram_id": 1729359443,
        "locality_id": 85922583,
        "neighbourhood_id": -1,
        "region_id": 85688637
      }
    ],
    "wof:id": 1729359443,
    "wof:lastmodified": 1787777635,
    "wof:name": "#Onthisday in 1934, Pan American Airways received its first Sikorsky S-42...",
    "wof:parent_id": 1159160869,
    "wof:placetype": "custom",
    "wof:placetype_alt": [
      "instagram"
    ],
    "wof:repo": "sfomuseum-data-socialmedia-instagram",
    "wof:superseded_by": [],
    "wof:supersedes": []
  },
  "bbox": [
    -122.386166,
    37.616356,
    -122.386166,
    37.616356
  ],
  "geometry": {"type":"Point","coordinates":[-122.386166,37.616356]}
}
