{
  "id": 1729362833,
  "type": "Feature",
  "properties": {
    "date:cessation_lower": "2012-12-19",
    "date:cessation_upper": "2012-12-19",
    "date:inception_lower": "2012-12-19",
    "date:inception_upper": "2012-12-19",
    "edtf:cessation": "2012-12-19T08:18:00-08:00",
    "edtf:inception": "2012-12-19T08:18:00-08:00",
    "geom:area": 0,
    "geom:bbox": "-122.386166,37.616356,-122.386166,37.616356",
    "geom:latitude": 37.616356,
    "geom:longitude": -122.386166,
    "instagram:post": {
      "caption": {
        "body": "Oakland's William Wong moved to China in the 1930s to help jumpstart Chinese aviation. Learn more (\u0026 see his photos) at the Aviation Museum!",
        "excerpt": "Oakland's William Wong moved to China in the 1930s to help jumpstart Chinese aviation.",
        "hashtags": [],
        "users": []
      },
      "media_id": "cba4d76a887d03fd0625bf0a5da0a929",
      "path": "media/other/11236214_685805404880246_1672063145_n_17842288174062499.jpg",
      "perceptual_hash": "p:83650b274e6ae4cf",
      "taken": 1355933880,
      "taken_at": "Dec 19, 2012 4:18 pm"
    },
    "millsfield:similar": {
      "google/siglip2-so400m-patch16-naflex": [
        {
          "distance": 0.24273991584777832,
          "id": 1729362899
        },
        {
          "distance": 0.2693578600883484,
          "id": 1729362795
        },
        {
          "distance": 0.2807753086090088,
          "id": 1729362899
        },
        {
          "distance": 0.2845659852027893,
          "id": 1729362793
        },
        {
          "distance": 0.2909064292907715,
          "id": 1729362761
        },
        {
          "distance": 0.2924593687057495,
          "id": 1729362795
        },
        {
          "distance": 0.2925909161567688,
          "id": 1729362919
        },
        {
          "distance": 0.29466789960861206,
          "id": 1729362709
        },
        {
          "distance": 0.2998085618019104,
          "id": 1729361495
        },
        {
          "distance": 0.31646788120269775,
          "id": 1729362761
        }
      ]
    },
    "sfomuseum:placetype": "instagram",
    "src:geom": "sfomuseum",
    "wof:belongsto": [
      1159160869,
      102527513,
      102191575,
      85633793,
      102087579,
      85922583,
      85688637
    ],
    "wof:country": "US",
    "wof:created": 1355933880,
    "wof:geomhash": "b6e33f47475d56bc8da457bc31afadc8",
    "wof:hierarchy": [
      {
        "building_id": 1159160869,
        "campus_id": 102527513,
        "continent_id": 102191575,
        "country_id": 85633793,
        "county_id": 102087579,
        "custom_id": 1729362833,
        "instagram_id": 1729362833,
        "locality_id": 85922583,
        "neighbourhood_id": -1,
        "region_id": 85688637
      }
    ],
    "wof:id": 1729362833,
    "wof:lastmodified": 1787777649,
    "wof:name": "Oakland's William Wong moved to China in the 1930s to help jumpstart Chinese aviation...",
    "wof:parent_id": 1159160869,
    "wof:placetype": "custom",
    "wof:placetype_alt": [
      "instagram"
    ],
    "wof:repo": "sfomuseum-data-socialmedia-instagram",
    "wof:superseded_by": [],
    "wof:supersedes": []
  },
  "bbox": [
    -122.386166,
    37.616356,
    -122.386166,
    37.616356
  ],
  "geometry": {"type":"Point","coordinates":[-122.386166,37.616356]}
}
