{
  "id": 1763559087,
  "type": "Feature",
  "properties": {
    "date:cessation_lower": "2021-06-28",
    "date:cessation_upper": "2021-06-28",
    "date:inception_lower": "2021-06-28",
    "date:inception_upper": "2021-06-28",
    "edtf:cessation": "2021-06-28T08:45:00-07:00",
    "edtf:inception": "2021-06-28T08:45:00-07:00",
    "geom:area": 0,
    "geom:bbox": "-122.386166,37.616356,-122.386166,37.616356",
    "geom:latitude": 37.616356,
    "geom:longitude": -122.386166,
    "instagram:post": {
      "caption": {
        "body": "Galvanized by an atmosphere of protest and possibility, pioneering artist, filmmaker, and blues musician Mike Henderson left Marshall, Missouri, to attend @sfaiofficial where he received his MFA in 1970. That same year, Henderson began exploring abstraction, which would become the primary visual language of his work.  To create \"Parallel Portions,\" Henderson applied vibrant hues of purple and blue in multiple layers, building them up into a luscious impasto and scraping them off with a palette knife to reveal glimpses of color below. Like the syncopated beat of a song, the painting’s contrasting hues, textures, and patterns come together to form a harmonious whole. With its strikingly juxtaposed bands of color, the painting upholds the possibility of living side-by-side in a celebration of our differences.  \"Parallel Portions\" by Mike Henderson is on view post-security in Harvey Milk Terminal 1.",
        "excerpt": "Galvanized by an atmosphere of protest and possibility, pioneering artist, filmmaker, and blues musician Mike Henderson left Marshall, Missouri, to attend @sfaiofficial where he received his MFA in 1970.",
        "hashtags": [
          "PublicArt",
          "SFAC",
          "painting",
          "abstractpainting",
          "bayareaartist"
        ],
        "users": []
      },
      "media_id": "ded6ad5de9d21f10eead864771305b606b7516d1",
      "path": "media/posts/202106/210102465_398294884878197_988027803351907918_n_17924435569660487.jpg",
      "perceptual_hash": "p:80a976c6b1d3dc99",
      "taken": 1624895100,
      "taken_at": "Jun 28, 2021 3:45 pm"
    },
    "millsfield:similar": {
      "google/siglip2-so400m-patch16-naflex": [
        {
          "distance": 0.15329480171203613,
          "id": 1880151137
        },
        {
          "distance": 0.19579094648361206,
          "id": 1729359425
        },
        {
          "distance": 0.20001673698425293,
          "id": 1729360131
        },
        {
          "distance": 0.21891915798187256,
          "id": 1880151131
        },
        {
          "distance": 0.22029650211334229,
          "id": 1880151205
        },
        {
          "distance": 0.2208980917930603,
          "id": 1729357895
        },
        {
          "distance": 0.22612518072128296,
          "id": 1880151091
        },
        {
          "distance": 0.24376219511032104,
          "id": 1729356553
        },
        {
          "distance": 0.24861657619476318,
          "id": 1729356549
        },
        {
          "distance": 0.2573966383934021,
          "id": 1729355137
        }
      ]
    },
    "sfomuseum:placetype": "instagram",
    "src:geom": "sfomuseum",
    "wof:belongsto": [
      1159160869,
      102527513,
      102191575,
      85633793,
      102087579,
      85922583,
      85688637
    ],
    "wof:country": "US",
    "wof:created": 1624895100,
    "wof:geomhash": "b6e33f47475d56bc8da457bc31afadc8",
    "wof:hierarchy": [
      {
        "building_id": 1159160869,
        "campus_id": 102527513,
        "continent_id": 102191575,
        "country_id": 85633793,
        "county_id": 102087579,
        "custom_id": 1763559087,
        "instagram_id": 1763559087,
        "locality_id": 85922583,
        "neighbourhood_id": -1,
        "region_id": 85688637
      }
    ],
    "wof:id": 1763559087,
    "wof:lastmodified": 1787777660,
    "wof:name": "Galvanized by an atmosphere of protest and possibility, pioneering artist, filmmaker, and blues musician Mike Henderson left Marshall, Missouri, to attend @sfaiofficial where he received his MFA in 1970...",
    "wof:parent_id": 1159160869,
    "wof:placetype": "custom",
    "wof:placetype_alt": [
      "instagram"
    ],
    "wof:repo": "sfomuseum-data-socialmedia-instagram",
    "wof:superseded_by": [],
    "wof:supersedes": []
  },
  "bbox": [
    -122.386166,
    37.616356,
    -122.386166,
    37.616356
  ],
  "geometry": {"type":"Point","coordinates":[-122.386166,37.616356]}
}
