{
  "id": 1729357705,
  "type": "Feature",
  "properties": {
    "date:cessation_lower": "2018-09-06",
    "date:cessation_upper": "2018-09-06",
    "date:inception_lower": "2018-09-06",
    "date:inception_upper": "2018-09-06",
    "edtf:cessation": "2018-09-06T09:46:00-07:00",
    "edtf:inception": "2018-09-06T09:46:00-07:00",
    "geom:area": 0,
    "geom:bbox": "-122.386166,37.616356,-122.386166,37.616356",
    "geom:latitude": 37.616356,
    "geom:longitude": -122.386166,
    "instagram:post": {
      "caption": {
        "body": "Richard E. Byrd was a famous aviator who explored the North and South Poles in the early 20th century. He was reportedly the first person to fly over the North and South Poles, though the former claim is disputed. His trips to Antarctica were widely reported on and documented, including the famous flight over the South Pole. \"With Byrd at the South Pole,\" was released in 1930, documenting the 14 months Byrd and his crew spent in the Antarctic. As a result of his accomplishments, the United States Navy promoted him to the rank of Rear Admiral; he was nicknamed the Admiral of the Antarctic.  Richard Evelyn Byrd film production, portrait of Admiral Richard Evelyn Byrd c. 1930 SFO Museum Collection 2007.077.017.044",
        "excerpt": "Richard E. Byrd was a famous aviator who explored the North and South Poles in the early 20th century.",
        "hashtags": [],
        "users": []
      },
      "media_id": "9a201ce0ed65f04ab345e68b86a68ddf",
      "path": "media/other/40470295_230432971151110_1992099565648212520_n_17903716117235635.jpg",
      "perceptual_hash": "p:b8edf060b0a693b6",
      "taken": 1536252360,
      "taken_at": "Sep 06, 2018 4:46 pm"
    },
    "millsfield:similar": {
      "google/siglip2-so400m-patch16-naflex": [
        {
          "distance": 0.1407577395439148,
          "id": 1729360403
        },
        {
          "distance": 0.15291374921798706,
          "id": 1729360403
        },
        {
          "distance": 0.19595223665237427,
          "id": 1763559661
        },
        {
          "distance": 0.20658445358276367,
          "id": 1729357903
        },
        {
          "distance": 0.21180731058120728,
          "id": 1729357903
        },
        {
          "distance": 0.22616088390350342,
          "id": 1763559661
        },
        {
          "distance": 0.23170053958892822,
          "id": 1729357001
        },
        {
          "distance": 0.23730909824371338,
          "id": 1729357331
        },
        {
          "distance": 0.23894095420837402,
          "id": 1729357331
        },
        {
          "distance": 0.2427074909210205,
          "id": 1729357001
        }
      ]
    },
    "sfomuseum:placetype": "instagram",
    "src:geom": "sfomuseum",
    "wof:belongsto": [
      1159160869,
      102527513,
      102191575,
      85633793,
      102087579,
      85922583,
      85688637
    ],
    "wof:country": "US",
    "wof:created": 1536252360,
    "wof:geomhash": "b6e33f47475d56bc8da457bc31afadc8",
    "wof:hierarchy": [
      {
        "building_id": 1159160869,
        "campus_id": 102527513,
        "continent_id": 102191575,
        "country_id": 85633793,
        "county_id": 102087579,
        "custom_id": 1729357705,
        "instagram_id": 1729357705,
        "locality_id": 85922583,
        "neighbourhood_id": -1,
        "region_id": 85688637
      }
    ],
    "wof:id": 1729357705,
    "wof:lastmodified": 1787777632,
    "wof:name": "Richard E. Byrd was a famous aviator who explored the North and South Poles in the early 20th century...",
    "wof:parent_id": 1159160869,
    "wof:placetype": "custom",
    "wof:placetype_alt": [
      "instagram"
    ],
    "wof:repo": "sfomuseum-data-socialmedia-instagram",
    "wof:superseded_by": [],
    "wof:supersedes": []
  },
  "bbox": [
    -122.386166,
    37.616356,
    -122.386166,
    37.616356
  ],
  "geometry": {"type":"Point","coordinates":[-122.386166,37.616356]}
}
