{
  "id": 1729361105,
  "type": "Feature",
  "properties": {
    "date:cessation_lower": "2016-02-01",
    "date:cessation_upper": "2016-02-01",
    "date:inception_lower": "2016-02-01",
    "date:inception_upper": "2016-02-01",
    "edtf:cessation": "2016-02-01T02:10:00-08:00",
    "edtf:inception": "2016-02-01T02:10:00-08:00",
    "geom:area": 0,
    "geom:bbox": "-122.386166,37.616356,-122.386166,37.616356",
    "geom:latitude": 37.616356,
    "geom:longitude": -122.386166,
    "instagram:post": {
      "caption": {
        "body": "",
        "excerpt": "",
        "hashtags": [
          "TheNationsGame",
          "SuperBowl50",
          "SB50"
        ],
        "users": [
          "49ers"
        ]
      },
      "media_id": "b75a794372e9ea0e9d8c12b7e814654c",
      "path": "media/other/12558501_1519634938332677_1929410359_n_17852718493063500.jpg",
      "perceptual_hash": "p:d8b313d83ec3190f",
      "taken": 1454321400,
      "taken_at": "Feb 01, 2016 10:10 am"
    },
    "millsfield:similar": {
      "google/siglip2-so400m-patch16-naflex": [
        {
          "distance": 0.1727999448776245,
          "id": 1729361139
        },
        {
          "distance": 0.17807012796401978,
          "id": 1729361139
        },
        {
          "distance": 0.19890350103378296,
          "id": 1729361417
        },
        {
          "distance": 0.21377986669540405,
          "id": 1729361083
        },
        {
          "distance": 0.2142377495765686,
          "id": 1729361201
        },
        {
          "distance": 0.21502995491027832,
          "id": 1729361089
        },
        {
          "distance": 0.21571630239486694,
          "id": 1729361089
        },
        {
          "distance": 0.2203141450881958,
          "id": 1729361201
        },
        {
          "distance": 0.22158515453338623,
          "id": 1729361269
        },
        {
          "distance": 0.22189539670944214,
          "id": 1729361417
        }
      ]
    },
    "sfomuseum:placetype": "instagram",
    "src:geom": "sfomuseum",
    "wof:belongsto": [
      1159160869,
      102527513,
      102191575,
      85633793,
      102087579,
      85922583,
      85688637
    ],
    "wof:country": "US",
    "wof:created": 1454321400,
    "wof:geomhash": "b6e33f47475d56bc8da457bc31afadc8",
    "wof:hierarchy": [
      {
        "building_id": 1159160869,
        "campus_id": 102527513,
        "continent_id": 102191575,
        "country_id": 85633793,
        "county_id": 102087579,
        "custom_id": 1729361105,
        "instagram_id": 1729361105,
        "locality_id": 85922583,
        "neighbourhood_id": -1,
        "region_id": 85688637
      }
    ],
    "wof:id": 1729361105,
    "wof:lastmodified": 1787777644,
    "wof:name": "..",
    "wof:parent_id": 1159160869,
    "wof:placetype": "custom",
    "wof:placetype_alt": [
      "instagram"
    ],
    "wof:repo": "sfomuseum-data-socialmedia-instagram",
    "wof:superseded_by": [],
    "wof:supersedes": []
  },
  "bbox": [
    -122.386166,
    37.616356,
    -122.386166,
    37.616356
  ],
  "geometry": {"type":"Point","coordinates":[-122.386166,37.616356]}
}
