{
  "id": 1947424789,
  "type": "Feature",
  "properties": {
    "date:cessation_lower": "2024-11-19",
    "date:cessation_upper": "2024-11-19",
    "date:inception_lower": "2024-11-19",
    "date:inception_upper": "2024-11-19",
    "edtf:cessation": "2024-11-19T08:11:00-08:00",
    "edtf:inception": "2024-11-19T08:11:00-08:00",
    "geom:area": 0,
    "geom:bbox": "-122.386166,37.616356,-122.386166,37.616356",
    "geom:latitude": 37.616356,
    "geom:longitude": -122.386166,
    "instagram:post": {
      "caption": {
        "body": "Our newest exhibition “Schools for the Colored” by Wendel A. White, delves into the legacy of racial segregation in America’s educational system. This powerful photography project is an extension of White's earlier work, “Small Towns, Black Lives,” and continues his exploration of the African American landscape.   See “Schools for the Colored” by Wendel A. White, on display in the Ruth Kadish Gallery located in the post-security connector between Terminal 2 and Terminal 3 and online at: https://bit.ly/3CCzf0y",
        "excerpt": "Our newest exhibition “Schools for the Colored” by Wendel A.",
        "hashtags": [
          "WendelAWhite"
        ],
        "users": []
      },
      "media_id": "a045cffc883f321ba4739b2cf33c487b42623ae2",
      "path": "media/posts/202411/467662155_1083166820486913_7113422167657585857_n_18022112102617081.jpg",
      "perceptual_hash": "p:e4cc9931c68e7947",
      "taken": 1732032660,
      "taken_at": "Nov 19, 2024 4:11 pm"
    },
    "millsfield:similar": {
      "google/siglip2-so400m-patch16-naflex": [
        {
          "distance": 0.2551521062850952,
          "id": 1729358233
        },
        {
          "distance": 0.2551521062850952,
          "id": 1763558729
        },
        {
          "distance": 0.27812808752059937,
          "id": 1729356191
        },
        {
          "distance": 0.2797815203666687,
          "id": 1729356549
        },
        {
          "distance": 0.2845895290374756,
          "id": 1729356549
        },
        {
          "distance": 0.2896314263343811,
          "id": 1729360057
        },
        {
          "distance": 0.2897118330001831,
          "id": 1729356955
        },
        {
          "distance": 0.2899439334869385,
          "id": 1729357097
        },
        {
          "distance": 0.2943239212036133,
          "id": 1729357545
        },
        {
          "distance": 0.30266261100769043,
          "id": 1729356933
        }
      ]
    },
    "sfomuseum:placetype": "instagram",
    "src:geom": "sfomuseum",
    "wof:belongsto": [
      1159160869,
      102527513,
      102191575,
      85633793,
      102087579,
      85922583,
      85688637
    ],
    "wof:country": "US",
    "wof:created": 1732032660,
    "wof:geomhash": "b6e33f47475d56bc8da457bc31afadc8",
    "wof:hierarchy": [
      {
        "building_id": 1159160869,
        "campus_id": 102527513,
        "continent_id": 102191575,
        "country_id": 85633793,
        "county_id": 102087579,
        "custom_id": 1947424789,
        "locality_id": 85922583,
        "neighbourhood_id": -1,
        "region_id": 85688637
      }
    ],
    "wof:id": 1947424789,
    "wof:lastmodified": 1787777663,
    "wof:name": "Our newest exhibition “Schools for the Colored” by Wendel A...",
    "wof:parent_id": 1159160869,
    "wof:placetype": "custom",
    "wof:repo": "sfomuseum-data-socialmedia-instagram",
    "wof:superseded_by": [],
    "wof:supersedes": []
  },
  "bbox": [
    -122.386166,
    37.616356,
    -122.386166,
    37.616356
  ],
  "geometry": {"type":"Point","coordinates":[-122.386166,37.616356]}
}
