{
  "id": 1729356539,
  "type": "Feature",
  "properties": {
    "date:cessation_lower": "2019-05-22",
    "date:cessation_upper": "2019-05-22",
    "date:inception_lower": "2019-05-22",
    "date:inception_upper": "2019-05-22",
    "edtf:cessation": "2019-05-22T10:00:00-07:00",
    "edtf:inception": "2019-05-22T10:00:00-07:00",
    "geom:area": 0,
    "geom:bbox": "-122.386166,37.616356,-122.386166,37.616356",
    "geom:latitude": 37.616356,
    "geom:longitude": -122.386166,
    "instagram:post": {
      "caption": {
        "body": "Animals, both mythical and real, have appeared in fine and decorative arts and architecture for centuries. In addition to serving as decoration, they have also conveyed a wealth of symbolism. The griffin has the body and tail of a lion and the head and wings of an eagle. It may be grouped with other fantastical beasts such as the dragon, phoenix, and sphinx. Historically, griffins symbolized royalty and served as protectors of the dead. The griffin also keeps a watchful eye, while evoking strength, courage, vigilance, and perseverance. Griffin sculptures frequently appear in medieval-era church architecture. This ebonized pedestal, in the form of a robust, dramatic griffin commands attention and would have certainly competed with any sculpture placed upon it. “The Style of Display: Victorian Pedestals” is on display pre-security in the International Terminal. http://bit.ly/VictorianPedestals",
        "excerpt": "Animals, both mythical and real, have appeared in fine and decorative arts and architecture for centuries.",
        "hashtags": [
          "VictorianPedestals",
          "victorian",
          "pedestals",
          "victorianfurniture",
          "victoriana",
          "design",
          "decorativeart",
          "interiorstyle",
          "griffin"
        ],
        "users": []
      },
      "location": "",
      "media_id": "c0737d54978e4fd1d047126ad74527e9",
      "path": "photos/201905/c0737d54978e4fd1d047126ad74527e9.jpg",
      "perceptual_hash": "p:b31b4c16cc18cbcf",
      "taken": 1558515600,
      "taken_at": "May 22, 2019, 9:00 AM"
    },
    "millsfield:similar": {
      "google/siglip2-so400m-patch16-naflex": [
        {
          "distance": 0.07550978660583496,
          "id": 1729356551
        },
        {
          "distance": 0.16385143995285034,
          "id": 1729356551
        },
        {
          "distance": 0.1950359344482422,
          "id": 1729356457
        },
        {
          "distance": 0.1961205005645752,
          "id": 1729355835
        },
        {
          "distance": 0.1991627812385559,
          "id": 1729356469
        },
        {
          "distance": 0.20400112867355347,
          "id": 1729356465
        },
        {
          "distance": 0.22068405151367188,
          "id": 1729356321
        },
        {
          "distance": 0.22194886207580566,
          "id": 1729355771
        },
        {
          "distance": 0.23423612117767334,
          "id": 1729356323
        },
        {
          "distance": 0.23490005731582642,
          "id": 1729355825
        }
      ]
    },
    "sfomuseum:placetype": "instagram",
    "src:geom": "sfomuseum",
    "wof:belongsto": [
      1159160869,
      102527513,
      102191575,
      85633793,
      102087579,
      85922583,
      85688637
    ],
    "wof:country": "US",
    "wof:created": 1558544400,
    "wof:geomhash": "b6e33f47475d56bc8da457bc31afadc8",
    "wof:hierarchy": [
      {
        "building_id": 1159160869,
        "campus_id": 102527513,
        "continent_id": 102191575,
        "country_id": 85633793,
        "county_id": 102087579,
        "custom_id": 1729356539,
        "instagram_id": 1729356539,
        "locality_id": 85922583,
        "neighbourhood_id": -1,
        "region_id": 85688637
      }
    ],
    "wof:id": 1729356539,
    "wof:lastmodified": 1787777629,
    "wof:name": "Animals, both mythical and real, have appeared in fine and decorative arts and architecture for centuries...",
    "wof:parent_id": 1159160869,
    "wof:placetype": "custom",
    "wof:placetype_alt": [
      "instagram"
    ],
    "wof:repo": "sfomuseum-data-socialmedia-instagram",
    "wof:superseded_by": [],
    "wof:supersedes": []
  },
  "bbox": [
    -122.386166,
    37.616356,
    -122.386166,
    37.616356
  ],
  "geometry": {"type":"Point","coordinates":[-122.386166,37.616356]}
}
