{
  "id": 1729361571,
  "type": "Feature",
  "properties": {
    "date:cessation_lower": "2015-08-31",
    "date:cessation_upper": "2015-08-31",
    "date:inception_lower": "2015-08-31",
    "date:inception_upper": "2015-08-31",
    "edtf:cessation": "2015-08-31T02:18:00-07:00",
    "edtf:inception": "2015-08-31T02:18:00-07:00",
    "geom:area": 0,
    "geom:bbox": "-122.386166,37.616356,-122.386166,37.616356",
    "geom:latitude": 37.616356,
    "geom:longitude": -122.386166,
    "instagram:post": {
      "caption": {
        "body": "The new pre-security connector between Terminal 2 \u0026 Terminal 3 at SFO opens tomorrow to the public featuring our new photography exhibit, On Approach by Cris Benton. Benton, a retired UC Berkeley professor, uses a kite-lofted camera to create amazing aerial photographic documentation of the South Bay's salt ponds. Benton’s On Approach allows us to leave our earthly bonds and see the salt ponds from a fresh perspective—a portrait of ecological transformation and resilience.",
        "excerpt": "The new pre-security connector between Terminal 2 \u0026 Terminal 3 at SFO opens tomorrow to the public featuring our new photography exhibit, On Approach by Cris Benton.",
        "hashtags": [],
        "users": []
      },
      "media_id": "21adb5760b2842f8ea19ff659696272a",
      "path": "media/other/11257761_499599496873374_1319919654_n_17843081776062499.jpg",
      "perceptual_hash": "p:af1ad0e5c1a02bde",
      "taken": 1441012680,
      "taken_at": "Aug 31, 2015 9:18 am"
    },
    "millsfield:similar": {
      "google/siglip2-so400m-patch16-naflex": [
        {
          "distance": 0.1374925971031189,
          "id": 1729361393
        },
        {
          "distance": 0.1637798547744751,
          "id": 1729361393
        },
        {
          "distance": 0.2986726760864258,
          "id": 1729362075
        },
        {
          "distance": 0.3186172842979431,
          "id": 1729357603
        },
        {
          "distance": 0.3287357687950134,
          "id": 1729358265
        },
        {
          "distance": 0.3295630216598511,
          "id": 1729359363
        },
        {
          "distance": 0.3296496868133545,
          "id": 1729355379
        },
        {
          "distance": 0.3325187563896179,
          "id": 1729355383
        },
        {
          "distance": 0.3330073356628418,
          "id": 1729357603
        },
        {
          "distance": 0.3346169590950012,
          "id": 1729357415
        }
      ]
    },
    "sfomuseum:placetype": "instagram",
    "src:geom": "sfomuseum",
    "wof:belongsto": [
      1159160869,
      102527513,
      102191575,
      85633793,
      102087579,
      85922583,
      85688637
    ],
    "wof:country": "US",
    "wof:created": 1441012680,
    "wof:geomhash": "b6e33f47475d56bc8da457bc31afadc8",
    "wof:hierarchy": [
      {
        "building_id": 1159160869,
        "campus_id": 102527513,
        "continent_id": 102191575,
        "country_id": 85633793,
        "county_id": 102087579,
        "custom_id": 1729361571,
        "instagram_id": 1729361571,
        "locality_id": 85922583,
        "neighbourhood_id": -1,
        "region_id": 85688637
      }
    ],
    "wof:id": 1729361571,
    "wof:lastmodified": 1787777646,
    "wof:name": "The new pre-security connector between Terminal 2 \u0026 Terminal 3 at SFO opens tomorrow to the public featuring our new photography exhibit, On Approach by Cris Benton...",
    "wof:parent_id": 1159160869,
    "wof:placetype": "custom",
    "wof:placetype_alt": [
      "instagram"
    ],
    "wof:repo": "sfomuseum-data-socialmedia-instagram",
    "wof:superseded_by": [],
    "wof:supersedes": []
  },
  "bbox": [
    -122.386166,
    37.616356,
    -122.386166,
    37.616356
  ],
  "geometry": {"type":"Point","coordinates":[-122.386166,37.616356]}
}
