{
  "id": 1729362455,
  "type": "Feature",
  "properties": {
    "date:cessation_lower": "2013-12-06",
    "date:cessation_upper": "2013-12-06",
    "date:inception_lower": "2013-12-06",
    "date:inception_upper": "2013-12-06",
    "edtf:cessation": "2013-12-06T08:31:00-08:00",
    "edtf:inception": "2013-12-06T08:31:00-08:00",
    "geom:area": 0,
    "geom:bbox": "-122.386166,37.616356,-122.386166,37.616356",
    "geom:latitude": 37.616356,
    "geom:longitude": -122.386166,
    "instagram:post": {
      "caption": {
        "body": "Mariners who set sail for months or even years before seeing his family again might acquire a variety of mementos for his wife or sweetheart. Carved nautilus shells such as this one from New Caledonia were popular souvenirs for sailors.",
        "excerpt": "Mariners who set sail for months or even years before seeing his family again might acquire a variety of mementos for his wife or sweetheart.",
        "hashtags": [],
        "users": []
      },
      "media_id": "1d0823125cf62dab50f81bce6686dd60",
      "path": "media/other/1389135_614207891949297_950757404_n_17842381840062499.jpg",
      "perceptual_hash": "p:914e6e3b2d7c3270",
      "taken": 1386347460,
      "taken_at": "Dec 06, 2013 4:31 pm"
    },
    "millsfield:similar": {
      "google/siglip2-so400m-patch16-naflex": [
        {
          "distance": 0.2895886301994324,
          "id": 1729357081
        },
        {
          "distance": 0.3151717185974121,
          "id": 1729356775
        },
        {
          "distance": 0.3221856355667114,
          "id": 1729357081
        },
        {
          "distance": 0.3449767827987671,
          "id": 1729361515
        },
        {
          "distance": 0.3483010530471802,
          "id": 1729361757
        },
        {
          "distance": 0.35177624225616455,
          "id": 1729361369
        },
        {
          "distance": 0.3536657691001892,
          "id": 1729356665
        },
        {
          "distance": 0.354794979095459,
          "id": 1729356197
        },
        {
          "distance": 0.3566240072250366,
          "id": 1729361689
        },
        {
          "distance": 0.35893648862838745,
          "id": 1729356283
        }
      ]
    },
    "sfomuseum:placetype": "instagram",
    "src:geom": "sfomuseum",
    "wof:belongsto": [
      1159160869,
      102527513,
      102191575,
      85633793,
      102087579,
      85922583,
      85688637
    ],
    "wof:country": "US",
    "wof:created": 1386347460,
    "wof:geomhash": "b6e33f47475d56bc8da457bc31afadc8",
    "wof:hierarchy": [
      {
        "building_id": 1159160869,
        "campus_id": 102527513,
        "continent_id": 102191575,
        "country_id": 85633793,
        "county_id": 102087579,
        "custom_id": 1729362455,
        "instagram_id": 1729362455,
        "locality_id": 85922583,
        "neighbourhood_id": -1,
        "region_id": 85688637
      }
    ],
    "wof:id": 1729362455,
    "wof:lastmodified": 1787777647,
    "wof:name": "Mariners who set sail for months or even years before seeing his family again might acquire a variety of mementos for his wife or sweetheart...",
    "wof:parent_id": 1159160869,
    "wof:placetype": "custom",
    "wof:placetype_alt": [
      "instagram"
    ],
    "wof:repo": "sfomuseum-data-socialmedia-instagram",
    "wof:superseded_by": [],
    "wof:supersedes": []
  },
  "bbox": [
    -122.386166,
    37.616356,
    -122.386166,
    37.616356
  ],
  "geometry": {"type":"Point","coordinates":[-122.386166,37.616356]}
}
