{
  "id": 1729358593,
  "type": "Feature",
  "properties": {
    "date:cessation_lower": "2018-02-05",
    "date:cessation_upper": "2018-02-05",
    "date:inception_lower": "2018-02-05",
    "date:inception_upper": "2018-02-05",
    "edtf:cessation": "2018-02-05T09:40:00-08:00",
    "edtf:inception": "2018-02-05T09:40:00-08:00",
    "geom:area": 0,
    "geom:bbox": "-122.386166,37.616356,-122.386166,37.616356",
    "geom:latitude": 37.616356,
    "geom:longitude": -122.386166,
    "instagram:post": {
      "caption": {
        "body": "Fraternal organizations thrived in America in the nineteenth century. One of the prevalent groups, the Independent Order of Odd Fellows, provided camaraderie, engaged in various charitable causes, and encouraged the strengthening of moral character among members. Members also decorated lodges with emblematic pieces, such as plaques and mirrors. The all-seeing eye is a common symbol to the Independent Order of Odd Fellows.  Plaque courtesy of the collection of Ian Berke. See \"#AmericanFolkArt: An Enduring Legacy\", on display, pre-security, in the International Terminal. http://bit.ly/AmericanFolkArt",
        "excerpt": "Fraternal organizations thrived in America in the nineteenth century.",
        "hashtags": [
          "AmericanFolkArt",
          "folkart",
          "OddFellows",
          "allseeingeye",
          "19thcentury",
          "american",
          "history",
          "americana",
          "folkartfun",
          "antique",
          "vintage",
          "antiquefolkart",
          "vintagefolkart",
          "design",
          "folkartdesign",
          "folkarts",
          "folkartantiques",
          "folkartantique"
        ],
        "users": []
      },
      "media_id": "58ea49d95acc8b1a5b828d99f026a9ef",
      "path": "media/other/26867331_1628239533898269_3866329963586125824_n_17914414960077195.jpg",
      "perceptual_hash": "p:b9c8c6669b99a436",
      "taken": 1517852400,
      "taken_at": "Feb 05, 2018 5:40 pm"
    },
    "millsfield:similar": {
      "google/siglip2-so400m-patch16-naflex": [
        {
          "distance": 0.3348116874694824,
          "id": 1729361759
        },
        {
          "distance": 0.3886075019836426,
          "id": 1729358591
        },
        {
          "distance": 0.3967416286468506,
          "id": 1880150945
        },
        {
          "distance": 0.39849263429641724,
          "id": 1947425007
        },
        {
          "distance": 0.3986417055130005,
          "id": 1729361849
        },
        {
          "distance": 0.3994830846786499,
          "id": 1729355387
        },
        {
          "distance": 0.40011048316955566,
          "id": 1729358723
        },
        {
          "distance": 0.40131688117980957,
          "id": 1729358759
        },
        {
          "distance": 0.40237492322921753,
          "id": 1729360601
        },
        {
          "distance": 0.40470248460769653,
          "id": 1729358357
        }
      ]
    },
    "sfomuseum:placetype": "instagram",
    "src:geom": "sfomuseum",
    "wof:belongsto": [
      1159160869,
      102527513,
      102191575,
      85633793,
      102087579,
      85922583,
      85688637
    ],
    "wof:country": "US",
    "wof:created": 1517852400,
    "wof:geomhash": "b6e33f47475d56bc8da457bc31afadc8",
    "wof:hierarchy": [
      {
        "building_id": 1159160869,
        "campus_id": 102527513,
        "continent_id": 102191575,
        "country_id": 85633793,
        "county_id": 102087579,
        "custom_id": 1729358593,
        "instagram_id": 1729358593,
        "locality_id": 85922583,
        "neighbourhood_id": -1,
        "region_id": 85688637
      }
    ],
    "wof:id": 1729358593,
    "wof:lastmodified": 1787777634,
    "wof:name": "Fraternal organizations thrived in America in the nineteenth century...",
    "wof:parent_id": 1159160869,
    "wof:placetype": "custom",
    "wof:placetype_alt": [
      "instagram"
    ],
    "wof:repo": "sfomuseum-data-socialmedia-instagram",
    "wof:superseded_by": [],
    "wof:supersedes": []
  },
  "bbox": [
    -122.386166,
    37.616356,
    -122.386166,
    37.616356
  ],
  "geometry": {"type":"Point","coordinates":[-122.386166,37.616356]}
}
