{
  "id": 1729358207,
  "type": "Feature",
  "properties": {
    "date:cessation_lower": "2018-05-23",
    "date:cessation_upper": "2018-05-23",
    "date:inception_lower": "2018-05-23",
    "date:inception_upper": "2018-05-23",
    "edtf:cessation": "2018-05-23T15:20:00-07:00",
    "edtf:inception": "2018-05-23T15:20:00-07:00",
    "geom:area": 0,
    "geom:bbox": "-122.386166,37.616356,-122.386166,37.616356",
    "geom:latitude": 37.616356,
    "geom:longitude": -122.386166,
    "instagram:post": {
      "caption": {
        "body": "Armed with a new sense of patriotism following the Revolutionary War, farmers and settlers produced a variety of uniquely American weathervanes. Many farmers depicted domestic animals—cows, pigs, and roosters, horses and dogs. People living near the coast often featured fish and other nautical imagery on weathervanes. A belief around depicting Native Americans on weathervanes was that doing so would bring good luck. During the 1920s, the use of weathervanes declined with the advent of the radio (check out our exhibition on those, too!) and commercial weather forecasts. Have you ever seen a weathervane like this one?  Weathervane courtesy of the collection of the Landis Valley Village and Farm Museum, Pennsylvania Historical and Museum Commission. See \"#AmericanFolkArt: An Enduring Legacy\", on display, pre-security, in the International Terminal. http://bit.ly/AmericanFolkArt",
        "excerpt": "Armed with a new sense of patriotism following the Revolutionary War, farmers and settlers produced a variety of uniquely American weathervanes.",
        "hashtags": [
          "AmericanFolkArt",
          "folkart",
          "weathervane",
          "nativeamerican",
          "native",
          "history",
          "americana",
          "antique",
          "vintage",
          "design",
          "folkart",
          "PennsylvaniaGerman"
        ],
        "users": []
      },
      "media_id": "2e554e319f95eb72c3928f0a0d92f172",
      "path": "media/other/32307777_256159824941752_261671260465922048_n_17875094467228592.jpg",
      "perceptual_hash": "p:e1cb3692394dcc6c",
      "taken": 1527114000,
      "taken_at": "May 23, 2018 10:20 pm"
    },
    "millsfield:similar": {
      "google/siglip2-so400m-patch16-naflex": [
        {
          "distance": 0.2900126576423645,
          "id": 1729358759
        },
        {
          "distance": 0.32291215658187866,
          "id": 1729358723
        },
        {
          "distance": 0.34165817499160767,
          "id": 1729358491
        },
        {
          "distance": 0.3513380289077759,
          "id": 1729358759
        },
        {
          "distance": 0.352738618850708,
          "id": 1947425007
        },
        {
          "distance": 0.35355937480926514,
          "id": 1729362347
        },
        {
          "distance": 0.3584572672843933,
          "id": 1947424939
        },
        {
          "distance": 0.3589605689048767,
          "id": 1729362671
        },
        {
          "distance": 0.3598688840866089,
          "id": 1729358277
        },
        {
          "distance": 0.3709394335746765,
          "id": 1947424975
        }
      ]
    },
    "sfomuseum:placetype": "instagram",
    "src:geom": "sfomuseum",
    "wof:belongsto": [
      1159160869,
      102527513,
      102191575,
      85633793,
      102087579,
      85922583,
      85688637
    ],
    "wof:country": "US",
    "wof:created": 1527114000,
    "wof:geomhash": "b6e33f47475d56bc8da457bc31afadc8",
    "wof:hierarchy": [
      {
        "building_id": 1159160869,
        "campus_id": 102527513,
        "continent_id": 102191575,
        "country_id": 85633793,
        "county_id": 102087579,
        "custom_id": 1729358207,
        "instagram_id": 1729358207,
        "locality_id": 85922583,
        "neighbourhood_id": -1,
        "region_id": 85688637
      }
    ],
    "wof:id": 1729358207,
    "wof:lastmodified": 1787777633,
    "wof:name": "Armed with a new sense of patriotism following the Revolutionary War, farmers and settlers produced a variety of uniquely American weathervanes...",
    "wof:parent_id": 1159160869,
    "wof:placetype": "custom",
    "wof:placetype_alt": [
      "instagram"
    ],
    "wof:repo": "sfomuseum-data-socialmedia-instagram",
    "wof:superseded_by": [],
    "wof:supersedes": []
  },
  "bbox": [
    -122.386166,
    37.616356,
    -122.386166,
    37.616356
  ],
  "geometry": {"type":"Point","coordinates":[-122.386166,37.616356]}
}
