{
  "id": 1729358057,
  "type": "Feature",
  "properties": {
    "date:cessation_lower": "2018-06-28",
    "date:cessation_upper": "2018-06-28",
    "date:inception_lower": "2018-06-28",
    "date:inception_upper": "2018-06-28",
    "edtf:cessation": "2018-06-28T10:27:00-07:00",
    "edtf:inception": "2018-06-28T10:27:00-07:00",
    "geom:area": 0,
    "geom:bbox": "-122.386166,37.616356,-122.386166,37.616356",
    "geom:latitude": 37.616356,
    "geom:longitude": -122.386166,
    "instagram:post": {
      "caption": {
        "body": "Countertop vending machines dispensed small products that were best suited to sales of a single item. Postage and postcard machines conveniently vended items for mail correspondence outside of the post office, such as the Duplex stamp vendor, which fed one- and two-cent stamps from rolls behind glass sides.  All objects are courtesy of Joe Welch American Antique Museum in San Bruno, California. \"The Automatic Age: Coin-Operated Machines\" is on display, pre-security, in the International Terminal. http://bit.ly/CoinOperated",
        "excerpt": "Countertop vending machines dispensed small products that were best suited to sales of a single item.",
        "hashtags": [
          "coinoperated",
          "stamps",
          "postage",
          "postcards",
          "TheAutomaticAge",
          "coinop",
          "vintage",
          "antique",
          "gamemachines",
          "slotmachine",
          "slotmachines",
          "Duplex"
        ],
        "users": []
      },
      "media_id": "806ade4b634f3a11fab7be668a88a634",
      "path": "media/other/36085224_971807799664227_686543216526229504_n_17866336090256363.jpg",
      "perceptual_hash": "p:aade7521c5a187d4",
      "taken": 1530206820,
      "taken_at": "Jun 28, 2018 5:27 pm"
    },
    "millsfield:similar": {
      "google/siglip2-so400m-patch16-naflex": [
        {
          "distance": 0.3397209048271179,
          "id": 1729358693
        },
        {
          "distance": 0.3423987627029419,
          "id": 1729358147
        },
        {
          "distance": 0.34825414419174194,
          "id": 1729358147
        },
        {
          "distance": 0.3517090678215027,
          "id": 1729357915
        },
        {
          "distance": 0.3593299388885498,
          "id": 1729358697
        },
        {
          "distance": 0.36293506622314453,
          "id": 1729357783
        },
        {
          "distance": 0.36802226305007935,
          "id": 1729358697
        },
        {
          "distance": 0.37855660915374756,
          "id": 1729358795
        },
        {
          "distance": 0.37890660762786865,
          "id": 1729358693
        },
        {
          "distance": 0.38523924350738525,
          "id": 1729358277
        }
      ]
    },
    "sfomuseum:placetype": "instagram",
    "src:geom": "sfomuseum",
    "wof:belongsto": [
      1159160869,
      102527513,
      102191575,
      85633793,
      102087579,
      85922583,
      85688637
    ],
    "wof:country": "US",
    "wof:created": 1530206820,
    "wof:geomhash": "b6e33f47475d56bc8da457bc31afadc8",
    "wof:hierarchy": [
      {
        "building_id": 1159160869,
        "campus_id": 102527513,
        "continent_id": 102191575,
        "country_id": 85633793,
        "county_id": 102087579,
        "custom_id": 1729358057,
        "instagram_id": 1729358057,
        "locality_id": 85922583,
        "neighbourhood_id": -1,
        "region_id": 85688637
      }
    ],
    "wof:id": 1729358057,
    "wof:lastmodified": 1787777632,
    "wof:name": "Countertop vending machines dispensed small products that were best suited to sales of a single item...",
    "wof:parent_id": 1159160869,
    "wof:placetype": "custom",
    "wof:placetype_alt": [
      "instagram"
    ],
    "wof:repo": "sfomuseum-data-socialmedia-instagram",
    "wof:superseded_by": [],
    "wof:supersedes": []
  },
  "bbox": [
    -122.386166,
    37.616356,
    -122.386166,
    37.616356
  ],
  "geometry": {"type":"Point","coordinates":[-122.386166,37.616356]}
}
