{
  "id": 1729362965,
  "type": "Feature",
  "properties": {
    "date:cessation_lower": "2012-06-26",
    "date:cessation_upper": "2012-06-26",
    "date:inception_lower": "2012-06-26",
    "date:inception_upper": "2012-06-26",
    "edtf:cessation": "2012-06-26T06:06:00-07:00",
    "edtf:inception": "2012-06-26T06:06:00-07:00",
    "geom:area": 0,
    "geom:bbox": "-122.386166,37.616356,-122.386166,37.616356",
    "geom:latitude": 37.616356,
    "geom:longitude": -122.386166,
    "instagram:post": {
      "caption": {
        "body": "Looking down the nose(s) of an upcoming exhibition!",
        "excerpt": "Looking down the nose(s) of an upcoming exhibition!",
        "hashtags": [],
        "users": []
      },
      "media_id": "4c23619d4e413b655b22dbf0d12f624c",
      "path": "media/other/11184488_350942988434259_1215163371_n_17842255330062499.jpg",
      "perceptual_hash": "p:a7d47c72e00b3c59",
      "taken": 1340715960,
      "taken_at": "Jun 26, 2012 1:06 pm"
    },
    "millsfield:similar": {
      "google/siglip2-so400m-patch16-naflex": [
        {
          "distance": 0.20144301652908325,
          "id": 1729362373
        },
        {
          "distance": 0.2240789532661438,
          "id": 1729362373
        },
        {
          "distance": 0.23168617486953735,
          "id": 1729362229
        },
        {
          "distance": 0.24276691675186157,
          "id": 1729362721
        },
        {
          "distance": 0.2507250905036926,
          "id": 1729362721
        },
        {
          "distance": 0.2513611912727356,
          "id": 1729360455
        },
        {
          "distance": 0.2593699097633362,
          "id": 1729362817
        },
        {
          "distance": 0.26255589723587036,
          "id": 1729362229
        },
        {
          "distance": 0.2655928134918213,
          "id": 1729360069
        },
        {
          "distance": 0.2658376693725586,
          "id": 1729362083
        }
      ]
    },
    "sfomuseum:placetype": "instagram",
    "src:geom": "sfomuseum",
    "wof:belongsto": [
      1159160869,
      102527513,
      102191575,
      85633793,
      102087579,
      85922583,
      85688637
    ],
    "wof:country": "US",
    "wof:created": 1340715960,
    "wof:geomhash": "b6e33f47475d56bc8da457bc31afadc8",
    "wof:hierarchy": [
      {
        "building_id": 1159160869,
        "campus_id": 102527513,
        "continent_id": 102191575,
        "country_id": 85633793,
        "county_id": 102087579,
        "custom_id": 1729362965,
        "instagram_id": 1729362965,
        "locality_id": 85922583,
        "neighbourhood_id": -1,
        "region_id": 85688637
      }
    ],
    "wof:id": 1729362965,
    "wof:lastmodified": 1787777657,
    "wof:name": "Looking down the nose(s) of an upcoming exhibition!..",
    "wof:parent_id": 1159160869,
    "wof:placetype": "custom",
    "wof:placetype_alt": [
      "instagram"
    ],
    "wof:repo": "sfomuseum-data-socialmedia-instagram",
    "wof:superseded_by": [],
    "wof:supersedes": []
  },
  "bbox": [
    -122.386166,
    37.616356,
    -122.386166,
    37.616356
  ],
  "geometry": {"type":"Point","coordinates":[-122.386166,37.616356]}
}
