{
  "id": 1880150979,
  "type": "Feature",
  "properties": {
    "date:cessation_lower": "2023-04-14",
    "date:cessation_upper": "2023-04-14",
    "date:inception_lower": "2023-04-14",
    "date:inception_upper": "2023-04-14",
    "edtf:cessation": "2023-04-14T06:43:00-07:00",
    "edtf:inception": "2023-04-14T06:43:00-07:00",
    "geom:area": 0,
    "geom:bbox": "-122.386166,37.616356,-122.386166,37.616356",
    "geom:latitude": 37.616356,
    "geom:longitude": -122.386166,
    "instagram:post": {
      "caption": {
        "body": "American soprano Dorothy Kirsten (1910–92) started her performing arts career as a radio singer at WINS-New York. In October 1947, Kirsten debuted in a leading role at San Francisco Opera in French composer Gustave Charpentier’s (1860–1956) 𝘓𝘰𝘶𝘪𝘴𝘦. Like other select stars, Kirsten performed consecutively at San Francisco Opera and the Metropolitan Opera in New York in the early years before the companies’ seasons overlapped. During San Francisco Opera’s 1954 season, Kirsten sang as Manon Lescaut in Massenet’s 𝘔𝘢𝘯𝘰𝘯 on September 28 and in Los Angeles on October 24, followed by a Metropolitan Opera production on February 2, 1955. She also starred in two American premieres for San Francisco Opera—English composer Sir William Turner Walton’s (1902–83) 𝘛𝘳𝘰𝘪𝘭𝘶𝘴 𝘢𝘯𝘥 𝘊𝘳𝘦𝘴𝘴𝘪𝘥𝘢 in 1955 and French composer Francis Jean Marcel Poulenc’s (1899–1963) 𝘋𝘪𝘢𝘭𝘰𝘨𝘶𝘦𝘴 𝘥𝘦𝘴 𝘊𝘢𝘳𝘮é𝘭𝘪𝘵𝘦𝘴 two years later. Dorothy Kirsten celebrated her twenty-fifth anniversary with San Francisco Opera on November 28, 1970, with a live broadcast of Italian composer Giacomo Puccini’s (1858–1924) 𝘛𝘰𝘴𝘤𝘢, the first radio transmission from the company in twenty-four years.   Learn more about San Francisco Opera’s history in our exhibition “San Francisco Opera: A Centennial Celebration” which is on display, post-security, in Harvey Milk Terminal 1. https://bit.ly/SFOperaCentennial",
        "excerpt": "American soprano Dorothy Kirsten (1910–92) started her performing arts career as a radio singer at WINS-New York.",
        "hashtags": [
          "SFOperaCentennia",
          "SFOpera",
          "Opera"
        ],
        "users": [
          "sfopera"
        ]
      },
      "media_id": "62718dc22d5022d5c0b22b01027306ba0a7891e0",
      "path": "media/posts/202304/341584639_1314739339391073_4417927823038330567_n_18033182131467579.jpg",
      "perceptual_hash": "p:d16a26cf3bd46891",
      "taken": 1681479780,
      "taken_at": "Apr 14, 2023 1:43 pm"
    },
    "millsfield:similar": {
      "google/siglip2-so400m-patch16-naflex": [
        {
          "distance": 0.07930237054824829,
          "id": 1947425243
        },
        {
          "distance": 0.08069294691085815,
          "id": 1880151157
        },
        {
          "distance": 0.09131777286529541,
          "id": 1947425303
        },
        {
          "distance": 0.09163981676101685,
          "id": 1880150883
        },
        {
          "distance": 0.09890735149383545,
          "id": 1880151011
        },
        {
          "distance": 0.1046801209449768,
          "id": 1880151155
        },
        {
          "distance": 0.1377372145652771,
          "id": 1947425243
        },
        {
          "distance": 0.1415482759475708,
          "id": 1880151157
        },
        {
          "distance": 0.1423499584197998,
          "id": 1880151207
        },
        {
          "distance": 0.1434423327445984,
          "id": 1947425303
        }
      ]
    },
    "sfomuseum:placetype": "instagram",
    "src:geom": "sfomuseum",
    "wof:belongsto": [
      1159160869,
      102527513,
      102191575,
      85633793,
      102087579,
      85922583,
      85688637
    ],
    "wof:country": "US",
    "wof:created": 1681479780,
    "wof:geomhash": "b6e33f47475d56bc8da457bc31afadc8",
    "wof:hierarchy": [
      {
        "building_id": 1159160869,
        "campus_id": 102527513,
        "continent_id": 102191575,
        "country_id": 85633793,
        "county_id": 102087579,
        "custom_id": 1880150979,
        "instagram_id": 1880150979,
        "locality_id": 85922583,
        "neighbourhood_id": -1,
        "region_id": 85688637
      }
    ],
    "wof:id": 1880150979,
    "wof:lastmodified": 1787777661,
    "wof:name": "American soprano Dorothy Kirsten (1910–92) started her performing arts career as a radio singer at WINS-New York...",
    "wof:parent_id": 1159160869,
    "wof:placetype": "custom",
    "wof:placetype_alt": [
      "instagram"
    ],
    "wof:repo": "sfomuseum-data-socialmedia-instagram",
    "wof:superseded_by": [],
    "wof:supersedes": []
  },
  "bbox": [
    -122.386166,
    37.616356,
    -122.386166,
    37.616356
  ],
  "geometry": {"type":"Point","coordinates":[-122.386166,37.616356]}
}
