{
  "id": 1729361609,
  "type": "Feature",
  "properties": {
    "date:cessation_lower": "2015-08-13",
    "date:cessation_upper": "2015-08-13",
    "date:inception_lower": "2015-08-13",
    "date:inception_upper": "2015-08-13",
    "edtf:cessation": "2015-08-13T03:07:00-07:00",
    "edtf:inception": "2015-08-13T03:07:00-07:00",
    "geom:area": 0,
    "geom:bbox": "-122.386166,37.616356,-122.386166,37.616356",
    "geom:latitude": 37.616356,
    "geom:longitude": -122.386166,
    "instagram:post": {
      "caption": {
        "body": "",
        "excerpt": "",
        "hashtags": [
          "repost",
          "regram",
          "publicart",
          "airportart"
        ],
        "users": [
          "katefeetie"
        ]
      },
      "media_id": "d9f4dc7367125e1e85480447e9732919",
      "path": "media/other/11324401_142923132712086_1805100705_n_17842119733062499.jpg",
      "perceptual_hash": "p:932b32ca611cf71e",
      "taken": 1439460420,
      "taken_at": "Aug 13, 2015 10:07 am"
    },
    "millsfield:similar": {
      "google/siglip2-so400m-patch16-naflex": [
        {
          "distance": 0.3864660859107971,
          "id": 1729360187
        },
        {
          "distance": 0.3865383267402649,
          "id": 1729362693
        },
        {
          "distance": 0.39420217275619507,
          "id": 1729360187
        },
        {
          "distance": 0.41256046295166016,
          "id": 1729361873
        },
        {
          "distance": 0.41367805004119873,
          "id": 1729362685
        },
        {
          "distance": 0.4189872741699219,
          "id": 1729362641
        },
        {
          "distance": 0.42290639877319336,
          "id": 1729362631
        },
        {
          "distance": 0.42587780952453613,
          "id": 1729357087
        },
        {
          "distance": 0.4295790195465088,
          "id": 1729362719
        },
        {
          "distance": 0.43030446767807007,
          "id": 1729362637
        }
      ]
    },
    "sfomuseum:placetype": "instagram",
    "src:geom": "sfomuseum",
    "wof:belongsto": [
      1159160869,
      102527513,
      102191575,
      85633793,
      102087579,
      85922583,
      85688637
    ],
    "wof:country": "US",
    "wof:created": 1439460420,
    "wof:geomhash": "b6e33f47475d56bc8da457bc31afadc8",
    "wof:hierarchy": [
      {
        "building_id": 1159160869,
        "campus_id": 102527513,
        "continent_id": 102191575,
        "country_id": 85633793,
        "county_id": 102087579,
        "custom_id": 1729361609,
        "instagram_id": 1729361609,
        "locality_id": 85922583,
        "neighbourhood_id": -1,
        "region_id": 85688637
      }
    ],
    "wof:id": 1729361609,
    "wof:lastmodified": 1787777646,
    "wof:name": "..",
    "wof:parent_id": 1159160869,
    "wof:placetype": "custom",
    "wof:placetype_alt": [
      "instagram"
    ],
    "wof:repo": "sfomuseum-data-socialmedia-instagram",
    "wof:superseded_by": [],
    "wof:supersedes": []
  },
  "bbox": [
    -122.386166,
    37.616356,
    -122.386166,
    37.616356
  ],
  "geometry": {"type":"Point","coordinates":[-122.386166,37.616356]}
}
