{
  "id": 1729362273,
  "type": "Feature",
  "properties": {
    "date:cessation_lower": "2014-05-21",
    "date:cessation_upper": "2014-05-21",
    "date:inception_lower": "2014-05-21",
    "date:inception_upper": "2014-05-21",
    "edtf:cessation": "2014-05-21T06:55:00-07:00",
    "edtf:inception": "2014-05-21T06:55:00-07:00",
    "geom:area": 0,
    "geom:bbox": "-122.386166,37.616356,-122.386166,37.616356",
    "geom:latitude": 37.616356,
    "geom:longitude": -122.386166,
    "instagram:post": {
      "caption": {
        "body": "",
        "excerpt": "",
        "hashtags": [
          "sfac"
        ],
        "users": []
      },
      "media_id": "49086c9047789688ba66726c702ecbe0",
      "path": "media/other/10413808_261338484049969_1686725305_n_17842431121062499.jpg",
      "perceptual_hash": "p:fa36e1e49dd880c3",
      "taken": 1400680500,
      "taken_at": "May 21, 2014 1:55 pm"
    },
    "millsfield:similar": {
      "google/siglip2-so400m-patch16-naflex": [
        {
          "distance": 0.1479344367980957,
          "id": 1729362851
        },
        {
          "distance": 0.17767465114593506,
          "id": 1729361661
        },
        {
          "distance": 0.20064157247543335,
          "id": 1729362851
        },
        {
          "distance": 0.23146510124206543,
          "id": 1729362995
        },
        {
          "distance": 0.24148964881896973,
          "id": 1729361661
        },
        {
          "distance": 0.26288777589797974,
          "id": 1729362059
        },
        {
          "distance": 0.27021169662475586,
          "id": 1729355701
        },
        {
          "distance": 0.272647500038147,
          "id": 1729362059
        },
        {
          "distance": 0.2822197675704956,
          "id": 1729363029
        },
        {
          "distance": 0.2827313542366028,
          "id": 1880150891
        }
      ]
    },
    "sfomuseum:placetype": "instagram",
    "src:geom": "sfomuseum",
    "wof:belongsto": [
      1159160869,
      102527513,
      102191575,
      85633793,
      102087579,
      85922583,
      85688637
    ],
    "wof:country": "US",
    "wof:created": 1400680500,
    "wof:geomhash": "b6e33f47475d56bc8da457bc31afadc8",
    "wof:hierarchy": [
      {
        "building_id": 1159160869,
        "campus_id": 102527513,
        "continent_id": 102191575,
        "country_id": 85633793,
        "county_id": 102087579,
        "custom_id": 1729362273,
        "instagram_id": 1729362273,
        "locality_id": 85922583,
        "neighbourhood_id": -1,
        "region_id": 85688637
      }
    ],
    "wof:id": 1729362273,
    "wof:lastmodified": 1787777646,
    "wof:name": "..",
    "wof:parent_id": 1159160869,
    "wof:placetype": "custom",
    "wof:placetype_alt": [
      "instagram"
    ],
    "wof:repo": "sfomuseum-data-socialmedia-instagram",
    "wof:superseded_by": [],
    "wof:supersedes": []
  },
  "bbox": [
    -122.386166,
    37.616356,
    -122.386166,
    37.616356
  ],
  "geometry": {"type":"Point","coordinates":[-122.386166,37.616356]}
}
