{
  "id": 1729360019,
  "type": "Feature",
  "properties": {
    "date:cessation_lower": "2016-12-12",
    "date:cessation_upper": "2016-12-12",
    "date:inception_lower": "2016-12-12",
    "date:inception_upper": "2016-12-12",
    "edtf:cessation": "2016-12-12T04:49:00-08:00",
    "edtf:inception": "2016-12-12T04:49:00-08:00",
    "geom:area": 0,
    "geom:bbox": "-122.386166,37.616356,-122.386166,37.616356",
    "geom:latitude": 37.616356,
    "geom:longitude": -122.386166,
    "instagram:post": {
      "caption": {
        "body": "",
        "excerpt": "",
        "hashtags": [
          "aviationhistory",
          "avgeek",
          "panam"
        ],
        "users": []
      },
      "media_id": "dc9f9a079fd6ea97addf44a885539e4c",
      "path": "media/posts/201612/15305892_1787002724895739_1527581938607456256_n_17869078900023617.jpg",
      "perceptual_hash": "p:ffae5c3090cda099",
      "taken": 1481546940,
      "taken_at": "Dec 12, 2016 12:49 pm"
    },
    "millsfield:similar": {
      "google/siglip2-so400m-patch16-naflex": [
        {
          "distance": 0.1824657917022705,
          "id": 1729360637
        },
        {
          "distance": 0.18290555477142334,
          "id": 1729360435
        },
        {
          "distance": 0.19106340408325195,
          "id": 1729360477
        },
        {
          "distance": 0.20040208101272583,
          "id": 1729355863
        },
        {
          "distance": 0.2011008858680725,
          "id": 1763559241
        },
        {
          "distance": 0.20270919799804688,
          "id": 1729358569
        },
        {
          "distance": 0.20458561182022095,
          "id": 1729356845
        },
        {
          "distance": 0.2051713466644287,
          "id": 1947425065
        },
        {
          "distance": 0.20809322595596313,
          "id": 1947425065
        },
        {
          "distance": 0.20946604013442993,
          "id": 1729356845
        }
      ]
    },
    "sfomuseum:placetype": "instagram",
    "src:geom": "sfomuseum",
    "wof:belongsto": [
      1159160869,
      102527513,
      102191575,
      85633793,
      102087579,
      85922583,
      85688637
    ],
    "wof:country": "US",
    "wof:created": 1481546940,
    "wof:geomhash": "b6e33f47475d56bc8da457bc31afadc8",
    "wof:hierarchy": [
      {
        "building_id": 1159160869,
        "campus_id": 102527513,
        "continent_id": 102191575,
        "country_id": 85633793,
        "county_id": 102087579,
        "custom_id": 1729360019,
        "instagram_id": 1729360019,
        "locality_id": 85922583,
        "neighbourhood_id": -1,
        "region_id": 85688637
      }
    ],
    "wof:id": 1729360019,
    "wof:lastmodified": 1787777638,
    "wof:name": "..",
    "wof:parent_id": 1159160869,
    "wof:placetype": "custom",
    "wof:placetype_alt": [
      "instagram"
    ],
    "wof:repo": "sfomuseum-data-socialmedia-instagram",
    "wof:superseded_by": [],
    "wof:supersedes": []
  },
  "bbox": [
    -122.386166,
    37.616356,
    -122.386166,
    37.616356
  ],
  "geometry": {"type":"Point","coordinates":[-122.386166,37.616356]}
}
