{
  "id": 1729362731,
  "type": "Feature",
  "properties": {
    "date:cessation_lower": "2013-04-16",
    "date:cessation_upper": "2013-04-16",
    "date:inception_lower": "2013-04-16",
    "date:inception_upper": "2013-04-16",
    "edtf:cessation": "2013-04-16T06:19:00-07:00",
    "edtf:inception": "2013-04-16T06:19:00-07:00",
    "geom:area": 0,
    "geom:bbox": "-122.386166,37.616356,-122.386166,37.616356",
    "geom:latitude": 37.616356,
    "geom:longitude": -122.386166,
    "instagram:post": {
      "caption": {
        "body": "It's quite the race in the Game of Matrimony or Old Maid, a popular board game in the 1880s.",
        "excerpt": "It's quite the race in the Game of Matrimony or Old Maid, a popular board game in the 1880s.",
        "hashtags": [],
        "users": []
      },
      "media_id": "88874942ac252e52cd10c2a9d7d3a4d9",
      "path": "media/other/11326111_1631840537030624_145458867_n_17842025209062499.jpg",
      "perceptual_hash": "p:c2606f70b11db537",
      "taken": 1366118340,
      "taken_at": "Apr 16, 2013 1:19 pm"
    },
    "millsfield:similar": {
      "google/siglip2-so400m-patch16-naflex": [
        {
          "distance": 0.279815673828125,
          "id": 1763558615
        },
        {
          "distance": 0.279815673828125,
          "id": 1729361237
        },
        {
          "distance": 0.3036283254623413,
          "id": 1763558615
        },
        {
          "distance": 0.3036283254623413,
          "id": 1729361237
        },
        {
          "distance": 0.33145081996917725,
          "id": 1729358735
        },
        {
          "distance": 0.3381948471069336,
          "id": 1729358725
        },
        {
          "distance": 0.33877110481262207,
          "id": 1729357723
        },
        {
          "distance": 0.34530770778656006,
          "id": 1729362823
        },
        {
          "distance": 0.34574460983276367,
          "id": 1729357723
        },
        {
          "distance": 0.3462279438972473,
          "id": 1729359473
        }
      ]
    },
    "sfomuseum:placetype": "instagram",
    "src:geom": "sfomuseum",
    "wof:belongsto": [
      1159160869,
      102527513,
      102191575,
      85633793,
      102087579,
      85922583,
      85688637
    ],
    "wof:country": "US",
    "wof:created": 1366118340,
    "wof:geomhash": "b6e33f47475d56bc8da457bc31afadc8",
    "wof:hierarchy": [
      {
        "building_id": 1159160869,
        "campus_id": 102527513,
        "continent_id": 102191575,
        "country_id": 85633793,
        "county_id": 102087579,
        "custom_id": 1729362731,
        "instagram_id": 1729362731,
        "locality_id": 85922583,
        "neighbourhood_id": -1,
        "region_id": 85688637
      }
    ],
    "wof:id": 1729362731,
    "wof:lastmodified": 1787777647,
    "wof:name": "It's quite the race in the Game of Matrimony or Old Maid, a popular board game in the 1880s...",
    "wof:parent_id": 1159160869,
    "wof:placetype": "custom",
    "wof:placetype_alt": [
      "instagram"
    ],
    "wof:repo": "sfomuseum-data-socialmedia-instagram",
    "wof:superseded_by": [],
    "wof:supersedes": []
  },
  "bbox": [
    -122.386166,
    37.616356,
    -122.386166,
    37.616356
  ],
  "geometry": {"type":"Point","coordinates":[-122.386166,37.616356]}
}
