{
  "id": 1729362437,
  "type": "Feature",
  "properties": {
    "date:cessation_lower": "2013-12-27",
    "date:cessation_upper": "2013-12-27",
    "date:inception_lower": "2013-12-27",
    "date:inception_upper": "2013-12-27",
    "edtf:cessation": "2013-12-27T03:22:00-08:00",
    "edtf:inception": "2013-12-27T03:22:00-08:00",
    "geom:area": 0,
    "geom:bbox": "-122.386166,37.616356,-122.386166,37.616356",
    "geom:latitude": 37.616356,
    "geom:longitude": -122.386166,
    "instagram:post": {
      "caption": {
        "body": "",
        "excerpt": "",
        "hashtags": [
          "sfmaps",
          "maps"
        ],
        "users": []
      },
      "media_id": "14c63fe460609a5ac9fc1cacd8cf8345",
      "path": "media/other/11422018_402589873258272_1255341651_n_17842387831062499.jpg",
      "perceptual_hash": "p:c0c52e6c334fbe1a",
      "taken": 1388143320,
      "taken_at": "Dec 27, 2013 11:22 am"
    },
    "millsfield:similar": {
      "google/siglip2-so400m-patch16-naflex": [
        {
          "distance": 0.13609760999679565,
          "id": 1729362173
        },
        {
          "distance": 0.19075965881347656,
          "id": 1729362173
        },
        {
          "distance": 0.23012703657150269,
          "id": 1729362309
        },
        {
          "distance": 0.2613444924354553,
          "id": 1729362309
        },
        {
          "distance": 0.26811909675598145,
          "id": 1729362209
        },
        {
          "distance": 0.28946393728256226,
          "id": 1729362391
        },
        {
          "distance": 0.2972143292427063,
          "id": 1729362209
        },
        {
          "distance": 0.30109649896621704,
          "id": 1729360929
        },
        {
          "distance": 0.3018057942390442,
          "id": 1729360929
        },
        {
          "distance": 0.303935170173645,
          "id": 1729362391
        }
      ]
    },
    "sfomuseum:placetype": "instagram",
    "src:geom": "sfomuseum",
    "wof:belongsto": [
      1159160869,
      102527513,
      102191575,
      85633793,
      102087579,
      85922583,
      85688637
    ],
    "wof:country": "US",
    "wof:created": 1388143320,
    "wof:geomhash": "b6e33f47475d56bc8da457bc31afadc8",
    "wof:hierarchy": [
      {
        "building_id": 1159160869,
        "campus_id": 102527513,
        "continent_id": 102191575,
        "country_id": 85633793,
        "county_id": 102087579,
        "custom_id": 1729362437,
        "instagram_id": 1729362437,
        "locality_id": 85922583,
        "neighbourhood_id": -1,
        "region_id": 85688637
      }
    ],
    "wof:id": 1729362437,
    "wof:lastmodified": 1787777647,
    "wof:name": "..",
    "wof:parent_id": 1159160869,
    "wof:placetype": "custom",
    "wof:placetype_alt": [
      "instagram"
    ],
    "wof:repo": "sfomuseum-data-socialmedia-instagram",
    "wof:superseded_by": [],
    "wof:supersedes": []
  },
  "bbox": [
    -122.386166,
    37.616356,
    -122.386166,
    37.616356
  ],
  "geometry": {"type":"Point","coordinates":[-122.386166,37.616356]}
}
