{
  "id": 1729362427,
  "type": "Feature",
  "properties": {
    "date:cessation_lower": "2014-01-06",
    "date:cessation_upper": "2014-01-06",
    "date:inception_lower": "2014-01-06",
    "date:inception_upper": "2014-01-06",
    "edtf:cessation": "2014-01-06T06:46:00-08:00",
    "edtf:inception": "2014-01-06T06:46:00-08:00",
    "geom:area": 0,
    "geom:bbox": "-122.386166,37.616356,-122.386166,37.616356",
    "geom:latitude": 37.616356,
    "geom:longitude": -122.386166,
    "instagram:post": {
      "caption": {
        "body": "Accordion detail:",
        "excerpt": "Accordion detail:",
        "hashtags": [
          "plastics",
          "accordion"
        ],
        "users": []
      },
      "media_id": "70df3523af3a6a37f8f4145b14f89c05",
      "path": "media/other/1530770_251037791739101_244860941_n_17842391065062499.jpg",
      "perceptual_hash": "p:cae6351ed40ec21f",
      "taken": 1389019560,
      "taken_at": "Jan 06, 2014 2:46 pm"
    },
    "millsfield:similar": {
      "google/siglip2-so400m-patch16-naflex": [
        {
          "distance": 0.1854345202445984,
          "id": 1729362629
        },
        {
          "distance": 0.27306920289993286,
          "id": 1729362629
        },
        {
          "distance": 0.33412814140319824,
          "id": 1729362263
        },
        {
          "distance": 0.3356606364250183,
          "id": 1729362233
        },
        {
          "distance": 0.3378782868385315,
          "id": 1729359485
        },
        {
          "distance": 0.33847576379776,
          "id": 1729361811
        },
        {
          "distance": 0.3459886908531189,
          "id": 1729358373
        },
        {
          "distance": 0.34916257858276367,
          "id": 1729362335
        },
        {
          "distance": 0.3539394736289978,
          "id": 1729362637
        },
        {
          "distance": 0.3566809892654419,
          "id": 1729359317
        }
      ]
    },
    "sfomuseum:placetype": "instagram",
    "src:geom": "sfomuseum",
    "wof:belongsto": [
      1159160869,
      102527513,
      102191575,
      85633793,
      102087579,
      85922583,
      85688637
    ],
    "wof:country": "US",
    "wof:created": 1389019560,
    "wof:geomhash": "b6e33f47475d56bc8da457bc31afadc8",
    "wof:hierarchy": [
      {
        "building_id": 1159160869,
        "campus_id": 102527513,
        "continent_id": 102191575,
        "country_id": 85633793,
        "county_id": 102087579,
        "custom_id": 1729362427,
        "instagram_id": 1729362427,
        "locality_id": 85922583,
        "neighbourhood_id": -1,
        "region_id": 85688637
      }
    ],
    "wof:id": 1729362427,
    "wof:lastmodified": 1787777647,
    "wof:name": "Accordion detail:..",
    "wof:parent_id": 1159160869,
    "wof:placetype": "custom",
    "wof:placetype_alt": [
      "instagram"
    ],
    "wof:repo": "sfomuseum-data-socialmedia-instagram",
    "wof:superseded_by": [],
    "wof:supersedes": []
  },
  "bbox": [
    -122.386166,
    37.616356,
    -122.386166,
    37.616356
  ],
  "geometry": {"type":"Point","coordinates":[-122.386166,37.616356]}
}
