{
  "id": 1729361201,
  "type": "Feature",
  "properties": {
    "date:cessation_lower": "2016-01-04",
    "date:cessation_upper": "2016-01-04",
    "date:inception_lower": "2016-01-04",
    "date:inception_upper": "2016-01-04",
    "edtf:cessation": "2016-01-04T11:35:00-08:00",
    "edtf:inception": "2016-01-04T11:35:00-08:00",
    "geom:area": 0,
    "geom:bbox": "-122.386166,37.616356,-122.386166,37.616356",
    "geom:latitude": 37.616356,
    "geom:longitude": -122.386166,
    "instagram:post": {
      "caption": {
        "body": "",
        "excerpt": "",
        "hashtags": [
          "TheNationsGame"
        ],
        "users": []
      },
      "media_id": "0aad126de696a9f390102f3152fd0791",
      "path": "media/other/917127_1678343499116543_328447481_n_17843886322118961.jpg",
      "perceptual_hash": "p:c5e79a946932326b",
      "taken": 1451936100,
      "taken_at": "Jan 04, 2016 7:35 pm"
    },
    "millsfield:similar": {
      "google/siglip2-so400m-patch16-naflex": [
        {
          "distance": 0.1220482587814331,
          "id": 1729361089
        },
        {
          "distance": 0.139443039894104,
          "id": 1729361417
        },
        {
          "distance": 0.14322340488433838,
          "id": 1729361077
        },
        {
          "distance": 0.14746785163879395,
          "id": 1729361083
        },
        {
          "distance": 0.16699564456939697,
          "id": 1729361089
        },
        {
          "distance": 0.17575061321258545,
          "id": 1729361081
        },
        {
          "distance": 0.18650251626968384,
          "id": 1729361417
        },
        {
          "distance": 0.19045865535736084,
          "id": 1729361083
        },
        {
          "distance": 0.19375956058502197,
          "id": 1729361139
        },
        {
          "distance": 0.19664257764816284,
          "id": 1729361077
        }
      ]
    },
    "sfomuseum:placetype": "instagram",
    "src:geom": "sfomuseum",
    "wof:belongsto": [
      1159160869,
      102527513,
      102191575,
      85633793,
      102087579,
      85922583,
      85688637
    ],
    "wof:country": "US",
    "wof:created": 1451936100,
    "wof:geomhash": "b6e33f47475d56bc8da457bc31afadc8",
    "wof:hierarchy": [
      {
        "building_id": 1159160869,
        "campus_id": 102527513,
        "continent_id": 102191575,
        "country_id": 85633793,
        "county_id": 102087579,
        "custom_id": 1729361201,
        "instagram_id": 1729361201,
        "locality_id": 85922583,
        "neighbourhood_id": -1,
        "region_id": 85688637
      }
    ],
    "wof:id": 1729361201,
    "wof:lastmodified": 1787777645,
    "wof:name": "..",
    "wof:parent_id": 1159160869,
    "wof:placetype": "custom",
    "wof:placetype_alt": [
      "instagram"
    ],
    "wof:repo": "sfomuseum-data-socialmedia-instagram",
    "wof:superseded_by": [],
    "wof:supersedes": []
  },
  "bbox": [
    -122.386166,
    37.616356,
    -122.386166,
    37.616356
  ],
  "geometry": {"type":"Point","coordinates":[-122.386166,37.616356]}
}
