{
  "id": 1729361445,
  "type": "Feature",
  "properties": {
    "date:cessation_lower": "2015-10-19",
    "date:cessation_upper": "2015-10-19",
    "date:inception_lower": "2015-10-19",
    "date:inception_upper": "2015-10-19",
    "edtf:cessation": "2015-10-19T12:11:00-07:00",
    "edtf:inception": "2015-10-19T12:11:00-07:00",
    "geom:area": 0,
    "geom:bbox": "-122.386166,37.616356,-122.386166,37.616356",
    "geom:latitude": 37.616356,
    "geom:longitude": -122.386166,
    "instagram:post": {
      "caption": {
        "body": "",
        "excerpt": "",
        "hashtags": [
          "KirksMonsters",
          "KirkHammett",
          "MonsterMonday"
        ],
        "users": [
          "KirkHammett"
        ]
      },
      "media_id": "99d794811cbe186ee4c70704be93d036",
      "path": "media/other/12135355_441617479362979_1850025727_n_17844446257062499.jpg",
      "perceptual_hash": "p:c71c38e30f877338",
      "taken": 1445281860,
      "taken_at": "Oct 19, 2015 7:11 pm"
    },
    "millsfield:similar": {
      "google/siglip2-so400m-patch16-naflex": [
        {
          "distance": 0.28165102005004883,
          "id": 1729361825
        },
        {
          "distance": 0.29474085569381714,
          "id": 1729361555
        },
        {
          "distance": 0.33645957708358765,
          "id": 1729361825
        },
        {
          "distance": 0.36303550004959106,
          "id": 1729361789
        },
        {
          "distance": 0.36318469047546387,
          "id": 1729361555
        },
        {
          "distance": 0.41127312183380127,
          "id": 1729361617
        },
        {
          "distance": 0.43115079402923584,
          "id": 1729361389
        },
        {
          "distance": 0.43613100051879883,
          "id": 1729361649
        },
        {
          "distance": 0.44333869218826294,
          "id": 1729355221
        },
        {
          "distance": 0.44351083040237427,
          "id": 1729357337
        }
      ]
    },
    "sfomuseum:placetype": "instagram",
    "src:geom": "sfomuseum",
    "wof:belongsto": [
      1159160869,
      102527513,
      102191575,
      85633793,
      102087579,
      85922583,
      85688637
    ],
    "wof:country": "US",
    "wof:created": 1445281860,
    "wof:geomhash": "b6e33f47475d56bc8da457bc31afadc8",
    "wof:hierarchy": [
      {
        "building_id": 1159160869,
        "campus_id": 102527513,
        "continent_id": 102191575,
        "country_id": 85633793,
        "county_id": 102087579,
        "custom_id": 1729361445,
        "instagram_id": 1729361445,
        "locality_id": 85922583,
        "neighbourhood_id": -1,
        "region_id": 85688637
      }
    ],
    "wof:id": 1729361445,
    "wof:lastmodified": 1787777645,
    "wof:name": "..",
    "wof:parent_id": 1159160869,
    "wof:placetype": "custom",
    "wof:placetype_alt": [
      "instagram"
    ],
    "wof:repo": "sfomuseum-data-socialmedia-instagram",
    "wof:superseded_by": [],
    "wof:supersedes": []
  },
  "bbox": [
    -122.386166,
    37.616356,
    -122.386166,
    37.616356
  ],
  "geometry": {"type":"Point","coordinates":[-122.386166,37.616356]}
}
