{
  "id": 1729357769,
  "type": "Feature",
  "properties": {
    "date:cessation_lower": "2018-08-15",
    "date:cessation_upper": "2018-08-15",
    "date:inception_lower": "2018-08-15",
    "date:inception_upper": "2018-08-15",
    "edtf:cessation": "2018-08-15T01:17:00-07:00",
    "edtf:inception": "2018-08-15T01:17:00-07:00",
    "geom:area": 0,
    "geom:bbox": "-122.386166,37.616356,-122.386166,37.616356",
    "geom:latitude": 37.616356,
    "geom:longitude": -122.386166,
    "instagram:post": {
      "caption": {
        "body": "#Onthiday in 1958, Pan American World Airways received their first Boeing 707. One of the greatest advances in commercial aviation was the successful introduction of jet airliners during the late 1950s. The Boeing 707 was the world’s first viable commercial jetliner and revolutionized the airline industry while effectively ushering in the jet age. Have you ever flown on a Boeing 707?  Image: Pan American World Airways, Boeing 707 postcard, 1958. Gift of Serge Mitt. 1993.01.086",
        "excerpt": "#Onthiday in 1958, Pan American World Airways received their first Boeing 707.",
        "hashtags": [
          "Boeing",
          "Boeing707",
          "jetage",
          "jet",
          "aviation",
          "avgeek",
          "aviationgeek",
          "panam",
          "panamerican",
          "paa",
          "history"
        ],
        "users": []
      },
      "media_id": "3ad4dd398c1a18483df3f92b633a6ec6",
      "path": "media/other/38926028_299248960629316_6155074686519607296_n_17970174436018448.jpg",
      "perceptual_hash": "p:9de3de2ce380642e",
      "taken": 1534321020,
      "taken_at": "Aug 15, 2018 8:17 am"
    },
    "millsfield:similar": {
      "google/siglip2-so400m-patch16-naflex": [
        {
          "distance": 0.09717005491256714,
          "id": 1729357345
        },
        {
          "distance": 0.11494272947311401,
          "id": 1729358651
        },
        {
          "distance": 0.12572336196899414,
          "id": 1729356033
        },
        {
          "distance": 0.1319335699081421,
          "id": 1729358231
        },
        {
          "distance": 0.13254296779632568,
          "id": 1763559637
        },
        {
          "distance": 0.1358833909034729,
          "id": 1729358651
        },
        {
          "distance": 0.138916015625,
          "id": 1729357043
        },
        {
          "distance": 0.14394450187683105,
          "id": 1763558957
        },
        {
          "distance": 0.14570289850234985,
          "id": 1729358921
        },
        {
          "distance": 0.14602160453796387,
          "id": 1729358785
        }
      ]
    },
    "sfomuseum:placetype": "instagram",
    "src:geom": "sfomuseum",
    "wof:belongsto": [
      1159160869,
      102527513,
      102191575,
      85633793,
      102087579,
      85922583,
      85688637
    ],
    "wof:country": "US",
    "wof:created": 1534321020,
    "wof:geomhash": "b6e33f47475d56bc8da457bc31afadc8",
    "wof:hierarchy": [
      {
        "building_id": 1159160869,
        "campus_id": 102527513,
        "continent_id": 102191575,
        "country_id": 85633793,
        "county_id": 102087579,
        "custom_id": 1729357769,
        "instagram_id": 1729357769,
        "locality_id": 85922583,
        "neighbourhood_id": -1,
        "region_id": 85688637
      }
    ],
    "wof:id": 1729357769,
    "wof:lastmodified": 1787777632,
    "wof:name": "#Onthiday in 1958, Pan American World Airways received their first Boeing 707...",
    "wof:parent_id": 1159160869,
    "wof:placetype": "custom",
    "wof:placetype_alt": [
      "instagram"
    ],
    "wof:repo": "sfomuseum-data-socialmedia-instagram",
    "wof:superseded_by": [],
    "wof:supersedes": []
  },
  "bbox": [
    -122.386166,
    37.616356,
    -122.386166,
    37.616356
  ],
  "geometry": {"type":"Point","coordinates":[-122.386166,37.616356]}
}
