{
  "id": 1763559609,
  "type": "Feature",
  "properties": {
    "date:cessation_lower": "2022-02-14",
    "date:cessation_upper": "2022-02-14",
    "date:inception_lower": "2022-02-14",
    "date:inception_upper": "2022-02-14",
    "edtf:cessation": "2022-02-14T08:54:00-08:00",
    "edtf:inception": "2022-02-14T08:54:00-08:00",
    "geom:area": 0,
    "geom:bbox": "-122.386166,37.616356,-122.386166,37.616356",
    "geom:latitude": 37.616356,
    "geom:longitude": -122.386166,
    "instagram:post": {
      "caption": {
        "body": "Happy Valentine’s Day! Wonder what was on the menu of a United Air Lines flight on this day in 1963? Served aloft aboard the Mainliner aircraft was a flaked tuna vinaigrette, a pot roast of beef burgundy, and a sweetheart cake.",
        "excerpt": "Happy Valentine’s Day!",
        "hashtags": [
          "avgeek",
          "united",
          "menu",
          "ValentinesDay"
        ],
        "users": []
      },
      "media_id": "5c93bc93926acc9189ff93809141161edd642937",
      "path": "media/posts/202202/273972973_660870391619247_7362626063650625233_n_17981912692435932.jpg",
      "perceptual_hash": "p:ed656336b6929892",
      "taken": 1644857640,
      "taken_at": "Feb 14, 2022 4:54 pm"
    },
    "millsfield:similar": {
      "google/siglip2-so400m-patch16-naflex": [
        {
          "distance": 0.3572009801864624,
          "id": 1880151001
        },
        {
          "distance": 0.3641495704650879,
          "id": 1763558653
        },
        {
          "distance": 0.3641495704650879,
          "id": 1729359849
        },
        {
          "distance": 0.3654319643974304,
          "id": 1729361049
        },
        {
          "distance": 0.3667070269584656,
          "id": 1763558679
        },
        {
          "distance": 0.36789315938949585,
          "id": 1880151125
        },
        {
          "distance": 0.3693234324455261,
          "id": 1729359463
        },
        {
          "distance": 0.3747594356536865,
          "id": 1729360249
        },
        {
          "distance": 0.3769382834434509,
          "id": 1763558679
        },
        {
          "distance": 0.37880510091781616,
          "id": 1729357475
        }
      ]
    },
    "sfomuseum:placetype": "instagram",
    "src:geom": "sfomuseum",
    "wof:belongsto": [
      1159160869,
      102527513,
      102191575,
      85633793,
      102087579,
      85922583,
      85688637
    ],
    "wof:country": "US",
    "wof:created": 1644857640,
    "wof:geomhash": "b6e33f47475d56bc8da457bc31afadc8",
    "wof:hierarchy": [
      {
        "building_id": 1159160869,
        "campus_id": 102527513,
        "continent_id": 102191575,
        "country_id": 85633793,
        "county_id": 102087579,
        "custom_id": 1763559609,
        "instagram_id": 1763559609,
        "locality_id": 85922583,
        "neighbourhood_id": -1,
        "region_id": 85688637
      }
    ],
    "wof:id": 1763559609,
    "wof:lastmodified": 1787777660,
    "wof:name": "Happy Valentine’s Day!..",
    "wof:parent_id": 1159160869,
    "wof:placetype": "custom",
    "wof:placetype_alt": [
      "instagram"
    ],
    "wof:repo": "sfomuseum-data-socialmedia-instagram",
    "wof:superseded_by": [],
    "wof:supersedes": []
  },
  "bbox": [
    -122.386166,
    37.616356,
    -122.386166,
    37.616356
  ],
  "geometry": {"type":"Point","coordinates":[-122.386166,37.616356]}
}
