{
  "id": 1947425303,
  "type": "Feature",
  "properties": {
    "date:cessation_lower": "2023-09-20",
    "date:cessation_upper": "2023-09-20",
    "date:inception_lower": "2023-09-20",
    "date:inception_upper": "2023-09-20",
    "edtf:cessation": "2023-09-20T09:20:00-07:00",
    "edtf:inception": "2023-09-20T09:20:00-07:00",
    "geom:area": 0,
    "geom:bbox": "-122.386166,37.616356,-122.386166,37.616356",
    "geom:latitude": 37.616356,
    "geom:longitude": -122.386166,
    "instagram:post": {
      "caption": {
        "body": "𝘛𝘢𝘯𝘯𝘩ä𝘶𝘴𝘦𝘳 is the fifth opera by German composer Wilhelm Richard Wagner (1813–83) and was completed between 1843–45. San Francisco Opera first performed 𝘛𝘢𝘯𝘯𝘩ä𝘶𝘴𝘦𝘳 in 1930 at the Exposition Auditorium (now the Bill Graham Civic Auditorium). Four years later, 𝘛𝘢𝘯𝘯𝘩ä𝘶𝘴𝘦𝘳 was staged at the War Memorial Opera House with legendary Danish American tenor Lauritz Melchior (1890–1973) in the title role. Tannhäuser, Wagner’s lead character, is a minnesinger, or medieval German lyric poet, who is torn between lust for the goddess Venus and his former love Elisabeth. The two costumes on exhibition were worn by German tenor Peter Seiffert (b. 1954) during a 2007 San Francisco Opera production. The distressed version shows the wear that was incurred through the trials and tribulations of Tannhäuser during his penance to Rome and back. Both costumes feature lightweight, imitation chain mail that was custom-made in New Zealand.  Learn more about San Francisco Opera’s history in our exhibition “San Francisco Opera: A Centennial Celebration” on display, post-security, in Harvey Milk Terminal 1. https://bit.ly/SFOperaCentennial",
        "excerpt": "𝘛𝘢𝘯𝘯𝘩ä𝘶𝘴𝘦𝘳 is the fifth opera by German composer Wilhelm Richard Wagner (1813–83) and was completed between 1843–45.",
        "hashtags": [
          "SFOperaCentennial",
          "SFOpera",
          "Opera"
        ],
        "users": [
          "sfopera"
        ]
      },
      "media_id": "3e7a0c18eba8747f663047eebd398b127bcb2ab2",
      "path": "media/posts/202309/380156317_774355038034761_4860554329073385185_n_18207636196265404.jpg",
      "perceptual_hash": "p:8d467ab125d94ecc",
      "taken": 1695226800,
      "taken_at": "Sep 20, 2023 4:20 pm"
    },
    "millsfield:similar": {
      "google/siglip2-so400m-patch16-naflex": [
        {
          "distance": 0.03343135118484497,
          "id": 1947425243
        },
        {
          "distance": 0.03405272960662842,
          "id": 1880151157
        },
        {
          "distance": 0.04448014497756958,
          "id": 1880150883
        },
        {
          "distance": 0.06395882368087769,
          "id": 1880151155
        },
        {
          "distance": 0.07865160703659058,
          "id": 1947425243
        },
        {
          "distance": 0.08137327432632446,
          "id": 1880151157
        },
        {
          "distance": 0.0855938196182251,
          "id": 1880150883
        },
        {
          "distance": 0.09142547845840454,
          "id": 1880150979
        },
        {
          "distance": 0.10366392135620117,
          "id": 1880151155
        },
        {
          "distance": 0.13054722547531128,
          "id": 1880151207
        }
      ]
    },
    "sfomuseum:placetype": "instagram",
    "src:geom": "sfomuseum",
    "wof:belongsto": [
      1159160869,
      102527513,
      102191575,
      85633793,
      102087579,
      85922583,
      85688637
    ],
    "wof:country": "US",
    "wof:created": 1695226800,
    "wof:geomhash": "b6e33f47475d56bc8da457bc31afadc8",
    "wof:hierarchy": [
      {
        "building_id": 1159160869,
        "campus_id": 102527513,
        "continent_id": 102191575,
        "country_id": 85633793,
        "county_id": 102087579,
        "custom_id": 1947425303,
        "locality_id": 85922583,
        "neighbourhood_id": -1,
        "region_id": 85688637
      }
    ],
    "wof:id": 1947425303,
    "wof:lastmodified": 1787777664,
    "wof:name": "𝘛𝘢𝘯𝘯𝘩ä𝘶𝘴𝘦𝘳 is the fifth opera by German composer Wilhelm Richard Wagner (1813–83) and was completed between 1843–45...",
    "wof:parent_id": 1159160869,
    "wof:placetype": "custom",
    "wof:repo": "sfomuseum-data-socialmedia-instagram",
    "wof:superseded_by": [],
    "wof:supersedes": []
  },
  "bbox": [
    -122.386166,
    37.616356,
    -122.386166,
    37.616356
  ],
  "geometry": {"type":"Point","coordinates":[-122.386166,37.616356]}
}
