{
  "id": 1729356231,
  "type": "Feature",
  "properties": {
    "date:cessation_lower": "2019-08-09",
    "date:cessation_upper": "2019-08-09",
    "date:inception_lower": "2019-08-09",
    "date:inception_upper": "2019-08-09",
    "edtf:cessation": "2019-08-09T03:51:00-07:00",
    "edtf:inception": "2019-08-09T03:51:00-07:00",
    "geom:area": 0,
    "geom:bbox": "-122.386166,37.616356,-122.386166,37.616356",
    "geom:latitude": 37.616356,
    "geom:longitude": -122.386166,
    "instagram:post": {
      "caption": {
        "body": "Happy #NationalBookLoverDay! Did you know the Aviation Museum and Library @flysfo holds over 8,000 books and 600 periodical titles related to aeronautics dating from the eighteenth century to the present? With the primary focus on commercial aviation, collection strengths include airport development, airline history, and airplane manufacturing. Our library collection is open to the public and offers research services by appointment. We’re open daily from 10:00am-4:30pm. Stop by and say hi!",
        "excerpt": "Happy #NationalBookLoverDay!",
        "hashtags": [
          "avgeek",
          "booklover",
          "library",
          "archive",
          "books",
          "book"
        ],
        "users": []
      },
      "media_id": "8a98ac782691ecc4a2583d74a6cd121f",
      "path": "media/other/67573708_138625987345508_751725863770955051_n_17887044259387905.jpg",
      "perceptual_hash": "p:b749526a969d960d",
      "taken": 1565347860,
      "taken_at": "Aug 09, 2019 10:51 am"
    },
    "millsfield:similar": {
      "google/siglip2-so400m-patch16-naflex": [
        {
          "distance": 0.2845543622970581,
          "id": 1729362799
        },
        {
          "distance": 0.28482240438461304,
          "id": 1729362371
        },
        {
          "distance": 0.30128592252731323,
          "id": 1729361991
        },
        {
          "distance": 0.31162047386169434,
          "id": 1729362799
        },
        {
          "distance": 0.31239932775497437,
          "id": 1729361991
        },
        {
          "distance": 0.3201395273208618,
          "id": 1729362371
        },
        {
          "distance": 0.33207017183303833,
          "id": 1729362581
        },
        {
          "distance": 0.3360986113548279,
          "id": 1729362761
        },
        {
          "distance": 0.3419526219367981,
          "id": 1729356635
        },
        {
          "distance": 0.3474113941192627,
          "id": 1729360375
        }
      ]
    },
    "sfomuseum:placetype": "instagram",
    "src:geom": "sfomuseum",
    "wof:belongsto": [
      1159160869,
      102527513,
      102191575,
      85633793,
      102087579,
      85922583,
      85688637
    ],
    "wof:country": "US",
    "wof:created": 1565347860,
    "wof:geomhash": "b6e33f47475d56bc8da457bc31afadc8",
    "wof:hierarchy": [
      {
        "building_id": 1159160869,
        "campus_id": 102527513,
        "continent_id": 102191575,
        "country_id": 85633793,
        "county_id": 102087579,
        "custom_id": 1729356231,
        "instagram_id": 1729356231,
        "locality_id": 85922583,
        "neighbourhood_id": -1,
        "region_id": 85688637
      }
    ],
    "wof:id": 1729356231,
    "wof:lastmodified": 1787777628,
    "wof:name": "Happy #NationalBookLoverDay!..",
    "wof:parent_id": 1159160869,
    "wof:placetype": "custom",
    "wof:placetype_alt": [
      "instagram"
    ],
    "wof:repo": "sfomuseum-data-socialmedia-instagram",
    "wof:superseded_by": [],
    "wof:supersedes": []
  },
  "bbox": [
    -122.386166,
    37.616356,
    -122.386166,
    37.616356
  ],
  "geometry": {"type":"Point","coordinates":[-122.386166,37.616356]}
}
