{
  "id": 1729362669,
  "type": "Feature",
  "properties": {
    "date:cessation_lower": "2013-06-04",
    "date:cessation_upper": "2013-06-04",
    "date:inception_lower": "2013-06-04",
    "date:inception_upper": "2013-06-04",
    "edtf:cessation": "2013-06-04T02:46:00-07:00",
    "edtf:inception": "2013-06-04T02:46:00-07:00",
    "geom:area": 0,
    "geom:bbox": "-122.386166,37.616356,-122.386166,37.616356",
    "geom:latitude": 37.616356,
    "geom:longitude": -122.386166,
    "instagram:post": {
      "caption": {
        "body": "Pretty in pink: prepping a 1950s gown for exhibition.",
        "excerpt": "Pretty in pink: prepping a 1950s gown for exhibition.",
        "hashtags": [],
        "users": []
      },
      "media_id": "e2324c9ed59308b8b5def7957d2342c2",
      "path": "media/other/11378293_832211513537099_937091833_n_17842328332062499.jpg",
      "perceptual_hash": "p:dae92d9697061653",
      "taken": 1370339160,
      "taken_at": "Jun 04, 2013 9:46 am"
    },
    "millsfield:similar": {
      "google/siglip2-so400m-patch16-naflex": [
        {
          "distance": 0.32506459951400757,
          "id": 1729362327
        },
        {
          "distance": 0.33972978591918945,
          "id": 1729362409
        },
        {
          "distance": 0.35431361198425293,
          "id": 1729362403
        },
        {
          "distance": 0.36140066385269165,
          "id": 1729362757
        },
        {
          "distance": 0.36485034227371216,
          "id": 1729363019
        },
        {
          "distance": 0.36745160818099976,
          "id": 1729361747
        },
        {
          "distance": 0.3733815550804138,
          "id": 1729362489
        },
        {
          "distance": 0.37547725439071655,
          "id": 1729362477
        },
        {
          "distance": 0.3761144280433655,
          "id": 1729362611
        },
        {
          "distance": 0.3797956705093384,
          "id": 1729361957
        }
      ]
    },
    "sfomuseum:placetype": "instagram",
    "src:geom": "sfomuseum",
    "wof:belongsto": [
      1159160869,
      102527513,
      102191575,
      85633793,
      102087579,
      85922583,
      85688637
    ],
    "wof:country": "US",
    "wof:created": 1370339160,
    "wof:geomhash": "b6e33f47475d56bc8da457bc31afadc8",
    "wof:hierarchy": [
      {
        "building_id": 1159160869,
        "campus_id": 102527513,
        "continent_id": 102191575,
        "country_id": 85633793,
        "county_id": 102087579,
        "custom_id": 1729362669,
        "instagram_id": 1729362669,
        "locality_id": 85922583,
        "neighbourhood_id": -1,
        "region_id": 85688637
      }
    ],
    "wof:id": 1729362669,
    "wof:lastmodified": 1787777647,
    "wof:name": "Pretty in pink: prepping a 1950s gown for exhibition...",
    "wof:parent_id": 1159160869,
    "wof:placetype": "custom",
    "wof:placetype_alt": [
      "instagram"
    ],
    "wof:repo": "sfomuseum-data-socialmedia-instagram",
    "wof:superseded_by": [],
    "wof:supersedes": []
  },
  "bbox": [
    -122.386166,
    37.616356,
    -122.386166,
    37.616356
  ],
  "geometry": {"type":"Point","coordinates":[-122.386166,37.616356]}
}
