{
  "id": 1729360297,
  "type": "Feature",
  "properties": {
    "date:cessation_lower": "2016-09-23",
    "date:cessation_upper": "2016-09-23",
    "date:inception_lower": "2016-09-23",
    "date:inception_upper": "2016-09-23",
    "edtf:cessation": "2016-09-23T08:54:00-07:00",
    "edtf:inception": "2016-09-23T08:54:00-07:00",
    "geom:area": 0,
    "geom:bbox": "-122.386166,37.616356,-122.386166,37.616356",
    "geom:latitude": 37.616356,
    "geom:longitude": -122.386166,
    "instagram:post": {
      "caption": {
        "body": "",
        "excerpt": "",
        "hashtags": [
          "SFOHistory"
        ],
        "users": []
      },
      "media_id": "dc03ee303c66f0fb49dc1c630b0b867b",
      "path": "media/other/14295529_187588118341983_6969199442717048832_n_17842563388180018.jpg",
      "perceptual_hash": "p:fab0850f7ef0210f",
      "taken": 1474646040,
      "taken_at": "Sep 23, 2016 3:54 pm"
    },
    "millsfield:similar": {
      "google/siglip2-so400m-patch16-naflex": [
        {
          "distance": 0.03733241558074951,
          "id": 1729357855
        },
        {
          "distance": 0.061221301555633545,
          "id": 1880151443
        },
        {
          "distance": 0.10290533304214478,
          "id": 1729357855
        },
        {
          "distance": 0.10958069562911987,
          "id": 1880151443
        },
        {
          "distance": 0.16768121719360352,
          "id": 1729360705
        },
        {
          "distance": 0.17260295152664185,
          "id": 1729357593
        },
        {
          "distance": 0.2039806842803955,
          "id": 1729358771
        },
        {
          "distance": 0.20789700746536255,
          "id": 1947425271
        },
        {
          "distance": 0.20914340019226074,
          "id": 1729359523
        },
        {
          "distance": 0.21298515796661377,
          "id": 1729360705
        }
      ]
    },
    "sfomuseum:placetype": "instagram",
    "src:geom": "sfomuseum",
    "wof:belongsto": [
      1159160869,
      102527513,
      102191575,
      85633793,
      102087579,
      85922583,
      85688637
    ],
    "wof:country": "US",
    "wof:created": 1474646040,
    "wof:geomhash": "b6e33f47475d56bc8da457bc31afadc8",
    "wof:hierarchy": [
      {
        "building_id": 1159160869,
        "campus_id": 102527513,
        "continent_id": 102191575,
        "country_id": 85633793,
        "county_id": 102087579,
        "custom_id": 1729360297,
        "instagram_id": 1729360297,
        "locality_id": 85922583,
        "neighbourhood_id": -1,
        "region_id": 85688637
      }
    ],
    "wof:id": 1729360297,
    "wof:lastmodified": 1787777639,
    "wof:name": "..",
    "wof:parent_id": 1159160869,
    "wof:placetype": "custom",
    "wof:placetype_alt": [
      "instagram"
    ],
    "wof:repo": "sfomuseum-data-socialmedia-instagram",
    "wof:superseded_by": [],
    "wof:supersedes": []
  },
  "bbox": [
    -122.386166,
    37.616356,
    -122.386166,
    37.616356
  ],
  "geometry": {"type":"Point","coordinates":[-122.386166,37.616356]}
}
