{
  "id": 1729360369,
  "type": "Feature",
  "properties": {
    "date:cessation_lower": "2016-09-02",
    "date:cessation_upper": "2016-09-02",
    "date:inception_lower": "2016-09-02",
    "date:inception_upper": "2016-09-02",
    "edtf:cessation": "2016-09-02T02:18:00-07:00",
    "edtf:inception": "2016-09-02T02:18:00-07:00",
    "geom:area": 0,
    "geom:bbox": "-122.386166,37.616356,-122.386166,37.616356",
    "geom:latitude": 37.616356,
    "geom:longitude": -122.386166,
    "instagram:post": {
      "caption": {
        "body": "Mid-twentieth-century modern design balanced expression with efficiency and utility. Geared towards everyday living, modern design redefined housewares, furniture, and decorative arts as functionally attractive products. The very best were labeled “good design” and exhibited a harmony of planning, materials, and an organic beauty that flowed from the inside out. The form of each object followed its function, with innovative construction methods finished in natural tones and bold colors. Working in the spirit of their time, mid-century designers created items that lent style and comfort to the necessities of modern life. \"#AModernApproach: Mid-Century Design\" is on display, every day, 24 hours a day, pre-security, in the International Terminal. http://bit.ly/AModernApproachThis",
        "excerpt": "Mid-twentieth-century modern design balanced expression with efficiency and utility.",
        "hashtags": [],
        "users": []
      },
      "media_id": "895c744352d9dd16bef5b07d822e6386",
      "path": "media/other/14134996_1686374801687064_364660485_n_17861203639041973.jpg",
      "perceptual_hash": "p:ee8ec731ccc3311c",
      "taken": 1472807880,
      "taken_at": "Sep 02, 2016 9:18 am"
    },
    "millsfield:similar": {
      "google/siglip2-so400m-patch16-naflex": [
        {
          "distance": 0.3039976954460144,
          "id": 1729360225
        },
        {
          "distance": 0.36484044790267944,
          "id": 1729357271
        },
        {
          "distance": 0.38400930166244507,
          "id": 1729359627
        },
        {
          "distance": 0.38951677083969116,
          "id": 1729360097
        },
        {
          "distance": 0.40374958515167236,
          "id": 1763559427
        },
        {
          "distance": 0.40892452001571655,
          "id": 1729355047
        },
        {
          "distance": 0.40951818227767944,
          "id": 1729359763
        },
        {
          "distance": 0.4139014482498169,
          "id": 1729358351
        },
        {
          "distance": 0.41413694620132446,
          "id": 1729359517
        },
        {
          "distance": 0.4151437282562256,
          "id": 1729359075
        }
      ]
    },
    "sfomuseum:placetype": "instagram",
    "src:geom": "sfomuseum",
    "wof:belongsto": [
      1159160869,
      102527513,
      102191575,
      85633793,
      102087579,
      85922583,
      85688637
    ],
    "wof:country": "US",
    "wof:created": 1472807880,
    "wof:geomhash": "b6e33f47475d56bc8da457bc31afadc8",
    "wof:hierarchy": [
      {
        "building_id": 1159160869,
        "campus_id": 102527513,
        "continent_id": 102191575,
        "country_id": 85633793,
        "county_id": 102087579,
        "custom_id": 1729360369,
        "instagram_id": 1729360369,
        "locality_id": 85922583,
        "neighbourhood_id": -1,
        "region_id": 85688637
      }
    ],
    "wof:id": 1729360369,
    "wof:lastmodified": 1787777639,
    "wof:name": "Mid-twentieth-century modern design balanced expression with efficiency and utility...",
    "wof:parent_id": 1159160869,
    "wof:placetype": "custom",
    "wof:placetype_alt": [
      "instagram"
    ],
    "wof:repo": "sfomuseum-data-socialmedia-instagram",
    "wof:superseded_by": [],
    "wof:supersedes": []
  },
  "bbox": [
    -122.386166,
    37.616356,
    -122.386166,
    37.616356
  ],
  "geometry": {"type":"Point","coordinates":[-122.386166,37.616356]}
}
