{
  "id": 1729361269,
  "type": "Feature",
  "properties": {
    "date:cessation_lower": "2015-12-14",
    "date:cessation_upper": "2015-12-14",
    "date:inception_lower": "2015-12-14",
    "date:inception_upper": "2015-12-14",
    "edtf:cessation": "2015-12-14T02:23:00-08:00",
    "edtf:inception": "2015-12-14T02:23:00-08:00",
    "geom:area": 0,
    "geom:bbox": "-122.386166,37.616356,-122.386166,37.616356",
    "geom:latitude": 37.616356,
    "geom:longitude": -122.386166,
    "instagram:post": {
      "caption": {
        "body": "The New York #Giants face off against the Miami #Dolphins in tonight’s #MondayNightFootball game. In 1972, the Miami Dolphins posted the NFL's only perfect season with a 17-0 record, which was topped by a 14-7 victory over the Washington Redskins in Super Bowl VII. New York Giants fans are among the most passionate in the league, and the team currently has more than 135,000 fans waitlisted for season tickets. Which team are you rooting for?  Check out your favorite NFL team’s case, in our exhibition \"The Nation's Game\", post-security, in Terminal 3!",
        "excerpt": "The New York #Giants face off against the Miami #Dolphins in tonight’s #MondayNightFootball game.",
        "hashtags": [],
        "users": []
      },
      "media_id": "32d5fc59c205da388d3ce46574d11028",
      "path": "media/other/12331890_944222419000613_852036528_n_17843701153125379.jpg",
      "perceptual_hash": "p:8222e6e2f2d9bb4c",
      "taken": 1450088580,
      "taken_at": "Dec 14, 2015 10:23 am"
    },
    "millsfield:similar": {
      "google/siglip2-so400m-patch16-naflex": [
        {
          "distance": 0.14022678136825562,
          "id": 1729361081
        },
        {
          "distance": 0.17690759897232056,
          "id": 1729361081
        },
        {
          "distance": 0.1837071180343628,
          "id": 1729361139
        },
        {
          "distance": 0.19992494583129883,
          "id": 1729361201
        },
        {
          "distance": 0.20132523775100708,
          "id": 1729361077
        },
        {
          "distance": 0.20969659090042114,
          "id": 1729361417
        },
        {
          "distance": 0.21450233459472656,
          "id": 1729361089
        },
        {
          "distance": 0.21835064888000488,
          "id": 1729361139
        },
        {
          "distance": 0.2275790572166443,
          "id": 1729361083
        },
        {
          "distance": 0.23827660083770752,
          "id": 1729361089
        }
      ]
    },
    "sfomuseum:placetype": "instagram",
    "src:geom": "sfomuseum",
    "wof:belongsto": [
      1159160869,
      102527513,
      102191575,
      85633793,
      102087579,
      85922583,
      85688637
    ],
    "wof:country": "US",
    "wof:created": 1450088580,
    "wof:geomhash": "b6e33f47475d56bc8da457bc31afadc8",
    "wof:hierarchy": [
      {
        "building_id": 1159160869,
        "campus_id": 102527513,
        "continent_id": 102191575,
        "country_id": 85633793,
        "county_id": 102087579,
        "custom_id": 1729361269,
        "instagram_id": 1729361269,
        "locality_id": 85922583,
        "neighbourhood_id": -1,
        "region_id": 85688637
      }
    ],
    "wof:id": 1729361269,
    "wof:lastmodified": 1787777645,
    "wof:name": "The New York #Giants face off against the Miami #Dolphins in tonight’s #MondayNightFootball game...",
    "wof:parent_id": 1159160869,
    "wof:placetype": "custom",
    "wof:placetype_alt": [
      "instagram"
    ],
    "wof:repo": "sfomuseum-data-socialmedia-instagram",
    "wof:superseded_by": [],
    "wof:supersedes": []
  },
  "bbox": [
    -122.386166,
    37.616356,
    -122.386166,
    37.616356
  ],
  "geometry": {"type":"Point","coordinates":[-122.386166,37.616356]}
}
