{
  "id": 1729362617,
  "type": "Feature",
  "properties": {
    "date:cessation_lower": "2013-07-11",
    "date:cessation_upper": "2013-07-11",
    "date:inception_lower": "2013-07-11",
    "date:inception_upper": "2013-07-11",
    "edtf:cessation": "2013-07-11T06:37:00-07:00",
    "edtf:inception": "2013-07-11T06:37:00-07:00",
    "geom:area": 0,
    "geom:bbox": "-122.386166,37.616356,-122.386166,37.616356",
    "geom:latitude": 37.616356,
    "geom:longitude": -122.386166,
    "instagram:post": {
      "caption": {
        "body": "How to process a gift of 3000+ objects? Slowly, and on a very big table.",
        "excerpt": "How to process a gift of 3000+ objects?",
        "hashtags": [],
        "users": []
      },
      "media_id": "b98f5c9b335134efa80bb8446b3b2662",
      "path": "media/other/11380021_1609008479360709_589375937_n_17842340359062499.jpg",
      "perceptual_hash": "p:90bf6e84424f7b68",
      "taken": 1373549820,
      "taken_at": "Jul 11, 2013 1:37 pm"
    },
    "millsfield:similar": {
      "google/siglip2-so400m-patch16-naflex": [
        {
          "distance": 0.14176636934280396,
          "id": 1729362373
        },
        {
          "distance": 0.18022358417510986,
          "id": 1729362541
        },
        {
          "distance": 0.18717962503433228,
          "id": 1729362721
        },
        {
          "distance": 0.19107848405838013,
          "id": 1729362373
        },
        {
          "distance": 0.20404338836669922,
          "id": 1729362655
        },
        {
          "distance": 0.21491742134094238,
          "id": 1729362655
        },
        {
          "distance": 0.22054636478424072,
          "id": 1729362495
        },
        {
          "distance": 0.22081220149993896,
          "id": 1729362541
        },
        {
          "distance": 0.2258847951889038,
          "id": 1729362229
        },
        {
          "distance": 0.22621309757232666,
          "id": 1729358531
        }
      ]
    },
    "sfomuseum:placetype": "instagram",
    "src:geom": "sfomuseum",
    "wof:belongsto": [
      1159160869,
      102527513,
      102191575,
      85633793,
      102087579,
      85922583,
      85688637
    ],
    "wof:country": "US",
    "wof:created": 1373549820,
    "wof:geomhash": "b6e33f47475d56bc8da457bc31afadc8",
    "wof:hierarchy": [
      {
        "building_id": 1159160869,
        "campus_id": 102527513,
        "continent_id": 102191575,
        "country_id": 85633793,
        "county_id": 102087579,
        "custom_id": 1729362617,
        "instagram_id": 1729362617,
        "locality_id": 85922583,
        "neighbourhood_id": -1,
        "region_id": 85688637
      }
    ],
    "wof:id": 1729362617,
    "wof:lastmodified": 1787777647,
    "wof:name": "How to process a gift of 3000+ objects?..",
    "wof:parent_id": 1159160869,
    "wof:placetype": "custom",
    "wof:placetype_alt": [
      "instagram"
    ],
    "wof:repo": "sfomuseum-data-socialmedia-instagram",
    "wof:superseded_by": [],
    "wof:supersedes": []
  },
  "bbox": [
    -122.386166,
    37.616356,
    -122.386166,
    37.616356
  ],
  "geometry": {"type":"Point","coordinates":[-122.386166,37.616356]}
}
