{
  "id": 1729358687,
  "type": "Feature",
  "properties": {
    "date:cessation_lower": "2018-01-18",
    "date:cessation_upper": "2018-01-18",
    "date:inception_lower": "2018-01-18",
    "date:inception_upper": "2018-01-18",
    "edtf:cessation": "2018-01-18T12:47:00-08:00",
    "edtf:inception": "2018-01-18T12:47:00-08:00",
    "geom:area": 0,
    "geom:bbox": "-122.386166,37.616356,-122.386166,37.616356",
    "geom:latitude": 37.616356,
    "geom:longitude": -122.386166,
    "instagram:post": {
      "caption": {
        "body": "In 1959, United Air Lines and Delta Airlines introduced the Douglas DC-8. The DC-8-63 series was introduced nearly a decade later. Promoted as the “Super 63”, it was an updated, stretched, long-range variant of the DC-8. With a capacity of up to 244 passengers, it was the largest commercial jetliner available at the time, until the introduction of the Boeing 747 two years later. Powered by Pratt \u0026 Whitney JT3D turbofan engines it was capable of cruising at 550–575 miles-per-hour. The turbofans were more efficient, less noisy, and more economical to operate than the earlier turbojets installed on the first DC-8 jetliners. KLM Royal Dutch Airlines purchased a large fleet of the DC-8-63 and operated them though the 1980s. The airliner was reliable, comfortable, and ideal for the carrier’s transoceanic, world routes.  See \"Aviation Evolutions: The Jim Lund 1:72 Scale Model Airplane Collection\", which features more than 200 models, on display, pre-security, in the Aviation Museum. http://bit.ly/AviationEvolutions",
        "excerpt": "In 1959, United Air Lines and Delta Airlines introduced the Douglas DC-8.",
        "hashtags": [
          "AviationEvolutions",
          "jimlund",
          "avgeek",
          "avationgeek",
          "aviation",
          "aviationhistory",
          "aviationlovers",
          "vintageaviation",
          "history",
          "avhistory",
          "aviationgeeks",
          "modelplane",
          "aviationdaily",
          "modelaircraft",
          "airplane",
          "aircraft",
          "DC8"
        ],
        "users": []
      },
      "media_id": "670a8bd15e9f3807633db0f230499273",
      "path": "media/other/26866094_175014363230876_361002206071095296_n_17894848498141649.jpg",
      "perceptual_hash": "p:bd0dc672218d5e27",
      "taken": 1516308420,
      "taken_at": "Jan 18, 2018 8:47 pm"
    },
    "millsfield:similar": {
      "google/siglip2-so400m-patch16-naflex": [
        {
          "distance": 0.09850597381591797,
          "id": 1729356909
        },
        {
          "distance": 0.12617570161819458,
          "id": 1729357123
        },
        {
          "distance": 0.14766722917556763,
          "id": 1729358529
        },
        {
          "distance": 0.15058600902557373,
          "id": 1729356909
        },
        {
          "distance": 0.1639736294746399,
          "id": 1763559101
        },
        {
          "distance": 0.1665407419204712,
          "id": 1729357123
        },
        {
          "distance": 0.16881120204925537,
          "id": 1729357673
        },
        {
          "distance": 0.17286217212677002,
          "id": 1729357619
        },
        {
          "distance": 0.17501002550125122,
          "id": 1729357673
        },
        {
          "distance": 0.1752685308456421,
          "id": 1729359003
        }
      ]
    },
    "sfomuseum:placetype": "instagram",
    "src:geom": "sfomuseum",
    "wof:belongsto": [
      1159160869,
      102527513,
      102191575,
      85633793,
      102087579,
      85922583,
      85688637
    ],
    "wof:country": "US",
    "wof:created": 1516308420,
    "wof:geomhash": "b6e33f47475d56bc8da457bc31afadc8",
    "wof:hierarchy": [
      {
        "building_id": 1159160869,
        "campus_id": 102527513,
        "continent_id": 102191575,
        "country_id": 85633793,
        "county_id": 102087579,
        "custom_id": 1729358687,
        "instagram_id": 1729358687,
        "locality_id": 85922583,
        "neighbourhood_id": -1,
        "region_id": 85688637
      }
    ],
    "wof:id": 1729358687,
    "wof:lastmodified": 1787777634,
    "wof:name": "In 1959, United Air Lines and Delta Airlines introduced the Douglas DC-8...",
    "wof:parent_id": 1159160869,
    "wof:placetype": "custom",
    "wof:placetype_alt": [
      "instagram"
    ],
    "wof:repo": "sfomuseum-data-socialmedia-instagram",
    "wof:superseded_by": [],
    "wof:supersedes": []
  },
  "bbox": [
    -122.386166,
    37.616356,
    -122.386166,
    37.616356
  ],
  "geometry": {"type":"Point","coordinates":[-122.386166,37.616356]}
}
