{
  "id": 1729360941,
  "type": "Feature",
  "properties": {
    "date:cessation_lower": "2016-03-14",
    "date:cessation_upper": "2016-03-14",
    "date:inception_lower": "2016-03-14",
    "date:inception_upper": "2016-03-14",
    "edtf:cessation": "2016-03-14T02:11:00-07:00",
    "edtf:inception": "2016-03-14T02:11:00-07:00",
    "geom:area": 0,
    "geom:bbox": "-122.386166,37.616356,-122.386166,37.616356",
    "geom:latitude": 37.616356,
    "geom:longitude": -122.386166,
    "instagram:post": {
      "caption": {
        "body": "Art Nouveau graphic artists portrayed women as enchanting, otherworldly maidens and their elaborate portrayal of female tresses helped distinguish the design style. From decorative arts to paintings and illustrations, women’s hair serves as a focal point and takes on a life of its own. Locks flow, curve, and meander, often filling the entire canvas.",
        "excerpt": "Art Nouveau graphic artists portrayed women as enchanting, otherworldly maidens and their elaborate portrayal of female tresses helped distinguish the design style.",
        "hashtags": [
          "ArtNouveauSFO"
        ],
        "users": []
      },
      "media_id": "4ff94b8ec9d0c6449977952d1e6c6c2d",
      "path": "media/other/12798109_541053482722694_1483363810_n_17845593520083568.jpg",
      "perceptual_hash": "p:e41b732ccbb31964",
      "taken": 1457946660,
      "taken_at": "Mar 14, 2016 9:11 am"
    },
    "millsfield:similar": {
      "google/siglip2-so400m-patch16-naflex": [
        {
          "distance": 0.23875397443771362,
          "id": 1729360725
        },
        {
          "distance": 0.27634167671203613,
          "id": 1729360453
        },
        {
          "distance": 0.2888377904891968,
          "id": 1729360453
        },
        {
          "distance": 0.3016856908798218,
          "id": 1729360725
        },
        {
          "distance": 0.3037306070327759,
          "id": 1729360871
        },
        {
          "distance": 0.307328999042511,
          "id": 1729360871
        },
        {
          "distance": 0.3160337805747986,
          "id": 1729360717
        },
        {
          "distance": 0.3160616159439087,
          "id": 1729359037
        },
        {
          "distance": 0.32019150257110596,
          "id": 1729360633
        },
        {
          "distance": 0.3218374252319336,
          "id": 1729361027
        }
      ]
    },
    "sfomuseum:placetype": "instagram",
    "src:geom": "sfomuseum",
    "wof:belongsto": [
      1159160869,
      102527513,
      102191575,
      85633793,
      102087579,
      85922583,
      85688637
    ],
    "wof:country": "US",
    "wof:created": 1457946660,
    "wof:geomhash": "b6e33f47475d56bc8da457bc31afadc8",
    "wof:hierarchy": [
      {
        "building_id": 1159160869,
        "campus_id": 102527513,
        "continent_id": 102191575,
        "country_id": 85633793,
        "county_id": 102087579,
        "custom_id": 1729360941,
        "instagram_id": 1729360941,
        "locality_id": 85922583,
        "neighbourhood_id": -1,
        "region_id": 85688637
      }
    ],
    "wof:id": 1729360941,
    "wof:lastmodified": 1787777640,
    "wof:name": "Art Nouveau graphic artists portrayed women as enchanting, otherworldly maidens and their elaborate portrayal of female tresses helped distinguish the design style...",
    "wof:parent_id": 1159160869,
    "wof:placetype": "custom",
    "wof:placetype_alt": [
      "instagram"
    ],
    "wof:repo": "sfomuseum-data-socialmedia-instagram",
    "wof:superseded_by": [],
    "wof:supersedes": []
  },
  "bbox": [
    -122.386166,
    37.616356,
    -122.386166,
    37.616356
  ],
  "geometry": {"type":"Point","coordinates":[-122.386166,37.616356]}
}
