{
  "id": 1729355421,
  "type": "Feature",
  "properties": {
    "date:cessation_lower": "2020-03-19",
    "date:cessation_upper": "2020-03-19",
    "date:inception_lower": "2020-03-19",
    "date:inception_upper": "2020-03-19",
    "edtf:cessation": "2020-03-18T19:33:14-07:00",
    "edtf:inception": "2020-03-18T19:33:14-07:00",
    "geom:area": 0,
    "geom:bbox": "-122.386166,37.616356,-122.386166,37.616356",
    "geom:latitude": 37.616356,
    "geom:longitude": -122.386166,
    "instagram:post": {
      "caption": {
        "body": "Before the advent of photography, a number of superbly illustrated books made by Western travelers and artists in the early nineteenth century helped fuel the public’s fascination with foreign locales. Englishmen Thomas and William Daniell published the most extensive visual record of India— Oriental Scenery (London, 1795–1807)— in six volumes over several years. Their prints depicted the stunning landscapes and historic architecture of India and introduced viewers to the sites and scenes of distant lands they could only dream of experiencing in person. French wallpaper manufacturers drew freely from these publications to create panoramic papers. English pottery manufacturers also drew from these prints. “Zuber: The Art of French Scenic Wallpaper” is on display, pre-security in the International Terminal. http://bit.ly/ZuberScenicWallpaper",
        "excerpt": "Before the advent of photography, a number of superbly illustrated books made by Western travelers and artists in the early nineteenth century helped fuel the public’s fascination with foreign locales.",
        "hashtags": [
          "ZuberScenicWallpaper",
          "wallpaper",
          "zuber",
          "scenicwallpaper",
          "interiordesign",
          "museumfromhome",
          "design",
          "WallpaperWednesday"
        ],
        "users": []
      },
      "location": "",
      "media_id": "dcfb2edb6b4e4bfb949d9b3cf8c238be",
      "path": "photos/202003/dcfb2edb6b4e4bfb949d9b3cf8c238be.jpg",
      "perceptual_hash": "p:8a0aaf4ec8b8276f",
      "taken": 1584556380,
      "taken_at": "Mar 18, 2020, 6:33 PM"
    },
    "millsfield:similar": {
      "google/siglip2-so400m-patch16-naflex": [
        {
          "distance": 0.17088806629180908,
          "id": 1729355425
        },
        {
          "distance": 0.17436718940734863,
          "id": 1729356085
        },
        {
          "distance": 0.18761670589447021,
          "id": 1729360327
        },
        {
          "distance": 0.18877708911895752,
          "id": 1880151619
        },
        {
          "distance": 0.19714677333831787,
          "id": 1729356087
        },
        {
          "distance": 0.20070397853851318,
          "id": 1729356085
        },
        {
          "distance": 0.20655179023742676,
          "id": 1729355425
        },
        {
          "distance": 0.20775312185287476,
          "id": 1947424879
        },
        {
          "distance": 0.20982080698013306,
          "id": 1880151605
        },
        {
          "distance": 0.2219027280807495,
          "id": 1880151619
        }
      ]
    },
    "sfomuseum:placetype": "instagram",
    "src:geom": "sfomuseum",
    "wof:belongsto": [
      1159160869,
      102527513,
      102191575,
      85633793,
      102087579,
      85922583,
      85688637
    ],
    "wof:country": "US",
    "wof:created": 1584585194,
    "wof:geomhash": "b6e33f47475d56bc8da457bc31afadc8",
    "wof:hierarchy": [
      {
        "building_id": 1159160869,
        "campus_id": 102527513,
        "continent_id": 102191575,
        "country_id": 85633793,
        "county_id": 102087579,
        "custom_id": 1729355421,
        "instagram_id": 1729355421,
        "locality_id": 85922583,
        "neighbourhood_id": -1,
        "region_id": 85688637
      }
    ],
    "wof:id": 1729355421,
    "wof:lastmodified": 1787777624,
    "wof:name": "Before the advent of photography, a number of superbly illustrated books made by Western travelers and artists in the early nineteenth century helped fuel the public’s fascination with foreign locales...",
    "wof:parent_id": 1159160869,
    "wof:placetype": "custom",
    "wof:placetype_alt": [
      "instagram"
    ],
    "wof:repo": "sfomuseum-data-socialmedia-instagram",
    "wof:superseded_by": [],
    "wof:supersedes": []
  },
  "bbox": [
    -122.386166,
    37.616356,
    -122.386166,
    37.616356
  ],
  "geometry": {"type":"Point","coordinates":[-122.386166,37.616356]}
}
