{
  "id": 1729357913,
  "type": "Feature",
  "properties": {
    "date:cessation_lower": "2018-07-22",
    "date:cessation_upper": "2018-07-22",
    "date:inception_lower": "2018-07-22",
    "date:inception_upper": "2018-07-22",
    "edtf:cessation": "2018-07-21T20:54:48-07:00",
    "edtf:inception": "2018-07-21T20:54:48-07:00",
    "geom:area": 0,
    "geom:bbox": "-122.386166,37.616356,-122.386166,37.616356",
    "geom:latitude": 37.616356,
    "geom:longitude": -122.386166,
    "instagram:post": {
      "caption": {
        "body": "In one of the lesser-known public works projects undertaken by President Franklin D. Roosevelt’s New Deal, three “Greenbelt Towns” were designed and built by the U.S. Government between 1935 and 1938: Greenbelt, Maryland; Greendale, Wisconsin; and Greenhills, Ohio. Over seven decades after their formation, photographer Jason Reblando revisits Greenbelt, Greendale, and Greenhills for his series, New Deal Utopias. Working with a large format film camera, he produces meticulously rendered images that adopt a straightforward documentary style and examine the towns as they exist today.  See \"New Deal Utopias\" by Jason Reblando (@jjrebs), on display, pre-security, in the Terminal 2 connector between Terminal 1 and 2. http://bit.ly/2umdThn",
        "excerpt": "In one of the lesser-known public works projects undertaken by President Franklin D. Roosevelt’s New Deal, three “Greenbelt Towns” were designed and built by the U.S. Government between 1935 and 1938: Greenbelt, Maryland; Greendale, Wisconsin; and Greenhills, Ohio.",
        "hashtags": [
          "jasonreblando",
          "photography",
          "newdeal",
          "utopia",
          "greenbelt",
          "greendale",
          "greenhills",
          "documentary",
          "towns",
          "america",
          "americana",
          "publicworks",
          "airportart"
        ],
        "users": []
      },
      "location": "",
      "media_id": "4ccb114d879e2a2bbbb231665e50e13d",
      "path": "photos/201807/4ccb114d879e2a2bbbb231665e50e13d.jpg",
      "perceptual_hash": "p:b0da3fd68f618862",
      "taken": 1532202840,
      "taken_at": "Jul 21, 2018, 7:54 PM"
    },
    "millsfield:similar": {
      "google/siglip2-so400m-patch16-naflex": [
        {
          "distance": 0.27048295736312866,
          "id": 1729360829
        },
        {
          "distance": 0.2891678810119629,
          "id": 1729360829
        },
        {
          "distance": 0.3069721460342407,
          "id": 1880151137
        },
        {
          "distance": 0.31262093782424927,
          "id": 1729359425
        },
        {
          "distance": 0.319360613822937,
          "id": 1729362613
        },
        {
          "distance": 0.32077860832214355,
          "id": 1880151555
        },
        {
          "distance": 0.32184767723083496,
          "id": 1947424975
        },
        {
          "distance": 0.32191556692123413,
          "id": 1729355671
        },
        {
          "distance": 0.3322172164916992,
          "id": 1763559589
        },
        {
          "distance": 0.3324049711227417,
          "id": 1880151205
        }
      ]
    },
    "sfomuseum:placetype": "instagram",
    "src:geom": "sfomuseum",
    "wof:belongsto": [
      1159160869,
      102527513,
      102191575,
      85633793,
      102087579,
      85922583,
      85688637
    ],
    "wof:country": "US",
    "wof:created": 1532231688,
    "wof:geomhash": "b6e33f47475d56bc8da457bc31afadc8",
    "wof:hierarchy": [
      {
        "building_id": 1159160869,
        "campus_id": 102527513,
        "continent_id": 102191575,
        "country_id": 85633793,
        "county_id": 102087579,
        "custom_id": 1729357913,
        "instagram_id": 1729357913,
        "locality_id": 85922583,
        "neighbourhood_id": -1,
        "region_id": 85688637
      }
    ],
    "wof:id": 1729357913,
    "wof:lastmodified": 1787777632,
    "wof:name": "In one of the lesser-known public works projects undertaken by President Franklin D. Roosevelt’s New Deal, three “Greenbelt Towns” were designed and built by the U.S. Government between 1935 and 1938: Greenbelt, Maryland; Greendale, Wisconsin; and Greenhills, Ohio...",
    "wof:parent_id": 1159160869,
    "wof:placetype": "custom",
    "wof:placetype_alt": [
      "instagram"
    ],
    "wof:repo": "sfomuseum-data-socialmedia-instagram",
    "wof:superseded_by": [],
    "wof:supersedes": []
  },
  "bbox": [
    -122.386166,
    37.616356,
    -122.386166,
    37.616356
  ],
  "geometry": {"type":"Point","coordinates":[-122.386166,37.616356]}
}
