{
  "id": 1729356393,
  "type": "Feature",
  "properties": {
    "date:cessation_lower": "2019-06-24",
    "date:cessation_upper": "2019-06-24",
    "date:inception_lower": "2019-06-24",
    "date:inception_upper": "2019-06-24",
    "edtf:cessation": "2019-06-24T10:08:59-07:00",
    "edtf:inception": "2019-06-24T10:08:59-07:00",
    "geom:area": 0,
    "geom:bbox": "-122.386166,37.616356,-122.386166,37.616356",
    "geom:latitude": 37.616356,
    "geom:longitude": -122.386166,
    "instagram:post": {
      "caption": {
        "body": "In her ongoing series, “City Space”, Chicago-based artist Clarissa Bonet explores the urban landscape from a pedestrian perspective, producing dramatic images that draw focus both on the surface of the city and the psychological resonance of the architecture within it.  As part of her working process, Bonet roams the city, observing the idiosyncrasies of the urban environment and taking note of chance encounters and interactions between strangers and their surroundings. Bonet later restages these moments during ideal weather and lighting conditions to produce striking photographs that evoke the almost contradictory sensation of solitude one often feels amidst the towering buildings and anonymous crowds of the city. Transformed by the artist’s use of deep shadow, striking light, and muted color, routine moments become elevated and hyper-real, offering an opportunity for us to reflect upon our own relationship with the urban environment.  See “City Space” by Clarissa Bonet on display, pre-security, in Terminal 2. http://bit.ly/2StQZlZ",
        "excerpt": "In her ongoing series, “City Space”, Chicago-based artist Clarissa Bonet explores the urban landscape from a pedestrian perspective, producing dramatic images that draw focus both on the surface of the city and the psychological resonance of the architecture within it.",
        "hashtags": [
          "CitySpace",
          "photography",
          "ClarissaBonet",
          "cityscape",
          "builtenvironment"
        ],
        "users": [
          "clarissabonet"
        ]
      },
      "location": "",
      "media_id": "c9824df97320cf387fc6713afff13582",
      "path": "photos/201906/c9824df97320cf387fc6713afff13582.jpg",
      "perceptual_hash": "p:85617ef8d18f8a8a",
      "taken": 1561367280,
      "taken_at": "Jun 24, 2019, 9:08 AM"
    },
    "millsfield:similar": {
      "google/siglip2-so400m-patch16-naflex": [
        {
          "distance": 0.25338077545166016,
          "id": 1729356955
        },
        {
          "distance": 0.27626287937164307,
          "id": 1729356391
        },
        {
          "distance": 0.27686238288879395,
          "id": 1729356955
        },
        {
          "distance": 0.2827547788619995,
          "id": 1729361797
        },
        {
          "distance": 0.2896665334701538,
          "id": 1729356409
        },
        {
          "distance": 0.28992724418640137,
          "id": 1729356931
        },
        {
          "distance": 0.29880642890930176,
          "id": 1729356409
        },
        {
          "distance": 0.3017691969871521,
          "id": 1763559281
        },
        {
          "distance": 0.3122142553329468,
          "id": 1729359719
        },
        {
          "distance": 0.3122605085372925,
          "id": 1763559323
        }
      ]
    },
    "sfomuseum:placetype": "instagram",
    "src:geom": "sfomuseum",
    "wof:belongsto": [
      1159160869,
      102527513,
      102191575,
      85633793,
      102087579,
      85922583,
      85688637
    ],
    "wof:country": "US",
    "wof:created": 1561396139,
    "wof:geomhash": "b6e33f47475d56bc8da457bc31afadc8",
    "wof:hierarchy": [
      {
        "building_id": 1159160869,
        "campus_id": 102527513,
        "continent_id": 102191575,
        "country_id": 85633793,
        "county_id": 102087579,
        "custom_id": 1729356393,
        "instagram_id": 1729356393,
        "locality_id": 85922583,
        "neighbourhood_id": -1,
        "region_id": 85688637
      }
    ],
    "wof:id": 1729356393,
    "wof:lastmodified": 1787777629,
    "wof:name": "In her ongoing series, “City Space”, Chicago-based artist Clarissa Bonet explores the urban landscape from a pedestrian perspective, producing dramatic images that draw focus both on the surface of the city and the psychological resonance of the architecture within it...",
    "wof:parent_id": 1159160869,
    "wof:placetype": "custom",
    "wof:placetype_alt": [
      "instagram"
    ],
    "wof:repo": "sfomuseum-data-socialmedia-instagram",
    "wof:superseded_by": [],
    "wof:supersedes": []
  },
  "bbox": [
    -122.386166,
    37.616356,
    -122.386166,
    37.616356
  ],
  "geometry": {"type":"Point","coordinates":[-122.386166,37.616356]}
}
