{
  "id": 1729359395,
  "type": "Feature",
  "properties": {
    "date:cessation_lower": "2017-06-16",
    "date:cessation_upper": "2017-06-16",
    "date:inception_lower": "2017-06-16",
    "date:inception_upper": "2017-06-16",
    "edtf:cessation": "2017-06-16T01:39:00-07:00",
    "edtf:inception": "2017-06-16T01:39:00-07:00",
    "geom:area": 0,
    "geom:bbox": "-122.386166,37.616356,-122.386166,37.616356",
    "geom:latitude": 37.616356,
    "geom:longitude": -122.386166,
    "instagram:post": {
      "caption": {
        "body": "One of the oldest forms of footwear in India, the paduka, a toe-knob sandal with an elevated sole, is still worn today. For hundreds of centuries, this ancient design has kept the foot elevated above the hot earth while protecting feet from ground debris. Commonly made from solid wood, some finer pairs were intricately carved in the shape of fish, which symbolize fertility and abundance. Although all classes wore padukas, finer materials and intricate adornment reflect the status of their wearers. Religious teachers or holy men often wore padukas, and pilgrims on religious journeys occasionally wore wooden padukas with metal spikes.  See more shoes from all over the world in \"Stepping Out: Shoes in World Culture\" on display, pre-security, in the International Terminal. http://bit.ly/ShoesinCulture",
        "excerpt": "One of the oldest forms of footwear in India, the paduka, a toe-knob sandal with an elevated sole, is still worn today.",
        "hashtags": [
          "ShoesinCulture",
          "shoes",
          "shoestagram",
          "shoeswag",
          "shoesoftheday",
          "shoedesign",
          "instashoes",
          "shoefashion",
          "shoeslover#india",
          "paduka",
          "sandal",
          "sandals"
        ],
        "users": []
      },
      "media_id": "2d4e99abdd44807b979dadf151ea3051",
      "path": "media/posts/201706/19121016_777254005790982_3286670856511553536_n_17858533585193872.jpg",
      "perceptual_hash": "p:e9c4b5319613b6c3",
      "taken": 1497602340,
      "taken_at": "Jun 16, 2017 8:39 am"
    },
    "millsfield:similar": {
      "google/siglip2-so400m-patch16-naflex": [
        {
          "distance": 0.3261364698410034,
          "id": 1729362323
        },
        {
          "distance": 0.32653969526290894,
          "id": 1729363013
        },
        {
          "distance": 0.3285139203071594,
          "id": 1729362197
        },
        {
          "distance": 0.3356062173843384,
          "id": 1729359481
        },
        {
          "distance": 0.34185004234313965,
          "id": 1729359291
        },
        {
          "distance": 0.351177453994751,
          "id": 1729362347
        },
        {
          "distance": 0.35253018140792847,
          "id": 1729363013
        },
        {
          "distance": 0.35727012157440186,
          "id": 1729362839
        },
        {
          "distance": 0.36156201362609863,
          "id": 1729362859
        },
        {
          "distance": 0.3617224097251892,
          "id": 1729362251
        }
      ]
    },
    "sfomuseum:placetype": "instagram",
    "src:geom": "sfomuseum",
    "wof:belongsto": [
      1159160869,
      102527513,
      102191575,
      85633793,
      102087579,
      85922583,
      85688637
    ],
    "wof:country": "US",
    "wof:created": 1497602340,
    "wof:geomhash": "b6e33f47475d56bc8da457bc31afadc8",
    "wof:hierarchy": [
      {
        "building_id": 1159160869,
        "campus_id": 102527513,
        "continent_id": 102191575,
        "country_id": 85633793,
        "county_id": 102087579,
        "custom_id": 1729359395,
        "instagram_id": 1729359395,
        "locality_id": 85922583,
        "neighbourhood_id": -1,
        "region_id": 85688637
      }
    ],
    "wof:id": 1729359395,
    "wof:lastmodified": 1787777635,
    "wof:name": "One of the oldest forms of footwear in India, the paduka, a toe-knob sandal with an elevated sole, is still worn today...",
    "wof:parent_id": 1159160869,
    "wof:placetype": "custom",
    "wof:placetype_alt": [
      "instagram"
    ],
    "wof:repo": "sfomuseum-data-socialmedia-instagram",
    "wof:superseded_by": [],
    "wof:supersedes": []
  },
  "bbox": [
    -122.386166,
    37.616356,
    -122.386166,
    37.616356
  ],
  "geometry": {"type":"Point","coordinates":[-122.386166,37.616356]}
}
