{
  "id": 1729362149,
  "type": "Feature",
  "properties": {
    "date:cessation_lower": "2014-09-03",
    "date:cessation_upper": "2014-09-03",
    "date:inception_lower": "2014-09-03",
    "date:inception_upper": "2014-09-03",
    "edtf:cessation": "2014-09-03T05:42:00-07:00",
    "edtf:inception": "2014-09-03T05:42:00-07:00",
    "geom:area": 0,
    "geom:bbox": "-122.386166,37.616356,-122.386166,37.616356",
    "geom:latitude": 37.616356,
    "geom:longitude": -122.386166,
    "instagram:post": {
      "caption": {
        "body": "",
        "excerpt": "",
        "hashtags": [
          "maps",
          "sfmaps",
          "sfhistory",
          "calacademy",
          "sfai"
        ],
        "users": []
      },
      "media_id": "6b6e4cac297d063dd882ebfc3de7a0ef",
      "path": "media/other/10643807_937917362888295_1252364950_n_17841761002062499.jpg",
      "perceptual_hash": "p:a7d01b36a439e86b",
      "taken": 1409748120,
      "taken_at": "Sep 03, 2014 12:42 pm"
    },
    "millsfield:similar": {
      "google/siglip2-so400m-patch16-naflex": [
        {
          "distance": 0.19834202527999878,
          "id": 1729362209
        },
        {
          "distance": 0.19879090785980225,
          "id": 1729361289
        },
        {
          "distance": 0.21035975217819214,
          "id": 1729362185
        },
        {
          "distance": 0.22442471981048584,
          "id": 1729362391
        },
        {
          "distance": 0.23764723539352417,
          "id": 1729359229
        },
        {
          "distance": 0.24821335077285767,
          "id": 1729362309
        },
        {
          "distance": 0.25181639194488525,
          "id": 1729359331
        },
        {
          "distance": 0.2547483444213867,
          "id": 1729362287
        },
        {
          "distance": 0.25773555040359497,
          "id": 1729357237
        },
        {
          "distance": 0.26157891750335693,
          "id": 1729355665
        }
      ]
    },
    "sfomuseum:placetype": "instagram",
    "src:geom": "sfomuseum",
    "wof:belongsto": [
      1159160869,
      102527513,
      102191575,
      85633793,
      102087579,
      85922583,
      85688637
    ],
    "wof:country": "US",
    "wof:created": 1409748120,
    "wof:geomhash": "b6e33f47475d56bc8da457bc31afadc8",
    "wof:hierarchy": [
      {
        "building_id": 1159160869,
        "campus_id": 102527513,
        "continent_id": 102191575,
        "country_id": 85633793,
        "county_id": 102087579,
        "custom_id": 1729362149,
        "instagram_id": 1729362149,
        "locality_id": 85922583,
        "neighbourhood_id": -1,
        "region_id": 85688637
      }
    ],
    "wof:id": 1729362149,
    "wof:lastmodified": 1787777646,
    "wof:name": "..",
    "wof:parent_id": 1159160869,
    "wof:placetype": "custom",
    "wof:placetype_alt": [
      "instagram"
    ],
    "wof:repo": "sfomuseum-data-socialmedia-instagram",
    "wof:superseded_by": [],
    "wof:supersedes": []
  },
  "bbox": [
    -122.386166,
    37.616356,
    -122.386166,
    37.616356
  ],
  "geometry": {"type":"Point","coordinates":[-122.386166,37.616356]}
}
