{
  "id": 1729361863,
  "type": "Feature",
  "properties": {
    "date:cessation_lower": "2015-03-23",
    "date:cessation_upper": "2015-03-23",
    "date:inception_lower": "2015-03-23",
    "date:inception_upper": "2015-03-23",
    "edtf:cessation": "2015-03-23T02:55:00-07:00",
    "edtf:inception": "2015-03-23T02:55:00-07:00",
    "geom:area": 0,
    "geom:bbox": "-122.386166,37.616356,-122.386166,37.616356",
    "geom:latitude": 37.616356,
    "geom:longitude": -122.386166,
    "instagram:post": {
      "caption": {
        "body": "",
        "excerpt": "",
        "hashtags": [
          "AgeOfDeco",
          "ArtDeco",
          "fashion"
        ],
        "users": []
      },
      "media_id": "e2dda32bcc6e0b88d085e9baba4065a5",
      "path": "media/other/11084619_876446442413350_553587049_n_17841739639062499.jpg",
      "perceptual_hash": "p:eecca881b92dd2b2",
      "taken": 1427104500,
      "taken_at": "Mar 23, 2015 9:55 am"
    },
    "millsfield:similar": {
      "google/siglip2-so400m-patch16-naflex": [
        {
          "distance": 0.23277372121810913,
          "id": 1729355159
        },
        {
          "distance": 0.23799991607666016,
          "id": 1763558831
        },
        {
          "distance": 0.23800432682037354,
          "id": 1729355159
        },
        {
          "distance": 0.24478095769882202,
          "id": 1880150965
        },
        {
          "distance": 0.24481123685836792,
          "id": 1729357325
        },
        {
          "distance": 0.2452412247657776,
          "id": 1729357693
        },
        {
          "distance": 0.24792248010635376,
          "id": 1763558831
        },
        {
          "distance": 0.25145578384399414,
          "id": 1880150965
        },
        {
          "distance": 0.2694171667098999,
          "id": 1729357693
        },
        {
          "distance": 0.2709183692932129,
          "id": 1947425141
        }
      ]
    },
    "sfomuseum:placetype": "instagram",
    "src:geom": "sfomuseum",
    "wof:belongsto": [
      1159160869,
      102527513,
      102191575,
      85633793,
      102087579,
      85922583,
      85688637
    ],
    "wof:country": "US",
    "wof:created": 1427104500,
    "wof:geomhash": "b6e33f47475d56bc8da457bc31afadc8",
    "wof:hierarchy": [
      {
        "building_id": 1159160869,
        "campus_id": 102527513,
        "continent_id": 102191575,
        "country_id": 85633793,
        "county_id": 102087579,
        "custom_id": 1729361863,
        "instagram_id": 1729361863,
        "locality_id": 85922583,
        "neighbourhood_id": -1,
        "region_id": 85688637
      }
    ],
    "wof:id": 1729361863,
    "wof:lastmodified": 1787777646,
    "wof:name": "..",
    "wof:parent_id": 1159160869,
    "wof:placetype": "custom",
    "wof:placetype_alt": [
      "instagram"
    ],
    "wof:repo": "sfomuseum-data-socialmedia-instagram",
    "wof:superseded_by": [],
    "wof:supersedes": []
  },
  "bbox": [
    -122.386166,
    37.616356,
    -122.386166,
    37.616356
  ],
  "geometry": {"type":"Point","coordinates":[-122.386166,37.616356]}
}
