{
  "id": 1729362713,
  "type": "Feature",
  "properties": {
    "date:cessation_lower": "2013-05-02",
    "date:cessation_upper": "2013-05-02",
    "date:inception_lower": "2013-05-02",
    "date:inception_upper": "2013-05-02",
    "edtf:cessation": "2013-05-02T06:18:00-07:00",
    "edtf:inception": "2013-05-02T06:18:00-07:00",
    "geom:area": 0,
    "geom:bbox": "-122.386166,37.616356,-122.386166,37.616356",
    "geom:latitude": 37.616356,
    "geom:longitude": -122.386166,
    "instagram:post": {
      "caption": {
        "body": "Finishing up the installation of 'The Douglas DC-3: Legacy of an Airline Legend' at the #Aviation Museum.",
        "excerpt": "Finishing up the installation of 'The Douglas DC-3: Legacy of an Airline Legend' at the #Aviation Museum.",
        "hashtags": [],
        "users": []
      },
      "media_id": "e01f57ebbe16dd8504588872060dba91",
      "path": "media/other/11330635_1594843304122355_1289493621_n_17842319278062499.jpg",
      "perceptual_hash": "p:ee8cc563b13ba419",
      "taken": 1367500680,
      "taken_at": "May 02, 2013 1:18 pm"
    },
    "millsfield:similar": {
      "google/siglip2-so400m-patch16-naflex": [
        {
          "distance": 0.25479936599731445,
          "id": 1729362527
        },
        {
          "distance": 0.2675677537918091,
          "id": 1729362743
        },
        {
          "distance": 0.2752631902694702,
          "id": 1729362737
        },
        {
          "distance": 0.2779552936553955,
          "id": 1729362919
        },
        {
          "distance": 0.28212159872055054,
          "id": 1729362527
        },
        {
          "distance": 0.28800100088119507,
          "id": 1729362913
        },
        {
          "distance": 0.2942770719528198,
          "id": 1729362795
        },
        {
          "distance": 0.2965826392173767,
          "id": 1729361703
        },
        {
          "distance": 0.29678601026535034,
          "id": 1729362737
        },
        {
          "distance": 0.29699867963790894,
          "id": 1729361873
        }
      ]
    },
    "sfomuseum:placetype": "instagram",
    "src:geom": "sfomuseum",
    "wof:belongsto": [
      1159160869,
      102527513,
      102191575,
      85633793,
      102087579,
      85922583,
      85688637
    ],
    "wof:country": "US",
    "wof:created": 1367500680,
    "wof:geomhash": "b6e33f47475d56bc8da457bc31afadc8",
    "wof:hierarchy": [
      {
        "building_id": 1159160869,
        "campus_id": 102527513,
        "continent_id": 102191575,
        "country_id": 85633793,
        "county_id": 102087579,
        "custom_id": 1729362713,
        "instagram_id": 1729362713,
        "locality_id": 85922583,
        "neighbourhood_id": -1,
        "region_id": 85688637
      }
    ],
    "wof:id": 1729362713,
    "wof:lastmodified": 1787777647,
    "wof:name": "Finishing up the installation of 'The Douglas DC-3: Legacy of an Airline Legend' at the #Aviation Museum...",
    "wof:parent_id": 1159160869,
    "wof:placetype": "custom",
    "wof:placetype_alt": [
      "instagram"
    ],
    "wof:repo": "sfomuseum-data-socialmedia-instagram",
    "wof:superseded_by": [],
    "wof:supersedes": []
  },
  "bbox": [
    -122.386166,
    37.616356,
    -122.386166,
    37.616356
  ],
  "geometry": {"type":"Point","coordinates":[-122.386166,37.616356]}
}
