{
  "id": 1729356233,
  "type": "Feature",
  "properties": {
    "date:cessation_lower": "2019-08-11",
    "date:cessation_upper": "2019-08-11",
    "date:inception_lower": "2019-08-11",
    "date:inception_upper": "2019-08-11",
    "edtf:cessation": "2019-08-11T03:26:00-07:00",
    "edtf:inception": "2019-08-11T03:26:00-07:00",
    "geom:area": 0,
    "geom:bbox": "-122.386166,37.616356,-122.386166,37.616356",
    "geom:latitude": 37.616356,
    "geom:longitude": -122.386166,
    "instagram:post": {
      "caption": {
        "body": "According to Alejandro Durán, his “Washed Up” series “transforms the international debris washing up on Mexico’s Caribbean coast into aesthetic yet disquieting works.” Durán photographs the various waste he collects and makes into assemblages on site. “At times he distributes the objects the way the waves would; at other times, the plastic mimics algae, roots, rivers, or fruit, reflecting the infiltration of plastics into the natural environment.” More than surreal landscapes, Durán’s images serve as a reminder of the dire consequences of worldwide environmental pollution. “Washed Up” by Alejandro Durán is on display, pre-security in Terminal 3. ",
        "excerpt": "According to Alejandro Durán, his “Washed Up” series “transforms the international debris washing up on Mexico’s Caribbean coast into aesthetic yet disquieting works.” Durán photographs the various waste he collects and makes into assemblages on site.",
        "hashtags": [
          "AlejandroDurán",
          "photography",
          "plastic",
          "mexico",
          "debris",
          "waste",
          "assemblage"
        ],
        "users": []
      },
      "media_id": "9ac257160ff9f94e09067791d676d867",
      "path": "media/other/66299369_164364791400197_6298026171988431501_n_17845207012577538.jpg",
      "perceptual_hash": "p:89a789cbe8f250f4",
      "taken": 1565519160,
      "taken_at": "Aug 11, 2019 10:26 am"
    },
    "millsfield:similar": {
      "google/siglip2-so400m-patch16-naflex": [
        {
          "distance": 0.3731672167778015,
          "id": 1880151693
        },
        {
          "distance": 0.3956586718559265,
          "id": 1729358265
        },
        {
          "distance": 0.40038925409317017,
          "id": 1729355497
        },
        {
          "distance": 0.4063953161239624,
          "id": 1763558915
        },
        {
          "distance": 0.4123550057411194,
          "id": 1729358201
        },
        {
          "distance": 0.4146192669868469,
          "id": 1729356871
        },
        {
          "distance": 0.41879624128341675,
          "id": 1729360387
        },
        {
          "distance": 0.4213378429412842,
          "id": 1729359109
        },
        {
          "distance": 0.42389774322509766,
          "id": 1729355527
        },
        {
          "distance": 0.4340280294418335,
          "id": 1729356445
        }
      ]
    },
    "sfomuseum:placetype": "instagram",
    "src:geom": "sfomuseum",
    "wof:belongsto": [
      1159160869,
      102527513,
      102191575,
      85633793,
      102087579,
      85922583,
      85688637
    ],
    "wof:country": "US",
    "wof:created": 1565519160,
    "wof:geomhash": "b6e33f47475d56bc8da457bc31afadc8",
    "wof:hierarchy": [
      {
        "building_id": 1159160869,
        "campus_id": 102527513,
        "continent_id": 102191575,
        "country_id": 85633793,
        "county_id": 102087579,
        "custom_id": 1729356233,
        "instagram_id": 1729356233,
        "locality_id": 85922583,
        "neighbourhood_id": -1,
        "region_id": 85688637
      }
    ],
    "wof:id": 1729356233,
    "wof:lastmodified": 1787777628,
    "wof:name": "According to Alejandro Durán, his “Washed Up” series “transforms the international debris washing up on Mexico’s Caribbean coast into aesthetic yet disquieting works.” Durán photographs the various waste he collects and makes into assemblages on site...",
    "wof:parent_id": 1159160869,
    "wof:placetype": "custom",
    "wof:placetype_alt": [
      "instagram"
    ],
    "wof:repo": "sfomuseum-data-socialmedia-instagram",
    "wof:superseded_by": [],
    "wof:supersedes": []
  },
  "bbox": [
    -122.386166,
    37.616356,
    -122.386166,
    37.616356
  ],
  "geometry": {"type":"Point","coordinates":[-122.386166,37.616356]}
}
