{
  "id": 1763558727,
  "type": "Feature",
  "properties": {
    "date:cessation_lower": "2017-12-28",
    "date:cessation_upper": "2017-12-28",
    "date:inception_lower": "2017-12-28",
    "date:inception_upper": "2017-12-28",
    "edtf:cessation": "2017-12-28T09:17:00-08:00",
    "edtf:inception": "2017-12-28T09:17:00-08:00",
    "geom:area": 0,
    "geom:bbox": "-122.386166,37.616356,-122.386166,37.616356",
    "geom:latitude": 37.616356,
    "geom:longitude": -122.386166,
    "instagram:post": {
      "caption": {
        "body": "In the 1890s, the cost of a new, full-size typewriter was more than the average American earned in one month. Index typewriters were a simpler and more affordable alternative. Available at a fraction of the price and manufactured in a variety of designs, they were the earliest portable writing machines. The innovative wheel-index Victor typewriter printed from type attached to the ends of strips arranged in a daisy-wheel pattern, much like the IBM Wheelwriter a century later.  Learn more about typewriters in our exhibition, \"The Typewriter: An Innovation in Writing\", post-security, in Terminal 2. http://bit.ly/Thetypewriter",
        "excerpt": "In the 1890s, the cost of a new, full-size typewriter was more than the average American earned in one month.",
        "hashtags": [
          "thetypewriter",
          "typewriter",
          "typewriters",
          "industrialdesign",
          "QWERTY",
          "keyboard",
          "keyboards",
          "design",
          "innovation",
          "type",
          "typer",
          "typing",
          "typist",
          "oldschool",
          "instagood",
          "writer",
          "writing",
          "vintagetypewriter",
          "vintage",
          "analog",
          "antique",
          "typewritten",
          "typed",
          "typewriting",
          "oldtypewriters",
          "typewritersofinstagram"
        ],
        "users": []
      },
      "media_id": "5cff189ade666ff9080f61de7a7a0a99257f5796",
      "path": "media/posts/201712/25024111_1649231771805296_5918392748372656128_n_17907038803077168.jpg",
      "perceptual_hash": "p:e9ca6c238e1f9594",
      "taken": 1514481420,
      "taken_at": "Dec 28, 2017 5:17 pm"
    },
    "millsfield:similar": {
      "google/siglip2-so400m-patch16-naflex": [
        {
          "distance": 0.00002181529998779297,
          "id": 1729358761
        },
        {
          "distance": 0.07140904664993286,
          "id": 1729358761
        },
        {
          "distance": 0.1867581605911255,
          "id": 1729359179
        },
        {
          "distance": 0.18822836875915527,
          "id": 1729358773
        },
        {
          "distance": 0.19496816396713257,
          "id": 1729359179
        },
        {
          "distance": 0.19730734825134277,
          "id": 1729358773
        },
        {
          "distance": 0.21284282207489014,
          "id": 1729358859
        },
        {
          "distance": 0.22518128156661987,
          "id": 1729359485
        },
        {
          "distance": 0.2277376651763916,
          "id": 1729358939
        },
        {
          "distance": 0.23755168914794922,
          "id": 1729358989
        }
      ]
    },
    "sfomuseum:placetype": "instagram",
    "src:geom": "sfomuseum",
    "wof:belongsto": [
      1159160869,
      102527513,
      102191575,
      85633793,
      102087579,
      85922583,
      85688637
    ],
    "wof:country": "US",
    "wof:created": 1514481420,
    "wof:geomhash": "b6e33f47475d56bc8da457bc31afadc8",
    "wof:hierarchy": [
      {
        "building_id": 1159160869,
        "campus_id": 102527513,
        "continent_id": 102191575,
        "country_id": 85633793,
        "county_id": 102087579,
        "custom_id": 1763558727,
        "instagram_id": 1763558727,
        "locality_id": 85922583,
        "neighbourhood_id": -1,
        "region_id": 85688637
      }
    ],
    "wof:id": 1763558727,
    "wof:lastmodified": 1787777659,
    "wof:name": "In the 1890s, the cost of a new, full-size typewriter was more than the average American earned in one month...",
    "wof:parent_id": 1159160869,
    "wof:placetype": "custom",
    "wof:placetype_alt": [
      "instagram"
    ],
    "wof:repo": "sfomuseum-data-socialmedia-instagram",
    "wof:superseded_by": [],
    "wof:supersedes": []
  },
  "bbox": [
    -122.386166,
    37.616356,
    -122.386166,
    37.616356
  ],
  "geometry": {"type":"Point","coordinates":[-122.386166,37.616356]}
}
