{
  "id": 1763558987,
  "type": "Feature",
  "properties": {
    "date:cessation_lower": "2020-11-20",
    "date:cessation_upper": "2020-11-20",
    "date:inception_lower": "2020-11-20",
    "date:inception_upper": "2020-11-20",
    "edtf:cessation": "2020-11-20T06:18:00-08:00",
    "edtf:inception": "2020-11-20T06:18:00-08:00",
    "geom:area": 0,
    "geom:bbox": "-122.386166,37.616356,-122.386166,37.616356",
    "geom:latitude": 37.616356,
    "geom:longitude": -122.386166,
    "instagram:post": {
      "caption": {
        "body": "Under the wing of a Stearman 4D, these two aviatrixes, clad in aviator helmets and goggles, were part of an air show held at SFO on November 20, 1932. The show featured races, acrobatics, and stunts.   Image: San Francisco Airport, aviatrixes, 1932. SFO Museum Collection. 2011.032.0121",
        "excerpt": "Under the wing of a Stearman 4D, these two aviatrixes, clad in aviator helmets and goggles, were part of an air show held at SFO on November 20, 1932.",
        "hashtags": [
          "MuseumFromHome",
          "WomenInAviation",
          "SFOHistory",
          "avgeek",
          "aviationhistory"
        ],
        "users": []
      },
      "media_id": "18531a24d815db49c196dab8e07d7c4ca9afdbde",
      "path": "media/other/126257375_772341376991587_714707717455174447_n_18087546529215447.jpg",
      "perceptual_hash": "p:d4786ac59d2e193c",
      "taken": 1605881880,
      "taken_at": "Nov 20, 2020 2:18 pm"
    },
    "millsfield:similar": {
      "google/siglip2-so400m-patch16-naflex": [
        {
          "distance": 0.02632594108581543,
          "id": 1729362039
        },
        {
          "distance": 0.04928719997406006,
          "id": 1729359749
        },
        {
          "distance": 0.0987391471862793,
          "id": 1729362039
        },
        {
          "distance": 0.12234377861022949,
          "id": 1729359749
        },
        {
          "distance": 0.21607953310012817,
          "id": 1729361677
        },
        {
          "distance": 0.2183043360710144,
          "id": 1729359667
        },
        {
          "distance": 0.23358166217803955,
          "id": 1729359671
        },
        {
          "distance": 0.24702495336532593,
          "id": 1729359419
        },
        {
          "distance": 0.24771243333816528,
          "id": 1729357331
        },
        {
          "distance": 0.24814116954803467,
          "id": 1729360969
        }
      ]
    },
    "sfomuseum:placetype": "instagram",
    "src:geom": "sfomuseum",
    "wof:belongsto": [
      1159160869,
      102527513,
      102191575,
      85633793,
      102087579,
      85922583,
      85688637
    ],
    "wof:country": "US",
    "wof:created": 1605881880,
    "wof:geomhash": "b6e33f47475d56bc8da457bc31afadc8",
    "wof:hierarchy": [
      {
        "building_id": 1159160869,
        "campus_id": 102527513,
        "continent_id": 102191575,
        "country_id": 85633793,
        "county_id": 102087579,
        "custom_id": 1763558987,
        "instagram_id": 1763558987,
        "locality_id": 85922583,
        "neighbourhood_id": -1,
        "region_id": 85688637
      }
    ],
    "wof:id": 1763558987,
    "wof:lastmodified": 1787777660,
    "wof:name": "Under the wing of a Stearman 4D, these two aviatrixes, clad in aviator helmets and goggles, were part of an air show held at SFO on November 20, 1932...",
    "wof:parent_id": 1159160869,
    "wof:placetype": "custom",
    "wof:placetype_alt": [
      "instagram"
    ],
    "wof:repo": "sfomuseum-data-socialmedia-instagram",
    "wof:superseded_by": [],
    "wof:supersedes": []
  },
  "bbox": [
    -122.386166,
    37.616356,
    -122.386166,
    37.616356
  ],
  "geometry": {"type":"Point","coordinates":[-122.386166,37.616356]}
}
