{
  "id": 1729361695,
  "type": "Feature",
  "properties": {
    "date:cessation_lower": "2015-07-15",
    "date:cessation_upper": "2015-07-15",
    "date:inception_lower": "2015-07-15",
    "date:inception_upper": "2015-07-15",
    "edtf:cessation": "2015-07-15T06:20:00-07:00",
    "edtf:inception": "2015-07-15T06:20:00-07:00",
    "geom:area": 0,
    "geom:bbox": "-122.386166,37.616356,-122.386166,37.616356",
    "geom:latitude": 37.616356,
    "geom:longitude": -122.386166,
    "instagram:post": {
      "caption": {
        "body": "",
        "excerpt": "",
        "hashtags": [
          "wiaw",
          "vintage",
          "stewardess",
          "photography",
          "advertising",
          "vintageadvertising",
          "aviation"
        ],
        "users": []
      },
      "media_id": "c4981bb959e5dc1f065a7bc95d3c4eb8",
      "path": "media/other/11357686_497318193769360_1368549257_n_17841996424062499.jpg",
      "perceptual_hash": "p:b6d842c3693c6ec6",
      "taken": 1436966400,
      "taken_at": "Jul 15, 2015 1:20 pm"
    },
    "millsfield:similar": {
      "google/siglip2-so400m-patch16-naflex": [
        {
          "distance": 0.17816555500030518,
          "id": 1729357679
        },
        {
          "distance": 0.18582212924957275,
          "id": 1729356715
        },
        {
          "distance": 0.19511067867279053,
          "id": 1729359503
        },
        {
          "distance": 0.20014917850494385,
          "id": 1729357679
        },
        {
          "distance": 0.2012912631034851,
          "id": 1880151765
        },
        {
          "distance": 0.20939701795578003,
          "id": 1729361015
        },
        {
          "distance": 0.2106972336769104,
          "id": 1729357391
        },
        {
          "distance": 0.2127665877342224,
          "id": 1729359565
        },
        {
          "distance": 0.21303093433380127,
          "id": 1729357541
        },
        {
          "distance": 0.21441632509231567,
          "id": 1729355261
        }
      ]
    },
    "sfomuseum:placetype": "instagram",
    "src:geom": "sfomuseum",
    "wof:belongsto": [
      1159160869,
      102527513,
      102191575,
      85633793,
      102087579,
      85922583,
      85688637
    ],
    "wof:country": "US",
    "wof:created": 1436966400,
    "wof:geomhash": "b6e33f47475d56bc8da457bc31afadc8",
    "wof:hierarchy": [
      {
        "building_id": 1159160869,
        "campus_id": 102527513,
        "continent_id": 102191575,
        "country_id": 85633793,
        "county_id": 102087579,
        "custom_id": 1729361695,
        "instagram_id": 1729361695,
        "locality_id": 85922583,
        "neighbourhood_id": -1,
        "region_id": 85688637
      }
    ],
    "wof:id": 1729361695,
    "wof:lastmodified": 1787777646,
    "wof:name": "..",
    "wof:parent_id": 1159160869,
    "wof:placetype": "custom",
    "wof:placetype_alt": [
      "instagram"
    ],
    "wof:repo": "sfomuseum-data-socialmedia-instagram",
    "wof:superseded_by": [],
    "wof:supersedes": []
  },
  "bbox": [
    -122.386166,
    37.616356,
    -122.386166,
    37.616356
  ],
  "geometry": {"type":"Point","coordinates":[-122.386166,37.616356]}
}
