{
  "id": 1729361531,
  "type": "Feature",
  "properties": {
    "date:cessation_lower": "2015-09-18",
    "date:cessation_upper": "2015-09-18",
    "date:inception_lower": "2015-09-18",
    "date:inception_upper": "2015-09-18",
    "edtf:cessation": "2015-09-18T13:34:00-07:00",
    "edtf:inception": "2015-09-18T13:34:00-07:00",
    "geom:area": 0,
    "geom:bbox": "-122.386166,37.616356,-122.386166,37.616356",
    "geom:latitude": 37.616356,
    "geom:longitude": -122.386166,
    "instagram:post": {
      "caption": {
        "body": "This Alaska Airlines poster from the 1980s features an amalgamation of different San Francisco landmarks. How many have you visited?",
        "excerpt": "This Alaska Airlines poster from the 1980s features an amalgamation of different San Francisco landmarks.",
        "hashtags": [],
        "users": []
      },
      "media_id": "a622ec1cf6be83139b38373c9e2ea2d7",
      "path": "media/other/11821171_1673788096166893_1210653553_n_17843825563062499.jpg",
      "perceptual_hash": "p:ec3983cd93386669",
      "taken": 1442608440,
      "taken_at": "Sep 18, 2015 8:34 pm"
    },
    "millsfield:similar": {
      "google/siglip2-so400m-patch16-naflex": [
        {
          "distance": 0.18275290727615356,
          "id": 1763559327
        },
        {
          "distance": 0.18551701307296753,
          "id": 1763559487
        },
        {
          "distance": 0.1920543909072876,
          "id": 1729355323
        },
        {
          "distance": 0.1921015977859497,
          "id": 1729360649
        },
        {
          "distance": 0.19470417499542236,
          "id": 1729359455
        },
        {
          "distance": 0.21147704124450684,
          "id": 1947425117
        },
        {
          "distance": 0.2156738042831421,
          "id": 1729359455
        },
        {
          "distance": 0.2204303741455078,
          "id": 1729360339
        },
        {
          "distance": 0.22325676679611206,
          "id": 1947424925
        },
        {
          "distance": 0.22526812553405762,
          "id": 1729356319
        }
      ]
    },
    "sfomuseum:placetype": "instagram",
    "src:geom": "sfomuseum",
    "wof:belongsto": [
      1159160869,
      102527513,
      102191575,
      85633793,
      102087579,
      85922583,
      85688637
    ],
    "wof:country": "US",
    "wof:created": 1442608440,
    "wof:geomhash": "b6e33f47475d56bc8da457bc31afadc8",
    "wof:hierarchy": [
      {
        "building_id": 1159160869,
        "campus_id": 102527513,
        "continent_id": 102191575,
        "country_id": 85633793,
        "county_id": 102087579,
        "custom_id": 1729361531,
        "instagram_id": 1729361531,
        "locality_id": 85922583,
        "neighbourhood_id": -1,
        "region_id": 85688637
      }
    ],
    "wof:id": 1729361531,
    "wof:lastmodified": 1787777645,
    "wof:name": "This Alaska Airlines poster from the 1980s features an amalgamation of different San Francisco landmarks...",
    "wof:parent_id": 1159160869,
    "wof:placetype": "custom",
    "wof:placetype_alt": [
      "instagram"
    ],
    "wof:repo": "sfomuseum-data-socialmedia-instagram",
    "wof:superseded_by": [],
    "wof:supersedes": []
  },
  "bbox": [
    -122.386166,
    37.616356,
    -122.386166,
    37.616356
  ],
  "geometry": {"type":"Point","coordinates":[-122.386166,37.616356]}
}
