{
  "id": 1729356711,
  "type": "Feature",
  "properties": {
    "date:cessation_lower": "2019-04-04",
    "date:cessation_upper": "2019-04-04",
    "date:inception_lower": "2019-04-04",
    "date:inception_upper": "2019-04-04",
    "edtf:cessation": "2019-04-04T16:07:19-07:00",
    "edtf:inception": "2019-04-04T16:07:19-07:00",
    "geom:area": 0,
    "geom:bbox": "-122.386166,37.616356,-122.386166,37.616356",
    "geom:latitude": 37.616356,
    "geom:longitude": -122.386166,
    "instagram:post": {
      "caption": {
        "body": "During the late 1930s, appliances for the office and home underwent a major streamline design transformation. Even sewing machines were streamlined. The clean, airplane-like shape of the Sears Kenmore Imperial Model 117.59, designed by John Richard Morgan (1903–1986), presented a sharp contrast from the multifaceted, complex appearance of earlier sewing machine designs. \"Streamlines: Air Age Aesthetics for Industrial Design\" is on display, pre-security, in the Aviation Museum and Library in the International Terminal. http://bit.ly/Streamlines  Image: Sears Kenmore Imperial Model 117.59 rotary sewing machine and cabinet,  c. 1942, Collection of The Museum of American Heritage, Palo Alto, California. L2018.0215.008.01–.03",
        "excerpt": "During the late 1930s, appliances for the office and home underwent a major streamline design transformation.",
        "hashtags": [
          "StreamlinesAesthetics",
          "streamline",
          "design",
          "industrialdesign"
        ],
        "users": []
      },
      "location": "",
      "media_id": "9575ab0a560e3386247415d6c81ba2aa",
      "path": "photos/201904/9575ab0a560e3386247415d6c81ba2aa.jpg",
      "perceptual_hash": "p:ef9390e52b7a8485",
      "taken": 1554390420,
      "taken_at": "Apr 4, 2019, 3:07 PM"
    },
    "millsfield:similar": {
      "google/siglip2-so400m-patch16-naflex": [
        {
          "distance": 0.14518094062805176,
          "id": 1729356701
        },
        {
          "distance": 0.17080605030059814,
          "id": 1729356701
        },
        {
          "distance": 0.26206475496292114,
          "id": 1729357987
        },
        {
          "distance": 0.26206475496292114,
          "id": 1729357985
        },
        {
          "distance": 0.2634376287460327,
          "id": 1729358989
        },
        {
          "distance": 0.2764561176300049,
          "id": 1729356641
        },
        {
          "distance": 0.2847743034362793,
          "id": 1729356645
        },
        {
          "distance": 0.2862039804458618,
          "id": 1729358989
        },
        {
          "distance": 0.2876683473587036,
          "id": 1729360355
        },
        {
          "distance": 0.2916449308395386,
          "id": 1729359439
        }
      ]
    },
    "sfomuseum:placetype": "instagram",
    "src:geom": "sfomuseum",
    "wof:belongsto": [
      1159160869,
      102527513,
      102191575,
      85633793,
      102087579,
      85922583,
      85688637
    ],
    "wof:country": "US",
    "wof:created": 1554419239,
    "wof:geomhash": "b6e33f47475d56bc8da457bc31afadc8",
    "wof:hierarchy": [
      {
        "building_id": 1159160869,
        "campus_id": 102527513,
        "continent_id": 102191575,
        "country_id": 85633793,
        "county_id": 102087579,
        "custom_id": 1729356711,
        "instagram_id": 1729356711,
        "locality_id": 85922583,
        "neighbourhood_id": -1,
        "region_id": 85688637
      }
    ],
    "wof:id": 1729356711,
    "wof:lastmodified": 1787777629,
    "wof:name": "During the late 1930s, appliances for the office and home underwent a major streamline design transformation...",
    "wof:parent_id": 1159160869,
    "wof:placetype": "custom",
    "wof:placetype_alt": [
      "instagram"
    ],
    "wof:repo": "sfomuseum-data-socialmedia-instagram",
    "wof:superseded_by": [],
    "wof:supersedes": []
  },
  "bbox": [
    -122.386166,
    37.616356,
    -122.386166,
    37.616356
  ],
  "geometry": {"type":"Point","coordinates":[-122.386166,37.616356]}
}
