{
  "id": 1729359059,
  "type": "Feature",
  "properties": {
    "date:cessation_lower": "2017-09-24",
    "date:cessation_upper": "2017-09-24",
    "date:inception_lower": "2017-09-24",
    "date:inception_upper": "2017-09-24",
    "edtf:cessation": "2017-09-24T12:33:00-07:00",
    "edtf:inception": "2017-09-24T12:33:00-07:00",
    "geom:area": 0,
    "geom:bbox": "-122.386166,37.616356,-122.386166,37.616356",
    "geom:latitude": 37.616356,
    "geom:longitude": -122.386166,
    "instagram:post": {
      "caption": {
        "body": "Our newest San Francisco Arts Commission piece is \"No Other Lands Their Glory Know\" by Alice Shaw. This photographic image is of a redwood forest on Mount Tamalpais in Marin County, California, just north of the City and County of San Francisco. The title for this artwork is taken from a line in a poem, The Redwoods, written by Joseph B. Strauss, the chief engineer of the Golden Gate Bridge. Visitors are invited to enjoy the natural splendor of The Golden State while at the airport.  See \"No Other Lands Their Glory Know\" by Alice Shaw, post-security, above Gate 95 in the International Terminal",
        "excerpt": "Our newest San Francisco Arts Commission piece is \"No Other Lands Their Glory Know\" by Alice Shaw.",
        "hashtags": [
          "publicart",
          "airportart",
          "art",
          "fineart",
          "SFAC",
          "AliceShaw",
          "bayareaart",
          "bayareaartist",
          "bayarea",
          "redwoods",
          "marin",
          "goldengatebridge",
          "goldenstate"
        ],
        "users": [
          "aliceshawphoto",
          "san.francisco.arts.commission"
        ]
      },
      "media_id": "10a2556a78f4aa0951c5887d05a5a196",
      "path": "media/posts/201709/21910623_131386454174559_4274837961104687104_n_17900601172005549.jpg",
      "perceptual_hash": "p:af42943dc23d913e",
      "taken": 1506281580,
      "taken_at": "Sep 24, 2017 7:33 pm"
    },
    "millsfield:similar": {
      "google/siglip2-so400m-patch16-naflex": [
        {
          "distance": 0.18181568384170532,
          "id": 1947425077
        },
        {
          "distance": 0.1885945200920105,
          "id": 1729355487
        },
        {
          "distance": 0.20281749963760376,
          "id": 1947425077
        },
        {
          "distance": 0.21244269609451294,
          "id": 1729355493
        },
        {
          "distance": 0.22530072927474976,
          "id": 1729355487
        },
        {
          "distance": 0.24146109819412231,
          "id": 1880151253
        },
        {
          "distance": 0.24707716703414917,
          "id": 1729357611
        },
        {
          "distance": 0.24913471937179565,
          "id": 1947425063
        },
        {
          "distance": 0.25312983989715576,
          "id": 1880150939
        },
        {
          "distance": 0.25382065773010254,
          "id": 1880150939
        }
      ]
    },
    "sfomuseum:placetype": "instagram",
    "src:geom": "sfomuseum",
    "wof:belongsto": [
      1159160869,
      102527513,
      102191575,
      85633793,
      102087579,
      85922583,
      85688637
    ],
    "wof:country": "US",
    "wof:created": 1506281580,
    "wof:geomhash": "b6e33f47475d56bc8da457bc31afadc8",
    "wof:hierarchy": [
      {
        "building_id": 1159160869,
        "campus_id": 102527513,
        "continent_id": 102191575,
        "country_id": 85633793,
        "county_id": 102087579,
        "custom_id": 1729359059,
        "instagram_id": 1729359059,
        "locality_id": 85922583,
        "neighbourhood_id": -1,
        "region_id": 85688637
      }
    ],
    "wof:id": 1729359059,
    "wof:lastmodified": 1787777635,
    "wof:name": "Our newest San Francisco Arts Commission piece is \"No Other Lands Their Glory Know\" by Alice Shaw...",
    "wof:parent_id": 1159160869,
    "wof:placetype": "custom",
    "wof:placetype_alt": [
      "instagram"
    ],
    "wof:repo": "sfomuseum-data-socialmedia-instagram",
    "wof:superseded_by": [],
    "wof:supersedes": []
  },
  "bbox": [
    -122.386166,
    37.616356,
    -122.386166,
    37.616356
  ],
  "geometry": {"type":"Point","coordinates":[-122.386166,37.616356]}
}
