{
  "id": 1729359851,
  "type": "Feature",
  "properties": {
    "date:cessation_lower": "2017-02-03",
    "date:cessation_upper": "2017-02-03",
    "date:inception_lower": "2017-02-03",
    "date:inception_upper": "2017-02-03",
    "edtf:cessation": "2017-02-03T11:36:00-08:00",
    "edtf:inception": "2017-02-03T11:36:00-08:00",
    "geom:area": 0,
    "geom:bbox": "-122.386166,37.616356,-122.386166,37.616356",
    "geom:latitude": 37.616356,
    "geom:longitude": -122.386166,
    "instagram:post": {
      "caption": {
        "body": "This cover art on this seat-pocket flight information packet features various landmarks from Western Airlines’ travel destinations. Contents often included a route map, aircraft safety card, entertainment options, and other amenities. #westernairlines #aviationhistory #avgeek  Image: Western Airlines flight information packet, c. 1970, Gift of David A. Abercrombie, in memory of Stanley A. Abercrombie, 2001.039.265",
        "excerpt": "This cover art on this seat-pocket flight information packet features various landmarks from Western Airlines’ travel destinations.",
        "hashtags": [],
        "users": []
      },
      "media_id": "8d1221f234b6aeca8e8bb69983505838",
      "path": "media/posts/201702/16123360_604407176423329_2265966969469534208_n_17870879713036303.jpg",
      "perceptual_hash": "p:b09ac36c6ce69837",
      "taken": 1486150560,
      "taken_at": "Feb 03, 2017 7:36 pm"
    },
    "millsfield:similar": {
      "google/siglip2-so400m-patch16-naflex": [
        {
          "distance": 0.263999879360199,
          "id": 1729359455
        },
        {
          "distance": 0.2728109359741211,
          "id": 1729361549
        },
        {
          "distance": 0.28751033544540405,
          "id": 1763559487
        },
        {
          "distance": 0.28934407234191895,
          "id": 1763559327
        },
        {
          "distance": 0.2968212366104126,
          "id": 1729361531
        },
        {
          "distance": 0.3064226508140564,
          "id": 1729360029
        },
        {
          "distance": 0.3065171241760254,
          "id": 1729356329
        },
        {
          "distance": 0.30715101957321167,
          "id": 1729357175
        },
        {
          "distance": 0.3144211173057556,
          "id": 1729359739
        },
        {
          "distance": 0.31560343503952026,
          "id": 1729360649
        }
      ]
    },
    "sfomuseum:placetype": "instagram",
    "src:geom": "sfomuseum",
    "wof:belongsto": [
      1159160869,
      102527513,
      102191575,
      85633793,
      102087579,
      85922583,
      85688637
    ],
    "wof:country": "US",
    "wof:created": 1486150560,
    "wof:geomhash": "b6e33f47475d56bc8da457bc31afadc8",
    "wof:hierarchy": [
      {
        "building_id": 1159160869,
        "campus_id": 102527513,
        "continent_id": 102191575,
        "country_id": 85633793,
        "county_id": 102087579,
        "custom_id": 1729359851,
        "instagram_id": 1729359851,
        "locality_id": 85922583,
        "neighbourhood_id": -1,
        "region_id": 85688637
      }
    ],
    "wof:id": 1729359851,
    "wof:lastmodified": 1787777637,
    "wof:name": "This cover art on this seat-pocket flight information packet features various landmarks from Western Airlines’ travel destinations...",
    "wof:parent_id": 1159160869,
    "wof:placetype": "custom",
    "wof:placetype_alt": [
      "instagram"
    ],
    "wof:repo": "sfomuseum-data-socialmedia-instagram",
    "wof:superseded_by": [],
    "wof:supersedes": []
  },
  "bbox": [
    -122.386166,
    37.616356,
    -122.386166,
    37.616356
  ],
  "geometry": {"type":"Point","coordinates":[-122.386166,37.616356]}
}
