{
  "id": 1729356991,
  "type": "Feature",
  "properties": {
    "date:cessation_lower": "2019-02-06",
    "date:cessation_upper": "2019-02-06",
    "date:inception_lower": "2019-02-06",
    "date:inception_upper": "2019-02-06",
    "edtf:cessation": "2019-02-06T13:25:55-08:00",
    "edtf:inception": "2019-02-06T13:25:55-08:00",
    "geom:area": 0,
    "geom:bbox": "-122.386166,37.616356,-122.386166,37.616356",
    "geom:latitude": 37.616356,
    "geom:longitude": -122.386166,
    "instagram:post": {
      "caption": {
        "body": "Rod Kelly’s pair of Carp vases, completed in 1987 for Garrard and Company, was the artist’s first major commercial commission. For the source material of his design, Kelly purchased two rainbow trout, froze them into contorted, curved forms, and then rendered a series of sketches. The fish are surrounded by a plant motif based on species of native grasses Kelly collected along Hampshire’s River Itchen in South East England. Kelly’s final illustration and design took a matter of days, while the chasing was accomplished over five weeks at a rate of approximately one square inch each hour.  Special thanks to The Pearson Silver Collection. \"A Sterling Renaissance: British Silver Design 1957 to 2018\" is on display, pre-security, in the International Terminal. http://bit.ly/BritishSilver",
        "excerpt": "Rod Kelly’s pair of Carp vases, completed in 1987 for Garrard and Company, was the artist’s first major commercial commission.",
        "hashtags": [
          "BritishSilver",
          "silver",
          "sterling",
          "sterlingsilver",
          "silverdesign",
          "RodKelly",
          "silversmith",
          "silversmithing",
          "vase",
          "carp",
          "fish"
        ],
        "users": []
      },
      "location": "",
      "media_id": "490043d28885f40bb5907d387585f324",
      "path": "photos/201902/490043d28885f40bb5907d387585f324.jpg",
      "perceptual_hash": "p:ede1b074041ff3c2",
      "taken": 1549459500,
      "taken_at": "Feb 6, 2019, 1:25 PM"
    },
    "millsfield:similar": {
      "google/siglip2-so400m-patch16-naflex": [
        {
          "distance": 0.12203049659729004,
          "id": 1729357159
        },
        {
          "distance": 0.14652758836746216,
          "id": 1729357235
        },
        {
          "distance": 0.16669625043869019,
          "id": 1729357393
        },
        {
          "distance": 0.17137110233306885,
          "id": 1729357159
        },
        {
          "distance": 0.18206775188446045,
          "id": 1729357025
        },
        {
          "distance": 0.18736737966537476,
          "id": 1729356727
        },
        {
          "distance": 0.18855571746826172,
          "id": 1763558787
        },
        {
          "distance": 0.18855571746826172,
          "id": 1729357483
        },
        {
          "distance": 0.18924349546432495,
          "id": 1729357315
        },
        {
          "distance": 0.1921880841255188,
          "id": 1729357089
        }
      ]
    },
    "sfomuseum:placetype": "instagram",
    "src:geom": "sfomuseum",
    "wof:belongsto": [
      1159160869,
      102527513,
      102191575,
      85633793,
      102087579,
      85922583,
      85688637
    ],
    "wof:country": "US",
    "wof:created": 1549488355,
    "wof:geomhash": "b6e33f47475d56bc8da457bc31afadc8",
    "wof:hierarchy": [
      {
        "building_id": 1159160869,
        "campus_id": 102527513,
        "continent_id": 102191575,
        "country_id": 85633793,
        "county_id": 102087579,
        "custom_id": 1729356991,
        "instagram_id": 1729356991,
        "locality_id": 85922583,
        "neighbourhood_id": -1,
        "region_id": 85688637
      }
    ],
    "wof:id": 1729356991,
    "wof:lastmodified": 1787777629,
    "wof:name": "Rod Kelly’s pair of Carp vases, completed in 1987 for Garrard and Company, was the artist’s first major commercial commission...",
    "wof:parent_id": 1159160869,
    "wof:placetype": "custom",
    "wof:placetype_alt": [
      "instagram"
    ],
    "wof:repo": "sfomuseum-data-socialmedia-instagram",
    "wof:superseded_by": [],
    "wof:supersedes": []
  },
  "bbox": [
    -122.386166,
    37.616356,
    -122.386166,
    37.616356
  ],
  "geometry": {"type":"Point","coordinates":[-122.386166,37.616356]}
}
