{
  "id": 1763559251,
  "type": "Feature",
  "properties": {
    "date:cessation_lower": "2021-03-01",
    "date:cessation_upper": "2021-03-01",
    "date:inception_lower": "2021-03-01",
    "date:inception_upper": "2021-03-01",
    "edtf:cessation": "2021-03-01T08:15:00-08:00",
    "edtf:inception": "2021-03-01T08:15:00-08:00",
    "geom:area": 0,
    "geom:bbox": "-122.386166,37.616356,-122.386166,37.616356",
    "geom:latitude": 37.616356,
    "geom:longitude": -122.386166,
    "instagram:post": {
      "caption": {
        "body": "When The Surfaris from Glendora recorded the now-legendary song “Wipe Out” in 1963, their average age was only fifteen. Unplanned and improvised in the studio, “Wipe Out” was captured in only two takes and soared to #2 on charts.",
        "excerpt": "When The Surfaris from Glendora recorded the now-legendary song “Wipe Out” in 1963, their average age was only fifteen.",
        "hashtags": [
          "InstrumentalSurf",
          "SurfRock",
          "wipeout",
          "TheSurfaris"
        ],
        "users": []
      },
      "media_id": "f690db7989644600c0eb3d0096c0ef362d2c2c73",
      "path": "media/posts/202103/154995625_3281098761989596_1543179219964059926_n_17863812764399648.jpg",
      "perceptual_hash": "p:83035cfd2bc06eba",
      "taken": 1614615300,
      "taken_at": "Mar 01, 2021 4:15 pm"
    },
    "millsfield:similar": {
      "google/siglip2-so400m-patch16-naflex": [
        {
          "distance": 0.13745397329330444,
          "id": 1763559237
        },
        {
          "distance": 0.15749520063400269,
          "id": 1729357405
        },
        {
          "distance": 0.16935646533966064,
          "id": 1763559111
        },
        {
          "distance": 0.19216352701187134,
          "id": 1763559111
        },
        {
          "distance": 0.1948561668395996,
          "id": 1729357337
        },
        {
          "distance": 0.20176410675048828,
          "id": 1763558859
        },
        {
          "distance": 0.20853674411773682,
          "id": 1763558891
        },
        {
          "distance": 0.2123316526412964,
          "id": 1729357431
        },
        {
          "distance": 0.2138829231262207,
          "id": 1729356835
        },
        {
          "distance": 0.21599531173706055,
          "id": 1763559237
        }
      ]
    },
    "sfomuseum:placetype": "instagram",
    "src:geom": "sfomuseum",
    "wof:belongsto": [
      1159160869,
      102527513,
      102191575,
      85633793,
      102087579,
      85922583,
      85688637
    ],
    "wof:country": "US",
    "wof:created": 1614615300,
    "wof:geomhash": "b6e33f47475d56bc8da457bc31afadc8",
    "wof:hierarchy": [
      {
        "building_id": 1159160869,
        "campus_id": 102527513,
        "continent_id": 102191575,
        "country_id": 85633793,
        "county_id": 102087579,
        "custom_id": 1763559251,
        "instagram_id": 1763559251,
        "locality_id": 85922583,
        "neighbourhood_id": -1,
        "region_id": 85688637
      }
    ],
    "wof:id": 1763559251,
    "wof:lastmodified": 1787777660,
    "wof:name": "When The Surfaris from Glendora recorded the now-legendary song “Wipe Out” in 1963, their average age was only fifteen...",
    "wof:parent_id": 1159160869,
    "wof:placetype": "custom",
    "wof:placetype_alt": [
      "instagram"
    ],
    "wof:repo": "sfomuseum-data-socialmedia-instagram",
    "wof:superseded_by": [],
    "wof:supersedes": []
  },
  "bbox": [
    -122.386166,
    37.616356,
    -122.386166,
    37.616356
  ],
  "geometry": {"type":"Point","coordinates":[-122.386166,37.616356]}
}
