{
  "id": 1729355443,
  "type": "Feature",
  "properties": {
    "date:cessation_lower": "2020-03-13",
    "date:cessation_upper": "2020-03-13",
    "date:inception_lower": "2020-03-13",
    "date:inception_upper": "2020-03-13",
    "edtf:cessation": "2020-03-13T08:37:00-07:00",
    "edtf:inception": "2020-03-13T08:37:00-07:00",
    "geom:area": 0,
    "geom:bbox": "-122.386166,37.616356,-122.386166,37.616356",
    "geom:latitude": 37.616356,
    "geom:longitude": -122.386166,
    "instagram:post": {
      "caption": {
        "body": "Italian artist Luca Tombolini travels the globe in search of isolated locations and obscure landscapes. Working with a large format film camera, Tombolini renders each scene in exquisite detail and produces his images as large format prints. In his series, “Vistas Paradossales”, Tombolini embraces the use of in-camera multiple-exposure and long-exposure techniques to create shadowy nocturnal images that further distort time and place in these already surreal and remote locations.  See “Vistas Paradossales” by Luca Tombolini on display, pre-security, in Terminal 1. http://bit.ly/2vGg4Rp",
        "excerpt": "Italian artist Luca Tombolini travels the globe in search of isolated locations and obscure landscapes.",
        "hashtags": [
          "LucaTombolini",
          "VistasParadossales",
          "landscape",
          "photography",
          "longexposure"
        ],
        "users": [
          "lucatombolini"
        ]
      },
      "media_id": "a6b39c7f3d131a6145ef23af3db87b4d",
      "path": "media/posts/202003/89946047_656885758433904_6733470228491829457_n_17928472150368239.jpg",
      "perceptual_hash": "p:8999662699d92f36",
      "taken": 1584113820,
      "taken_at": "Mar 13, 2020 3:37 pm"
    },
    "millsfield:similar": {
      "google/siglip2-so400m-patch16-naflex": [
        {
          "distance": 0.2943929433822632,
          "id": 1729356787
        },
        {
          "distance": 0.29947489500045776,
          "id": 1729355447
        },
        {
          "distance": 0.30363672971725464,
          "id": 1729355447
        },
        {
          "distance": 0.3084620237350464,
          "id": 1729355761
        },
        {
          "distance": 0.31011396646499634,
          "id": 1729356871
        },
        {
          "distance": 0.3109683394432068,
          "id": 1729360563
        },
        {
          "distance": 0.3158372640609741,
          "id": 1729355401
        },
        {
          "distance": 0.31777918338775635,
          "id": 1729355141
        },
        {
          "distance": 0.31814372539520264,
          "id": 1729356785
        },
        {
          "distance": 0.31942808628082275,
          "id": 1729356785
        }
      ]
    },
    "sfomuseum:placetype": "instagram",
    "src:geom": "sfomuseum",
    "wof:belongsto": [
      1159160869,
      102527513,
      102191575,
      85633793,
      102087579,
      85922583,
      85688637
    ],
    "wof:country": "US",
    "wof:created": 1584113820,
    "wof:geomhash": "b6e33f47475d56bc8da457bc31afadc8",
    "wof:hierarchy": [
      {
        "building_id": 1159160869,
        "campus_id": 102527513,
        "continent_id": 102191575,
        "country_id": 85633793,
        "county_id": 102087579,
        "custom_id": 1729355443,
        "instagram_id": 1729355443,
        "locality_id": 85922583,
        "neighbourhood_id": -1,
        "region_id": 85688637
      }
    ],
    "wof:id": 1729355443,
    "wof:lastmodified": 1787777625,
    "wof:name": "Italian artist Luca Tombolini travels the globe in search of isolated locations and obscure landscapes...",
    "wof:parent_id": 1159160869,
    "wof:placetype": "custom",
    "wof:placetype_alt": [
      "instagram"
    ],
    "wof:repo": "sfomuseum-data-socialmedia-instagram",
    "wof:superseded_by": [],
    "wof:supersedes": []
  },
  "bbox": [
    -122.386166,
    37.616356,
    -122.386166,
    37.616356
  ],
  "geometry": {"type":"Point","coordinates":[-122.386166,37.616356]}
}
