{
  "id": 1729361117,
  "type": "Feature",
  "properties": {
    "date:cessation_lower": "2016-01-28",
    "date:cessation_upper": "2016-01-28",
    "date:inception_lower": "2016-01-28",
    "date:inception_upper": "2016-01-28",
    "edtf:cessation": "2016-01-28T01:23:00-08:00",
    "edtf:inception": "2016-01-28T01:23:00-08:00",
    "geom:area": 0,
    "geom:bbox": "-122.386166,37.616356,-122.386166,37.616356",
    "geom:latitude": 37.616356,
    "geom:longitude": -122.386166,
    "instagram:post": {
      "caption": {
        "body": "Early aircraft did not provide a way to heat meals for passengers, thus meals on flights were served cold. One of the first meals to be served on early flights was fried chicken because fried chicken was still good cold and kept well. In 1929, after in the introduction of the Boeing 80, United Air Lines served fried chicken, a bag of potato chips and an apple on almost every flight. With the implementation of the first flight kitchen in 1936, United could now provide hot food to their passengers. On the DC-3, United still served fried chicken, now served hot, as an option for passengers. After the food was prepared at the flight kitchen at the airport, the fried chicken was usually served in heavy paper inside a paper-mâché box to provide insulation.",
        "excerpt": "Early aircraft did not provide a way to heat meals for passengers, thus meals on flights were served cold.",
        "hashtags": [],
        "users": []
      },
      "media_id": "bba122d9e915447037b32b64a3e0f4c1",
      "path": "media/other/12446020_528837220610550_1258430957_n_17853287890044031.jpg",
      "perceptual_hash": "p:b74a7fa9a19e4089",
      "taken": 1453972980,
      "taken_at": "Jan 28, 2016 9:23 am"
    },
    "millsfield:similar": {
      "google/siglip2-so400m-patch16-naflex": [
        {
          "distance": 0.14535260200500488,
          "id": 1763558867
        },
        {
          "distance": 0.1508234143257141,
          "id": 1729358209
        },
        {
          "distance": 0.15810620784759521,
          "id": 1729355797
        },
        {
          "distance": 0.16049593687057495,
          "id": 1763559125
        },
        {
          "distance": 0.16668015718460083,
          "id": 1763558867
        },
        {
          "distance": 0.16880667209625244,
          "id": 1729355797
        },
        {
          "distance": 0.16969174146652222,
          "id": 1729360723
        },
        {
          "distance": 0.1731376051902771,
          "id": 1729355351
        },
        {
          "distance": 0.1865764856338501,
          "id": 1729355351
        },
        {
          "distance": 0.1974865198135376,
          "id": 1880150955
        }
      ]
    },
    "sfomuseum:placetype": "instagram",
    "src:geom": "sfomuseum",
    "wof:belongsto": [
      1159160869,
      102527513,
      102191575,
      85633793,
      102087579,
      85922583,
      85688637
    ],
    "wof:country": "US",
    "wof:created": 1453972980,
    "wof:geomhash": "b6e33f47475d56bc8da457bc31afadc8",
    "wof:hierarchy": [
      {
        "building_id": 1159160869,
        "campus_id": 102527513,
        "continent_id": 102191575,
        "country_id": 85633793,
        "county_id": 102087579,
        "custom_id": 1729361117,
        "instagram_id": 1729361117,
        "locality_id": 85922583,
        "neighbourhood_id": -1,
        "region_id": 85688637
      }
    ],
    "wof:id": 1729361117,
    "wof:lastmodified": 1787777644,
    "wof:name": "Early aircraft did not provide a way to heat meals for passengers, thus meals on flights were served cold...",
    "wof:parent_id": 1159160869,
    "wof:placetype": "custom",
    "wof:placetype_alt": [
      "instagram"
    ],
    "wof:repo": "sfomuseum-data-socialmedia-instagram",
    "wof:superseded_by": [],
    "wof:supersedes": []
  },
  "bbox": [
    -122.386166,
    37.616356,
    -122.386166,
    37.616356
  ],
  "geometry": {"type":"Point","coordinates":[-122.386166,37.616356]}
}
