{
  "id": 1729357729,
  "type": "Feature",
  "properties": {
    "date:cessation_lower": "2018-08-31",
    "date:cessation_upper": "2018-08-31",
    "date:inception_lower": "2018-08-31",
    "date:inception_upper": "2018-08-31",
    "edtf:cessation": "2018-08-30T17:59:14-07:00",
    "edtf:inception": "2018-08-30T17:59:14-07:00",
    "geom:area": 0,
    "geom:bbox": "-122.386166,37.616356,-122.386166,37.616356",
    "geom:latitude": 37.616356,
    "geom:longitude": -122.386166,
    "instagram:post": {
      "caption": {
        "body": "The all-metal Ford Tri-Motor, or “Tin Goose,” as it was nicknamed, had a substantial impact on the early advancement of commercial aviation in the late 1920s. The initial 4-AT Tri-Motor was equipped with Wright Whirlwind engines, while the 5-AT was upgraded with more powerful Pratt and Whitney Wasp engines. In 1929, TAT (Transcontinental Air Transport) initiated the first transcontinental air service (combined with train service) with Ford 4-AT Tri-Motors. Most other major American airlines purchased safe and reliable Ford Tri-Motors for their fleets.  See \"Aviation Evolutions: The Jim Lund 1:72 Scale Model Airplane Collection\", which features more than 200 models, on display, pre-security, in the Aviation Museum. http://bit.ly/AviationEvolutions",
        "excerpt": "The all-metal Ford Tri-Motor, or “Tin Goose,” as it was nicknamed, had a substantial impact on the early advancement of commercial aviation in the late 1920s.",
        "hashtags": [
          "AviationEvolutions",
          "jimlund",
          "avgeek",
          "aviationgeek",
          "aviation",
          "aviationhistory",
          "vintageaviation",
          "history",
          "aviationgeeks",
          "modelplane",
          "scalemodel",
          "avgeeks",
          "fordtrimotor",
          "1920s"
        ],
        "users": []
      },
      "location": "",
      "media_id": "f776770ac122670e9d5ed6525a461db0",
      "path": "photos/201808/f776770ac122670e9d5ed6525a461db0.jpg",
      "perceptual_hash": "p:e659992764989b63",
      "taken": 1535648340,
      "taken_at": "Aug 30, 2018, 4:59 PM"
    },
    "millsfield:similar": {
      "google/siglip2-so400m-patch16-naflex": [
        {
          "distance": 0.06097733974456787,
          "id": 1947425155
        },
        {
          "distance": 0.1308862566947937,
          "id": 1947425155
        },
        {
          "distance": 0.14037424325942993,
          "id": 1729357039
        },
        {
          "distance": 0.14658862352371216,
          "id": 1763558881
        },
        {
          "distance": 0.1584973931312561,
          "id": 1729357601
        },
        {
          "distance": 0.16111785173416138,
          "id": 1729358891
        },
        {
          "distance": 0.165083110332489,
          "id": 1729357291
        },
        {
          "distance": 0.17050862312316895,
          "id": 1729358155
        },
        {
          "distance": 0.17248111963272095,
          "id": 1729358401
        },
        {
          "distance": 0.17768633365631104,
          "id": 1729357273
        }
      ]
    },
    "sfomuseum:placetype": "instagram",
    "src:geom": "sfomuseum",
    "wof:belongsto": [
      1159160869,
      102527513,
      102191575,
      85633793,
      102087579,
      85922583,
      85688637
    ],
    "wof:country": "US",
    "wof:created": 1535677154,
    "wof:geomhash": "b6e33f47475d56bc8da457bc31afadc8",
    "wof:hierarchy": [
      {
        "building_id": 1159160869,
        "campus_id": 102527513,
        "continent_id": 102191575,
        "country_id": 85633793,
        "county_id": 102087579,
        "custom_id": 1729357729,
        "instagram_id": 1729357729,
        "locality_id": 85922583,
        "neighbourhood_id": -1,
        "region_id": 85688637
      }
    ],
    "wof:id": 1729357729,
    "wof:lastmodified": 1787777632,
    "wof:name": "The all-metal Ford Tri-Motor, or “Tin Goose,” as it was nicknamed, had a substantial impact on the early advancement of commercial aviation in the late 1920s...",
    "wof:parent_id": 1159160869,
    "wof:placetype": "custom",
    "wof:placetype_alt": [
      "instagram"
    ],
    "wof:repo": "sfomuseum-data-socialmedia-instagram",
    "wof:superseded_by": [],
    "wof:supersedes": []
  },
  "bbox": [
    -122.386166,
    37.616356,
    -122.386166,
    37.616356
  ],
  "geometry": {"type":"Point","coordinates":[-122.386166,37.616356]}
}
