{
  "id": 1729361279,
  "type": "Feature",
  "properties": {
    "date:cessation_lower": "2015-12-11",
    "date:cessation_upper": "2015-12-11",
    "date:inception_lower": "2015-12-11",
    "date:inception_upper": "2015-12-11",
    "edtf:cessation": "2015-12-11T02:40:00-08:00",
    "edtf:inception": "2015-12-11T02:40:00-08:00",
    "geom:area": 0,
    "geom:bbox": "-122.386166,37.616356,-122.386166,37.616356",
    "geom:latitude": 37.616356,
    "geom:longitude": -122.386166,
    "instagram:post": {
      "caption": {
        "body": "",
        "excerpt": "",
        "hashtags": [
          "ILoveYouCA"
        ],
        "users": []
      },
      "media_id": "5d7f6cdef03eb6a4adbcace2efb6d685",
      "path": "media/other/12356315_703382433096787_559534243_n_17843580058087363.jpg",
      "perceptual_hash": "p:e0ac9752eb4c34f2",
      "taken": 1449830400,
      "taken_at": "Dec 11, 2015 10:40 am"
    },
    "millsfield:similar": {
      "google/siglip2-so400m-patch16-naflex": [
        {
          "distance": 0.3491933345794678,
          "id": 1729362209
        },
        {
          "distance": 0.37083733081817627,
          "id": 1729362309
        },
        {
          "distance": 0.3743785619735718,
          "id": 1729356593
        },
        {
          "distance": 0.3770902156829834,
          "id": 1729356371
        },
        {
          "distance": 0.3805519938468933,
          "id": 1729361369
        },
        {
          "distance": 0.3815361261367798,
          "id": 1729356209
        },
        {
          "distance": 0.3824006915092468,
          "id": 1729358819
        },
        {
          "distance": 0.3844134211540222,
          "id": 1729362185
        },
        {
          "distance": 0.3845258951187134,
          "id": 1729356247
        },
        {
          "distance": 0.3899921178817749,
          "id": 1729359961
        }
      ]
    },
    "sfomuseum:placetype": "instagram",
    "src:geom": "sfomuseum",
    "wof:belongsto": [
      1159160869,
      102527513,
      102191575,
      85633793,
      102087579,
      85922583,
      85688637
    ],
    "wof:country": "US",
    "wof:created": 1449830400,
    "wof:geomhash": "b6e33f47475d56bc8da457bc31afadc8",
    "wof:hierarchy": [
      {
        "building_id": 1159160869,
        "campus_id": 102527513,
        "continent_id": 102191575,
        "country_id": 85633793,
        "county_id": 102087579,
        "custom_id": 1729361279,
        "instagram_id": 1729361279,
        "locality_id": 85922583,
        "neighbourhood_id": -1,
        "region_id": 85688637
      }
    ],
    "wof:id": 1729361279,
    "wof:lastmodified": 1787777645,
    "wof:name": "..",
    "wof:parent_id": 1159160869,
    "wof:placetype": "custom",
    "wof:placetype_alt": [
      "instagram"
    ],
    "wof:repo": "sfomuseum-data-socialmedia-instagram",
    "wof:superseded_by": [],
    "wof:supersedes": []
  },
  "bbox": [
    -122.386166,
    37.616356,
    -122.386166,
    37.616356
  ],
  "geometry": {"type":"Point","coordinates":[-122.386166,37.616356]}
}
