{
  "id": 1729355875,
  "type": "Feature",
  "properties": {
    "date:cessation_lower": "2019-11-18",
    "date:cessation_upper": "2019-11-18",
    "date:inception_lower": "2019-11-18",
    "date:inception_upper": "2019-11-18",
    "edtf:cessation": "2019-11-18T11:55:08-08:00",
    "edtf:inception": "2019-11-18T11:55:08-08:00",
    "geom:area": 0,
    "geom:bbox": "-122.386166,37.616356,-122.386166,37.616356",
    "geom:latitude": 37.616356,
    "geom:longitude": -122.386166,
    "instagram:post": {
      "caption": {
        "body": "Advertised as the quietest widebody jet airliner in service, the Lockheed L-1011 TriStar took off on its maiden flight #onthisday in 1970. The TriStar trijet was the last commercial passenger airliner produced by the Lockheed Corporation. An advanced feature of the L-1011 was the autoland system which automated the landing procedure in unfavorable weather conditions. Only 250 L-1011 TriStar jets were produced, and production halted in 1982. Did you ever fly on a Lockheed L-1011 TriStar? “Widebody: The Launch of the Jumbojets in the Early 1970s” is on display, pre-security, in the Aviation Museum and Library. http://bit.ly/WidebodyAV",
        "excerpt": "Advertised as the quietest widebody jet airliner in service, the Lockheed L-1011 TriStar took off on its maiden flight #onthisday in 1970.",
        "hashtags": [
          "lockheed",
          "L1011",
          "tristar",
          "trijet",
          "autoland",
          "twa",
          "avgeek",
          "avationgeek",
          "aviation",
          "aviationhistory",
          "aviationgeeks",
          "plane",
          "avgeeks",
          "WidebodyAV"
        ],
        "users": []
      },
      "location": "",
      "media_id": "7511233a33395cd46a239fae8384ebc3",
      "path": "photos/201911/7511233a33395cd46a239fae8384ebc3.jpg",
      "perceptual_hash": "p:d11d57661d31ccc6",
      "taken": 1574078100,
      "taken_at": "Nov 18, 2019, 11:55 AM"
    },
    "millsfield:similar": {
      "google/siglip2-so400m-patch16-naflex": [
        {
          "distance": 0.19867253303527832,
          "id": 1729358895
        },
        {
          "distance": 0.20487648248672485,
          "id": 1729357563
        },
        {
          "distance": 0.21539652347564697,
          "id": 1729355873
        },
        {
          "distance": 0.2273882031440735,
          "id": 1729356059
        },
        {
          "distance": 0.23322439193725586,
          "id": 1729358099
        },
        {
          "distance": 0.23474305868148804,
          "id": 1729358895
        },
        {
          "distance": 0.23534643650054932,
          "id": 1729355873
        },
        {
          "distance": 0.2365717887878418,
          "id": 1729361973
        },
        {
          "distance": 0.24462682008743286,
          "id": 1729358643
        },
        {
          "distance": 0.24700003862380981,
          "id": 1729356059
        }
      ]
    },
    "sfomuseum:placetype": "instagram",
    "src:geom": "sfomuseum",
    "wof:belongsto": [
      1159160869,
      102527513,
      102191575,
      85633793,
      102087579,
      85922583,
      85688637
    ],
    "wof:country": "US",
    "wof:created": 1574106908,
    "wof:geomhash": "b6e33f47475d56bc8da457bc31afadc8",
    "wof:hierarchy": [
      {
        "building_id": 1159160869,
        "campus_id": 102527513,
        "continent_id": 102191575,
        "country_id": 85633793,
        "county_id": 102087579,
        "custom_id": 1729355875,
        "instagram_id": 1729355875,
        "locality_id": 85922583,
        "neighbourhood_id": -1,
        "region_id": 85688637
      }
    ],
    "wof:id": 1729355875,
    "wof:lastmodified": 1787777627,
    "wof:name": "Advertised as the quietest widebody jet airliner in service, the Lockheed L-1011 TriStar took off on its maiden flight #onthisday in 1970...",
    "wof:parent_id": 1159160869,
    "wof:placetype": "custom",
    "wof:placetype_alt": [
      "instagram"
    ],
    "wof:repo": "sfomuseum-data-socialmedia-instagram",
    "wof:superseded_by": [],
    "wof:supersedes": []
  },
  "bbox": [
    -122.386166,
    37.616356,
    -122.386166,
    37.616356
  ],
  "geometry": {"type":"Point","coordinates":[-122.386166,37.616356]}
}
