{
  "id": 1729359013,
  "type": "Feature",
  "properties": {
    "date:cessation_lower": "2017-10-08",
    "date:cessation_upper": "2017-10-08",
    "date:inception_lower": "2017-10-08",
    "date:inception_upper": "2017-10-08",
    "edtf:cessation": "2017-10-08T03:22:00-07:00",
    "edtf:inception": "2017-10-08T03:22:00-07:00",
    "geom:area": 0,
    "geom:bbox": "-122.386166,37.616356,-122.386166,37.616356",
    "geom:latitude": 37.616356,
    "geom:longitude": -122.386166,
    "instagram:post": {
      "caption": {
        "body": "An image of two Jarabe Tapatio dancers, performing what is known as in English as the Mexican Hat Dance, are shown in motion from the waist down. The metal cutout was based on a paper cutout that was photographed, digitized, and cut with a high-pressure jet stream of water.  See \"¡Baile!\" by Carmen Lomas Garza, post-security, in Boarding Area G in the International Terminal. ",
        "excerpt": "An image of two Jarabe Tapatio dancers, performing what is known as in English as the Mexican Hat Dance, are shown in motion from the waist down.",
        "hashtags": [
          "publicart",
          "sfac",
          "sfpublicart",
          "jarabetapatio",
          "baile"
        ],
        "users": []
      },
      "media_id": "94ea0e6af3ca63b4eb6a510a86eb28aa",
      "path": "media/posts/201710/22344397_137974516831888_4028989544840822784_n_17889487336112921.jpg",
      "perceptual_hash": "p:de7e7888c432970b",
      "taken": 1507458120,
      "taken_at": "Oct 08, 2017 10:22 am"
    },
    "millsfield:similar": {
      "google/siglip2-so400m-patch16-naflex": [
        {
          "distance": 0.28871220350265503,
          "id": 1729360829
        },
        {
          "distance": 0.3038833737373352,
          "id": 1947424975
        },
        {
          "distance": 0.3184240460395813,
          "id": 1947425317
        },
        {
          "distance": 0.3292800188064575,
          "id": 1729360829
        },
        {
          "distance": 0.3412189483642578,
          "id": 1880150891
        },
        {
          "distance": 0.3452671766281128,
          "id": 1729359635
        },
        {
          "distance": 0.3525858521461487,
          "id": 1729355597
        },
        {
          "distance": 0.3538333773612976,
          "id": 1763559493
        },
        {
          "distance": 0.3545617461204529,
          "id": 1729360993
        },
        {
          "distance": 0.3589887022972107,
          "id": 1729359425
        }
      ]
    },
    "sfomuseum:placetype": "instagram",
    "src:geom": "sfomuseum",
    "wof:belongsto": [
      1159160869,
      102527513,
      102191575,
      85633793,
      102087579,
      85922583,
      85688637
    ],
    "wof:country": "US",
    "wof:created": 1507458120,
    "wof:geomhash": "b6e33f47475d56bc8da457bc31afadc8",
    "wof:hierarchy": [
      {
        "building_id": 1159160869,
        "campus_id": 102527513,
        "continent_id": 102191575,
        "country_id": 85633793,
        "county_id": 102087579,
        "custom_id": 1729359013,
        "instagram_id": 1729359013,
        "locality_id": 85922583,
        "neighbourhood_id": -1,
        "region_id": 85688637
      }
    ],
    "wof:id": 1729359013,
    "wof:lastmodified": 1787777634,
    "wof:name": "An image of two Jarabe Tapatio dancers, performing what is known as in English as the Mexican Hat Dance, are shown in motion from the waist down...",
    "wof:parent_id": 1159160869,
    "wof:placetype": "custom",
    "wof:placetype_alt": [
      "instagram"
    ],
    "wof:repo": "sfomuseum-data-socialmedia-instagram",
    "wof:superseded_by": [],
    "wof:supersedes": []
  },
  "bbox": [
    -122.386166,
    37.616356,
    -122.386166,
    37.616356
  ],
  "geometry": {"type":"Point","coordinates":[-122.386166,37.616356]}
}
