{
  "id": 1729359817,
  "type": "Feature",
  "properties": {
    "date:cessation_lower": "2017-02-11",
    "date:cessation_upper": "2017-02-11",
    "date:inception_lower": "2017-02-11",
    "date:inception_upper": "2017-02-11",
    "edtf:cessation": "2017-02-11T14:32:00-08:00",
    "edtf:inception": "2017-02-11T14:32:00-08:00",
    "geom:area": 0,
    "geom:bbox": "-122.386166,37.616356,-122.386166,37.616356",
    "geom:latitude": 37.616356,
    "geom:longitude": -122.386166,
    "instagram:post": {
      "caption": {
        "body": "#HappyBirthday to JetBlue which commenced operations on this day in 2000. #OnThisDay in 2000, JetBlue's inaugural flight took off from John F. Kennedy Airport in New York City to Fort Lauderdale, Florida. Have you ever flown on #JetBlue? #HBD  Image: JetBlue Airways poster, c. 2005, Gift of the William Hough Collection, 2010.040.009",
        "excerpt": "#HappyBirthday to JetBlue which commenced operations on this day in 2000.",
        "hashtags": [],
        "users": []
      },
      "media_id": "ee9c1598cd350a93d29e8ae690d9be43",
      "path": "media/posts/201702/16583583_686545544860255_7396688889286492160_n_17849029927158063.jpg",
      "perceptual_hash": "p:b8b4cce863d2cd52",
      "taken": 1486852320,
      "taken_at": "Feb 11, 2017 10:32 pm"
    },
    "millsfield:similar": {
      "google/siglip2-so400m-patch16-naflex": [
        {
          "distance": 0.2981303930282593,
          "id": 1729359113
        },
        {
          "distance": 0.3006832003593445,
          "id": 1763559069
        },
        {
          "distance": 0.3020230531692505,
          "id": 1729360551
        },
        {
          "distance": 0.30737173557281494,
          "id": 1729358623
        },
        {
          "distance": 0.30737173557281494,
          "id": 1763558725
        },
        {
          "distance": 0.30870163440704346,
          "id": 1729359761
        },
        {
          "distance": 0.3089597225189209,
          "id": 1729358929
        },
        {
          "distance": 0.3092120885848999,
          "id": 1729359113
        },
        {
          "distance": 0.31216901540756226,
          "id": 1729355559
        },
        {
          "distance": 0.3121718168258667,
          "id": 1729359489
        }
      ]
    },
    "sfomuseum:placetype": "instagram",
    "src:geom": "sfomuseum",
    "wof:belongsto": [
      1159160869,
      102527513,
      102191575,
      85633793,
      102087579,
      85922583,
      85688637
    ],
    "wof:country": "US",
    "wof:created": 1486852320,
    "wof:geomhash": "b6e33f47475d56bc8da457bc31afadc8",
    "wof:hierarchy": [
      {
        "building_id": 1159160869,
        "campus_id": 102527513,
        "continent_id": 102191575,
        "country_id": 85633793,
        "county_id": 102087579,
        "custom_id": 1729359817,
        "instagram_id": 1729359817,
        "locality_id": 85922583,
        "neighbourhood_id": -1,
        "region_id": 85688637
      }
    ],
    "wof:id": 1729359817,
    "wof:lastmodified": 1787777637,
    "wof:name": "#HappyBirthday to JetBlue which commenced operations on this day in 2000...",
    "wof:parent_id": 1159160869,
    "wof:placetype": "custom",
    "wof:placetype_alt": [
      "instagram"
    ],
    "wof:repo": "sfomuseum-data-socialmedia-instagram",
    "wof:superseded_by": [],
    "wof:supersedes": []
  },
  "bbox": [
    -122.386166,
    37.616356,
    -122.386166,
    37.616356
  ],
  "geometry": {"type":"Point","coordinates":[-122.386166,37.616356]}
}
