{
  "id": 1729359515,
  "type": "Feature",
  "properties": {
    "date:cessation_lower": "2017-05-11",
    "date:cessation_upper": "2017-05-11",
    "date:inception_lower": "2017-05-11",
    "date:inception_upper": "2017-05-11",
    "edtf:cessation": "2017-05-11T03:36:00-07:00",
    "edtf:inception": "2017-05-11T03:36:00-07:00",
    "geom:area": 0,
    "geom:bbox": "-122.386166,37.616356,-122.386166,37.616356",
    "geom:latitude": 37.616356,
    "geom:longitude": -122.386166,
    "instagram:post": {
      "caption": {
        "body": "A seldom-seen photo of SFO’s first two administration buildings, which briefly coexisted side-by-side. As passenger numbers quickly increased in the 1930s, the original 1927 wooden building (on the left) was moved a hundred feet or so to the north to make room for construction of the much larger multi-story building. The new terminal, a Spanish Mediterranean style masonry structure with a terracotta tile roof, opened in 1937. During its relocation, the older building was also elevated several feet and ramps were added to access the doors.  Image: San Francisco Airport, Administration Building, 1937. SFO Museum Collection. 1997.52.078.010. ",
        "excerpt": "A seldom-seen photo of SFO’s first two administration buildings, which briefly coexisted side-by-side.",
        "hashtags": [
          "throwbackthursday",
          "TBT",
          "SFOHistory",
          "SFhistory",
          "avgeek",
          "aviationhistory",
          "SFOat90"
        ],
        "users": []
      },
      "media_id": "bab039fa58990a848609eb9dddf50156",
      "path": "media/posts/201705/18444078_859251504212522_4869163312048242688_n_17868727504099684.jpg",
      "perceptual_hash": "p:cea1d6300e05fde3",
      "taken": 1494498960,
      "taken_at": "May 11, 2017 10:36 am"
    },
    "millsfield:similar": {
      "google/siglip2-so400m-patch16-naflex": [
        {
          "distance": 0.03024601936340332,
          "id": 1763559233
        },
        {
          "distance": 0.04888266324996948,
          "id": 1729361143
        },
        {
          "distance": 0.07175815105438232,
          "id": 1729361143
        },
        {
          "distance": 0.07556736469268799,
          "id": 1763559233
        },
        {
          "distance": 0.1394662857055664,
          "id": 1729357547
        },
        {
          "distance": 0.14037150144577026,
          "id": 1729357513
        },
        {
          "distance": 0.14251965284347534,
          "id": 1729357513
        },
        {
          "distance": 0.15513843297958374,
          "id": 1763559413
        },
        {
          "distance": 0.15582674741744995,
          "id": 1729358457
        },
        {
          "distance": 0.1571672558784485,
          "id": 1729356859
        }
      ]
    },
    "sfomuseum:placetype": "instagram",
    "src:geom": "sfomuseum",
    "wof:belongsto": [
      1159160869,
      102527513,
      102191575,
      85633793,
      102087579,
      85922583,
      85688637
    ],
    "wof:country": "US",
    "wof:created": 1494498960,
    "wof:geomhash": "b6e33f47475d56bc8da457bc31afadc8",
    "wof:hierarchy": [
      {
        "building_id": 1159160869,
        "campus_id": 102527513,
        "continent_id": 102191575,
        "country_id": 85633793,
        "county_id": 102087579,
        "custom_id": 1729359515,
        "instagram_id": 1729359515,
        "locality_id": 85922583,
        "neighbourhood_id": -1,
        "region_id": 85688637
      }
    ],
    "wof:id": 1729359515,
    "wof:lastmodified": 1787777636,
    "wof:name": "A seldom-seen photo of SFO’s first two administration buildings, which briefly coexisted side-by-side...",
    "wof:parent_id": 1159160869,
    "wof:placetype": "custom",
    "wof:placetype_alt": [
      "instagram"
    ],
    "wof:repo": "sfomuseum-data-socialmedia-instagram",
    "wof:superseded_by": [],
    "wof:supersedes": []
  },
  "bbox": [
    -122.386166,
    37.616356,
    -122.386166,
    37.616356
  ],
  "geometry": {"type":"Point","coordinates":[-122.386166,37.616356]}
}
