{
  "id": 1729362845,
  "type": "Feature",
  "properties": {
    "date:cessation_lower": "2012-11-05",
    "date:cessation_upper": "2012-11-05",
    "date:inception_lower": "2012-11-05",
    "date:inception_upper": "2012-11-05",
    "edtf:cessation": "2012-11-05T05:22:00-08:00",
    "edtf:inception": "2012-11-05T05:22:00-08:00",
    "geom:area": 0,
    "geom:bbox": "-122.386166,37.616356,-122.386166,37.616356",
    "geom:latitude": 37.616356,
    "geom:longitude": -122.386166,
    "instagram:post": {
      "caption": {
        "body": "In Parker Brothers' 1939's The National Game of Peace for Our Nation, players competed to obtain national safeguards, including liberty, justice, \u0026 freedom of speech.",
        "excerpt": "In Parker Brothers' 1939's The National Game of Peace for Our Nation, players competed to obtain national safeguards, including liberty, justice, \u0026 freedom of speech.",
        "hashtags": [],
        "users": []
      },
      "media_id": "baabb63511f7026261e9cda01f75f193",
      "path": "media/other/11236197_418983668284587_932866057_n_17842279366062499.jpg",
      "perceptual_hash": "p:8a0b65f42a5ff4a1",
      "taken": 1352121720,
      "taken_at": "Nov 05, 2012 1:22 pm"
    },
    "millsfield:similar": {
      "google/siglip2-so400m-patch16-naflex": [
        {
          "distance": 0.3553876280784607,
          "id": 1729362827
        },
        {
          "distance": 0.3565632700920105,
          "id": 1729362701
        },
        {
          "distance": 0.36782097816467285,
          "id": 1729362769
        },
        {
          "distance": 0.37517768144607544,
          "id": 1729362541
        },
        {
          "distance": 0.37664568424224854,
          "id": 1729362827
        },
        {
          "distance": 0.37757033109664917,
          "id": 1729362617
        },
        {
          "distance": 0.37790942192077637,
          "id": 1729362769
        },
        {
          "distance": 0.379186749458313,
          "id": 1729362237
        },
        {
          "distance": 0.3973204493522644,
          "id": 1729362259
        },
        {
          "distance": 0.39910703897476196,
          "id": 1729362237
        }
      ]
    },
    "sfomuseum:placetype": "instagram",
    "src:geom": "sfomuseum",
    "wof:belongsto": [
      1159160869,
      102527513,
      102191575,
      85633793,
      102087579,
      85922583,
      85688637
    ],
    "wof:country": "US",
    "wof:created": 1352121720,
    "wof:geomhash": "b6e33f47475d56bc8da457bc31afadc8",
    "wof:hierarchy": [
      {
        "building_id": 1159160869,
        "campus_id": 102527513,
        "continent_id": 102191575,
        "country_id": 85633793,
        "county_id": 102087579,
        "custom_id": 1729362845,
        "instagram_id": 1729362845,
        "locality_id": 85922583,
        "neighbourhood_id": -1,
        "region_id": 85688637
      }
    ],
    "wof:id": 1729362845,
    "wof:lastmodified": 1787777652,
    "wof:name": "In Parker Brothers' 1939's The National Game of Peace for Our Nation, players competed to obtain national safeguards, including liberty, justice, \u0026 freedom of speech...",
    "wof:parent_id": 1159160869,
    "wof:placetype": "custom",
    "wof:placetype_alt": [
      "instagram"
    ],
    "wof:repo": "sfomuseum-data-socialmedia-instagram",
    "wof:superseded_by": [],
    "wof:supersedes": []
  },
  "bbox": [
    -122.386166,
    37.616356,
    -122.386166,
    37.616356
  ],
  "geometry": {"type":"Point","coordinates":[-122.386166,37.616356]}
}
