{
  "id": 1729361491,
  "type": "Feature",
  "properties": {
    "date:cessation_lower": "2015-10-09",
    "date:cessation_upper": "2015-10-09",
    "date:inception_lower": "2015-10-09",
    "date:inception_upper": "2015-10-09",
    "edtf:cessation": "2015-10-09T02:05:00-07:00",
    "edtf:inception": "2015-10-09T02:05:00-07:00",
    "geom:area": 0,
    "geom:bbox": "-122.386166,37.616356,-122.386166,37.616356",
    "geom:latitude": 37.616356,
    "geom:longitude": -122.386166,
    "instagram:post": {
      "caption": {
        "body": "California’s streets paved of gold? Gold is the most famous and probably the most influential mineral found in California. First discovered at Sutter’s Mill in Coloma in 1848, the mineral sparked the Gold Rush of 1849 in California bringing droves of fortune seekers to the state. The population expanded rapidly—in San Francisco alone it increased from 1,000 in 1848 to over 20,000 by 1850. #ILoveYouCA  Gold  Au Amador County and Tuolomne County CAS 17, 19.2, 19.3 L2015.0708.052, 054, .055",
        "excerpt": "California’s streets paved of gold?",
        "hashtags": [],
        "users": []
      },
      "media_id": "dd4782055d31e193465fd52c1798fc0c",
      "path": "media/other/12093482_1503358586652592_504493536_n_17844104413062499.jpg",
      "perceptual_hash": "p:a6f791e8990f42e2",
      "taken": 1444381500,
      "taken_at": "Oct 09, 2015 9:05 am"
    },
    "millsfield:similar": {
      "google/siglip2-so400m-patch16-naflex": [
        {
          "distance": 0.28383946418762207,
          "id": 1729358875
        },
        {
          "distance": 0.2899478077888489,
          "id": 1729358875
        },
        {
          "distance": 0.3137497901916504,
          "id": 1729356593
        },
        {
          "distance": 0.3154861330986023,
          "id": 1729361515
        },
        {
          "distance": 0.31706738471984863,
          "id": 1729362423
        },
        {
          "distance": 0.3179662823677063,
          "id": 1729356775
        },
        {
          "distance": 0.32226067781448364,
          "id": 1729355309
        },
        {
          "distance": 0.32733267545700073,
          "id": 1729359363
        },
        {
          "distance": 0.33247607946395874,
          "id": 1729356141
        },
        {
          "distance": 0.3338938355445862,
          "id": 1729356247
        }
      ]
    },
    "sfomuseum:placetype": "instagram",
    "src:geom": "sfomuseum",
    "wof:belongsto": [
      1159160869,
      102527513,
      102191575,
      85633793,
      102087579,
      85922583,
      85688637
    ],
    "wof:country": "US",
    "wof:created": 1444381500,
    "wof:geomhash": "b6e33f47475d56bc8da457bc31afadc8",
    "wof:hierarchy": [
      {
        "building_id": 1159160869,
        "campus_id": 102527513,
        "continent_id": 102191575,
        "country_id": 85633793,
        "county_id": 102087579,
        "custom_id": 1729361491,
        "instagram_id": 1729361491,
        "locality_id": 85922583,
        "neighbourhood_id": -1,
        "region_id": 85688637
      }
    ],
    "wof:id": 1729361491,
    "wof:lastmodified": 1787777645,
    "wof:name": "California’s streets paved of gold?..",
    "wof:parent_id": 1159160869,
    "wof:placetype": "custom",
    "wof:placetype_alt": [
      "instagram"
    ],
    "wof:repo": "sfomuseum-data-socialmedia-instagram",
    "wof:superseded_by": [],
    "wof:supersedes": []
  },
  "bbox": [
    -122.386166,
    37.616356,
    -122.386166,
    37.616356
  ],
  "geometry": {"type":"Point","coordinates":[-122.386166,37.616356]}
}
