{
  "id": 1729358349,
  "type": "Feature",
  "properties": {
    "date:cessation_lower": "2018-04-13",
    "date:cessation_upper": "2018-04-13",
    "date:inception_lower": "2018-04-13",
    "date:inception_upper": "2018-04-13",
    "edtf:cessation": "2018-04-13T12:53:00-07:00",
    "edtf:inception": "2018-04-13T12:53:00-07:00",
    "geom:area": 0,
    "geom:bbox": "-122.386166,37.616356,-122.386166,37.616356",
    "geom:latitude": 37.616356,
    "geom:longitude": -122.386166,
    "instagram:post": {
      "caption": {
        "body": "Shortly after the United States Supreme Court ruling on June 26, 2015, that guaranteed same-sex couples the right to marry, civic buildings across the country and around the world were illuminated in the colors of the rainbow. The rainbow flag, introduced nearly forty years earlier at San Francisco's Gay Freedom Day Parade, was unfurled from apartment balconies, attached to car windows, and appeared in the background for tens of millions of newly changed profile photos on social media accounts as a universally recognized symbol of pride and solidarity.  Our newest exhibition, \"A Legacy of Pride: Gilbert Baker and the 40th Anniversary of the Rainbow Flag\" celebrates the creator and history of the iconic flag. #ALegacyOfPride is on view pre-security in the International Terminal. http://bit.ly/RainbowFlagSFO",
        "excerpt": "Shortly after the United States Supreme Court ruling on June 26, 2015, that guaranteed same-sex couples the right to marry, civic buildings across the country and around the world were illuminated in the colors of the rainbow.",
        "hashtags": [
          "gilbertbaker",
          "gaypride",
          "rainbowflag",
          "alegacyofpride",
          "lgbtpride",
          "pride",
          "LGBT",
          "🏳️‍🌈",
          "👭",
          "👬",
          "👩‍❤️‍👩",
          "👩‍❤️‍💋‍👩",
          "👨‍❤️‍👨",
          "👨‍❤️‍💋‍👨"
        ],
        "users": []
      },
      "media_id": "79467b641822bc8f12b57ae207214e9c",
      "path": "media/other/30077296_1924657680878348_8769752146695421952_n_17910001819145892.jpg",
      "perceptual_hash": "p:9c7629cc9e9962c9",
      "taken": 1523649180,
      "taken_at": "Apr 13, 2018 7:53 pm"
    },
    "millsfield:similar": {
      "google/siglip2-so400m-patch16-naflex": [
        {
          "distance": 0.04241746664047241,
          "id": 1729357801
        },
        {
          "distance": 0.1181403398513794,
          "id": 1729357801
        },
        {
          "distance": 0.1811058521270752,
          "id": 1729358075
        },
        {
          "distance": 0.187322735786438,
          "id": 1729358075
        },
        {
          "distance": 0.25444507598876953,
          "id": 1729357185
        },
        {
          "distance": 0.2580530047416687,
          "id": 1729357185
        },
        {
          "distance": 0.33153998851776123,
          "id": 1729361743
        },
        {
          "distance": 0.33348703384399414,
          "id": 1729359211
        },
        {
          "distance": 0.3347039222717285,
          "id": 1729358673
        },
        {
          "distance": 0.3411737084388733,
          "id": 1729355199
        }
      ]
    },
    "sfomuseum:placetype": "instagram",
    "src:geom": "sfomuseum",
    "wof:belongsto": [
      1159160869,
      102527513,
      102191575,
      85633793,
      102087579,
      85922583,
      85688637
    ],
    "wof:country": "US",
    "wof:created": 1523649180,
    "wof:geomhash": "b6e33f47475d56bc8da457bc31afadc8",
    "wof:hierarchy": [
      {
        "building_id": 1159160869,
        "campus_id": 102527513,
        "continent_id": 102191575,
        "country_id": 85633793,
        "county_id": 102087579,
        "custom_id": 1729358349,
        "instagram_id": 1729358349,
        "locality_id": 85922583,
        "neighbourhood_id": -1,
        "region_id": 85688637
      }
    ],
    "wof:id": 1729358349,
    "wof:lastmodified": 1787777633,
    "wof:name": "Shortly after the United States Supreme Court ruling on June 26, 2015, that guaranteed same-sex couples the right to marry, civic buildings across the country and around the world were illuminated in the colors of the rainbow...",
    "wof:parent_id": 1159160869,
    "wof:placetype": "custom",
    "wof:placetype_alt": [
      "instagram"
    ],
    "wof:repo": "sfomuseum-data-socialmedia-instagram",
    "wof:superseded_by": [],
    "wof:supersedes": []
  },
  "bbox": [
    -122.386166,
    37.616356,
    -122.386166,
    37.616356
  ],
  "geometry": {"type":"Point","coordinates":[-122.386166,37.616356]}
}
