{
  "id": 1729358837,
  "type": "Feature",
  "properties": {
    "date:cessation_lower": "2017-12-07",
    "date:cessation_upper": "2017-12-07",
    "date:inception_lower": "2017-12-07",
    "date:inception_upper": "2017-12-07",
    "edtf:cessation": "2017-12-07T03:33:00-08:00",
    "edtf:inception": "2017-12-07T03:33:00-08:00",
    "geom:area": 0,
    "geom:bbox": "-122.386166,37.616356,-122.386166,37.616356",
    "geom:latitude": 37.616356,
    "geom:longitude": -122.386166,
    "instagram:post": {
      "caption": {
        "body": "#Onthisday in 1941, San Francisco Airport became an U.S. Army Air Corps training and staging facility. At the outbreak of World War II in the Pacific, fortified revetments were installed on the airfield to protect aircraft from attack. While commercial airlines were permitted to operate under wartime conditions, all civilian flying was suspended.  Image: Douglas C-47 military transport at San Francisco Airport, c. 1943. Gift of Charles Loomis. 2005.062.013 a b",
        "excerpt": "#Onthisday in 1941, San Francisco Airport became an U.S. Army Air Corps training and staging facility.",
        "hashtags": [
          "throwbackthursday",
          "sfohistory",
          "worldwar2",
          "ww2",
          "avgeek",
          "avationgeek",
          "aviation",
          "aviationhistory",
          "history",
          "avhistory",
          "aviationgeeks",
          "avgeeks"
        ],
        "users": []
      },
      "media_id": "1c107740428f111bf3e8e0597087b46e",
      "path": "media/other/25005699_1202156753247533_7704497195252187136_n_17887685032134210.jpg",
      "perceptual_hash": "p:d5d51575d49c4370",
      "taken": 1512646380,
      "taken_at": "Dec 07, 2017 11:33 am"
    },
    "millsfield:similar": {
      "google/siglip2-so400m-patch16-naflex": [
        {
          "distance": 0.09269076585769653,
          "id": 1880151283
        },
        {
          "distance": 0.10949039459228516,
          "id": 1880151283
        },
        {
          "distance": 0.19358694553375244,
          "id": 1729355035
        },
        {
          "distance": 0.19698476791381836,
          "id": 1729356979
        },
        {
          "distance": 0.20382994413375854,
          "id": 1880151063
        },
        {
          "distance": 0.20426088571548462,
          "id": 1763559505
        },
        {
          "distance": 0.2072104811668396,
          "id": 1729355165
        },
        {
          "distance": 0.21016216278076172,
          "id": 1729358009
        },
        {
          "distance": 0.21017217636108398,
          "id": 1729359361
        },
        {
          "distance": 0.21132749319076538,
          "id": 1880151589
        }
      ]
    },
    "sfomuseum:placetype": "instagram",
    "src:geom": "sfomuseum",
    "wof:belongsto": [
      1159160869,
      102527513,
      102191575,
      85633793,
      102087579,
      85922583,
      85688637
    ],
    "wof:country": "US",
    "wof:created": 1512646380,
    "wof:geomhash": "b6e33f47475d56bc8da457bc31afadc8",
    "wof:hierarchy": [
      {
        "building_id": 1159160869,
        "campus_id": 102527513,
        "continent_id": 102191575,
        "country_id": 85633793,
        "county_id": 102087579,
        "custom_id": 1729358837,
        "instagram_id": 1729358837,
        "locality_id": 85922583,
        "neighbourhood_id": -1,
        "region_id": 85688637
      }
    ],
    "wof:id": 1729358837,
    "wof:lastmodified": 1787777634,
    "wof:name": "#Onthisday in 1941, San Francisco Airport became an U.S. Army Air Corps training and staging facility...",
    "wof:parent_id": 1159160869,
    "wof:placetype": "custom",
    "wof:placetype_alt": [
      "instagram"
    ],
    "wof:repo": "sfomuseum-data-socialmedia-instagram",
    "wof:superseded_by": [],
    "wof:supersedes": []
  },
  "bbox": [
    -122.386166,
    37.616356,
    -122.386166,
    37.616356
  ],
  "geometry": {"type":"Point","coordinates":[-122.386166,37.616356]}
}
