{
  "id": 1729362729,
  "type": "Feature",
  "properties": {
    "date:cessation_lower": "2013-04-29",
    "date:cessation_upper": "2013-04-29",
    "date:inception_lower": "2013-04-29",
    "date:inception_upper": "2013-04-29",
    "edtf:cessation": "2013-04-29T08:15:00-07:00",
    "edtf:inception": "2013-04-29T08:15:00-07:00",
    "geom:area": 0,
    "geom:bbox": "-122.386166,37.616356,-122.386166,37.616356",
    "geom:latitude": 37.616356,
    "geom:longitude": -122.386166,
    "instagram:post": {
      "caption": {
        "body": "",
        "excerpt": "",
        "hashtags": [],
        "users": [
          "SFAC!"
        ]
      },
      "media_id": "f728d1bef66089157d377ed1ff96d65d",
      "path": "media/other/11283292_506716372815840_340193805_n_17842318672062499.jpg",
      "perceptual_hash": "p:c23f3b98cb49ac62",
      "taken": 1367248500,
      "taken_at": "Apr 29, 2013 3:15 pm"
    },
    "millsfield:similar": {
      "google/siglip2-so400m-patch16-naflex": [
        {
          "distance": 0.3331097364425659,
          "id": 1947424865
        },
        {
          "distance": 0.3600645661354065,
          "id": 1729360673
        },
        {
          "distance": 0.36020874977111816,
          "id": 1947425117
        },
        {
          "distance": 0.36125504970550537,
          "id": 1763559663
        },
        {
          "distance": 0.36677414178848267,
          "id": 1729362309
        },
        {
          "distance": 0.3687440752983093,
          "id": 1729359877
        },
        {
          "distance": 0.368921160697937,
          "id": 1729360673
        },
        {
          "distance": 0.37453794479370117,
          "id": 1729362581
        },
        {
          "distance": 0.3798447847366333,
          "id": 1763559327
        },
        {
          "distance": 0.3824313282966614,
          "id": 1729359455
        }
      ]
    },
    "sfomuseum:placetype": "instagram",
    "src:geom": "sfomuseum",
    "wof:belongsto": [
      1159160869,
      102527513,
      102191575,
      85633793,
      102087579,
      85922583,
      85688637
    ],
    "wof:country": "US",
    "wof:created": 1367248500,
    "wof:geomhash": "b6e33f47475d56bc8da457bc31afadc8",
    "wof:hierarchy": [
      {
        "building_id": 1159160869,
        "campus_id": 102527513,
        "continent_id": 102191575,
        "country_id": 85633793,
        "county_id": 102087579,
        "custom_id": 1729362729,
        "instagram_id": 1729362729,
        "locality_id": 85922583,
        "neighbourhood_id": -1,
        "region_id": 85688637
      }
    ],
    "wof:id": 1729362729,
    "wof:lastmodified": 1787777647,
    "wof:name": "..",
    "wof:parent_id": 1159160869,
    "wof:placetype": "custom",
    "wof:placetype_alt": [
      "instagram"
    ],
    "wof:repo": "sfomuseum-data-socialmedia-instagram",
    "wof:superseded_by": [],
    "wof:supersedes": []
  },
  "bbox": [
    -122.386166,
    37.616356,
    -122.386166,
    37.616356
  ],
  "geometry": {"type":"Point","coordinates":[-122.386166,37.616356]}
}
