{
  "id": 1880151131,
  "type": "Feature",
  "properties": {
    "date:cessation_lower": "2023-02-17",
    "date:cessation_upper": "2023-02-17",
    "date:inception_lower": "2023-02-17",
    "date:inception_upper": "2023-02-17",
    "edtf:cessation": "2023-02-17T06:14:00-08:00",
    "edtf:inception": "2023-02-17T06:14:00-08:00",
    "geom:area": 0,
    "geom:bbox": "-122.386166,37.616356,-122.386166,37.616356",
    "geom:latitude": 37.616356,
    "geom:longitude": -122.386166,
    "instagram:post": {
      "caption": {
        "body": "David Huffman (b. 1963), who was born and raised in Berkeley, CA, combines the aesthetics of science fiction, urban vernacular, and the language of abstraction to investigate the politics of race through the iconography of the basketball. The artist uses the basketball as a metaphor for the black body and its changing meaning throughout history. In “Prisoners Repast,” Huffman includes basketballs, as well as, the texture of basketball hoop netting, Kente cloth, and glitter with his expressive brushstrokes to emphasize the complex and multi-layered aspects of contemporary African American identity.  See “Prisoners Repast” by David Huffman on display, post-security, in Harvey Milk Terminal 1. http://bit.ly/3liZxfu",
        "excerpt": "David Huffman (b.",
        "hashtags": [
          "PublicArt",
          "DavidHuffman",
          "BlackHistoryMonth"
        ],
        "users": []
      },
      "media_id": "0d66e928e7ec68d37fb14d4621e26a263dab2681",
      "path": "media/posts/202302/331504347_594058425903371_3631198424123611307_n_17965480838493623.jpg",
      "perceptual_hash": "p:b9a9c63a86c665b8",
      "taken": 1676643240,
      "taken_at": "Feb 17, 2023 2:14 pm"
    },
    "millsfield:similar": {
      "google/siglip2-so400m-patch16-naflex": [
        {
          "distance": 0.13784700632095337,
          "id": 1880151137
        },
        {
          "distance": 0.17054325342178345,
          "id": 1729357895
        },
        {
          "distance": 0.2026389241218567,
          "id": 1880151091
        },
        {
          "distance": 0.20442456007003784,
          "id": 1729359425
        },
        {
          "distance": 0.2052343487739563,
          "id": 1729356549
        },
        {
          "distance": 0.2068963646888733,
          "id": 1729357871
        },
        {
          "distance": 0.20784956216812134,
          "id": 1729359363
        },
        {
          "distance": 0.21914488077163696,
          "id": 1763559087
        },
        {
          "distance": 0.21980607509613037,
          "id": 1729356263
        },
        {
          "distance": 0.2255328893661499,
          "id": 1880150891
        }
      ]
    },
    "sfomuseum:placetype": "instagram",
    "src:geom": "sfomuseum",
    "wof:belongsto": [
      1159160869,
      102527513,
      102191575,
      85633793,
      102087579,
      85922583,
      85688637
    ],
    "wof:country": "US",
    "wof:created": 1676643240,
    "wof:geomhash": "b6e33f47475d56bc8da457bc31afadc8",
    "wof:hierarchy": [
      {
        "building_id": 1159160869,
        "campus_id": 102527513,
        "continent_id": 102191575,
        "country_id": 85633793,
        "county_id": 102087579,
        "custom_id": 1880151131,
        "instagram_id": 1880151131,
        "locality_id": 85922583,
        "neighbourhood_id": -1,
        "region_id": 85688637
      }
    ],
    "wof:id": 1880151131,
    "wof:lastmodified": 1787777662,
    "wof:name": "David Huffman (b...",
    "wof:parent_id": 1159160869,
    "wof:placetype": "custom",
    "wof:placetype_alt": [
      "instagram"
    ],
    "wof:repo": "sfomuseum-data-socialmedia-instagram",
    "wof:superseded_by": [],
    "wof:supersedes": []
  },
  "bbox": [
    -122.386166,
    37.616356,
    -122.386166,
    37.616356
  ],
  "geometry": {"type":"Point","coordinates":[-122.386166,37.616356]}
}
