{
  "id": 1729359325,
  "type": "Feature",
  "properties": {
    "date:cessation_lower": "2017-07-12",
    "date:cessation_upper": "2017-07-12",
    "date:inception_lower": "2017-07-12",
    "date:inception_upper": "2017-07-12",
    "edtf:cessation": "2017-07-12T10:44:29-07:00",
    "edtf:inception": "2017-07-12T10:44:29-07:00",
    "geom:area": 0,
    "geom:bbox": "-122.386166,37.616356,-122.386166,37.616356",
    "geom:latitude": 37.616356,
    "geom:longitude": -122.386166,
    "instagram:post": {
      "caption": {
        "body": "In 1986, renowned French couturier Yves Saint Laurent (1936–2008) introduced this Qantas uniform, which was worn until 1991. The cropped, tuxedo-style jacket has the wide lapels, padded shoulders, and narrow waist of Saint Laurent’s 1980s power-suit designs for his Rive Gauche label. Terracotta collar and cuff trim project a regimental formality, while the colorful Qantas flying kangaroo pattern of the cotton-poly skirt and blouse adds a festive air.  See \"Fashion In Flight: A History of Airline Uniform Design\", pre-security, in the Aviation Museum and Library in the International Terminal. http://bit.ly/fashioninflight",
        "excerpt": "In 1986, renowned French couturier Yves Saint Laurent (1936–2008) introduced this Qantas uniform, which was worn until 1991.",
        "hashtags": [
          "FashioninFlight",
          "WomenInAviation",
          "Avgeek",
          "aviationhistory",
          "crewlife",
          "paxex",
          "FlightAttendant",
          "crewlife",
          "FA",
          "fashioninflight",
          "hostesses",
          "FlightAttendantlife",
          "Flightcrew",
          "Qantas",
          "flyingkangaroo",
          "yves",
          "YSL",
          "YvesSaintLaurent",
          "french",
          "australia",
          "australian",
          "couturier",
          "powersuit"
        ],
        "users": []
      },
      "location": "",
      "media_id": "91ac0751c9da2df19fc6e397978d006b",
      "path": "photos/201707/91ac0751c9da2df19fc6e397978d006b.jpg",
      "perceptual_hash": "p:8dd56cac4c4d4d65",
      "taken": 1499852640,
      "taken_at": "Jul 12, 2017, 9:44 AM"
    },
    "millsfield:similar": {
      "google/siglip2-so400m-patch16-naflex": [
        {
          "distance": 0.09826725721359253,
          "id": 1729360101
        },
        {
          "distance": 0.1498202085494995,
          "id": 1729360101
        },
        {
          "distance": 0.23178189992904663,
          "id": 1729359293
        },
        {
          "distance": 0.23341894149780273,
          "id": 1729361509
        },
        {
          "distance": 0.23566091060638428,
          "id": 1729359995
        },
        {
          "distance": 0.2375032901763916,
          "id": 1729359957
        },
        {
          "distance": 0.24382144212722778,
          "id": 1729359467
        },
        {
          "distance": 0.2452232837677002,
          "id": 1729360439
        },
        {
          "distance": 0.24781054258346558,
          "id": 1729359995
        },
        {
          "distance": 0.25812768936157227,
          "id": 1763559499
        }
      ]
    },
    "sfomuseum:placetype": "instagram",
    "src:geom": "sfomuseum",
    "wof:belongsto": [
      1159160869,
      102527513,
      102191575,
      85633793,
      102087579,
      85922583,
      85688637
    ],
    "wof:country": "US",
    "wof:created": 1499881469,
    "wof:geomhash": "b6e33f47475d56bc8da457bc31afadc8",
    "wof:hierarchy": [
      {
        "building_id": 1159160869,
        "campus_id": 102527513,
        "continent_id": 102191575,
        "country_id": 85633793,
        "county_id": 102087579,
        "custom_id": 1729359325,
        "instagram_id": 1729359325,
        "locality_id": 85922583,
        "neighbourhood_id": -1,
        "region_id": 85688637
      }
    ],
    "wof:id": 1729359325,
    "wof:lastmodified": 1787777635,
    "wof:name": "In 1986, renowned French couturier Yves Saint Laurent (1936–2008) introduced this Qantas uniform, which was worn until 1991...",
    "wof:parent_id": 1159160869,
    "wof:placetype": "custom",
    "wof:placetype_alt": [
      "instagram"
    ],
    "wof:repo": "sfomuseum-data-socialmedia-instagram",
    "wof:superseded_by": [],
    "wof:supersedes": []
  },
  "bbox": [
    -122.386166,
    37.616356,
    -122.386166,
    37.616356
  ],
  "geometry": {"type":"Point","coordinates":[-122.386166,37.616356]}
}
