{
  "id": 1729355997,
  "type": "Feature",
  "properties": {
    "date:cessation_lower": "2019-10-15",
    "date:cessation_upper": "2019-10-15",
    "date:inception_lower": "2019-10-15",
    "date:inception_upper": "2019-10-15",
    "edtf:cessation": "2019-10-15T12:40:03-07:00",
    "edtf:inception": "2019-10-15T12:40:03-07:00",
    "geom:area": 0,
    "geom:bbox": "-122.386166,37.616356,-122.386166,37.616356",
    "geom:latitude": 37.616356,
    "geom:longitude": -122.386166,
    "instagram:post": {
      "caption": {
        "body": "In her series “Surface Tension”, Tabitha Soren (b.1967) examines our complex relationship with technology and draws focus on our increasingly tactile connection to visual information. Using a large-format film camera, Soren photographs tablet screens to reveal the marks left behind—the fingerprints, smudges, and oily residue of our engagement with the images below the surface. Soren collects from a range of source material include web searches, text messages, social media content, and personal pictures. Brought together, Soren’s images serve as a poignant meditation on the role of digital devices in society and offer a reminder of the traces, both physical and digital, that we leave behind when using them.  See “Surface Tension” by #TabithaSoren (@tabithasoren) on display, pre-security, on the departures level of Terminal 3. http://bit.ly/2lNfKLK",
        "excerpt": "In her series “Surface Tension”, Tabitha Soren (b.1967) examines our complex relationship with technology and draws focus on our increasingly tactile connection to visual information.",
        "hashtags": [
          "photography",
          "technology",
          "publicart",
          "TabithaSoren",
          "photographer"
        ],
        "users": []
      },
      "location": "",
      "media_id": "473a3af010b4c2af30ace853213e3389",
      "path": "photos/201910/473a3af010b4c2af30ace853213e3389.jpg",
      "perceptual_hash": "p:c4b5142f631b9799",
      "taken": 1571139600,
      "taken_at": "Oct 15, 2019, 11:40 AM"
    },
    "millsfield:similar": {
      "google/siglip2-so400m-patch16-naflex": [
        {
          "distance": 0.213370680809021,
          "id": 1729355999
        },
        {
          "distance": 0.249703049659729,
          "id": 1729355999
        },
        {
          "distance": 0.29538601636886597,
          "id": 1729357415
        },
        {
          "distance": 0.30272984504699707,
          "id": 1729356811
        },
        {
          "distance": 0.3044856786727905,
          "id": 1729359425
        },
        {
          "distance": 0.30771404504776,
          "id": 1729356263
        },
        {
          "distance": 0.3082929253578186,
          "id": 1729359363
        },
        {
          "distance": 0.3087153434753418,
          "id": 1729357097
        },
        {
          "distance": 0.30957120656967163,
          "id": 1729360803
        },
        {
          "distance": 0.3144448399543762,
          "id": 1729358497
        }
      ]
    },
    "sfomuseum:placetype": "instagram",
    "src:geom": "sfomuseum",
    "wof:belongsto": [
      1159160869,
      102527513,
      102191575,
      85633793,
      102087579,
      85922583,
      85688637
    ],
    "wof:country": "US",
    "wof:created": 1571168403,
    "wof:geomhash": "b6e33f47475d56bc8da457bc31afadc8",
    "wof:hierarchy": [
      {
        "building_id": 1159160869,
        "campus_id": 102527513,
        "continent_id": 102191575,
        "country_id": 85633793,
        "county_id": 102087579,
        "custom_id": 1729355997,
        "instagram_id": 1729355997,
        "locality_id": 85922583,
        "neighbourhood_id": -1,
        "region_id": 85688637
      }
    ],
    "wof:id": 1729355997,
    "wof:lastmodified": 1787777627,
    "wof:name": "In her series “Surface Tension”, Tabitha Soren (b.1967) examines our complex relationship with technology and draws focus on our increasingly tactile connection to visual information...",
    "wof:parent_id": 1159160869,
    "wof:placetype": "custom",
    "wof:placetype_alt": [
      "instagram"
    ],
    "wof:repo": "sfomuseum-data-socialmedia-instagram",
    "wof:superseded_by": [],
    "wof:supersedes": []
  },
  "bbox": [
    -122.386166,
    37.616356,
    -122.386166,
    37.616356
  ],
  "geometry": {"type":"Point","coordinates":[-122.386166,37.616356]}
}
