{
  "id": 1729357689,
  "type": "Feature",
  "properties": {
    "date:cessation_lower": "2018-09-10",
    "date:cessation_upper": "2018-09-10",
    "date:inception_lower": "2018-09-10",
    "date:inception_upper": "2018-09-10",
    "edtf:cessation": "2018-09-10T11:17:00-07:00",
    "edtf:inception": "2018-09-10T11:17:00-07:00",
    "geom:area": 0,
    "geom:bbox": "-122.386166,37.616356,-122.386166,37.616356",
    "geom:latitude": 37.616356,
    "geom:longitude": -122.386166,
    "instagram:post": {
      "caption": {
        "body": "#OnThisDay in 1993, Boeing finished production on their 1,000th 747, a 747-400 that was delivered to Singapore Airlines in October. Have you ever flown on a Boeing 747?  Image: Singapore Airlines brochure, Boeing 747-400, c. 1989. Gift of the William Hough Collection.  2012.096.187",
        "excerpt": "#OnThisDay in 1993, Boeing finished production on their 1,000th 747, a 747-400 that was delivered to Singapore Airlines in October.",
        "hashtags": [
          "avgeek",
          "aviationgeek",
          "aviation",
          "aviationhistory",
          "aviationlovers",
          "vintageaviation",
          "history",
          "aviationgeeks",
          "avgeeks",
          "Boeing",
          "Boeing747"
        ],
        "users": []
      },
      "media_id": "4d2280ba3d5f57465941211765de075d",
      "path": "media/other/40232246_1683071968471603_922408874635803650_n_17965611571098348.jpg",
      "perceptual_hash": "p:d5456868c4b5b36b",
      "taken": 1536603420,
      "taken_at": "Sep 10, 2018 6:17 pm"
    },
    "millsfield:similar": {
      "google/siglip2-so400m-patch16-naflex": [
        {
          "distance": 0.07955324649810791,
          "id": 1729360353
        },
        {
          "distance": 0.09452557563781738,
          "id": 1729356121
        },
        {
          "distance": 0.11636030673980713,
          "id": 1729356121
        },
        {
          "distance": 0.12032061815261841,
          "id": 1729360353
        },
        {
          "distance": 0.12558609247207642,
          "id": 1763559461
        },
        {
          "distance": 0.13966941833496094,
          "id": 1763558957
        },
        {
          "distance": 0.1503387689590454,
          "id": 1729358921
        },
        {
          "distance": 0.1614505648612976,
          "id": 1729355417
        },
        {
          "distance": 0.16327208280563354,
          "id": 1763559461
        },
        {
          "distance": 0.1653926968574524,
          "id": 1729360749
        }
      ]
    },
    "sfomuseum:placetype": "instagram",
    "src:geom": "sfomuseum",
    "wof:belongsto": [
      1159160869,
      102527513,
      102191575,
      85633793,
      102087579,
      85922583,
      85688637
    ],
    "wof:country": "US",
    "wof:created": 1536603420,
    "wof:geomhash": "b6e33f47475d56bc8da457bc31afadc8",
    "wof:hierarchy": [
      {
        "building_id": 1159160869,
        "campus_id": 102527513,
        "continent_id": 102191575,
        "country_id": 85633793,
        "county_id": 102087579,
        "custom_id": 1729357689,
        "instagram_id": 1729357689,
        "locality_id": 85922583,
        "neighbourhood_id": -1,
        "region_id": 85688637
      }
    ],
    "wof:id": 1729357689,
    "wof:lastmodified": 1787777632,
    "wof:name": "#OnThisDay in 1993, Boeing finished production on their 1,000th 747, a 747-400 that was delivered to Singapore Airlines in October...",
    "wof:parent_id": 1159160869,
    "wof:placetype": "custom",
    "wof:placetype_alt": [
      "instagram"
    ],
    "wof:repo": "sfomuseum-data-socialmedia-instagram",
    "wof:superseded_by": [],
    "wof:supersedes": []
  },
  "bbox": [
    -122.386166,
    37.616356,
    -122.386166,
    37.616356
  ],
  "geometry": {"type":"Point","coordinates":[-122.386166,37.616356]}
}
