{
  "id": 1763559439,
  "type": "Feature",
  "properties": {
    "date:cessation_lower": "2021-09-07",
    "date:cessation_upper": "2021-09-07",
    "date:inception_lower": "2021-09-07",
    "date:inception_upper": "2021-09-07",
    "edtf:cessation": "2021-09-07T08:20:00-07:00",
    "edtf:inception": "2021-09-07T08:20:00-07:00",
    "geom:area": 0,
    "geom:bbox": "-122.386166,37.616356,-122.386166,37.616356",
    "geom:latitude": 37.616356,
    "geom:longitude": -122.386166,
    "instagram:post": {
      "caption": {
        "body": "In Crystal Liu’s universe, elements of the natural world serve as actors in a grand narrative of emotional and personal origins. In “Underground, \"Stuck in Between\"” geological strata are represented by distinctly colored sections of marbleized paper, which are separated by an underground river. Leafless trees and a subterranean golden planet suggest both existential strife and hope for the future.  See “Underground, \"Stuck in Between\"” by Crystal Liu on display, on level 4 of the Grand Hyatt and online at: https://bit.ly/2XUcpxb  📸: © Ethan Kaplan Photography",
        "excerpt": "In Crystal Liu’s universe, elements of the natural world serve as actors in a grand narrative of emotional and personal origins.",
        "hashtags": [
          "airportart",
          "publicart",
          "SFAC",
          "Collage",
          "watercolor"
        ],
        "users": [
          "sfac_public_art_collection",
          "sfac_galleries",
          "sf_arts_commission",
          "cliuart"
        ]
      },
      "media_id": "5e9761d0ebc4aeaeba11aa3b9efd27fd4876536b",
      "path": "media/posts/202109/241313823_4306546236090273_4106059727015806330_n_17884732322345043.jpg",
      "perceptual_hash": "p:d4d12a2f95d8a3d8",
      "taken": 1631028000,
      "taken_at": "Sep 07, 2021 3:20 pm"
    },
    "millsfield:similar": {
      "google/siglip2-so400m-patch16-naflex": [
        {
          "distance": 0.22262436151504517,
          "id": 1729360707
        },
        {
          "distance": 0.2261219620704651,
          "id": 1729355147
        },
        {
          "distance": 0.23224937915802002,
          "id": 1880150939
        },
        {
          "distance": 0.2411177158355713,
          "id": 1729355119
        },
        {
          "distance": 0.24466359615325928,
          "id": 1947425285
        },
        {
          "distance": 0.24767202138900757,
          "id": 1880151789
        },
        {
          "distance": 0.25578898191452026,
          "id": 1880151789
        },
        {
          "distance": 0.2563629746437073,
          "id": 1880151299
        },
        {
          "distance": 0.256611704826355,
          "id": 1729356865
        },
        {
          "distance": 0.2607526183128357,
          "id": 1729355437
        }
      ]
    },
    "sfomuseum:placetype": "instagram",
    "src:geom": "sfomuseum",
    "wof:belongsto": [
      1159160869,
      102527513,
      102191575,
      85633793,
      102087579,
      85922583,
      85688637
    ],
    "wof:country": "US",
    "wof:created": 1631028000,
    "wof:geomhash": "b6e33f47475d56bc8da457bc31afadc8",
    "wof:hierarchy": [
      {
        "building_id": 1159160869,
        "campus_id": 102527513,
        "continent_id": 102191575,
        "country_id": 85633793,
        "county_id": 102087579,
        "custom_id": 1763559439,
        "instagram_id": 1763559439,
        "locality_id": 85922583,
        "neighbourhood_id": -1,
        "region_id": 85688637
      }
    ],
    "wof:id": 1763559439,
    "wof:lastmodified": 1787777660,
    "wof:name": "In Crystal Liu’s universe, elements of the natural world serve as actors in a grand narrative of emotional and personal origins...",
    "wof:parent_id": 1159160869,
    "wof:placetype": "custom",
    "wof:placetype_alt": [
      "instagram"
    ],
    "wof:repo": "sfomuseum-data-socialmedia-instagram",
    "wof:superseded_by": [],
    "wof:supersedes": []
  },
  "bbox": [
    -122.386166,
    37.616356,
    -122.386166,
    37.616356
  ],
  "geometry": {"type":"Point","coordinates":[-122.386166,37.616356]}
}
