{
  "id": 1729362679,
  "type": "Feature",
  "properties": {
    "date:cessation_lower": "2013-05-28",
    "date:cessation_upper": "2013-05-28",
    "date:inception_lower": "2013-05-28",
    "date:inception_upper": "2013-05-28",
    "edtf:cessation": "2013-05-28T08:42:00-07:00",
    "edtf:inception": "2013-05-28T08:42:00-07:00",
    "geom:area": 0,
    "geom:bbox": "-122.386166,37.616356,-122.386166,37.616356",
    "geom:latitude": 37.616356,
    "geom:longitude": -122.386166,
    "instagram:post": {
      "caption": {
        "body": "For @deyoungmuseum \u0026 #SFOAMS - a plate commemorating KLM's first flight between our two cities, (snug in its tissue nest)",
        "excerpt": "For @deyoungmuseum \u0026 #SFOAMS - a plate commemorating KLM's first flight between our two cities, (snug in its tissue nest)",
        "hashtags": [],
        "users": []
      },
      "media_id": "218b9d7b11b408c7938744d3da14dc3d",
      "path": "media/other/11352390_1602697236643395_1328588514_n_17842326280062499.jpg",
      "perceptual_hash": "p:e15eccad25d49343",
      "taken": 1369755720,
      "taken_at": "May 28, 2013 3:42 pm"
    },
    "millsfield:similar": {
      "google/siglip2-so400m-patch16-naflex": [
        {
          "distance": 0.379067063331604,
          "id": 1729362957
        },
        {
          "distance": 0.3799188733100891,
          "id": 1729362901
        },
        {
          "distance": 0.383298397064209,
          "id": 1729362889
        },
        {
          "distance": 0.38730454444885254,
          "id": 1729362803
        },
        {
          "distance": 0.39473283290863037,
          "id": 1729362901
        },
        {
          "distance": 0.39489680528640747,
          "id": 1763558657
        },
        {
          "distance": 0.39489680528640747,
          "id": 1729359895
        },
        {
          "distance": 0.3972036838531494,
          "id": 1729362307
        },
        {
          "distance": 0.39820021390914917,
          "id": 1947425179
        },
        {
          "distance": 0.399699330329895,
          "id": 1729362259
        }
      ]
    },
    "sfomuseum:placetype": "instagram",
    "src:geom": "sfomuseum",
    "wof:belongsto": [
      1159160869,
      102527513,
      102191575,
      85633793,
      102087579,
      85922583,
      85688637
    ],
    "wof:country": "US",
    "wof:created": 1369755720,
    "wof:geomhash": "b6e33f47475d56bc8da457bc31afadc8",
    "wof:hierarchy": [
      {
        "building_id": 1159160869,
        "campus_id": 102527513,
        "continent_id": 102191575,
        "country_id": 85633793,
        "county_id": 102087579,
        "custom_id": 1729362679,
        "instagram_id": 1729362679,
        "locality_id": 85922583,
        "neighbourhood_id": -1,
        "region_id": 85688637
      }
    ],
    "wof:id": 1729362679,
    "wof:lastmodified": 1787777647,
    "wof:name": "For @deyoungmuseum \u0026 #SFOAMS - a plate commemorating KLM's first flight between our two cities, (snug in its tissue nest)..",
    "wof:parent_id": 1159160869,
    "wof:placetype": "custom",
    "wof:placetype_alt": [
      "instagram"
    ],
    "wof:repo": "sfomuseum-data-socialmedia-instagram",
    "wof:superseded_by": [],
    "wof:supersedes": []
  },
  "bbox": [
    -122.386166,
    37.616356,
    -122.386166,
    37.616356
  ],
  "geometry": {"type":"Point","coordinates":[-122.386166,37.616356]}
}
