{
  "id": 1729361251,
  "type": "Feature",
  "properties": {
    "date:cessation_lower": "2015-12-18",
    "date:cessation_upper": "2015-12-18",
    "date:inception_lower": "2015-12-18",
    "date:inception_upper": "2015-12-18",
    "edtf:cessation": "2015-12-18T13:28:00-08:00",
    "edtf:inception": "2015-12-18T13:28:00-08:00",
    "geom:area": 0,
    "geom:bbox": "-122.386166,37.616356,-122.386166,37.616356",
    "geom:latitude": 37.616356,
    "geom:longitude": -122.386166,
    "instagram:post": {
      "caption": {
        "body": "A Pan American Douglas DC-7 soars over San Francisco in the 1950s. This plane, the Clipper Flora Temple, is named after a clipper merchant ship destroyed in 1860, and is also the name of an earlier Pan American airplane, a Lockheed L-049 Constellation.",
        "excerpt": "A Pan American Douglas DC-7 soars over San Francisco in the 1950s.",
        "hashtags": [],
        "users": []
      },
      "media_id": "612982aff27fe982d9382052f432d2f6",
      "path": "media/other/12353258_200632466944450_1735024615_n_17852740954039712.jpg",
      "perceptual_hash": "p:9aff71145e13212e",
      "taken": 1450474080,
      "taken_at": "Dec 18, 2015 9:28 pm"
    },
    "millsfield:similar": {
      "google/siglip2-so400m-patch16-naflex": [
        {
          "distance": 0.10684144496917725,
          "id": 1729358743
        },
        {
          "distance": 0.13480448722839355,
          "id": 1763559203
        },
        {
          "distance": 0.13534647226333618,
          "id": 1729355245
        },
        {
          "distance": 0.14414089918136597,
          "id": 1729361603
        },
        {
          "distance": 0.14852499961853027,
          "id": 1880151067
        },
        {
          "distance": 0.15234190225601196,
          "id": 1729355429
        },
        {
          "distance": 0.15805500745773315,
          "id": 1763559203
        },
        {
          "distance": 0.1582273244857788,
          "id": 1729361603
        },
        {
          "distance": 0.16032618284225464,
          "id": 1729355245
        },
        {
          "distance": 0.16090774536132812,
          "id": 1729357179
        }
      ]
    },
    "sfomuseum:placetype": "instagram",
    "src:geom": "sfomuseum",
    "wof:belongsto": [
      1159160869,
      102527513,
      102191575,
      85633793,
      102087579,
      85922583,
      85688637
    ],
    "wof:country": "US",
    "wof:created": 1450474080,
    "wof:geomhash": "b6e33f47475d56bc8da457bc31afadc8",
    "wof:hierarchy": [
      {
        "building_id": 1159160869,
        "campus_id": 102527513,
        "continent_id": 102191575,
        "country_id": 85633793,
        "county_id": 102087579,
        "custom_id": 1729361251,
        "instagram_id": 1729361251,
        "locality_id": 85922583,
        "neighbourhood_id": -1,
        "region_id": 85688637
      }
    ],
    "wof:id": 1729361251,
    "wof:lastmodified": 1787777645,
    "wof:name": "A Pan American Douglas DC-7 soars over San Francisco in the 1950s...",
    "wof:parent_id": 1159160869,
    "wof:placetype": "custom",
    "wof:placetype_alt": [
      "instagram"
    ],
    "wof:repo": "sfomuseum-data-socialmedia-instagram",
    "wof:superseded_by": [],
    "wof:supersedes": []
  },
  "bbox": [
    -122.386166,
    37.616356,
    -122.386166,
    37.616356
  ],
  "geometry": {"type":"Point","coordinates":[-122.386166,37.616356]}
}
