{
  "id": 1729358099,
  "type": "Feature",
  "properties": {
    "date:cessation_lower": "2018-06-21",
    "date:cessation_upper": "2018-06-21",
    "date:inception_lower": "2018-06-21",
    "date:inception_upper": "2018-06-21",
    "edtf:cessation": "2018-06-21T09:51:16-07:00",
    "edtf:inception": "2018-06-21T09:51:16-07:00",
    "geom:area": 0,
    "geom:bbox": "-122.386166,37.616356,-122.386166,37.616356",
    "geom:latitude": 37.616356,
    "geom:longitude": -122.386166,
    "instagram:post": {
      "caption": {
        "body": "The DC-10 was McDonnell Douglas’ answer to Boeing’s wide-body 747 jumbo-jet. The aircraft incorporated a tri-jet engine configuration with two engines mounted under the wings and one incorporated into the vertical stabilizer assembly. The aircraft had a slightly smaller capacity of up to 400 passengers, yet offered similar wide-body spaciousness and comfort to the 747. The DC-10 also featured first-class and coach lounges, a lower deck galley, and acoustic treatment of the fuselage. UTA introduced the aircraft in 1973, and by the mid-1970s, the carrier was operating it on many of its long-haul transatlantic routes to North and South America.  See \"Aviation Evolutions: The Jim Lund 1:72 Scale Model Airplane Collection\", which features more than 200 models, on display, pre-security, in the Aviation Museum. http://bit.ly/AviationEvolutions",
        "excerpt": "The DC-10 was McDonnell Douglas’ answer to Boeing’s wide-body 747 jumbo-jet.",
        "hashtags": [
          "AviationEvolutions",
          "jimlund",
          "avgeek",
          "avationgeek",
          "aviation",
          "aviationhistory",
          "vintageaviation",
          "history",
          "avhistory",
          "aviationgeeks",
          "modelplane",
          "avgeeks",
          "modelaircraft",
          "airplane",
          "aircraft",
          "DC10"
        ],
        "users": []
      },
      "location": "",
      "media_id": "73813ad1a17c923d38e5249f21233343",
      "path": "photos/201806/73813ad1a17c923d38e5249f21233343.jpg",
      "perceptual_hash": "p:b814c76395d82797",
      "taken": 1529571060,
      "taken_at": "Jun 21, 2018, 8:51 AM"
    },
    "millsfield:similar": {
      "google/siglip2-so400m-patch16-naflex": [
        {
          "distance": 0.08109378814697266,
          "id": 1729357563
        },
        {
          "distance": 0.12225586175918579,
          "id": 1729357563
        },
        {
          "distance": 0.1982625126838684,
          "id": 1763559389
        },
        {
          "distance": 0.21529823541641235,
          "id": 1729358087
        },
        {
          "distance": 0.2168552279472351,
          "id": 1729355875
        },
        {
          "distance": 0.22288155555725098,
          "id": 1729357301
        },
        {
          "distance": 0.22300976514816284,
          "id": 1729357123
        },
        {
          "distance": 0.22393471002578735,
          "id": 1763559389
        },
        {
          "distance": 0.22738510370254517,
          "id": 1729358687
        },
        {
          "distance": 0.2323705554008484,
          "id": 1729358465
        }
      ]
    },
    "sfomuseum:placetype": "instagram",
    "src:geom": "sfomuseum",
    "wof:belongsto": [
      1159160869,
      102527513,
      102191575,
      85633793,
      102087579,
      85922583,
      85688637
    ],
    "wof:country": "US",
    "wof:created": 1529599876,
    "wof:geomhash": "b6e33f47475d56bc8da457bc31afadc8",
    "wof:hierarchy": [
      {
        "building_id": 1159160869,
        "campus_id": 102527513,
        "continent_id": 102191575,
        "country_id": 85633793,
        "county_id": 102087579,
        "custom_id": 1729358099,
        "instagram_id": 1729358099,
        "locality_id": 85922583,
        "neighbourhood_id": -1,
        "region_id": 85688637
      }
    ],
    "wof:id": 1729358099,
    "wof:lastmodified": 1787777632,
    "wof:name": "The DC-10 was McDonnell Douglas’ answer to Boeing’s wide-body 747 jumbo-jet...",
    "wof:parent_id": 1159160869,
    "wof:placetype": "custom",
    "wof:placetype_alt": [
      "instagram"
    ],
    "wof:repo": "sfomuseum-data-socialmedia-instagram",
    "wof:superseded_by": [],
    "wof:supersedes": []
  },
  "bbox": [
    -122.386166,
    37.616356,
    -122.386166,
    37.616356
  ],
  "geometry": {"type":"Point","coordinates":[-122.386166,37.616356]}
}
