{
  "id": 1729355469,
  "type": "Feature",
  "properties": {
    "date:cessation_lower": "2020-03-09",
    "date:cessation_upper": "2020-03-09",
    "date:inception_lower": "2020-03-09",
    "date:inception_upper": "2020-03-09",
    "edtf:cessation": "2020-03-09T07:39:00-07:00",
    "edtf:inception": "2020-03-09T07:39:00-07:00",
    "geom:area": 0,
    "geom:bbox": "-122.386166,37.616356,-122.386166,37.616356",
    "geom:latitude": 37.616356,
    "geom:longitude": -122.386166,
    "instagram:post": {
      "caption": {
        "body": "EVA Air, based near Taipei, Taiwan, was founded on March 8, 1989. Taking off on their maiden flight on July 1, 1991, the airline has become the second largest in Taiwan. Recently, EVA has started flying their Hello Kitty themed planes to SFO. The flights feature over 100 Hello Kitty themed items — from toilet paper to inflight pillows. Have you ever flown on EVA Air?  Image: EVA Air, Boeing 777-300ER brochure, 2014. SFO Museum Collection. 2014.076.013",
        "excerpt": "EVA Air, based near Taipei, Taiwan, was founded on March 8, 1989.",
        "hashtags": [
          "avgeek",
          "EVAAir",
          "TravelTuesday",
          "HelloKitty"
        ],
        "users": []
      },
      "media_id": "ed44b788094e3fc33b9734e62749c371",
      "path": "media/other/89296352_188895655728662_7885496153101893710_n_17848968778914262.jpg",
      "perceptual_hash": "p:be2a48d92fb5a528",
      "taken": 1583764740,
      "taken_at": "Mar 09, 2020 2:39 pm"
    },
    "millsfield:similar": {
      "google/siglip2-so400m-patch16-naflex": [
        {
          "distance": 0.010759472846984863,
          "id": 1729360003
        },
        {
          "distance": 0.09760510921478271,
          "id": 1729360003
        },
        {
          "distance": 0.2445141077041626,
          "id": 1880151787
        },
        {
          "distance": 0.28423261642456055,
          "id": 1880151787
        },
        {
          "distance": 0.30513060092926025,
          "id": 1880151239
        },
        {
          "distance": 0.3054943084716797,
          "id": 1729360509
        },
        {
          "distance": 0.30963224172592163,
          "id": 1729360509
        },
        {
          "distance": 0.3116755485534668,
          "id": 1880151747
        },
        {
          "distance": 0.33742982149124146,
          "id": 1880151005
        },
        {
          "distance": 0.3386378884315491,
          "id": 1729355709
        }
      ]
    },
    "sfomuseum:placetype": "instagram",
    "src:geom": "sfomuseum",
    "wof:belongsto": [
      1159160869,
      102527513,
      102191575,
      85633793,
      102087579,
      85922583,
      85688637
    ],
    "wof:country": "US",
    "wof:created": 1583764740,
    "wof:geomhash": "b6e33f47475d56bc8da457bc31afadc8",
    "wof:hierarchy": [
      {
        "building_id": 1159160869,
        "campus_id": 102527513,
        "continent_id": 102191575,
        "country_id": 85633793,
        "county_id": 102087579,
        "custom_id": 1729355469,
        "instagram_id": 1729355469,
        "locality_id": 85922583,
        "neighbourhood_id": -1,
        "region_id": 85688637
      }
    ],
    "wof:id": 1729355469,
    "wof:lastmodified": 1787777625,
    "wof:name": "EVA Air, based near Taipei, Taiwan, was founded on March 8, 1989...",
    "wof:parent_id": 1159160869,
    "wof:placetype": "custom",
    "wof:placetype_alt": [
      "instagram"
    ],
    "wof:repo": "sfomuseum-data-socialmedia-instagram",
    "wof:superseded_by": [],
    "wof:supersedes": []
  },
  "bbox": [
    -122.386166,
    37.616356,
    -122.386166,
    37.616356
  ],
  "geometry": {"type":"Point","coordinates":[-122.386166,37.616356]}
}
