{
  "id": 1729362257,
  "type": "Feature",
  "properties": {
    "date:cessation_lower": "2014-06-12",
    "date:cessation_upper": "2014-06-12",
    "date:inception_lower": "2014-06-12",
    "date:inception_upper": "2014-06-12",
    "edtf:cessation": "2014-06-12T07:54:00-07:00",
    "edtf:inception": "2014-06-12T07:54:00-07:00",
    "geom:area": 0,
    "geom:bbox": "-122.386166,37.616356,-122.386166,37.616356",
    "geom:latitude": 37.616356,
    "geom:longitude": -122.386166,
    "instagram:post": {
      "caption": {
        "body": "",
        "excerpt": "",
        "hashtags": [
          "ThrowbackThursday",
          "tbt",
          "SFOhistory"
        ],
        "users": []
      },
      "media_id": "b2e55958af1e754943c488abf19c81e5",
      "path": "media/other/10413007_806423686057939_1768186035_n_17842438786062499.jpg",
      "perceptual_hash": "p:c6febe90c1420f1e",
      "taken": 1402584840,
      "taken_at": "Jun 12, 2014 2:54 pm"
    },
    "millsfield:similar": {
      "google/siglip2-so400m-patch16-naflex": [
        {
          "distance": 0.15312790870666504,
          "id": 1763559233
        },
        {
          "distance": 0.1542823314666748,
          "id": 1729359555
        },
        {
          "distance": 0.16017484664916992,
          "id": 1729361113
        },
        {
          "distance": 0.16442978382110596,
          "id": 1729359515
        },
        {
          "distance": 0.16643106937408447,
          "id": 1729361143
        },
        {
          "distance": 0.16830778121948242,
          "id": 1763559233
        },
        {
          "distance": 0.168940007686615,
          "id": 1763559449
        },
        {
          "distance": 0.17755615711212158,
          "id": 1729361143
        },
        {
          "distance": 0.18768161535263062,
          "id": 1729359515
        },
        {
          "distance": 0.188279926776886,
          "id": 1729360877
        }
      ]
    },
    "sfomuseum:placetype": "instagram",
    "src:geom": "sfomuseum",
    "wof:belongsto": [
      1159160869,
      102527513,
      102191575,
      85633793,
      102087579,
      85922583,
      85688637
    ],
    "wof:country": "US",
    "wof:created": 1402584840,
    "wof:geomhash": "b6e33f47475d56bc8da457bc31afadc8",
    "wof:hierarchy": [
      {
        "building_id": 1159160869,
        "campus_id": 102527513,
        "continent_id": 102191575,
        "country_id": 85633793,
        "county_id": 102087579,
        "custom_id": 1729362257,
        "instagram_id": 1729362257,
        "locality_id": 85922583,
        "neighbourhood_id": -1,
        "region_id": 85688637
      }
    ],
    "wof:id": 1729362257,
    "wof:lastmodified": 1787777646,
    "wof:name": "..",
    "wof:parent_id": 1159160869,
    "wof:placetype": "custom",
    "wof:placetype_alt": [
      "instagram"
    ],
    "wof:repo": "sfomuseum-data-socialmedia-instagram",
    "wof:superseded_by": [],
    "wof:supersedes": []
  },
  "bbox": [
    -122.386166,
    37.616356,
    -122.386166,
    37.616356
  ],
  "geometry": {"type":"Point","coordinates":[-122.386166,37.616356]}
}
