{
  "id": 1729362055,
  "type": "Feature",
  "properties": {
    "date:cessation_lower": "2014-11-10",
    "date:cessation_upper": "2014-11-10",
    "date:inception_lower": "2014-11-10",
    "date:inception_upper": "2014-11-10",
    "edtf:cessation": "2014-11-10T04:48:00-08:00",
    "edtf:inception": "2014-11-10T04:48:00-08:00",
    "geom:area": 0,
    "geom:bbox": "-122.386166,37.616356,-122.386166,37.616356",
    "geom:latitude": 37.616356,
    "geom:longitude": -122.386166,
    "instagram:post": {
      "caption": {
        "body": "",
        "excerpt": "",
        "hashtags": [
          "StudioGlass",
          "glass"
        ],
        "users": []
      },
      "media_id": "0cbdb70610ad661997ca41bc9d63b3f9",
      "path": "media/other/10802883_817459701610402_582989913_n_17842492855062499.jpg",
      "perceptual_hash": "p:d48c6c0427b33bf9",
      "taken": 1415623680,
      "taken_at": "Nov 10, 2014 12:48 pm"
    },
    "millsfield:similar": {
      "google/siglip2-so400m-patch16-naflex": [
        {
          "distance": 0.31384265422821045,
          "id": 1729355883
        },
        {
          "distance": 0.3176170587539673,
          "id": 1763559573
        },
        {
          "distance": 0.3197177052497864,
          "id": 1729355667
        },
        {
          "distance": 0.3197348713874817,
          "id": 1729356665
        },
        {
          "distance": 0.32142752408981323,
          "id": 1729362193
        },
        {
          "distance": 0.3246902823448181,
          "id": 1729362017
        },
        {
          "distance": 0.325212299823761,
          "id": 1729359425
        },
        {
          "distance": 0.3288213014602661,
          "id": 1729356263
        },
        {
          "distance": 0.32912737131118774,
          "id": 1729357093
        },
        {
          "distance": 0.3309229016304016,
          "id": 1729362423
        }
      ]
    },
    "sfomuseum:placetype": "instagram",
    "src:geom": "sfomuseum",
    "wof:belongsto": [
      1159160869,
      102527513,
      102191575,
      85633793,
      102087579,
      85922583,
      85688637
    ],
    "wof:country": "US",
    "wof:created": 1415623680,
    "wof:geomhash": "b6e33f47475d56bc8da457bc31afadc8",
    "wof:hierarchy": [
      {
        "building_id": 1159160869,
        "campus_id": 102527513,
        "continent_id": 102191575,
        "country_id": 85633793,
        "county_id": 102087579,
        "custom_id": 1729362055,
        "instagram_id": 1729362055,
        "locality_id": 85922583,
        "neighbourhood_id": -1,
        "region_id": 85688637
      }
    ],
    "wof:id": 1729362055,
    "wof:lastmodified": 1787777646,
    "wof:name": "..",
    "wof:parent_id": 1159160869,
    "wof:placetype": "custom",
    "wof:placetype_alt": [
      "instagram"
    ],
    "wof:repo": "sfomuseum-data-socialmedia-instagram",
    "wof:superseded_by": [],
    "wof:supersedes": []
  },
  "bbox": [
    -122.386166,
    37.616356,
    -122.386166,
    37.616356
  ],
  "geometry": {"type":"Point","coordinates":[-122.386166,37.616356]}
}
