{
  "id": 1729356275,
  "type": "Feature",
  "properties": {
    "date:cessation_lower": "2019-07-29",
    "date:cessation_upper": "2019-07-29",
    "date:inception_lower": "2019-07-29",
    "date:inception_upper": "2019-07-29",
    "edtf:cessation": "2019-07-29T09:19:00-07:00",
    "edtf:inception": "2019-07-29T09:19:00-07:00",
    "geom:area": 0,
    "geom:bbox": "-122.386166,37.616356,-122.386166,37.616356",
    "geom:latitude": 37.616356,
    "geom:longitude": -122.386166,
    "instagram:post": {
      "caption": {
        "body": "It is your last week to see “Reflections in Wood: Surfboards and Shapers.” By pairing iconic shapers with select sources of rare wood, Larry Fuller has assembled a collection of boards that illustrate the progression of surfboard design through a common medium. This exhibition features twenty-seven wooden surfboards constructed by Fuller and his partners over the past decade. See “Reflections in Wood: Surfboards and Shapers” on display pre-security in the International Terminal.  http://bit.ly/SurfboardsAndShapers",
        "excerpt": "It is your last week to see “Reflections in Wood: Surfboards and Shapers.” By pairing iconic shapers with select sources of rare wood, Larry Fuller has assembled a collection of boards that illustrate the progression of surfboard design through a common medium.",
        "hashtags": [
          "SurfboardsandShapers",
          "surfers",
          "shapers",
          "surf",
          "surfing",
          "surflife",
          "surfer",
          "Surfboards",
          "Surfboard",
          "surfcraft",
          "SurfboardShaper",
          "woodensurfboard",
          "SurfboardShaping",
          "handshaped"
        ],
        "users": []
      },
      "media_id": "7cd611ef2a08b1448c9772c028e16681",
      "path": "media/other/66209817_170511223992529_3148740351130355930_n_17901375991351560.jpg",
      "perceptual_hash": "p:f7e048b7d04bc358",
      "taken": 1564417140,
      "taken_at": "Jul 29, 2019 4:19 pm"
    },
    "millsfield:similar": {
      "google/siglip2-so400m-patch16-naflex": [
        {
          "distance": 0.2526688575744629,
          "id": 1763558907
        },
        {
          "distance": 0.2533084750175476,
          "id": 1763559103
        },
        {
          "distance": 0.2551838755607605,
          "id": 1729356521
        },
        {
          "distance": 0.2578362226486206,
          "id": 1729356737
        },
        {
          "distance": 0.2616065740585327,
          "id": 1729355529
        },
        {
          "distance": 0.26629942655563354,
          "id": 1729360653
        },
        {
          "distance": 0.2726036310195923,
          "id": 1729356737
        },
        {
          "distance": 0.27698463201522827,
          "id": 1729356521
        },
        {
          "distance": 0.27794116735458374,
          "id": 1763558925
        },
        {
          "distance": 0.28042125701904297,
          "id": 1763558925
        }
      ]
    },
    "sfomuseum:placetype": "instagram",
    "src:geom": "sfomuseum",
    "wof:belongsto": [
      1159160869,
      102527513,
      102191575,
      85633793,
      102087579,
      85922583,
      85688637
    ],
    "wof:country": "US",
    "wof:created": 1564417140,
    "wof:geomhash": "b6e33f47475d56bc8da457bc31afadc8",
    "wof:hierarchy": [
      {
        "building_id": 1159160869,
        "campus_id": 102527513,
        "continent_id": 102191575,
        "country_id": 85633793,
        "county_id": 102087579,
        "custom_id": 1729356275,
        "instagram_id": 1729356275,
        "locality_id": 85922583,
        "neighbourhood_id": -1,
        "region_id": 85688637
      }
    ],
    "wof:id": 1729356275,
    "wof:lastmodified": 1787777629,
    "wof:name": "It is your last week to see “Reflections in Wood: Surfboards and Shapers.” By pairing iconic shapers with select sources of rare wood, Larry Fuller has assembled a collection of boards that illustrate the progression of surfboard design through a common medium...",
    "wof:parent_id": 1159160869,
    "wof:placetype": "custom",
    "wof:placetype_alt": [
      "instagram"
    ],
    "wof:repo": "sfomuseum-data-socialmedia-instagram",
    "wof:superseded_by": [],
    "wof:supersedes": []
  },
  "bbox": [
    -122.386166,
    37.616356,
    -122.386166,
    37.616356
  ],
  "geometry": {"type":"Point","coordinates":[-122.386166,37.616356]}
}
