{
  "id": 1729358913,
  "type": "Feature",
  "properties": {
    "date:cessation_lower": "2017-11-09",
    "date:cessation_upper": "2017-11-09",
    "date:inception_lower": "2017-11-09",
    "date:inception_upper": "2017-11-09",
    "edtf:cessation": "2017-11-09T09:21:00-08:00",
    "edtf:inception": "2017-11-09T09:21:00-08:00",
    "geom:area": 0,
    "geom:bbox": "-122.386166,37.616356,-122.386166,37.616356",
    "geom:latitude": 37.616356,
    "geom:longitude": -122.386166,
    "instagram:post": {
      "caption": {
        "body": "What's going on in the museum? Currently we are preparing for our next exhibition on #AmericanFolkArt. Exhibition furniture and mounts are fabricated, approved, dismantled, and packed in a separate facility before being transported to the terminals and installed in their specific case. Here, the case furniture is lined up, ready to be packed and taken to the terminals. Stay tuned for more behind the scenes glimpses at what goes on at SFO Museum",
        "excerpt": "What's going on in the museum?",
        "hashtags": [
          "SFOMuseum",
          "SFO",
          "behindthescenes",
          "sneakpeek",
          "folkart",
          "art",
          "museum"
        ],
        "users": []
      },
      "media_id": "cc4c5391dd6e91d0209d1bf82aa4e6ff",
      "path": "media/other/23417024_542928799391443_450072079669133312_n_17848069000213087.jpg",
      "perceptual_hash": "p:ea94e348786e33a6",
      "taken": 1510248060,
      "taken_at": "Nov 09, 2017 5:21 pm"
    },
    "millsfield:similar": {
      "google/siglip2-so400m-patch16-naflex": [
        {
          "distance": 0.2255920171737671,
          "id": 1729359539
        },
        {
          "distance": 0.23308324813842773,
          "id": 1947424861
        },
        {
          "distance": 0.2417750358581543,
          "id": 1729360069
        },
        {
          "distance": 0.2424103021621704,
          "id": 1947425167
        },
        {
          "distance": 0.2458881139755249,
          "id": 1763558895
        },
        {
          "distance": 0.24669528007507324,
          "id": 1763558895
        },
        {
          "distance": 0.2472015619277954,
          "id": 1947424861
        },
        {
          "distance": 0.2477976679801941,
          "id": 1880150939
        },
        {
          "distance": 0.2506157159805298,
          "id": 1729357117
        },
        {
          "distance": 0.2532072067260742,
          "id": 1947425087
        }
      ]
    },
    "sfomuseum:placetype": "instagram",
    "src:geom": "sfomuseum",
    "wof:belongsto": [
      1159160869,
      102527513,
      102191575,
      85633793,
      102087579,
      85922583,
      85688637
    ],
    "wof:country": "US",
    "wof:created": 1510248060,
    "wof:geomhash": "b6e33f47475d56bc8da457bc31afadc8",
    "wof:hierarchy": [
      {
        "building_id": 1159160869,
        "campus_id": 102527513,
        "continent_id": 102191575,
        "country_id": 85633793,
        "county_id": 102087579,
        "custom_id": 1729358913,
        "instagram_id": 1729358913,
        "locality_id": 85922583,
        "neighbourhood_id": -1,
        "region_id": 85688637
      }
    ],
    "wof:id": 1729358913,
    "wof:lastmodified": 1787777634,
    "wof:name": "What's going on in the museum?..",
    "wof:parent_id": 1159160869,
    "wof:placetype": "custom",
    "wof:placetype_alt": [
      "instagram"
    ],
    "wof:repo": "sfomuseum-data-socialmedia-instagram",
    "wof:superseded_by": [],
    "wof:supersedes": []
  },
  "bbox": [
    -122.386166,
    37.616356,
    -122.386166,
    37.616356
  ],
  "geometry": {"type":"Point","coordinates":[-122.386166,37.616356]}
}
