{
  "id": 1729356999,
  "type": "Feature",
  "properties": {
    "date:cessation_lower": "2019-02-03",
    "date:cessation_upper": "2019-02-03",
    "date:inception_lower": "2019-02-03",
    "date:inception_upper": "2019-02-03",
    "edtf:cessation": "2019-02-03T03:07:00-08:00",
    "edtf:inception": "2019-02-03T03:07:00-08:00",
    "geom:area": 0,
    "geom:bbox": "-122.386166,37.616356,-122.386166,37.616356",
    "geom:latitude": 37.616356,
    "geom:longitude": -122.386166,
    "instagram:post": {
      "caption": {
        "body": "What was the last in-flight meal you had? Check out the colorful selection of in-flight menus we have in our online database: http://bit.ly/1NoKmKH  Image: Air France menu, Concorde, 2002. Gift of Kevin Kone. 2006.036.001 ",
        "excerpt": "What was the last in-flight meal you had?",
        "hashtags": [
          "avgeek",
          "inflight",
          "menus",
          "meals",
          "concorde",
          "airfrance"
        ],
        "users": []
      },
      "media_id": "69bd102166ef25aaa71d1ac62b4b3bd0",
      "path": "media/other/49702546_2257649900926479_5768999682041381759_n_18014288743107540.jpg",
      "perceptual_hash": "p:fec981c991cd9a13",
      "taken": 1549192020,
      "taken_at": "Feb 03, 2019 11:07 am"
    },
    "millsfield:similar": {
      "google/siglip2-so400m-patch16-naflex": [
        {
          "distance": 0.4113500714302063,
          "id": 1880151341
        },
        {
          "distance": 0.45030641555786133,
          "id": 1763559337
        },
        {
          "distance": 0.4644492268562317,
          "id": 1880151511
        },
        {
          "distance": 0.47694867849349976,
          "id": 1729361895
        },
        {
          "distance": 0.4840879440307617,
          "id": 1729357415
        },
        {
          "distance": 0.4883878827095032,
          "id": 1729357757
        },
        {
          "distance": 0.4959290623664856,
          "id": 1729359241
        },
        {
          "distance": 0.4960567355155945,
          "id": 1729359013
        },
        {
          "distance": 0.49744701385498047,
          "id": 1729356041
        },
        {
          "distance": 0.49818873405456543,
          "id": 1729361285
        }
      ]
    },
    "sfomuseum:placetype": "instagram",
    "src:geom": "sfomuseum",
    "wof:belongsto": [
      1159160869,
      102527513,
      102191575,
      85633793,
      102087579,
      85922583,
      85688637
    ],
    "wof:country": "US",
    "wof:created": 1549192020,
    "wof:geomhash": "b6e33f47475d56bc8da457bc31afadc8",
    "wof:hierarchy": [
      {
        "building_id": 1159160869,
        "campus_id": 102527513,
        "continent_id": 102191575,
        "country_id": 85633793,
        "county_id": 102087579,
        "custom_id": 1729356999,
        "instagram_id": 1729356999,
        "locality_id": 85922583,
        "neighbourhood_id": -1,
        "region_id": 85688637
      }
    ],
    "wof:id": 1729356999,
    "wof:lastmodified": 1787777629,
    "wof:name": "What was the last in-flight meal you had?..",
    "wof:parent_id": 1159160869,
    "wof:placetype": "custom",
    "wof:placetype_alt": [
      "instagram"
    ],
    "wof:repo": "sfomuseum-data-socialmedia-instagram",
    "wof:superseded_by": [],
    "wof:supersedes": []
  },
  "bbox": [
    -122.386166,
    37.616356,
    -122.386166,
    37.616356
  ],
  "geometry": {"type":"Point","coordinates":[-122.386166,37.616356]}
}
