{
  "id": 1729362869,
  "type": "Feature",
  "properties": {
    "date:cessation_lower": "2012-10-10",
    "date:cessation_upper": "2012-10-10",
    "date:inception_lower": "2012-10-10",
    "date:inception_upper": "2012-10-10",
    "edtf:cessation": "2012-10-10T06:32:00-07:00",
    "edtf:inception": "2012-10-10T06:32:00-07:00",
    "geom:area": 0,
    "geom:bbox": "-122.386166,37.616356,-122.386166,37.616356",
    "geom:latitude": 37.616356,
    "geom:longitude": -122.386166,
    "instagram:post": {
      "caption": {
        "body": "Wild paint samples (c. 1983) for Jeff Lindsay's Mountain Goat bikes, on display in the Intl Term",
        "excerpt": "Wild paint samples (c.",
        "hashtags": [],
        "users": []
      },
      "media_id": "fa789293ade7b920c061eb079983c13e",
      "path": "media/other/11195620_1628709047343182_490654859_n_17842274758062499.jpg",
      "perceptual_hash": "p:982b0f05e53ab765",
      "taken": 1349875920,
      "taken_at": "Oct 10, 2012 1:32 pm"
    },
    "millsfield:similar": {
      "google/siglip2-so400m-patch16-naflex": [
        {
          "distance": 0.2940332293510437,
          "id": 1729362853
        },
        {
          "distance": 0.30770671367645264,
          "id": 1729362925
        },
        {
          "distance": 0.31222766637802124,
          "id": 1729363019
        },
        {
          "distance": 0.3125242590904236,
          "id": 1729362853
        },
        {
          "distance": 0.32945406436920166,
          "id": 1729363019
        },
        {
          "distance": 0.33144068717956543,
          "id": 1729362801
        },
        {
          "distance": 0.3315669894218445,
          "id": 1729362925
        },
        {
          "distance": 0.33374160528182983,
          "id": 1729363011
        },
        {
          "distance": 0.342961847782135,
          "id": 1729362815
        },
        {
          "distance": 0.3527863621711731,
          "id": 1729363011
        }
      ]
    },
    "sfomuseum:placetype": "instagram",
    "src:geom": "sfomuseum",
    "wof:belongsto": [
      1159160869,
      102527513,
      102191575,
      85633793,
      102087579,
      85922583,
      85688637
    ],
    "wof:country": "US",
    "wof:created": 1349875920,
    "wof:geomhash": "b6e33f47475d56bc8da457bc31afadc8",
    "wof:hierarchy": [
      {
        "building_id": 1159160869,
        "campus_id": 102527513,
        "continent_id": 102191575,
        "country_id": 85633793,
        "county_id": 102087579,
        "custom_id": 1729362869,
        "instagram_id": 1729362869,
        "locality_id": 85922583,
        "neighbourhood_id": -1,
        "region_id": 85688637
      }
    ],
    "wof:id": 1729362869,
    "wof:lastmodified": 1787777654,
    "wof:name": "Wild paint samples (c...",
    "wof:parent_id": 1159160869,
    "wof:placetype": "custom",
    "wof:placetype_alt": [
      "instagram"
    ],
    "wof:repo": "sfomuseum-data-socialmedia-instagram",
    "wof:superseded_by": [],
    "wof:supersedes": []
  },
  "bbox": [
    -122.386166,
    37.616356,
    -122.386166,
    37.616356
  ],
  "geometry": {"type":"Point","coordinates":[-122.386166,37.616356]}
}
