{
  "id": 1729359245,
  "type": "Feature",
  "properties": {
    "date:cessation_lower": "2017-08-04",
    "date:cessation_upper": "2017-08-04",
    "date:inception_lower": "2017-08-04",
    "date:inception_upper": "2017-08-04",
    "edtf:cessation": "2017-08-03T17:34:37-07:00",
    "edtf:inception": "2017-08-03T17:34:37-07:00",
    "geom:area": 0,
    "geom:bbox": "-122.386166,37.616356,-122.386166,37.616356",
    "geom:latitude": 37.616356,
    "geom:longitude": -122.386166,
    "instagram:post": {
      "caption": {
        "body": "In the mid-1930s, L.C. Smith \u0026 Corona offered an “Animal Keyboard” option on their popular Silent, Sterling, and Standard portable typewriters. Marketed to teach children to type, these rare, Depression-era machines included a set of finger rings that corresponded with illustrated animals on the keys. Keyboard columns were color-coordinated to the finger rings and featured animals such as bluebirds, bear cubs, kittens, and bunny rabbits. An illustrated play book was included, and color-coordinated keyboards were also offered without animal keys as instructional devices for older children.  Learn more about the typewriter in our exhibition, \"The Typewriter: An Innovation in Writing\", post-security, in Terminal 2. http://bit.ly/Thetypewriter",
        "excerpt": "In the mid-1930s, L.C. Smith \u0026 Corona offered an “Animal Keyboard” option on their popular Silent, Sterling, and Standard portable typewriters.",
        "hashtags": [
          "thetypewriter",
          "typewriter",
          "typewriters",
          "writing",
          "industrialdesign",
          "QWERTY",
          "keyboard",
          "keyboards",
          "cute",
          "animalkeys",
          "animals",
          "design",
          "innovation",
          "type",
          "typer",
          "typing",
          "typist",
          "oldschool",
          "instagood",
          "writer",
          "writing",
          "vintagetypewriter",
          "vintage",
          "analog",
          "coronatypewriter",
          "antique",
          "typewritten",
          "typed",
          "typewriting",
          "oldtypewriters",
          "typewritersofinstagram"
        ],
        "users": []
      },
      "location": "",
      "media_id": "c0cf94a17f38043b00539863dcc7d5f8",
      "path": "photos/201708/c0cf94a17f38043b00539863dcc7d5f8.jpg",
      "perceptual_hash": "p:c07dbe1251127f6c",
      "taken": 1501778040,
      "taken_at": "Aug 3, 2017, 4:34 PM"
    },
    "millsfield:similar": {
      "google/siglip2-so400m-patch16-naflex": [
        {
          "distance": 0.252094030380249,
          "id": 1729358859
        },
        {
          "distance": 0.2542370557785034,
          "id": 1729359131
        },
        {
          "distance": 0.2622918486595154,
          "id": 1729358939
        },
        {
          "distance": 0.265069842338562,
          "id": 1729359435
        },
        {
          "distance": 0.2698056697845459,
          "id": 1729359485
        },
        {
          "distance": 0.27282363176345825,
          "id": 1729359001
        },
        {
          "distance": 0.2730647325515747,
          "id": 1729359025
        },
        {
          "distance": 0.2762218713760376,
          "id": 1729359231
        },
        {
          "distance": 0.28069818019866943,
          "id": 1729358989
        },
        {
          "distance": 0.2838621139526367,
          "id": 1729359125
        }
      ]
    },
    "sfomuseum:placetype": "instagram",
    "src:geom": "sfomuseum",
    "wof:belongsto": [
      1159160869,
      102527513,
      102191575,
      85633793,
      102087579,
      85922583,
      85688637
    ],
    "wof:country": "US",
    "wof:created": 1501806877,
    "wof:geomhash": "b6e33f47475d56bc8da457bc31afadc8",
    "wof:hierarchy": [
      {
        "building_id": 1159160869,
        "campus_id": 102527513,
        "continent_id": 102191575,
        "country_id": 85633793,
        "county_id": 102087579,
        "custom_id": 1729359245,
        "instagram_id": 1729359245,
        "locality_id": 85922583,
        "neighbourhood_id": -1,
        "region_id": 85688637
      }
    ],
    "wof:id": 1729359245,
    "wof:lastmodified": 1787777635,
    "wof:name": "In the mid-1930s, L.C. Smith \u0026 Corona offered an “Animal Keyboard” option on their popular Silent, Sterling, and Standard portable typewriters...",
    "wof:parent_id": 1159160869,
    "wof:placetype": "custom",
    "wof:placetype_alt": [
      "instagram"
    ],
    "wof:repo": "sfomuseum-data-socialmedia-instagram",
    "wof:superseded_by": [],
    "wof:supersedes": []
  },
  "bbox": [
    -122.386166,
    37.616356,
    -122.386166,
    37.616356
  ],
  "geometry": {"type":"Point","coordinates":[-122.386166,37.616356]}
}
