{
  "id": 1880151587,
  "type": "Feature",
  "properties": {
    "date:cessation_lower": "2022-07-11",
    "date:cessation_upper": "2022-07-11",
    "date:inception_lower": "2022-07-11",
    "date:inception_upper": "2022-07-11",
    "edtf:cessation": "2022-07-11T08:56:00-07:00",
    "edtf:inception": "2022-07-11T08:56:00-07:00",
    "geom:area": 0,
    "geom:bbox": "-122.386166,37.616356,-122.386166,37.616356",
    "geom:latitude": 37.616356,
    "geom:longitude": -122.386166,
    "instagram:post": {
      "caption": {
        "body": "Stir it up with some Swizzle Sticks! Browse over three hundred swizzle sticks on our online collection.  https://bit.ly/3AdLE88",
        "excerpt": "Stir it up with some Swizzle Sticks!",
        "hashtags": [
          "SwizzleSticks",
          "collections",
          "AvGeek",
          "AviationHistory"
        ],
        "users": []
      },
      "media_id": "1c2c11e7556a8da0b616e8fa44ecff4fea71d54b",
      "path": "media/other/292916178_132473479223946_8023772520640398138_n_17958934543865391.jpg",
      "perceptual_hash": "p:92962569499bb6b6",
      "taken": 1657554960,
      "taken_at": "Jul 11, 2022 3:56 pm"
    },
    "millsfield:similar": {
      "google/siglip2-so400m-patch16-naflex": [
        {
          "distance": 0.21470767259597778,
          "id": 1729361065
        },
        {
          "distance": 0.2604386806488037,
          "id": 1729361065
        },
        {
          "distance": 0.3063594102859497,
          "id": 1729362317
        },
        {
          "distance": 0.31527775526046753,
          "id": 1729362317
        },
        {
          "distance": 0.36472469568252563,
          "id": 1729356451
        },
        {
          "distance": 0.3664311170578003,
          "id": 1880151505
        },
        {
          "distance": 0.3669745922088623,
          "id": 1729357251
        },
        {
          "distance": 0.3722881078720093,
          "id": 1729361309
        },
        {
          "distance": 0.38188523054122925,
          "id": 1729357357
        },
        {
          "distance": 0.38288432359695435,
          "id": 1729361309
        }
      ]
    },
    "sfomuseum:placetype": "instagram",
    "src:geom": "sfomuseum",
    "wof:belongsto": [
      1159160869,
      102527513,
      102191575,
      85633793,
      102087579,
      85922583,
      85688637
    ],
    "wof:country": "US",
    "wof:created": 1657554960,
    "wof:geomhash": "b6e33f47475d56bc8da457bc31afadc8",
    "wof:hierarchy": [
      {
        "building_id": 1159160869,
        "campus_id": 102527513,
        "continent_id": 102191575,
        "country_id": 85633793,
        "county_id": 102087579,
        "custom_id": 1880151587,
        "instagram_id": 1880151587,
        "locality_id": 85922583,
        "neighbourhood_id": -1,
        "region_id": 85688637
      }
    ],
    "wof:id": 1880151587,
    "wof:lastmodified": 1787777662,
    "wof:name": "Stir it up with some Swizzle Sticks!..",
    "wof:parent_id": 1159160869,
    "wof:placetype": "custom",
    "wof:placetype_alt": [
      "instagram"
    ],
    "wof:repo": "sfomuseum-data-socialmedia-instagram",
    "wof:superseded_by": [],
    "wof:supersedes": []
  },
  "bbox": [
    -122.386166,
    37.616356,
    -122.386166,
    37.616356
  ],
  "geometry": {"type":"Point","coordinates":[-122.386166,37.616356]}
}
