{
  "id": 1729355523,
  "type": "Feature",
  "properties": {
    "date:cessation_lower": "2020-02-15",
    "date:cessation_upper": "2020-02-15",
    "date:inception_lower": "2020-02-15",
    "date:inception_upper": "2020-02-15",
    "edtf:cessation": "2020-02-14T17:09:45-08:00",
    "edtf:inception": "2020-02-14T17:09:45-08:00",
    "geom:area": 0,
    "geom:bbox": "-122.386166,37.616356,-122.386166,37.616356",
    "geom:latitude": 37.616356,
    "geom:longitude": -122.386166,
    "instagram:post": {
      "caption": {
        "body": "Did you know that “California Studio Craft: Featuring Works from the Forrest L. Merrill Collection” features work by the husband and wife team of woodworker Bob Stocksdale (1913–2003) and textile artist Kay Sekimachi (b. 1926)? Stocksdale had a masterful talent for revealing dramatic patterns hidden below the surface of rare wood. Sekimachi transformed thread, paper, and organic materials into delightfully expressive textiles, vessels, and sculpture. Married in 1972, Stocksdale and Sekimachi refined their craft together for over three decades, sharing a love of form and innovation in craft.  See \"California Studio Craft: Featuring Works from the Forrest L. Merrill Collection\" on display, post-security, in Terminal 2. http://bit.ly/CaliforniaCrafts",
        "excerpt": "Did you know that “California Studio Craft: Featuring Works from the Forrest L. Merrill Collection” features work by the husband and wife team of woodworker Bob Stocksdale (1913–2003) and textile artist Kay Sekimachi (b.",
        "hashtags": [
          "CaliforniaCrafts",
          "ForrestMerrill",
          "StudioCraft",
          "ValentinesDay",
          "BobStocksdale",
          "KaySekimachi"
        ],
        "users": []
      },
      "location": "",
      "media_id": "83cb3e52fedf812ebdc6dbfa30794904",
      "path": "photos/202002/83cb3e52fedf812ebdc6dbfa30794904.jpg",
      "perceptual_hash": "p:d4366adb212df843",
      "taken": 1581700140,
      "taken_at": "Feb 14, 2020, 5:09 PM"
    },
    "millsfield:similar": {
      "google/siglip2-so400m-patch16-naflex": [
        {
          "distance": 0.12855404615402222,
          "id": 1947425293
        },
        {
          "distance": 0.13245803117752075,
          "id": 1947425293
        },
        {
          "distance": 0.18546825647354126,
          "id": 1947425059
        },
        {
          "distance": 0.21188950538635254,
          "id": 1947425059
        },
        {
          "distance": 0.2524051070213318,
          "id": 1763559661
        },
        {
          "distance": 0.2546499967575073,
          "id": 1729358661
        },
        {
          "distance": 0.2559660077095032,
          "id": 1729360963
        },
        {
          "distance": 0.2559698820114136,
          "id": 1880151545
        },
        {
          "distance": 0.26399552822113037,
          "id": 1729355539
        },
        {
          "distance": 0.27758634090423584,
          "id": 1729361521
        }
      ]
    },
    "sfomuseum:placetype": "instagram",
    "src:geom": "sfomuseum",
    "wof:belongsto": [
      1159160869,
      102527513,
      102191575,
      85633793,
      102087579,
      85922583,
      85688637
    ],
    "wof:country": "US",
    "wof:created": 1581728985,
    "wof:geomhash": "b6e33f47475d56bc8da457bc31afadc8",
    "wof:hierarchy": [
      {
        "building_id": 1159160869,
        "campus_id": 102527513,
        "continent_id": 102191575,
        "country_id": 85633793,
        "county_id": 102087579,
        "custom_id": 1729355523,
        "instagram_id": 1729355523,
        "locality_id": 85922583,
        "neighbourhood_id": -1,
        "region_id": 85688637
      }
    ],
    "wof:id": 1729355523,
    "wof:lastmodified": 1787777626,
    "wof:name": "Did you know that “California Studio Craft: Featuring Works from the Forrest L. Merrill Collection” features work by the husband and wife team of woodworker Bob Stocksdale (1913–2003) and textile artist Kay Sekimachi (b...",
    "wof:parent_id": 1159160869,
    "wof:placetype": "custom",
    "wof:placetype_alt": [
      "instagram"
    ],
    "wof:repo": "sfomuseum-data-socialmedia-instagram",
    "wof:superseded_by": [],
    "wof:supersedes": []
  },
  "bbox": [
    -122.386166,
    37.616356,
    -122.386166,
    37.616356
  ],
  "geometry": {"type":"Point","coordinates":[-122.386166,37.616356]}
}
