{
  "id": 1729360583,
  "type": "Feature",
  "properties": {
    "date:cessation_lower": "2016-06-25",
    "date:cessation_upper": "2016-06-25",
    "date:inception_lower": "2016-06-25",
    "date:inception_upper": "2016-06-25",
    "edtf:cessation": "2016-06-25T03:22:00-07:00",
    "edtf:inception": "2016-06-25T03:22:00-07:00",
    "geom:area": 0,
    "geom:bbox": "-122.386166,37.616356,-122.386166,37.616356",
    "geom:latitude": 37.616356,
    "geom:longitude": -122.386166,
    "instagram:post": {
      "caption": {
        "body": "",
        "excerpt": "",
        "hashtags": [
          "BangladeshProject\""
        ],
        "users": [
          "hillerphoto"
        ]
      },
      "media_id": "fd6c5e7f7350322f3af9aac7b372fdba",
      "path": "media/other/12445964_1706443016281033_523234832_n_17848620655084495.jpg",
      "perceptual_hash": "p:e1ce88bde2b19f04",
      "taken": 1466850120,
      "taken_at": "Jun 25, 2016 10:22 am"
    },
    "millsfield:similar": {
      "google/siglip2-so400m-patch16-naflex": [
        {
          "distance": 0.4022220969200134,
          "id": 1729355473
        },
        {
          "distance": 0.4069722890853882,
          "id": 1729356391
        },
        {
          "distance": 0.4136885404586792,
          "id": 1763559193
        },
        {
          "distance": 0.42095446586608887,
          "id": 1729355135
        },
        {
          "distance": 0.4264412522315979,
          "id": 1729356393
        },
        {
          "distance": 0.4292911887168884,
          "id": 1947424825
        },
        {
          "distance": 0.4329708218574524,
          "id": 1763559193
        },
        {
          "distance": 0.4361174702644348,
          "id": 1729358081
        },
        {
          "distance": 0.44345104694366455,
          "id": 1729355135
        },
        {
          "distance": 0.44418734312057495,
          "id": 1763559271
        }
      ]
    },
    "sfomuseum:placetype": "instagram",
    "src:geom": "sfomuseum",
    "wof:belongsto": [
      1159160869,
      102527513,
      102191575,
      85633793,
      102087579,
      85922583,
      85688637
    ],
    "wof:country": "US",
    "wof:created": 1466850120,
    "wof:geomhash": "b6e33f47475d56bc8da457bc31afadc8",
    "wof:hierarchy": [
      {
        "building_id": 1159160869,
        "campus_id": 102527513,
        "continent_id": 102191575,
        "country_id": 85633793,
        "county_id": 102087579,
        "custom_id": 1729360583,
        "instagram_id": 1729360583,
        "locality_id": 85922583,
        "neighbourhood_id": -1,
        "region_id": 85688637
      }
    ],
    "wof:id": 1729360583,
    "wof:lastmodified": 1787777640,
    "wof:name": "..",
    "wof:parent_id": 1159160869,
    "wof:placetype": "custom",
    "wof:placetype_alt": [
      "instagram"
    ],
    "wof:repo": "sfomuseum-data-socialmedia-instagram",
    "wof:superseded_by": [],
    "wof:supersedes": []
  },
  "bbox": [
    -122.386166,
    37.616356,
    -122.386166,
    37.616356
  ],
  "geometry": {"type":"Point","coordinates":[-122.386166,37.616356]}
}
