{
  "id": 1729361229,
  "type": "Feature",
  "properties": {
    "date:cessation_lower": "2015-12-25",
    "date:cessation_upper": "2015-12-25",
    "date:inception_lower": "2015-12-25",
    "date:inception_upper": "2015-12-25",
    "edtf:cessation": "2015-12-25T03:26:00-08:00",
    "edtf:inception": "2015-12-25T03:26:00-08:00",
    "geom:area": 0,
    "geom:bbox": "-122.386166,37.616356,-122.386166,37.616356",
    "geom:latitude": 37.616356,
    "geom:longitude": -122.386166,
    "instagram:post": {
      "caption": {
        "body": "The Aviation Museum \u0026 Library is closed today for the Christmas holiday, but all other exhibits are open! Happy holidays!",
        "excerpt": "The Aviation Museum \u0026 Library is closed today for the Christmas holiday, but all other exhibits are open!",
        "hashtags": [],
        "users": []
      },
      "media_id": "0a127912d841698d00e523de67f89c1a",
      "path": "media/other/12353415_1546433335677660_118074925_n_17843754046109067.jpg",
      "perceptual_hash": "p:947acae8c1ccfa94",
      "taken": 1451042760,
      "taken_at": "Dec 25, 2015 11:26 am"
    },
    "millsfield:similar": {
      "google/siglip2-so400m-patch16-naflex": [
        {
          "distance": 0.321438729763031,
          "id": 1880151449
        },
        {
          "distance": 0.3217640519142151,
          "id": 1729360371
        },
        {
          "distance": 0.32795077562332153,
          "id": 1880151121
        },
        {
          "distance": 0.3304678201675415,
          "id": 1729360121
        },
        {
          "distance": 0.3310728669166565,
          "id": 1729359683
        },
        {
          "distance": 0.3322267532348633,
          "id": 1729361489
        },
        {
          "distance": 0.3345990777015686,
          "id": 1729356335
        },
        {
          "distance": 0.33776116371154785,
          "id": 1729360573
        },
        {
          "distance": 0.3423250913619995,
          "id": 1729361263
        },
        {
          "distance": 0.3443509340286255,
          "id": 1947425253
        }
      ]
    },
    "sfomuseum:placetype": "instagram",
    "src:geom": "sfomuseum",
    "wof:belongsto": [
      1159160869,
      102527513,
      102191575,
      85633793,
      102087579,
      85922583,
      85688637
    ],
    "wof:country": "US",
    "wof:created": 1451042760,
    "wof:geomhash": "b6e33f47475d56bc8da457bc31afadc8",
    "wof:hierarchy": [
      {
        "building_id": 1159160869,
        "campus_id": 102527513,
        "continent_id": 102191575,
        "country_id": 85633793,
        "county_id": 102087579,
        "custom_id": 1729361229,
        "instagram_id": 1729361229,
        "locality_id": 85922583,
        "neighbourhood_id": -1,
        "region_id": 85688637
      }
    ],
    "wof:id": 1729361229,
    "wof:lastmodified": 1787777645,
    "wof:name": "The Aviation Museum \u0026 Library is closed today for the Christmas holiday, but all other exhibits are open!..",
    "wof:parent_id": 1159160869,
    "wof:placetype": "custom",
    "wof:placetype_alt": [
      "instagram"
    ],
    "wof:repo": "sfomuseum-data-socialmedia-instagram",
    "wof:superseded_by": [],
    "wof:supersedes": []
  },
  "bbox": [
    -122.386166,
    37.616356,
    -122.386166,
    37.616356
  ],
  "geometry": {"type":"Point","coordinates":[-122.386166,37.616356]}
}
