{
  "id": 1729361789,
  "type": "Feature",
  "properties": {
    "date:cessation_lower": "2015-05-14",
    "date:cessation_upper": "2015-05-14",
    "date:inception_lower": "2015-05-14",
    "date:inception_upper": "2015-05-14",
    "edtf:cessation": "2015-05-14T06:34:00-07:00",
    "edtf:inception": "2015-05-14T06:34:00-07:00",
    "geom:area": 0,
    "geom:bbox": "-122.386166,37.616356,-122.386166,37.616356",
    "geom:latitude": 37.616356,
    "geom:longitude": -122.386166,
    "instagram:post": {
      "caption": {
        "body": "",
        "excerpt": "",
        "hashtags": [
          "BehindTheScenes",
          "KirksMonsters",
          "TheMummy",
          "guitar"
        ],
        "users": [
          "KirkHammet's"
        ]
      },
      "media_id": "2972fff8cc3cea5dc120e78a6c47dc58",
      "path": "media/other/11256357_1564031517191067_784335281_n_17841499228062499.jpg",
      "perceptual_hash": "p:9bcb7a38a5c2c8b4",
      "taken": 1431610440,
      "taken_at": "May 14, 2015 1:34 pm"
    },
    "millsfield:similar": {
      "google/siglip2-so400m-patch16-naflex": [
        {
          "distance": 0.2288820743560791,
          "id": 1729361825
        },
        {
          "distance": 0.2327115535736084,
          "id": 1729361617
        },
        {
          "distance": 0.23439395427703857,
          "id": 1729361649
        },
        {
          "distance": 0.25386476516723633,
          "id": 1729361825
        },
        {
          "distance": 0.26845353841781616,
          "id": 1729361669
        },
        {
          "distance": 0.27092450857162476,
          "id": 1729361649
        },
        {
          "distance": 0.27682751417160034,
          "id": 1729361555
        },
        {
          "distance": 0.30659234523773193,
          "id": 1729361669
        },
        {
          "distance": 0.3173615336418152,
          "id": 1729355149
        },
        {
          "distance": 0.3228756785392761,
          "id": 1729355149
        }
      ]
    },
    "sfomuseum:placetype": "instagram",
    "src:geom": "sfomuseum",
    "wof:belongsto": [
      1159160869,
      102527513,
      102191575,
      85633793,
      102087579,
      85922583,
      85688637
    ],
    "wof:country": "US",
    "wof:created": 1431610440,
    "wof:geomhash": "b6e33f47475d56bc8da457bc31afadc8",
    "wof:hierarchy": [
      {
        "building_id": 1159160869,
        "campus_id": 102527513,
        "continent_id": 102191575,
        "country_id": 85633793,
        "county_id": 102087579,
        "custom_id": 1729361789,
        "instagram_id": 1729361789,
        "locality_id": 85922583,
        "neighbourhood_id": -1,
        "region_id": 85688637
      }
    ],
    "wof:id": 1729361789,
    "wof:lastmodified": 1787777646,
    "wof:name": "..",
    "wof:parent_id": 1159160869,
    "wof:placetype": "custom",
    "wof:placetype_alt": [
      "instagram"
    ],
    "wof:repo": "sfomuseum-data-socialmedia-instagram",
    "wof:superseded_by": [],
    "wof:supersedes": []
  },
  "bbox": [
    -122.386166,
    37.616356,
    -122.386166,
    37.616356
  ],
  "geometry": {"type":"Point","coordinates":[-122.386166,37.616356]}
}
