{
  "id": 1729361311,
  "type": "Feature",
  "properties": {
    "date:cessation_lower": "2015-12-09",
    "date:cessation_upper": "2015-12-09",
    "date:inception_lower": "2015-12-09",
    "date:inception_upper": "2015-12-09",
    "edtf:cessation": "2015-12-09T12:24:00-08:00",
    "edtf:inception": "2015-12-09T12:24:00-08:00",
    "geom:area": 0,
    "geom:bbox": "-122.386166,37.616356,-122.386166,37.616356",
    "geom:latitude": 37.616356,
    "geom:longitude": -122.386166,
    "instagram:post": {
      "caption": {
        "body": "",
        "excerpt": "",
        "hashtags": [
          "WomenInAviation"
        ],
        "users": []
      },
      "media_id": "6cd4e6e8e88d4665d15da4b1d9095f9c",
      "path": "media/other/12346173_207027982968232_1846346811_n_17851587520006060.jpg",
      "perceptual_hash": "p:faf14a4647caac31",
      "taken": 1449692640,
      "taken_at": "Dec 09, 2015 8:24 pm"
    },
    "millsfield:similar": {
      "google/siglip2-so400m-patch16-naflex": [
        {
          "distance": 0.022305727005004883,
          "id": 1729355241
        },
        {
          "distance": 0.05640983581542969,
          "id": 1729359489
        },
        {
          "distance": 0.09588372707366943,
          "id": 1729355241
        },
        {
          "distance": 0.10843509435653687,
          "id": 1729359489
        },
        {
          "distance": 0.16775739192962646,
          "id": 1729355335
        },
        {
          "distance": 0.16881197690963745,
          "id": 1763558845
        },
        {
          "distance": 0.17776340246200562,
          "id": 1729359201
        },
        {
          "distance": 0.18487411737442017,
          "id": 1729355261
        },
        {
          "distance": 0.18801462650299072,
          "id": 1729355335
        },
        {
          "distance": 0.1881706714630127,
          "id": 1729359201
        }
      ]
    },
    "sfomuseum:placetype": "instagram",
    "src:geom": "sfomuseum",
    "wof:belongsto": [
      1159160869,
      102527513,
      102191575,
      85633793,
      102087579,
      85922583,
      85688637
    ],
    "wof:country": "US",
    "wof:created": 1449692640,
    "wof:geomhash": "b6e33f47475d56bc8da457bc31afadc8",
    "wof:hierarchy": [
      {
        "building_id": 1159160869,
        "campus_id": 102527513,
        "continent_id": 102191575,
        "country_id": 85633793,
        "county_id": 102087579,
        "custom_id": 1729361311,
        "instagram_id": 1729361311,
        "locality_id": 85922583,
        "neighbourhood_id": -1,
        "region_id": 85688637
      }
    ],
    "wof:id": 1729361311,
    "wof:lastmodified": 1787777645,
    "wof:name": "..",
    "wof:parent_id": 1159160869,
    "wof:placetype": "custom",
    "wof:placetype_alt": [
      "instagram"
    ],
    "wof:repo": "sfomuseum-data-socialmedia-instagram",
    "wof:superseded_by": [],
    "wof:supersedes": []
  },
  "bbox": [
    -122.386166,
    37.616356,
    -122.386166,
    37.616356
  ],
  "geometry": {"type":"Point","coordinates":[-122.386166,37.616356]}
}
