{
  "id": 1880151323,
  "type": "Feature",
  "properties": {
    "date:cessation_lower": "2022-11-16",
    "date:cessation_upper": "2022-11-16",
    "date:inception_lower": "2022-11-16",
    "date:inception_upper": "2022-11-16",
    "edtf:cessation": "2022-11-16T05:45:00-08:00",
    "edtf:inception": "2022-11-16T05:45:00-08:00",
    "geom:area": 0,
    "geom:bbox": "-122.386166,37.616356,-122.386166,37.616356",
    "geom:latitude": 37.616356,
    "geom:longitude": -122.386166,
    "instagram:post": {
      "caption": {
        "body": "Many of Bradbury \u0026 Bradbury Art Wallpapers’ patterns are initially hand painted on acetate or by cutting a stencil. For every pattern created, a separate stencil or silkscreen must be prepared for each different color. Silkscreens require a coating of photo-sensitive emulsion, essentially creating a large piece of film. The screen and artwork are sandwiched in a large vacuum frame and exposed to light. Areas exposed to the light become impervious; the other areas are washed away. Paint is forced through the stencil using a plastic-bladed squeegee. The printer must skip every other repeat to prevent the silkscreen frame from falling in wet ink. Each screen lays down one color at a time. St. James, which has seventeen colors, requires seventeen different prints with seventeen separate screens, each of which must perfectly align with the next one. Printing tables are ninety feet long and hold six rolls of wallpaper. A complex pattern for an average size Victorian room can require over one thousand individual impressions!  Special thank you to Bradbury \u0026 Bradbury Art Wallpapers (@bradburywallpaper) for making this exhibition possible. “The Victorian Papered Wall” is on display pre-security in the International Terminal and online at: https://bit.ly/VictorianPaperedWall",
        "excerpt": "Many of Bradbury \u0026 Bradbury Art Wallpapers’ patterns are initially hand painted on acetate or by cutting a stencil.",
        "hashtags": [
          "VictorianPaperedWall",
          "Wallpaper",
          "WallpaperWednesday",
          "design"
        ],
        "users": []
      },
      "media_id": "ea215e86419817a4df7b4c846885564bec018406",
      "path": "media/posts/202211/315545585_113704614888056_8597249610219752639_n_18262554544109405.jpg",
      "perceptual_hash": "p:bad66d88c415d23e",
      "taken": 1668606300,
      "taken_at": "Nov 16, 2022 1:45 pm"
    },
    "millsfield:similar": {
      "google/siglip2-so400m-patch16-naflex": [
        {
          "distance": 0.10754978656768799,
          "id": 1880151385
        },
        {
          "distance": 0.12033861875534058,
          "id": 1763559321
        },
        {
          "distance": 0.12034434080123901,
          "id": 1763559283
        },
        {
          "distance": 0.1281755566596985,
          "id": 1880151385
        },
        {
          "distance": 0.1284666657447815,
          "id": 1763559649
        },
        {
          "distance": 0.1289921998977661,
          "id": 1880151707
        },
        {
          "distance": 0.1406646966934204,
          "id": 1763559283
        },
        {
          "distance": 0.14271509647369385,
          "id": 1763559523
        },
        {
          "distance": 0.15695416927337646,
          "id": 1763559523
        },
        {
          "distance": 0.16276711225509644,
          "id": 1763559321
        }
      ]
    },
    "sfomuseum:placetype": "instagram",
    "src:geom": "sfomuseum",
    "wof:belongsto": [
      1159160869,
      102527513,
      102191575,
      85633793,
      102087579,
      85922583,
      85688637
    ],
    "wof:country": "US",
    "wof:created": 1668606300,
    "wof:geomhash": "b6e33f47475d56bc8da457bc31afadc8",
    "wof:hierarchy": [
      {
        "building_id": 1159160869,
        "campus_id": 102527513,
        "continent_id": 102191575,
        "country_id": 85633793,
        "county_id": 102087579,
        "custom_id": 1880151323,
        "instagram_id": 1880151323,
        "locality_id": 85922583,
        "neighbourhood_id": -1,
        "region_id": 85688637
      }
    ],
    "wof:id": 1880151323,
    "wof:lastmodified": 1787777662,
    "wof:name": "Many of Bradbury \u0026 Bradbury Art Wallpapers’ patterns are initially hand painted on acetate or by cutting a stencil...",
    "wof:parent_id": 1159160869,
    "wof:placetype": "custom",
    "wof:placetype_alt": [
      "instagram"
    ],
    "wof:repo": "sfomuseum-data-socialmedia-instagram",
    "wof:superseded_by": [],
    "wof:supersedes": []
  },
  "bbox": [
    -122.386166,
    37.616356,
    -122.386166,
    37.616356
  ],
  "geometry": {"type":"Point","coordinates":[-122.386166,37.616356]}
}
