{
  "id": 1880151397,
  "type": "Feature",
  "properties": {
    "date:cessation_lower": "2022-10-07",
    "date:cessation_upper": "2022-10-07",
    "date:inception_lower": "2022-10-07",
    "date:inception_upper": "2022-10-07",
    "edtf:cessation": "2022-10-07T04:41:00-07:00",
    "edtf:inception": "2022-10-07T04:41:00-07:00",
    "geom:area": 0,
    "geom:bbox": "-122.386166,37.616356,-122.386166,37.616356",
    "geom:latitude": 37.616356,
    "geom:longitude": -122.386166,
    "instagram:post": {
      "caption": {
        "body": "Happy Birthday, KLM! Royal Dutch Airlines, or Koninklijke Luchtvaart Maatschappij N.V is the oldest airline in the world still operating under its original name. In 1952, KLM began offering its first-class, long-haul passengers promotional giveaway Delftware gin bottles in the shape of traditional Dutch houses. By the 1960s, they also offered the houses as ashtrays, which were cleverly designed to allow the cigarette smoke to billow out the house’s chimney. Since then, the Holland-based ceramics manufacturer Delftware has produced one hundred and three #Delft Blue buildings.",
        "excerpt": "Happy Birthday, KLM!",
        "hashtags": [
          "KLM",
          "Delftware",
          "OnThisDay"
        ],
        "users": []
      },
      "media_id": "c097fe14355cdde9a944f2d75ddbb09b903e177d",
      "path": "media/other/310690820_807800787131260_4453280301771454781_n_17847117809852093.jpg",
      "perceptual_hash": "p:e8164b38e44f9e1b",
      "taken": 1665142860,
      "taken_at": "Oct 07, 2022 11:41 am"
    },
    "millsfield:similar": {
      "google/siglip2-so400m-patch16-naflex": [
        {
          "distance": 0.050340473651885986,
          "id": 1729358261
        },
        {
          "distance": 0.09027612209320068,
          "id": 1729358261
        },
        {
          "distance": 0.3749518394470215,
          "id": 1729358399
        },
        {
          "distance": 0.38195645809173584,
          "id": 1729357199
        },
        {
          "distance": 0.38421130180358887,
          "id": 1729358485
        },
        {
          "distance": 0.3890455365180969,
          "id": 1729361149
        },
        {
          "distance": 0.3895920515060425,
          "id": 1729358149
        },
        {
          "distance": 0.3910733461380005,
          "id": 1729357719
        },
        {
          "distance": 0.3968743681907654,
          "id": 1729358277
        },
        {
          "distance": 0.3974141478538513,
          "id": 1729360383
        }
      ]
    },
    "sfomuseum:placetype": "instagram",
    "src:geom": "sfomuseum",
    "wof:belongsto": [
      1159160869,
      102527513,
      102191575,
      85633793,
      102087579,
      85922583,
      85688637
    ],
    "wof:country": "US",
    "wof:created": 1665142860,
    "wof:geomhash": "b6e33f47475d56bc8da457bc31afadc8",
    "wof:hierarchy": [
      {
        "building_id": 1159160869,
        "campus_id": 102527513,
        "continent_id": 102191575,
        "country_id": 85633793,
        "county_id": 102087579,
        "custom_id": 1880151397,
        "instagram_id": 1880151397,
        "locality_id": 85922583,
        "neighbourhood_id": -1,
        "region_id": 85688637
      }
    ],
    "wof:id": 1880151397,
    "wof:lastmodified": 1787777662,
    "wof:name": "Happy Birthday, KLM!..",
    "wof:parent_id": 1159160869,
    "wof:placetype": "custom",
    "wof:placetype_alt": [
      "instagram"
    ],
    "wof:repo": "sfomuseum-data-socialmedia-instagram",
    "wof:superseded_by": [],
    "wof:supersedes": []
  },
  "bbox": [
    -122.386166,
    37.616356,
    -122.386166,
    37.616356
  ],
  "geometry": {"type":"Point","coordinates":[-122.386166,37.616356]}
}
