{
  "id": 1729361473,
  "type": "Feature",
  "properties": {
    "date:cessation_lower": "2015-10-08",
    "date:cessation_upper": "2015-10-08",
    "date:inception_lower": "2015-10-08",
    "date:inception_upper": "2015-10-08",
    "edtf:cessation": "2015-10-08T02:43:00-07:00",
    "edtf:inception": "2015-10-08T02:43:00-07:00",
    "geom:area": 0,
    "geom:bbox": "-122.386166,37.616356,-122.386166,37.616356",
    "geom:latitude": 37.616356,
    "geom:longitude": -122.386166,
    "instagram:post": {
      "caption": {
        "body": "The Tushanwan woodshop was led by Bavarian-born Brother Aloysius Beck (1854–1931). He wished to produce a comprehensive study of the Chinese pagoda—the multi-tiered structure with upturned eaves that had long fascinated the West. Some models are accurate reproductions of pagodas at their intended 1:50 scale, while others are more imaginatively rendered. The surfaces of this octagonal structure are decorated with more than one hundred painted panels depicting vines, flowers, pastoral scenes, and a variety of creatures. The Tushanwan Pagodas are on display in the International Terminal until November 2015.",
        "excerpt": "The Tushanwan woodshop was led by Bavarian-born Brother Aloysius Beck (1854–1931).",
        "hashtags": [],
        "users": []
      },
      "media_id": "e804be4af05edc5f3d9886d2f3aa8dd3",
      "path": "media/other/12145480_977466235628769_1946944031_n_17844087883062499.jpg",
      "perceptual_hash": "p:f763607262bc9c8c",
      "taken": 1444297380,
      "taken_at": "Oct 08, 2015 9:43 am"
    },
    "millsfield:similar": {
      "google/siglip2-so400m-patch16-naflex": [
        {
          "distance": 0.189710795879364,
          "id": 1729361755
        },
        {
          "distance": 0.1995450258255005,
          "id": 1729361841
        },
        {
          "distance": 0.22645604610443115,
          "id": 1729361705
        },
        {
          "distance": 0.23044204711914062,
          "id": 1729361771
        },
        {
          "distance": 0.23775511980056763,
          "id": 1729361787
        },
        {
          "distance": 0.2446407675743103,
          "id": 1729362113
        },
        {
          "distance": 0.24938732385635376,
          "id": 1729361807
        },
        {
          "distance": 0.2783135175704956,
          "id": 1729361753
        },
        {
          "distance": 0.2847170829772949,
          "id": 1729361755
        },
        {
          "distance": 0.29877710342407227,
          "id": 1729361807
        }
      ]
    },
    "sfomuseum:placetype": "instagram",
    "src:geom": "sfomuseum",
    "wof:belongsto": [
      1159160869,
      102527513,
      102191575,
      85633793,
      102087579,
      85922583,
      85688637
    ],
    "wof:country": "US",
    "wof:created": 1444297380,
    "wof:geomhash": "b6e33f47475d56bc8da457bc31afadc8",
    "wof:hierarchy": [
      {
        "building_id": 1159160869,
        "campus_id": 102527513,
        "continent_id": 102191575,
        "country_id": 85633793,
        "county_id": 102087579,
        "custom_id": 1729361473,
        "instagram_id": 1729361473,
        "locality_id": 85922583,
        "neighbourhood_id": -1,
        "region_id": 85688637
      }
    ],
    "wof:id": 1729361473,
    "wof:lastmodified": 1787777645,
    "wof:name": "The Tushanwan woodshop was led by Bavarian-born Brother Aloysius Beck (1854–1931)...",
    "wof:parent_id": 1159160869,
    "wof:placetype": "custom",
    "wof:placetype_alt": [
      "instagram"
    ],
    "wof:repo": "sfomuseum-data-socialmedia-instagram",
    "wof:superseded_by": [],
    "wof:supersedes": []
  },
  "bbox": [
    -122.386166,
    37.616356,
    -122.386166,
    37.616356
  ],
  "geometry": {"type":"Point","coordinates":[-122.386166,37.616356]}
}
