{
  "id": 1729360185,
  "type": "Feature",
  "properties": {
    "date:cessation_lower": "2016-10-26",
    "date:cessation_upper": "2016-10-26",
    "date:inception_lower": "2016-10-26",
    "date:inception_upper": "2016-10-26",
    "edtf:cessation": "2016-10-26T10:25:00-07:00",
    "edtf:inception": "2016-10-26T10:25:00-07:00",
    "geom:area": 0,
    "geom:bbox": "-122.386166,37.616356,-122.386166,37.616356",
    "geom:latitude": 37.616356,
    "geom:longitude": -122.386166,
    "instagram:post": {
      "caption": {
        "body": "Recognizing the progress Pan American was making in building its Pacific route while simultaneously conducting survey flights with its Sikorsky S-42 to Hawai’i, Midway, Wake, and Guam, the U.S. Post Office Department issued a call for bids for airmail service to the Far East on August 13, 1935. Government airmail contracts were vital to the economic viability of airlines and airmail service almost always preceded passenger service. Pan American was awarded the contract on October 24th. The first regularly scheduled flight on November 22, 1935, carried only airmail. At the inaugural ceremony at Alameda, California, Governor Frank L. Merriam declared it “Pan American Airways Day.” Postmaster General James A. Farley added a personal greeting from President Franklin D. Roosevelt to the Philippines President Manuel L. Quezón to the 110,865 letters that were loaded aboard the China Clipper.",
        "excerpt": "Recognizing the progress Pan American was making in building its Pacific route while simultaneously conducting survey flights with its Sikorsky S-42 to Hawai’i, Midway, Wake, and Guam, the U.S. Post Office Department issued a call for bids for airmail service to the Far East on August 13, 1935.",
        "hashtags": [
          "ChinaClipper",
          "aviationhistory"
        ],
        "users": []
      },
      "media_id": "4e859e2e5bebc6da8553a227db64f703",
      "path": "media/other/14727521_1258217790894926_48863572343652352_n_17865263455036753.jpg",
      "perceptual_hash": "p:9b08e5b5ba43c53c",
      "taken": 1477502700,
      "taken_at": "Oct 26, 2016 5:25 pm"
    },
    "millsfield:similar": {
      "google/siglip2-so400m-patch16-naflex": [
        {
          "distance": 0.2491188645362854,
          "id": 1729360861
        },
        {
          "distance": 0.2871958613395691,
          "id": 1880151359
        },
        {
          "distance": 0.2954177260398865,
          "id": 1729359767
        },
        {
          "distance": 0.29700154066085815,
          "id": 1763559327
        },
        {
          "distance": 0.29832983016967773,
          "id": 1729360617
        },
        {
          "distance": 0.2997772693634033,
          "id": 1729361273
        },
        {
          "distance": 0.30158400535583496,
          "id": 1729360969
        },
        {
          "distance": 0.30177730321884155,
          "id": 1763559487
        },
        {
          "distance": 0.3042938709259033,
          "id": 1729360163
        },
        {
          "distance": 0.3075745701789856,
          "id": 1729359733
        }
      ]
    },
    "sfomuseum:placetype": "instagram",
    "src:geom": "sfomuseum",
    "wof:belongsto": [
      1159160869,
      102527513,
      102191575,
      85633793,
      102087579,
      85922583,
      85688637
    ],
    "wof:country": "US",
    "wof:created": 1477502700,
    "wof:geomhash": "b6e33f47475d56bc8da457bc31afadc8",
    "wof:hierarchy": [
      {
        "building_id": 1159160869,
        "campus_id": 102527513,
        "continent_id": 102191575,
        "country_id": 85633793,
        "county_id": 102087579,
        "custom_id": 1729360185,
        "instagram_id": 1729360185,
        "locality_id": 85922583,
        "neighbourhood_id": -1,
        "region_id": 85688637
      }
    ],
    "wof:id": 1729360185,
    "wof:lastmodified": 1787777639,
    "wof:name": "Recognizing the progress Pan American was making in building its Pacific route while simultaneously conducting survey flights with its Sikorsky S-42 to Hawai’i, Midway, Wake, and Guam, the U.S. Post Office Department issued a call for bids for airmail service to the Far East on August 13, 1935...",
    "wof:parent_id": 1159160869,
    "wof:placetype": "custom",
    "wof:placetype_alt": [
      "instagram"
    ],
    "wof:repo": "sfomuseum-data-socialmedia-instagram",
    "wof:superseded_by": [],
    "wof:supersedes": []
  },
  "bbox": [
    -122.386166,
    37.616356,
    -122.386166,
    37.616356
  ],
  "geometry": {"type":"Point","coordinates":[-122.386166,37.616356]}
}
