{
  "id": 1729360155,
  "type": "Feature",
  "properties": {
    "date:cessation_lower": "2016-11-03",
    "date:cessation_upper": "2016-11-03",
    "date:inception_lower": "2016-11-03",
    "date:inception_upper": "2016-11-03",
    "edtf:cessation": "2016-11-03T03:04:00-07:00",
    "edtf:inception": "2016-11-03T03:04:00-07:00",
    "geom:area": 0,
    "geom:bbox": "-122.386166,37.616356,-122.386166,37.616356",
    "geom:latitude": 37.616356,
    "geom:longitude": -122.386166,
    "instagram:post": {
      "caption": {
        "body": "Pan American World Airways pocket calendars such as this one doubled as advertisements for the airline and its latest aircraft. Do you have any Pan Am pocket calendars? #PanAm #AviationHistory  Pan American World Airways pocket calendar 1957 SFO Museum Collection Gift of the Captain John B. Russell Family 2012.149.0706",
        "excerpt": "Pan American World Airways pocket calendars such as this one doubled as advertisements for the airline and its latest aircraft.",
        "hashtags": [],
        "users": []
      },
      "media_id": "1b74ad9e59d9b4ef51c155dd00bb1412",
      "path": "media/posts/201611/14712018_1800970270181853_362750223400828928_n_17854034062086730.jpg",
      "perceptual_hash": "p:d704c8b8f9f183c6",
      "taken": 1478167440,
      "taken_at": "Nov 03, 2016 10:04 am"
    },
    "millsfield:similar": {
      "google/siglip2-so400m-patch16-naflex": [
        {
          "distance": 0.21973639726638794,
          "id": 1729360475
        },
        {
          "distance": 0.22312217950820923,
          "id": 1880151505
        },
        {
          "distance": 0.24108487367630005,
          "id": 1729356023
        },
        {
          "distance": 0.24816620349884033,
          "id": 1729359755
        },
        {
          "distance": 0.24973958730697632,
          "id": 1947424967
        },
        {
          "distance": 0.2513112425804138,
          "id": 1763558821
        },
        {
          "distance": 0.2534215450286865,
          "id": 1729359663
        },
        {
          "distance": 0.25575321912765503,
          "id": 1880150923
        },
        {
          "distance": 0.2567146420478821,
          "id": 1729357179
        },
        {
          "distance": 0.2567146420478821,
          "id": 1763558807
        }
      ]
    },
    "sfomuseum:placetype": "instagram",
    "src:geom": "sfomuseum",
    "wof:belongsto": [
      1159160869,
      102527513,
      102191575,
      85633793,
      102087579,
      85922583,
      85688637
    ],
    "wof:country": "US",
    "wof:created": 1478167440,
    "wof:geomhash": "b6e33f47475d56bc8da457bc31afadc8",
    "wof:hierarchy": [
      {
        "building_id": 1159160869,
        "campus_id": 102527513,
        "continent_id": 102191575,
        "country_id": 85633793,
        "county_id": 102087579,
        "custom_id": 1729360155,
        "instagram_id": 1729360155,
        "locality_id": 85922583,
        "neighbourhood_id": -1,
        "region_id": 85688637
      }
    ],
    "wof:id": 1729360155,
    "wof:lastmodified": 1787777639,
    "wof:name": "Pan American World Airways pocket calendars such as this one doubled as advertisements for the airline and its latest aircraft...",
    "wof:parent_id": 1159160869,
    "wof:placetype": "custom",
    "wof:placetype_alt": [
      "instagram"
    ],
    "wof:repo": "sfomuseum-data-socialmedia-instagram",
    "wof:superseded_by": [],
    "wof:supersedes": []
  },
  "bbox": [
    -122.386166,
    37.616356,
    -122.386166,
    37.616356
  ],
  "geometry": {"type":"Point","coordinates":[-122.386166,37.616356]}
}
