{
  "id": 1880151127,
  "type": "Feature",
  "properties": {
    "date:cessation_lower": "2023-02-13",
    "date:cessation_upper": "2023-02-13",
    "date:inception_lower": "2023-02-13",
    "date:inception_upper": "2023-02-13",
    "edtf:cessation": "2023-02-13T09:21:00-08:00",
    "edtf:inception": "2023-02-13T09:21:00-08:00",
    "geom:area": 0,
    "geom:bbox": "-122.386166,37.616356,-122.386166,37.616356",
    "geom:latitude": 37.616356,
    "geom:longitude": -122.386166,
    "instagram:post": {
      "caption": {
        "body": "Before people carried around cell phones in their pockets that automatically updated to the current time zone, airlines gave out convenient time converters to passengers on international flights. Part time converter, part distance list, and part advertisement, passengers could turn this card to figure out the time in their chosen destination. Have you been to any locations on this card?",
        "excerpt": "Before people carried around cell phones in their pockets that automatically updated to the current time zone, airlines gave out convenient time converters to passengers on international flights.",
        "hashtags": [
          "52Objects",
          "timezones",
          "TWA",
          "avgeek"
        ],
        "users": []
      },
      "media_id": "d8ff55f178411ca4dd1517506aa0232febcf81de",
      "path": "media/posts/202302/330991838_501712882150073_7492391921296249861_n_18011025322535594.jpg",
      "perceptual_hash": "p:bbf1c40cf0a019fb",
      "taken": 1676308860,
      "taken_at": "Feb 13, 2023 5:21 pm"
    },
    "millsfield:similar": {
      "google/siglip2-so400m-patch16-naflex": [
        {
          "distance": 0.30185502767562866,
          "id": 1729360155
        },
        {
          "distance": 0.3246731758117676,
          "id": 1729359217
        },
        {
          "distance": 0.34042418003082275,
          "id": 1729361167
        },
        {
          "distance": 0.34517723321914673,
          "id": 1763558689
        },
        {
          "distance": 0.34517723321914673,
          "id": 1729359221
        },
        {
          "distance": 0.3482184410095215,
          "id": 1729356715
        },
        {
          "distance": 0.3495519161224365,
          "id": 1729357363
        },
        {
          "distance": 0.35544848442077637,
          "id": 1729359455
        },
        {
          "distance": 0.3558068871498108,
          "id": 1763558689
        },
        {
          "distance": 0.3558068871498108,
          "id": 1729359221
        }
      ]
    },
    "sfomuseum:placetype": "instagram",
    "src:geom": "sfomuseum",
    "wof:belongsto": [
      1159160869,
      102527513,
      102191575,
      85633793,
      102087579,
      85922583,
      85688637
    ],
    "wof:country": "US",
    "wof:created": 1676308860,
    "wof:geomhash": "b6e33f47475d56bc8da457bc31afadc8",
    "wof:hierarchy": [
      {
        "building_id": 1159160869,
        "campus_id": 102527513,
        "continent_id": 102191575,
        "country_id": 85633793,
        "county_id": 102087579,
        "custom_id": 1880151127,
        "instagram_id": 1880151127,
        "locality_id": 85922583,
        "neighbourhood_id": -1,
        "region_id": 85688637
      }
    ],
    "wof:id": 1880151127,
    "wof:lastmodified": 1787777662,
    "wof:name": "Before people carried around cell phones in their pockets that automatically updated to the current time zone, airlines gave out convenient time converters to passengers on international flights...",
    "wof:parent_id": 1159160869,
    "wof:placetype": "custom",
    "wof:placetype_alt": [
      "instagram"
    ],
    "wof:repo": "sfomuseum-data-socialmedia-instagram",
    "wof:superseded_by": [],
    "wof:supersedes": []
  },
  "bbox": [
    -122.386166,
    37.616356,
    -122.386166,
    37.616356
  ],
  "geometry": {"type":"Point","coordinates":[-122.386166,37.616356]}
}
