{
  "id": 1729355151,
  "type": "Feature",
  "properties": {
    "date:cessation_lower": "2020-08-05",
    "date:cessation_upper": "2020-08-05",
    "date:inception_lower": "2020-08-05",
    "date:inception_upper": "2020-08-05",
    "edtf:cessation": "2020-08-05T14:45:00-07:00",
    "edtf:inception": "2020-08-05T14:45:00-07:00",
    "geom:area": 0,
    "geom:bbox": "-122.386166,37.616356,-122.386166,37.616356",
    "geom:latitude": 37.616356,
    "geom:longitude": -122.386166,
    "instagram:post": {
      "caption": {
        "body": "Take a short trip with us back in time with our French wallpaper exhibition. “Zuber: The Art of French Scenic Wallpaper” features a panorama of various views of North America from the 19th century.   See more French wallpaper in “Zuber: The Art of French Scenic Wallpaper” online at: http://bit.ly/ZuberScenicWallpaper",
        "excerpt": "Take a short trip with us back in time with our French wallpaper exhibition.",
        "hashtags": [
          "zuberofficial",
          "scenicwallpaper",
          "Zuber",
          "wallpaper",
          "MuseumFromHome"
        ],
        "users": []
      },
      "media_id": "35e9842e62c5d22a02f2be43dbe3e219",
      "path": "media/posts/202008/116914417_166750241573315_7479453232585359492_n_17865973516939049.jpg",
      "perceptual_hash": "p:8e0d6075cfb5c8a5",
      "taken": 1596663900,
      "taken_at": "Aug 05, 2020 9:45 pm"
    },
    "millsfield:similar": {
      "google/siglip2-so400m-patch16-naflex": [
        {
          "distance": 0.16452765464782715,
          "id": 1729356101
        },
        {
          "distance": 0.1905478835105896,
          "id": 1729356095
        },
        {
          "distance": 0.19404399394989014,
          "id": 1729356085
        },
        {
          "distance": 0.19687074422836304,
          "id": 1729355425
        },
        {
          "distance": 0.19868725538253784,
          "id": 1729356005
        },
        {
          "distance": 0.2006438970565796,
          "id": 1729355727
        },
        {
          "distance": 0.20353132486343384,
          "id": 1729356087
        },
        {
          "distance": 0.2054930329322815,
          "id": 1729355981
        },
        {
          "distance": 0.20696508884429932,
          "id": 1729355727
        },
        {
          "distance": 0.21334904432296753,
          "id": 1729356085
        }
      ]
    },
    "sfomuseum:placetype": "instagram",
    "src:geom": "sfomuseum",
    "wof:belongsto": [
      1159160869,
      102527513,
      102191575,
      85633793,
      102087579,
      85922583,
      85688637
    ],
    "wof:country": "US",
    "wof:created": 1596663900,
    "wof:geomhash": "b6e33f47475d56bc8da457bc31afadc8",
    "wof:hierarchy": [
      {
        "building_id": 1159160869,
        "campus_id": 102527513,
        "continent_id": 102191575,
        "country_id": 85633793,
        "county_id": 102087579,
        "custom_id": 1729355151,
        "instagram_id": 1729355151,
        "locality_id": 85922583,
        "neighbourhood_id": -1,
        "region_id": 85688637
      }
    ],
    "wof:id": 1729355151,
    "wof:lastmodified": 1787777618,
    "wof:name": "Take a short trip with us back in time with our French wallpaper exhibition...",
    "wof:parent_id": 1159160869,
    "wof:placetype": "custom",
    "wof:placetype_alt": [
      "instagram"
    ],
    "wof:repo": "sfomuseum-data-socialmedia-instagram",
    "wof:superseded_by": [],
    "wof:supersedes": []
  },
  "bbox": [
    -122.386166,
    37.616356,
    -122.386166,
    37.616356
  ],
  "geometry": {"type":"Point","coordinates":[-122.386166,37.616356]}
}
