{
  "id": 1729358275,
  "type": "Feature",
  "properties": {
    "date:cessation_lower": "2018-05-05",
    "date:cessation_upper": "2018-05-05",
    "date:inception_lower": "2018-05-05",
    "date:inception_upper": "2018-05-05",
    "edtf:cessation": "2018-05-05T03:58:00-07:00",
    "edtf:inception": "2018-05-05T03:58:00-07:00",
    "geom:area": 0,
    "geom:bbox": "-122.386166,37.616356,-122.386166,37.616356",
    "geom:latitude": 37.616356,
    "geom:longitude": -122.386166,
    "instagram:post": {
      "caption": {
        "body": "Blep! While it bears the signature \"Sawamura\", not much is known about this cute, oversized maneki neko, which appears to be carved with its tongue sticking out.  See more cats in \"Maneki Neko: Japanese Beckoning Cat\" on display post-security, in Terminal 2. http://bit.ly/BeckoningCats",
        "excerpt": "Blep!",
        "hashtags": [
          "BeckoningCats",
          "manekineko",
          "catsofinstagram",
          "cats",
          "neko",
          "meow",
          "mewseum",
          "japan",
          "mingei",
          "japanese",
          "caturday",
          "blep",
          "caturday"
        ],
        "users": []
      },
      "media_id": "60b15dd1e600c0dd55621190b55f3da5",
      "path": "media/other/31043044_2030909417121804_5800160699669807104_n_17943048988001469.jpg",
      "perceptual_hash": "p:bf1ad03ec165cf40",
      "taken": 1525517880,
      "taken_at": "May 05, 2018 10:58 am"
    },
    "millsfield:similar": {
      "google/siglip2-so400m-patch16-naflex": [
        {
          "distance": 0.16447150707244873,
          "id": 1729358591
        },
        {
          "distance": 0.18991941213607788,
          "id": 1729358301
        },
        {
          "distance": 0.19493937492370605,
          "id": 1729358399
        },
        {
          "distance": 0.19776248931884766,
          "id": 1729358173
        },
        {
          "distance": 0.20138126611709595,
          "id": 1729358301
        },
        {
          "distance": 0.20456945896148682,
          "id": 1729358025
        },
        {
          "distance": 0.2077927589416504,
          "id": 1729358101
        },
        {
          "distance": 0.21032637357711792,
          "id": 1729358025
        },
        {
          "distance": 0.21852988004684448,
          "id": 1729358653
        },
        {
          "distance": 0.22201204299926758,
          "id": 1729358399
        }
      ]
    },
    "sfomuseum:placetype": "instagram",
    "src:geom": "sfomuseum",
    "wof:belongsto": [
      1159160869,
      102527513,
      102191575,
      85633793,
      102087579,
      85922583,
      85688637
    ],
    "wof:country": "US",
    "wof:created": 1525517880,
    "wof:geomhash": "b6e33f47475d56bc8da457bc31afadc8",
    "wof:hierarchy": [
      {
        "building_id": 1159160869,
        "campus_id": 102527513,
        "continent_id": 102191575,
        "country_id": 85633793,
        "county_id": 102087579,
        "custom_id": 1729358275,
        "instagram_id": 1729358275,
        "locality_id": 85922583,
        "neighbourhood_id": -1,
        "region_id": 85688637
      }
    ],
    "wof:id": 1729358275,
    "wof:lastmodified": 1787777633,
    "wof:name": "Blep!..",
    "wof:parent_id": 1159160869,
    "wof:placetype": "custom",
    "wof:placetype_alt": [
      "instagram"
    ],
    "wof:repo": "sfomuseum-data-socialmedia-instagram",
    "wof:superseded_by": [],
    "wof:supersedes": []
  },
  "bbox": [
    -122.386166,
    37.616356,
    -122.386166,
    37.616356
  ],
  "geometry": {"type":"Point","coordinates":[-122.386166,37.616356]}
}
