{
  "id": 1729355975,
  "type": "Feature",
  "properties": {
    "date:cessation_lower": "2019-10-18",
    "date:cessation_upper": "2019-10-18",
    "date:inception_lower": "2019-10-18",
    "date:inception_upper": "2019-10-18",
    "edtf:cessation": "2019-10-18T10:01:00-07:00",
    "edtf:inception": "2019-10-18T10:01:00-07:00",
    "geom:area": 0,
    "geom:bbox": "-122.386166,37.616356,-122.386166,37.616356",
    "geom:latitude": 37.616356,
    "geom:longitude": -122.386166,
    "instagram:post": {
      "caption": {
        "body": "Renaissance Revival, the most ubiquitous furniture style following the Civil War, drew inspiration from the Renaissance of the fifteenth and sixteenth centuries as well as from the classical world. Nineteenth-century archaeological discoveries in Greece, Italy, and Egypt prompted designers to adapt and reinterpret designs and motifs from the past. Renaissance Revival’s rather masculine characteristics and grand scale make it easy to identify. Decorative elements took precedence over functionality. Mythical creatures, garlands, foliage, wild game, classical busts, scrolls, tassels, and portrait medallions appeared in high-relief carving. The incorporation of columns, pediments, and pilasters enhanced pieces. Gilded incising, marquetry, burled panels, wood veneering, ebonized wood, and marble tops commonly embellished pieces. Furniture was typically made with dark woods, such as walnut and rosewood. “The Style of Display: Victorian Pedestals” is on display pre-security in the International Terminal. http://bit.ly/VictorianPedestals",
        "excerpt": "Renaissance Revival, the most ubiquitous furniture style following the Civil War, drew inspiration from the Renaissance of the fifteenth and sixteenth centuries as well as from the classical world.",
        "hashtags": [
          "VictorianPedestals",
          "victorian",
          "pedestals",
          "victorianfurniture",
          "victoriana",
          "design",
          "decorativeart",
          "interiorstyle",
          "RenaissanceRevival",
          "Renaissance"
        ],
        "users": []
      },
      "media_id": "178c7ccd179b1fa8332f59e0dafb0d9b",
      "path": "media/posts/201910/70644557_138104877495052_2505173742831028757_n_17850480898631260.jpg",
      "perceptual_hash": "p:e7c639a11a799878",
      "taken": 1571418060,
      "taken_at": "Oct 18, 2019 5:01 pm"
    },
    "millsfield:similar": {
      "google/siglip2-so400m-patch16-naflex": [
        {
          "distance": 0.1267939805984497,
          "id": 1729355973
        },
        {
          "distance": 0.14587318897247314,
          "id": 1729356125
        },
        {
          "distance": 0.14595550298690796,
          "id": 1729355831
        },
        {
          "distance": 0.16570693254470825,
          "id": 1729356175
        },
        {
          "distance": 0.18340319395065308,
          "id": 1729356397
        },
        {
          "distance": 0.18821698427200317,
          "id": 1729355991
        },
        {
          "distance": 0.19665640592575073,
          "id": 1729355835
        },
        {
          "distance": 0.20442169904708862,
          "id": 1729356419
        },
        {
          "distance": 0.2063848376274109,
          "id": 1729355775
        },
        {
          "distance": 0.20670819282531738,
          "id": 1729356125
        }
      ]
    },
    "sfomuseum:placetype": "instagram",
    "src:geom": "sfomuseum",
    "wof:belongsto": [
      1159160869,
      102527513,
      102191575,
      85633793,
      102087579,
      85922583,
      85688637
    ],
    "wof:country": "US",
    "wof:created": 1571418060,
    "wof:geomhash": "b6e33f47475d56bc8da457bc31afadc8",
    "wof:hierarchy": [
      {
        "building_id": 1159160869,
        "campus_id": 102527513,
        "continent_id": 102191575,
        "country_id": 85633793,
        "county_id": 102087579,
        "custom_id": 1729355975,
        "instagram_id": 1729355975,
        "locality_id": 85922583,
        "neighbourhood_id": -1,
        "region_id": 85688637
      }
    ],
    "wof:id": 1729355975,
    "wof:lastmodified": 1787777627,
    "wof:name": "Renaissance Revival, the most ubiquitous furniture style following the Civil War, drew inspiration from the Renaissance of the fifteenth and sixteenth centuries as well as from the classical world...",
    "wof:parent_id": 1159160869,
    "wof:placetype": "custom",
    "wof:placetype_alt": [
      "instagram"
    ],
    "wof:repo": "sfomuseum-data-socialmedia-instagram",
    "wof:superseded_by": [],
    "wof:supersedes": []
  },
  "bbox": [
    -122.386166,
    37.616356,
    -122.386166,
    37.616356
  ],
  "geometry": {"type":"Point","coordinates":[-122.386166,37.616356]}
}
