{
  "id": 1729359971,
  "type": "Feature",
  "properties": {
    "date:cessation_lower": "2016-12-28",
    "date:cessation_upper": "2016-12-28",
    "date:inception_lower": "2016-12-28",
    "date:inception_upper": "2016-12-28",
    "edtf:cessation": "2016-12-28T03:24:00-08:00",
    "edtf:inception": "2016-12-28T03:24:00-08:00",
    "geom:area": 0,
    "geom:bbox": "-122.386166,37.616356,-122.386166,37.616356",
    "geom:latitude": 37.616356,
    "geom:longitude": -122.386166,
    "instagram:post": {
      "caption": {
        "body": "With the new #jet service, Cathay Pacific redesigned cabin crew uniforms that retained traditional influences. The first of the airline’s signature red uniforms, this 1962 design has a #cheongsam skirt with matching jacket in polyester and a pillbox-style hat. The cotton blouse has a mandarin collar and gourd-shaped frog buttons.",
        "excerpt": "With the new #jet service, Cathay Pacific redesigned cabin crew uniforms that retained traditional influences.",
        "hashtags": [
          "fashion",
          "cathaypacific",
          "flightattendant",
          "crewlife"
        ],
        "users": []
      },
      "media_id": "cfd767bb2f4ed6af3b8a041ab49241dd",
      "path": "media/posts/201612/15802015_1833380533572972_3943814669709344768_n_17856980176093060.jpg",
      "perceptual_hash": "p:f48b132c34731bd3",
      "taken": 1482924240,
      "taken_at": "Dec 28, 2016 11:24 am"
    },
    "millsfield:similar": {
      "google/siglip2-so400m-patch16-naflex": [
        {
          "distance": 0.08966267108917236,
          "id": 1729359467
        },
        {
          "distance": 0.10433262586593628,
          "id": 1729359467
        },
        {
          "distance": 0.12799978256225586,
          "id": 1729360135
        },
        {
          "distance": 0.14559078216552734,
          "id": 1763559499
        },
        {
          "distance": 0.14785927534103394,
          "id": 1763559499
        },
        {
          "distance": 0.14840668439865112,
          "id": 1729359139
        },
        {
          "distance": 0.16414248943328857,
          "id": 1763559147
        },
        {
          "distance": 0.16967469453811646,
          "id": 1729360135
        },
        {
          "distance": 0.1858055591583252,
          "id": 1729361467
        },
        {
          "distance": 0.19156426191329956,
          "id": 1763559643
        }
      ]
    },
    "sfomuseum:placetype": "instagram",
    "src:geom": "sfomuseum",
    "wof:belongsto": [
      1159160869,
      102527513,
      102191575,
      85633793,
      102087579,
      85922583,
      85688637
    ],
    "wof:country": "US",
    "wof:created": 1482924240,
    "wof:geomhash": "b6e33f47475d56bc8da457bc31afadc8",
    "wof:hierarchy": [
      {
        "building_id": 1159160869,
        "campus_id": 102527513,
        "continent_id": 102191575,
        "country_id": 85633793,
        "county_id": 102087579,
        "custom_id": 1729359971,
        "instagram_id": 1729359971,
        "locality_id": 85922583,
        "neighbourhood_id": -1,
        "region_id": 85688637
      }
    ],
    "wof:id": 1729359971,
    "wof:lastmodified": 1787777638,
    "wof:name": "With the new #jet service, Cathay Pacific redesigned cabin crew uniforms that retained traditional influences...",
    "wof:parent_id": 1159160869,
    "wof:placetype": "custom",
    "wof:placetype_alt": [
      "instagram"
    ],
    "wof:repo": "sfomuseum-data-socialmedia-instagram",
    "wof:superseded_by": [],
    "wof:supersedes": []
  },
  "bbox": [
    -122.386166,
    37.616356,
    -122.386166,
    37.616356
  ],
  "geometry": {"type":"Point","coordinates":[-122.386166,37.616356]}
}
