{
  "id": 1763558633,
  "type": "Feature",
  "properties": {
    "date:cessation_lower": "2016-04-16",
    "date:cessation_upper": "2016-04-16",
    "date:inception_lower": "2016-04-16",
    "date:inception_upper": "2016-04-16",
    "edtf:cessation": "2016-04-16T03:02:00-07:00",
    "edtf:inception": "2016-04-16T03:02:00-07:00",
    "geom:area": 0,
    "geom:bbox": "-122.386166,37.616356,-122.386166,37.616356",
    "geom:latitude": 37.616356,
    "geom:longitude": -122.386166,
    "instagram:post": {
      "caption": {
        "body": "This frequent flyer miles card is from the 1980s. Are you part of any frequent flyer programs?",
        "excerpt": "This frequent flyer miles card is from the 1980s.",
        "hashtags": [],
        "users": []
      },
      "media_id": "05e0632cde5f7f7e51a2a53bc3fd55135be9a768",
      "path": "media/other/12797998_590534621105111_1819561433_n_17856395455011420.jpg",
      "perceptual_hash": "p:aad8e16394c6bc63",
      "taken": 1460800920,
      "taken_at": "Apr 16, 2016 10:02 am"
    },
    "millsfield:similar": {
      "google/siglip2-so400m-patch16-naflex": [
        {
          "distance": 0.010794878005981445,
          "id": 1729360819
        },
        {
          "distance": 0.08133721351623535,
          "id": 1729360819
        },
        {
          "distance": 0.23340892791748047,
          "id": 1729361309
        },
        {
          "distance": 0.2343454360961914,
          "id": 1880151505
        },
        {
          "distance": 0.24398905038833618,
          "id": 1880151505
        },
        {
          "distance": 0.24589753150939941,
          "id": 1729357703
        },
        {
          "distance": 0.25153404474258423,
          "id": 1729358785
        },
        {
          "distance": 0.27227526903152466,
          "id": 1880151013
        },
        {
          "distance": 0.2747134566307068,
          "id": 1729359339
        },
        {
          "distance": 0.28011441230773926,
          "id": 1729361309
        }
      ]
    },
    "sfomuseum:placetype": "instagram",
    "src:geom": "sfomuseum",
    "wof:belongsto": [
      1159160869,
      102527513,
      102191575,
      85633793,
      102087579,
      85922583,
      85688637
    ],
    "wof:country": "US",
    "wof:created": 1460800920,
    "wof:geomhash": "b6e33f47475d56bc8da457bc31afadc8",
    "wof:hierarchy": [
      {
        "building_id": 1159160869,
        "campus_id": 102527513,
        "continent_id": 102191575,
        "country_id": 85633793,
        "county_id": 102087579,
        "custom_id": 1763558633,
        "instagram_id": 1763558633,
        "locality_id": 85922583,
        "neighbourhood_id": -1,
        "region_id": 85688637
      }
    ],
    "wof:id": 1763558633,
    "wof:lastmodified": 1787777659,
    "wof:name": "This frequent flyer miles card is from the 1980s...",
    "wof:parent_id": 1159160869,
    "wof:placetype": "custom",
    "wof:placetype_alt": [
      "instagram"
    ],
    "wof:repo": "sfomuseum-data-socialmedia-instagram",
    "wof:superseded_by": [],
    "wof:supersedes": []
  },
  "bbox": [
    -122.386166,
    37.616356,
    -122.386166,
    37.616356
  ],
  "geometry": {"type":"Point","coordinates":[-122.386166,37.616356]}
}
