{
  "id": 1729355349,
  "type": "Feature",
  "properties": {
    "date:cessation_lower": "2020-04-09",
    "date:cessation_upper": "2020-04-09",
    "date:inception_lower": "2020-04-09",
    "date:inception_upper": "2020-04-09",
    "edtf:cessation": "2020-04-09T08:55:00-07:00",
    "edtf:inception": "2020-04-09T08:55:00-07:00",
    "geom:area": 0,
    "geom:bbox": "-122.386166,37.616356,-122.386166,37.616356",
    "geom:latitude": 37.616356,
    "geom:longitude": -122.386166,
    "instagram:post": {
      "caption": {
        "body": "#Onthisday in 1969, the first British-made Concorde took off on its maiden flight departing from Filton, England, to RAF Fairford. Developed as a joint endeavor between the governments of Great Britain and France, the aircraft that made this flight, Concorde 002, was built in the United Kingdom. All Concorde SSTs were retired in 2003.  Image: British Airways brochure, Concorde, c. 1980. Gift of the William Hough Collection. 2006.010.633",
        "excerpt": "#Onthisday in 1969, the first British-made Concorde took off on its maiden flight departing from Filton, England, to RAF Fairford.",
        "hashtags": [
          "MuseumFromHome",
          "avgeek",
          "concorde"
        ],
        "users": []
      },
      "media_id": "bd7c35c3a6ae3c5ac7e23ded3ab8d693",
      "path": "media/other/92340310_1129770204042905_7077967879613439229_n_17861131459797823.jpg",
      "perceptual_hash": "p:d50c39e7f40b6a52",
      "taken": 1586447700,
      "taken_at": "Apr 09, 2020 3:55 pm"
    },
    "millsfield:similar": {
      "google/siglip2-so400m-patch16-naflex": [
        {
          "distance": 0.1362261176109314,
          "id": 1947424997
        },
        {
          "distance": 0.14570671319961548,
          "id": 1763559029
        },
        {
          "distance": 0.1492311954498291,
          "id": 1729360209
        },
        {
          "distance": 0.1531912088394165,
          "id": 1729355945
        },
        {
          "distance": 0.15385955572128296,
          "id": 1880151261
        },
        {
          "distance": 0.15817737579345703,
          "id": 1729355687
        },
        {
          "distance": 0.1604052186012268,
          "id": 1947424997
        },
        {
          "distance": 0.16827815771102905,
          "id": 1763559419
        },
        {
          "distance": 0.1717788577079773,
          "id": 1763559575
        },
        {
          "distance": 0.1725255250930786,
          "id": 1729355687
        }
      ]
    },
    "sfomuseum:placetype": "instagram",
    "src:geom": "sfomuseum",
    "wof:belongsto": [
      1159160869,
      102527513,
      102191575,
      85633793,
      102087579,
      85922583,
      85688637
    ],
    "wof:country": "US",
    "wof:created": 1586447700,
    "wof:geomhash": "b6e33f47475d56bc8da457bc31afadc8",
    "wof:hierarchy": [
      {
        "building_id": 1159160869,
        "campus_id": 102527513,
        "continent_id": 102191575,
        "country_id": 85633793,
        "county_id": 102087579,
        "custom_id": 1729355349,
        "instagram_id": 1729355349,
        "locality_id": 85922583,
        "neighbourhood_id": -1,
        "region_id": 85688637
      }
    ],
    "wof:id": 1729355349,
    "wof:lastmodified": 1787777624,
    "wof:name": "#Onthisday in 1969, the first British-made Concorde took off on its maiden flight departing from Filton, England, to RAF Fairford...",
    "wof:parent_id": 1159160869,
    "wof:placetype": "custom",
    "wof:placetype_alt": [
      "instagram"
    ],
    "wof:repo": "sfomuseum-data-socialmedia-instagram",
    "wof:superseded_by": [],
    "wof:supersedes": []
  },
  "bbox": [
    -122.386166,
    37.616356,
    -122.386166,
    37.616356
  ],
  "geometry": {"type":"Point","coordinates":[-122.386166,37.616356]}
}
