{
  "id": 1729359461,
  "type": "Feature",
  "properties": {
    "date:cessation_lower": "2017-05-26",
    "date:cessation_upper": "2017-05-26",
    "date:inception_lower": "2017-05-26",
    "date:inception_upper": "2017-05-26",
    "edtf:cessation": "2017-05-26T13:19:00-07:00",
    "edtf:inception": "2017-05-26T13:19:00-07:00",
    "geom:area": 0,
    "geom:bbox": "-122.386166,37.616356,-122.386166,37.616356",
    "geom:latitude": 37.616356,
    "geom:longitude": -122.386166,
    "instagram:post": {
      "caption": {
        "body": "Ruth Asawa San Francisco School of the Arts (SOTA), located in the Diamond Heights neighborhood of San Francisco, is a four-year public high school serving students who excel in visual, performing, and creative arts. SOTA is one of San Francisco’s premier public high schools, providing professional training in numerous arts disciplines: creative writing, dance, instrumental music, media and filmmaking, voice and world music, theater technology, and visual arts. The graphite, charcoal, and colored pencil drawings on display in this gallery are the result of drawing courses taken by students currently in their sophomore year.  See “Light, Line, and Color” by students from Ruth Asawa San Francisco School of the Arts, pre-security, on the arrivals level of Terminal 3. http://bit.ly/2qtju2N",
        "excerpt": "Ruth Asawa San Francisco School of the Arts (SOTA), located in the Diamond Heights neighborhood of San Francisco, is a four-year public high school serving students who excel in visual, performing, and creative arts.",
        "hashtags": [],
        "users": []
      },
      "media_id": "ee68b06d3f0b4dc2ebacaa5cee0f4c5a",
      "path": "media/posts/201705/18722347_129835120915609_1132963873914093568_n_17881126039056857.jpg",
      "perceptual_hash": "p:dcea619a24ede4c8",
      "taken": 1495829940,
      "taken_at": "May 26, 2017 8:19 pm"
    },
    "millsfield:similar": {
      "google/siglip2-so400m-patch16-naflex": [
        {
          "distance": 0.272945761680603,
          "id": 1729357603
        },
        {
          "distance": 0.2748883366584778,
          "id": 1763558975
        },
        {
          "distance": 0.27852553129196167,
          "id": 1729355155
        },
        {
          "distance": 0.29124361276626587,
          "id": 1729360993
        },
        {
          "distance": 0.2946656346321106,
          "id": 1763558943
        },
        {
          "distance": 0.29610079526901245,
          "id": 1763558965
        },
        {
          "distance": 0.29949676990509033,
          "id": 1729355145
        },
        {
          "distance": 0.3019309639930725,
          "id": 1763559197
        },
        {
          "distance": 0.31069451570510864,
          "id": 1729357603
        },
        {
          "distance": 0.31649917364120483,
          "id": 1729360993
        }
      ]
    },
    "sfomuseum:placetype": "instagram",
    "src:geom": "sfomuseum",
    "wof:belongsto": [
      1159160869,
      102527513,
      102191575,
      85633793,
      102087579,
      85922583,
      85688637
    ],
    "wof:country": "US",
    "wof:created": 1495829940,
    "wof:geomhash": "b6e33f47475d56bc8da457bc31afadc8",
    "wof:hierarchy": [
      {
        "building_id": 1159160869,
        "campus_id": 102527513,
        "continent_id": 102191575,
        "country_id": 85633793,
        "county_id": 102087579,
        "custom_id": 1729359461,
        "instagram_id": 1729359461,
        "locality_id": 85922583,
        "neighbourhood_id": -1,
        "region_id": 85688637
      }
    ],
    "wof:id": 1729359461,
    "wof:lastmodified": 1787777635,
    "wof:name": "Ruth Asawa San Francisco School of the Arts (SOTA), located in the Diamond Heights neighborhood of San Francisco, is a four-year public high school serving students who excel in visual, performing, and creative arts...",
    "wof:parent_id": 1159160869,
    "wof:placetype": "custom",
    "wof:placetype_alt": [
      "instagram"
    ],
    "wof:repo": "sfomuseum-data-socialmedia-instagram",
    "wof:superseded_by": [],
    "wof:supersedes": []
  },
  "bbox": [
    -122.386166,
    37.616356,
    -122.386166,
    37.616356
  ],
  "geometry": {"type":"Point","coordinates":[-122.386166,37.616356]}
}
