{
  "id": 1763558849,
  "type": "Feature",
  "properties": {
    "date:cessation_lower": "2021-02-10",
    "date:cessation_upper": "2021-02-10",
    "date:inception_lower": "2021-02-10",
    "date:inception_upper": "2021-02-10",
    "edtf:cessation": "2021-02-10T08:14:00-08:00",
    "edtf:inception": "2021-02-10T08:14:00-08:00",
    "geom:area": 0,
    "geom:bbox": "-122.386166,37.616356,-122.386166,37.616356",
    "geom:latitude": 37.616356,
    "geom:longitude": -122.386166,
    "instagram:post": {
      "caption": {
        "body": "As rival United Air Lines had exclusive rights to the Boeing 247, TWA (Transcontinental \u0026 Western Air) turned to Douglas Aircraft to develop an improved competitor. The Douglas DC-2 was developed in the early 1930s and introduced in 1934. The DC-2 had a capacity for fourteen passengers, and proved a safe, reliable, and comfortable airliner with a maximum speed of 210 mph. Fewer than 200 were built, as its successor, the DC-3, one of the most successful airliners ever, was introduced the following year.",
        "excerpt": "As rival United Air Lines had exclusive rights to the Boeing 247, TWA (Transcontinental \u0026 Western Air) turned to Douglas Aircraft to develop an improved competitor.",
        "hashtags": [
          "WingWednesday",
          "avgeek",
          "aviationhistory",
          "DouglasDC2",
          "dc2"
        ],
        "users": []
      },
      "media_id": "88993eae82a5c13b42ecab29807349f2eb3d0ee1",
      "path": "media/posts/202102/149060430_715450005831097_5951154425765507439_n_18184347289067660.jpg",
      "perceptual_hash": "p:9b697026c7393cc6",
      "taken": 1612973640,
      "taken_at": "Feb 10, 2021 4:14 pm"
    },
    "millsfield:similar": {
      "google/siglip2-so400m-patch16-naflex": [
        {
          "distance": 0.16785073280334473,
          "id": 1729358283
        },
        {
          "distance": 0.1911170482635498,
          "id": 1729358283
        },
        {
          "distance": 0.22403132915496826,
          "id": 1729360743
        },
        {
          "distance": 0.23308950662612915,
          "id": 1729360743
        },
        {
          "distance": 0.2666720747947693,
          "id": 1729359361
        },
        {
          "distance": 0.2676997780799866,
          "id": 1763559617
        },
        {
          "distance": 0.269012451171875,
          "id": 1880151443
        },
        {
          "distance": 0.26939892768859863,
          "id": 1880151589
        },
        {
          "distance": 0.27515870332717896,
          "id": 1729358905
        },
        {
          "distance": 0.2789595127105713,
          "id": 1729358575
        }
      ]
    },
    "sfomuseum:placetype": "instagram",
    "src:geom": "sfomuseum",
    "wof:belongsto": [
      1159160869,
      102527513,
      102191575,
      85633793,
      102087579,
      85922583,
      85688637
    ],
    "wof:country": "US",
    "wof:created": 1612973640,
    "wof:geomhash": "b6e33f47475d56bc8da457bc31afadc8",
    "wof:hierarchy": [
      {
        "building_id": 1159160869,
        "campus_id": 102527513,
        "continent_id": 102191575,
        "country_id": 85633793,
        "county_id": 102087579,
        "custom_id": 1763558849,
        "instagram_id": 1763558849,
        "locality_id": 85922583,
        "neighbourhood_id": -1,
        "region_id": 85688637
      }
    ],
    "wof:id": 1763558849,
    "wof:lastmodified": 1787777659,
    "wof:name": "As rival United Air Lines had exclusive rights to the Boeing 247, TWA (Transcontinental \u0026 Western Air) turned to Douglas Aircraft to develop an improved competitor...",
    "wof:parent_id": 1159160869,
    "wof:placetype": "custom",
    "wof:placetype_alt": [
      "instagram"
    ],
    "wof:repo": "sfomuseum-data-socialmedia-instagram",
    "wof:superseded_by": [],
    "wof:supersedes": []
  },
  "bbox": [
    -122.386166,
    37.616356,
    -122.386166,
    37.616356
  ],
  "geometry": {"type":"Point","coordinates":[-122.386166,37.616356]}
}
