{
  "id": 1729361747,
  "type": "Feature",
  "properties": {
    "date:cessation_lower": "2015-06-12",
    "date:cessation_upper": "2015-06-12",
    "date:inception_lower": "2015-06-12",
    "date:inception_upper": "2015-06-12",
    "edtf:cessation": "2015-06-12T05:11:00-07:00",
    "edtf:inception": "2015-06-12T05:11:00-07:00",
    "geom:area": 0,
    "geom:bbox": "-122.386166,37.616356,-122.386166,37.616356",
    "geom:latitude": 37.616356,
    "geom:longitude": -122.386166,
    "instagram:post": {
      "caption": {
        "body": "",
        "excerpt": "",
        "hashtags": [
          "CatchOurStyle",
          "avgeek",
          "aviationhistory",
          "BehindTheScenes"
        ],
        "users": []
      },
      "media_id": "084a644eceeca194bfe0738361dcd52a",
      "path": "media/other/11356430_903945099666395_1516326259_n_17841504979062499.jpg",
      "perceptual_hash": "p:ef3a94c5a2c1c2ec",
      "taken": 1434111060,
      "taken_at": "Jun 12, 2015 12:11 pm"
    },
    "millsfield:similar": {
      "google/siglip2-so400m-patch16-naflex": [
        {
          "distance": 0.2656908631324768,
          "id": 1729362291
        },
        {
          "distance": 0.27774542570114136,
          "id": 1729362757
        },
        {
          "distance": 0.28332823514938354,
          "id": 1729361743
        },
        {
          "distance": 0.28681617975234985,
          "id": 1729362719
        },
        {
          "distance": 0.287039577960968,
          "id": 1729361743
        },
        {
          "distance": 0.28718507289886475,
          "id": 1729360733
        },
        {
          "distance": 0.29061466455459595,
          "id": 1729362469
        },
        {
          "distance": 0.2941868305206299,
          "id": 1729362719
        },
        {
          "distance": 0.3045206665992737,
          "id": 1729362713
        },
        {
          "distance": 0.3082640767097473,
          "id": 1729362527
        }
      ]
    },
    "sfomuseum:placetype": "instagram",
    "src:geom": "sfomuseum",
    "wof:belongsto": [
      1159160869,
      102527513,
      102191575,
      85633793,
      102087579,
      85922583,
      85688637
    ],
    "wof:country": "US",
    "wof:created": 1434111060,
    "wof:geomhash": "b6e33f47475d56bc8da457bc31afadc8",
    "wof:hierarchy": [
      {
        "building_id": 1159160869,
        "campus_id": 102527513,
        "continent_id": 102191575,
        "country_id": 85633793,
        "county_id": 102087579,
        "custom_id": 1729361747,
        "instagram_id": 1729361747,
        "locality_id": 85922583,
        "neighbourhood_id": -1,
        "region_id": 85688637
      }
    ],
    "wof:id": 1729361747,
    "wof:lastmodified": 1787777646,
    "wof:name": "..",
    "wof:parent_id": 1159160869,
    "wof:placetype": "custom",
    "wof:placetype_alt": [
      "instagram"
    ],
    "wof:repo": "sfomuseum-data-socialmedia-instagram",
    "wof:superseded_by": [],
    "wof:supersedes": []
  },
  "bbox": [
    -122.386166,
    37.616356,
    -122.386166,
    37.616356
  ],
  "geometry": {"type":"Point","coordinates":[-122.386166,37.616356]}
}
