{
  "id": 1729360735,
  "type": "Feature",
  "properties": {
    "date:cessation_lower": "2016-05-09",
    "date:cessation_upper": "2016-05-09",
    "date:inception_lower": "2016-05-09",
    "date:inception_upper": "2016-05-09",
    "edtf:cessation": "2016-05-09T10:16:00-07:00",
    "edtf:inception": "2016-05-09T10:16:00-07:00",
    "geom:area": 0,
    "geom:bbox": "-122.386166,37.616356,-122.386166,37.616356",
    "geom:latitude": 37.616356,
    "geom:longitude": -122.386166,
    "instagram:post": {
      "caption": {
        "body": "Ann Meade’s art is a combination of geometric abstraction and figuration. Not unlike artwork associated with San Francisco’s Mission School, Meade creates art that features the everyday, such as baseball players and cats, roughly hewn and snuggled amidst a gridded decorative field.",
        "excerpt": "Ann Meade’s art is a combination of geometric abstraction and figuration.",
        "hashtags": [
          "ArtAndDisability\",",
          "mewseummonday"
        ],
        "users": []
      },
      "media_id": "d9d75b80642ec0d8a1ab3bf7afc52d6b",
      "path": "media/other/13126781_269456053398357_488019017_n_17849923582067201.jpg",
      "perceptual_hash": "p:cd49bab6f64e4488",
      "taken": 1462814160,
      "taken_at": "May 09, 2016 5:16 pm"
    },
    "millsfield:similar": {
      "google/siglip2-so400m-patch16-naflex": [
        {
          "distance": 0.2269783616065979,
          "id": 1729360763
        },
        {
          "distance": 0.22935324907302856,
          "id": 1729360659
        },
        {
          "distance": 0.23281556367874146,
          "id": 1729360659
        },
        {
          "distance": 0.2394922375679016,
          "id": 1729360763
        },
        {
          "distance": 0.24821025133132935,
          "id": 1729360661
        },
        {
          "distance": 0.24911987781524658,
          "id": 1729360219
        },
        {
          "distance": 0.2518380284309387,
          "id": 1729360661
        },
        {
          "distance": 0.2556990385055542,
          "id": 1729360623
        },
        {
          "distance": 0.276109516620636,
          "id": 1729360447
        },
        {
          "distance": 0.2902778387069702,
          "id": 1729360565
        }
      ]
    },
    "sfomuseum:placetype": "instagram",
    "src:geom": "sfomuseum",
    "wof:belongsto": [
      1159160869,
      102527513,
      102191575,
      85633793,
      102087579,
      85922583,
      85688637
    ],
    "wof:country": "US",
    "wof:created": 1462814160,
    "wof:geomhash": "b6e33f47475d56bc8da457bc31afadc8",
    "wof:hierarchy": [
      {
        "building_id": 1159160869,
        "campus_id": 102527513,
        "continent_id": 102191575,
        "country_id": 85633793,
        "county_id": 102087579,
        "custom_id": 1729360735,
        "instagram_id": 1729360735,
        "locality_id": 85922583,
        "neighbourhood_id": -1,
        "region_id": 85688637
      }
    ],
    "wof:id": 1729360735,
    "wof:lastmodified": 1787777640,
    "wof:name": "Ann Meade’s art is a combination of geometric abstraction and figuration...",
    "wof:parent_id": 1159160869,
    "wof:placetype": "custom",
    "wof:placetype_alt": [
      "instagram"
    ],
    "wof:repo": "sfomuseum-data-socialmedia-instagram",
    "wof:superseded_by": [],
    "wof:supersedes": []
  },
  "bbox": [
    -122.386166,
    37.616356,
    -122.386166,
    37.616356
  ],
  "geometry": {"type":"Point","coordinates":[-122.386166,37.616356]}
}
