{
  "id": 1729355775,
  "type": "Feature",
  "properties": {
    "date:cessation_lower": "2019-12-17",
    "date:cessation_upper": "2019-12-17",
    "date:inception_lower": "2019-12-17",
    "date:inception_upper": "2019-12-17",
    "edtf:cessation": "2019-12-17T09:02:00-08:00",
    "edtf:inception": "2019-12-17T09:02:00-08:00",
    "geom:area": 0,
    "geom:bbox": "-122.386166,37.616356,-122.386166,37.616356",
    "geom:latitude": 37.616356,
    "geom:longitude": -122.386166,
    "instagram:post": {
      "caption": {
        "body": "Gilding, which has existed since ancient times, entails applying extremely thin sheets of gold to the surface of another material. Gilding produces the appearance of solid gold, without its expense or weight. The lavish sheen left by gilding suited Victorian tastes where it was often used to accent furniture or applied more opulently over entire extravagant pieces, such as the pedestal displayed here. Much of the furniture of the Victorian era was accented with bronze paint to imitate gilding. “The Style of Display: Victorian Pedestals” is on display pre-security in the International Terminal. http://bit.ly/VictorianPedestals",
        "excerpt": "Gilding, which has existed since ancient times, entails applying extremely thin sheets of gold to the surface of another material.",
        "hashtags": [
          "VictorianPedestals",
          "victorian",
          "pedestals",
          "victorianfurniture",
          "victoriana",
          "design",
          "decorativeart",
          "interiorstyle",
          "gilding",
          "goldleaf"
        ],
        "users": []
      },
      "media_id": "81c9d7c089d308849157100081389d25",
      "path": "media/posts/201912/77058122_575889526529176_5331082466286171846_n_17848313137771189.jpg",
      "perceptual_hash": "p:bbc8e6874c83b394",
      "taken": 1576602120,
      "taken_at": "Dec 17, 2019 5:02 pm"
    },
    "millsfield:similar": {
      "google/siglip2-so400m-patch16-naflex": [
        {
          "distance": 0.16513264179229736,
          "id": 1729356419
        },
        {
          "distance": 0.1685018539428711,
          "id": 1729356125
        },
        {
          "distance": 0.19623905420303345,
          "id": 1729355681
        },
        {
          "distance": 0.19758975505828857,
          "id": 1729356205
        },
        {
          "distance": 0.2071816325187683,
          "id": 1729355975
        },
        {
          "distance": 0.22613608837127686,
          "id": 1729356125
        },
        {
          "distance": 0.23128753900527954,
          "id": 1729356205
        },
        {
          "distance": 0.2336869239807129,
          "id": 1729356487
        },
        {
          "distance": 0.2357892394065857,
          "id": 1729356487
        },
        {
          "distance": 0.24404841661453247,
          "id": 1729356161
        }
      ]
    },
    "sfomuseum:placetype": "instagram",
    "src:geom": "sfomuseum",
    "wof:belongsto": [
      1159160869,
      102527513,
      102191575,
      85633793,
      102087579,
      85922583,
      85688637
    ],
    "wof:country": "US",
    "wof:created": 1576602120,
    "wof:geomhash": "b6e33f47475d56bc8da457bc31afadc8",
    "wof:hierarchy": [
      {
        "building_id": 1159160869,
        "campus_id": 102527513,
        "continent_id": 102191575,
        "country_id": 85633793,
        "county_id": 102087579,
        "custom_id": 1729355775,
        "instagram_id": 1729355775,
        "locality_id": 85922583,
        "neighbourhood_id": -1,
        "region_id": 85688637
      }
    ],
    "wof:id": 1729355775,
    "wof:lastmodified": 1787777627,
    "wof:name": "Gilding, which has existed since ancient times, entails applying extremely thin sheets of gold to the surface of another material...",
    "wof:parent_id": 1159160869,
    "wof:placetype": "custom",
    "wof:placetype_alt": [
      "instagram"
    ],
    "wof:repo": "sfomuseum-data-socialmedia-instagram",
    "wof:superseded_by": [],
    "wof:supersedes": []
  },
  "bbox": [
    -122.386166,
    37.616356,
    -122.386166,
    37.616356
  ],
  "geometry": {"type":"Point","coordinates":[-122.386166,37.616356]}
}
