{
  "id": 1729360075,
  "type": "Feature",
  "properties": {
    "date:cessation_lower": "2016-11-25",
    "date:cessation_upper": "2016-11-25",
    "date:inception_lower": "2016-11-25",
    "date:inception_upper": "2016-11-25",
    "edtf:cessation": "2016-11-25T08:20:00-08:00",
    "edtf:inception": "2016-11-25T08:20:00-08:00",
    "geom:area": 0,
    "geom:bbox": "-122.386166,37.616356,-122.386166,37.616356",
    "geom:latitude": 37.616356,
    "geom:longitude": -122.386166,
    "instagram:post": {
      "caption": {
        "body": "How was your #Thanksgiving? What are you #thankful for today?",
        "excerpt": "How was your #Thanksgiving?",
        "hashtags": [],
        "users": []
      },
      "media_id": "c3721f96a789a407fe13812506e67e66",
      "path": "media/posts/201611/15057411_1188227967912884_8960220610399567872_n_17844738883161801.jpg",
      "perceptual_hash": "p:c8333fce39b82499",
      "taken": 1480090800,
      "taken_at": "Nov 25, 2016 4:20 pm"
    },
    "millsfield:similar": {
      "google/siglip2-so400m-patch16-naflex": [
        {
          "distance": 0.1366247534751892,
          "id": 1729358881
        },
        {
          "distance": 0.16276544332504272,
          "id": 1729358881
        },
        {
          "distance": 0.3118484616279602,
          "id": 1729360695
        },
        {
          "distance": 0.324878990650177,
          "id": 1880151277
        },
        {
          "distance": 0.3270835280418396,
          "id": 1880151277
        },
        {
          "distance": 0.3334053158760071,
          "id": 1729357329
        },
        {
          "distance": 0.33702611923217773,
          "id": 1729357329
        },
        {
          "distance": 0.34027761220932007,
          "id": 1763558981
        },
        {
          "distance": 0.34080690145492554,
          "id": 1729360695
        },
        {
          "distance": 0.3429306149482727,
          "id": 1729360885
        }
      ]
    },
    "sfomuseum:placetype": "instagram",
    "src:geom": "sfomuseum",
    "wof:belongsto": [
      1159160869,
      102527513,
      102191575,
      85633793,
      102087579,
      85922583,
      85688637
    ],
    "wof:country": "US",
    "wof:created": 1480090800,
    "wof:geomhash": "b6e33f47475d56bc8da457bc31afadc8",
    "wof:hierarchy": [
      {
        "building_id": 1159160869,
        "campus_id": 102527513,
        "continent_id": 102191575,
        "country_id": 85633793,
        "county_id": 102087579,
        "custom_id": 1729360075,
        "instagram_id": 1729360075,
        "locality_id": 85922583,
        "neighbourhood_id": -1,
        "region_id": 85688637
      }
    ],
    "wof:id": 1729360075,
    "wof:lastmodified": 1787777639,
    "wof:name": "How was your #Thanksgiving?..",
    "wof:parent_id": 1159160869,
    "wof:placetype": "custom",
    "wof:placetype_alt": [
      "instagram"
    ],
    "wof:repo": "sfomuseum-data-socialmedia-instagram",
    "wof:superseded_by": [],
    "wof:supersedes": []
  },
  "bbox": [
    -122.386166,
    37.616356,
    -122.386166,
    37.616356
  ],
  "geometry": {"type":"Point","coordinates":[-122.386166,37.616356]}
}
