{
  "id": 1729358637,
  "type": "Feature",
  "properties": {
    "date:cessation_lower": "2018-01-26",
    "date:cessation_upper": "2018-01-26",
    "date:inception_lower": "2018-01-26",
    "date:inception_upper": "2018-01-26",
    "edtf:cessation": "2018-01-26T13:10:36-08:00",
    "edtf:inception": "2018-01-26T13:10:36-08:00",
    "geom:area": 0,
    "geom:bbox": "-122.386166,37.616356,-122.386166,37.616356",
    "geom:latitude": 37.616356,
    "geom:longitude": -122.386166,
    "instagram:post": {
      "caption": {
        "body": "Folk pottery is still made today in North Carolina and Georgia. The southern tradition has emphasized high-fired stoneware vessels that could withstand rough usage on the farm. Alkaline stoneware glazes are distinctly regional, with wood ashes or lime mixed in a solution to help melt the other ingredients-usually sand and clay. These glazes turn green or brown depending on the firing conditions and can have a runny texture. They were developed in South Carolina around 1815, perhaps inspired by published accounts of similar high-firing Chinese glazes.  The face jug made by Georgia's Lanier Meaders represents a later-twentieth-century shift in emphasis from utilitarian farm wares to more decorative pieces for collectors, a trend that continues today.  Jugs are courtesy of the Atlanta History Center and courtesy of John Burrison. See \"#AmericanFolkArt: An Enduring Legacy\", on display, pre-security, in the International Terminal. http://bit.ly/AmericanFolkArt",
        "excerpt": "Folk pottery is still made today in North Carolina and Georgia.",
        "hashtags": [
          "AmericanFolkArt",
          "folkart",
          "american",
          "history",
          "americana",
          "antique",
          "vintage",
          "antiquefolkart",
          "vintagefolkart",
          "folkarts",
          "folkartantiques",
          "folkartantique",
          "pottery",
          "stonewear",
          "ceramics",
          "laniermeaders"
        ],
        "users": []
      },
      "location": "",
      "media_id": "21478e3f1bdf3419c69d326f0ab8bec2",
      "path": "photos/201801/21478e3f1bdf3419c69d326f0ab8bec2.jpg",
      "perceptual_hash": "p:e19e974c4e71954c",
      "taken": 1516972200,
      "taken_at": "Jan 26, 2018, 1:10 PM"
    },
    "millsfield:similar": {
      "google/siglip2-so400m-patch16-naflex": [
        {
          "distance": 0.10956305265426636,
          "id": 1729358645
        },
        {
          "distance": 0.14055675268173218,
          "id": 1729358645
        },
        {
          "distance": 0.25383204221725464,
          "id": 1729358639
        },
        {
          "distance": 0.2981834411621094,
          "id": 1729358639
        },
        {
          "distance": 0.33414071798324585,
          "id": 1763559309
        },
        {
          "distance": 0.33840739727020264,
          "id": 1729361441
        },
        {
          "distance": 0.34934842586517334,
          "id": 1729359655
        },
        {
          "distance": 0.34991174936294556,
          "id": 1729361149
        },
        {
          "distance": 0.3501591086387634,
          "id": 1729361915
        },
        {
          "distance": 0.35947704315185547,
          "id": 1729361441
        }
      ]
    },
    "sfomuseum:placetype": "instagram",
    "src:geom": "sfomuseum",
    "wof:belongsto": [
      1159160869,
      102527513,
      102191575,
      85633793,
      102087579,
      85922583,
      85688637
    ],
    "wof:country": "US",
    "wof:created": 1517001036,
    "wof:geomhash": "b6e33f47475d56bc8da457bc31afadc8",
    "wof:hierarchy": [
      {
        "building_id": 1159160869,
        "campus_id": 102527513,
        "continent_id": 102191575,
        "country_id": 85633793,
        "county_id": 102087579,
        "custom_id": 1729358637,
        "instagram_id": 1729358637,
        "locality_id": 85922583,
        "neighbourhood_id": -1,
        "region_id": 85688637
      }
    ],
    "wof:id": 1729358637,
    "wof:lastmodified": 1787777634,
    "wof:name": "Folk pottery is still made today in North Carolina and Georgia...",
    "wof:parent_id": 1159160869,
    "wof:placetype": "custom",
    "wof:placetype_alt": [
      "instagram"
    ],
    "wof:repo": "sfomuseum-data-socialmedia-instagram",
    "wof:superseded_by": [],
    "wof:supersedes": []
  },
  "bbox": [
    -122.386166,
    37.616356,
    -122.386166,
    37.616356
  ],
  "geometry": {"type":"Point","coordinates":[-122.386166,37.616356]}
}
