{
  "id": 1729355785,
  "type": "Feature",
  "properties": {
    "date:cessation_lower": "2019-12-13",
    "date:cessation_upper": "2019-12-13",
    "date:inception_lower": "2019-12-13",
    "date:inception_upper": "2019-12-13",
    "edtf:cessation": "2019-12-13T01:29:00-08:00",
    "edtf:inception": "2019-12-13T01:29:00-08:00",
    "geom:area": 0,
    "geom:bbox": "-122.386166,37.616356,-122.386166,37.616356",
    "geom:latitude": 37.616356,
    "geom:longitude": -122.386166,
    "instagram:post": {
      "caption": {
        "body": "“I ask for the movement to continue, for the movement to grow, because last week I got a phone call from Altoona, Pennsylvania, and my election gave somebody else, one more person, hope. And after all, that's what this is all about. It's not about personal gain, not about ego, not about power — it's about giving those young people out there in the Altoona, Pennsylvanias, hope. You gotta give them hope.“ Harvey Bernard Milk (1930–78) was a visionary human rights leader, a groundbreaking political luminary, and a seminal figure of the LGBTQ rights movement. Due to his high public profile as the first openly gay elected official in California, Milk attracted a torrent of hate mail, including threats on his life. In a chilling forecast, Milk recorded a living will on November 18, 1978, proclaiming, “If a bullet should enter my brain, let that bullet destroy every closet door.” Photo by Daniel Nicoletta  See “Harvey Milk: Messenger of Hope” on display post-security in Terminal 1. http://bit.ly/HarveyMilkExhibition",
        "excerpt": "“I ask for the movement to continue, for the movement to grow, because last week I got a phone call from Altoona, Pennsylvania, and my election gave somebody else, one more person, hope.",
        "hashtags": [
          "HarveyMilkExhibition",
          "HarveyMilk",
          "LGBTQ",
          "Hope"
        ],
        "users": [
          "flysfo"
        ]
      },
      "media_id": "1683a4a81cd4748be8b8ec9b95c8a30a",
      "path": "media/posts/201912/75244439_532283630658983_5632579015608173212_n_18120604525049637.jpg",
      "perceptual_hash": "p:daa5a54ac2f4dc86",
      "taken": 1576229340,
      "taken_at": "Dec 13, 2019 9:29 am"
    },
    "millsfield:similar": {
      "google/siglip2-so400m-patch16-naflex": [
        {
          "distance": 0.16329199075698853,
          "id": 1729356235
        },
        {
          "distance": 0.17264890670776367,
          "id": 1947424799
        },
        {
          "distance": 0.17342203855514526,
          "id": 1729357693
        },
        {
          "distance": 0.17858964204788208,
          "id": 1763559281
        },
        {
          "distance": 0.17973929643630981,
          "id": 1763559569
        },
        {
          "distance": 0.18138474225997925,
          "id": 1729357325
        },
        {
          "distance": 0.1821080446243286,
          "id": 1880151519
        },
        {
          "distance": 0.18330258131027222,
          "id": 1763559473
        },
        {
          "distance": 0.18573153018951416,
          "id": 1729357693
        },
        {
          "distance": 0.18924623727798462,
          "id": 1880151519
        }
      ]
    },
    "sfomuseum:placetype": "instagram",
    "src:geom": "sfomuseum",
    "wof:belongsto": [
      1159160869,
      102527513,
      102191575,
      85633793,
      102087579,
      85922583,
      85688637
    ],
    "wof:country": "US",
    "wof:created": 1576229340,
    "wof:geomhash": "b6e33f47475d56bc8da457bc31afadc8",
    "wof:hierarchy": [
      {
        "building_id": 1159160869,
        "campus_id": 102527513,
        "continent_id": 102191575,
        "country_id": 85633793,
        "county_id": 102087579,
        "custom_id": 1729355785,
        "instagram_id": 1729355785,
        "locality_id": 85922583,
        "neighbourhood_id": -1,
        "region_id": 85688637
      }
    ],
    "wof:id": 1729355785,
    "wof:lastmodified": 1787777627,
    "wof:name": "“I ask for the movement to continue, for the movement to grow, because last week I got a phone call from Altoona, Pennsylvania, and my election gave somebody else, one more person, hope...",
    "wof:parent_id": 1159160869,
    "wof:placetype": "custom",
    "wof:placetype_alt": [
      "instagram"
    ],
    "wof:repo": "sfomuseum-data-socialmedia-instagram",
    "wof:superseded_by": [],
    "wof:supersedes": []
  },
  "bbox": [
    -122.386166,
    37.616356,
    -122.386166,
    37.616356
  ],
  "geometry": {"type":"Point","coordinates":[-122.386166,37.616356]}
}
