{
  "id": 1729359917,
  "type": "Feature",
  "properties": {
    "date:cessation_lower": "2017-01-16",
    "date:cessation_upper": "2017-01-16",
    "date:inception_lower": "2017-01-16",
    "date:inception_upper": "2017-01-16",
    "edtf:cessation": "2017-01-16T06:04:00-08:00",
    "edtf:inception": "2017-01-16T06:04:00-08:00",
    "geom:area": 0,
    "geom:bbox": "-122.386166,37.616356,-122.386166,37.616356",
    "geom:latitude": 37.616356,
    "geom:longitude": -122.386166,
    "instagram:post": {
      "caption": {
        "body": "The Aviation Museum and Library is closed today to observe Dr. Martin Luther King, Jr. Day. All other exhibitions around the airport are open everyday, twenty-four hours a day. See what's currently on display: http://bit.ly/SFOMuseum",
        "excerpt": "The Aviation Museum and Library is closed today to observe Dr. Martin Luther King, Jr. Day.",
        "hashtags": [],
        "users": []
      },
      "media_id": "c7d5eca2c8c0d2331170301a2bb354a8",
      "path": "media/posts/201701/15802961_1822778951298766_3163598341011406848_n_17859008326096345.jpg",
      "perceptual_hash": "p:96c03ba7583b6d92",
      "taken": 1484575440,
      "taken_at": "Jan 16, 2017 2:04 pm"
    },
    "millsfield:similar": {
      "google/siglip2-so400m-patch16-naflex": [
        {
          "distance": 0.34273970127105713,
          "id": 1763559039
        },
        {
          "distance": 0.37256312370300293,
          "id": 1729359913
        },
        {
          "distance": 0.39328885078430176,
          "id": 1729361339
        },
        {
          "distance": 0.39519357681274414,
          "id": 1729359913
        },
        {
          "distance": 0.3952379822731018,
          "id": 1947425207
        },
        {
          "distance": 0.3960610032081604,
          "id": 1947425169
        },
        {
          "distance": 0.39741188287734985,
          "id": 1947424901
        },
        {
          "distance": 0.39895522594451904,
          "id": 1880151555
        },
        {
          "distance": 0.3991086483001709,
          "id": 1947425167
        },
        {
          "distance": 0.3998320698738098,
          "id": 1947425151
        }
      ]
    },
    "sfomuseum:placetype": "instagram",
    "src:geom": "sfomuseum",
    "wof:belongsto": [
      1159160869,
      102527513,
      102191575,
      85633793,
      102087579,
      85922583,
      85688637
    ],
    "wof:country": "US",
    "wof:created": 1484575440,
    "wof:geomhash": "b6e33f47475d56bc8da457bc31afadc8",
    "wof:hierarchy": [
      {
        "building_id": 1159160869,
        "campus_id": 102527513,
        "continent_id": 102191575,
        "country_id": 85633793,
        "county_id": 102087579,
        "custom_id": 1729359917,
        "instagram_id": 1729359917,
        "locality_id": 85922583,
        "neighbourhood_id": -1,
        "region_id": 85688637
      }
    ],
    "wof:id": 1729359917,
    "wof:lastmodified": 1787777637,
    "wof:name": "The Aviation Museum and Library is closed today to observe Dr. Martin Luther King, Jr. Day...",
    "wof:parent_id": 1159160869,
    "wof:placetype": "custom",
    "wof:placetype_alt": [
      "instagram"
    ],
    "wof:repo": "sfomuseum-data-socialmedia-instagram",
    "wof:superseded_by": [],
    "wof:supersedes": []
  },
  "bbox": [
    -122.386166,
    37.616356,
    -122.386166,
    37.616356
  ],
  "geometry": {"type":"Point","coordinates":[-122.386166,37.616356]}
}
