{
  "id": 1729355077,
  "type": "Feature",
  "properties": {
    "date:cessation_lower": "2020-09-14",
    "date:cessation_upper": "2020-09-14",
    "date:inception_lower": "2020-09-14",
    "date:inception_upper": "2020-09-14",
    "edtf:cessation": "2020-09-14T15:12:39-07:00",
    "edtf:inception": "2020-09-14T15:12:39-07:00",
    "geom:area": 0,
    "geom:bbox": "-122.386166,37.616356,-122.386166,37.616356",
    "geom:latitude": 37.616356,
    "geom:longitude": -122.386166,
    "instagram:post": {
      "caption": {
        "body": "Victorian silver plate designers often combined elements of Gothic, Rococo, and Italian Renaissance styles with Greek and Egyptian Revival influences to create contemporary interpretations of historical styles. Items were decorated with many motifs including floral patterns, animals, ancient Egyptian figures, and Roman goddesses. In this fruit bowl by the Middletown Silver Company, two Renaissance putti figures sit atop a barge adorned with shells inset with smaller putti at the base.   See “Eclectic Taste: Victorian Silver Plate” online at https://bit.ly/VictorianSP",
        "excerpt": "Victorian silver plate designers often combined elements of Gothic, Rococo, and Italian Renaissance styles with Greek and Egyptian Revival influences to create contemporary interpretations of historical styles.",
        "hashtags": [
          "VictorianSilverPlate",
          "silverplate",
          "silver",
          "victorian",
          "MuseumFromHome"
        ],
        "users": []
      },
      "location": "",
      "media_id": "9bbc5abf2fb8afdfc735d16e4133059d",
      "path": "photos/202009/9bbc5abf2fb8afdfc735d16e4133059d.jpg",
      "perceptual_hash": "p:a8057a355b9d51ce",
      "taken": 1600092720,
      "taken_at": "Sep 14, 2020, 2:12 PM"
    },
    "millsfield:similar": {
      "google/siglip2-so400m-patch16-naflex": [
        {
          "distance": 0.08662450313568115,
          "id": 1729355081
        },
        {
          "distance": 0.13465601205825806,
          "id": 1729355081
        },
        {
          "distance": 0.16668111085891724,
          "id": 1729355069
        },
        {
          "distance": 0.20099639892578125,
          "id": 1729355069
        },
        {
          "distance": 0.2131226658821106,
          "id": 1729355039
        },
        {
          "distance": 0.21944016218185425,
          "id": 1729355021
        },
        {
          "distance": 0.22277873754501343,
          "id": 1729355051
        },
        {
          "distance": 0.22589123249053955,
          "id": 1729355021
        },
        {
          "distance": 0.2310357689857483,
          "id": 1729357567
        },
        {
          "distance": 0.24444860219955444,
          "id": 1729357567
        }
      ]
    },
    "sfomuseum:placetype": "instagram",
    "src:geom": "sfomuseum",
    "wof:belongsto": [
      1159160869,
      102527513,
      102191575,
      85633793,
      102087579,
      85922583,
      85688637
    ],
    "wof:country": "US",
    "wof:created": 1600121559,
    "wof:geomhash": "b6e33f47475d56bc8da457bc31afadc8",
    "wof:hierarchy": [
      {
        "building_id": 1159160869,
        "campus_id": 102527513,
        "continent_id": 102191575,
        "country_id": 85633793,
        "county_id": 102087579,
        "custom_id": 1729355077,
        "instagram_id": 1729355077,
        "locality_id": 85922583,
        "neighbourhood_id": -1,
        "region_id": 85688637
      }
    ],
    "wof:id": 1729355077,
    "wof:lastmodified": 1787777615,
    "wof:name": "Victorian silver plate designers often combined elements of Gothic, Rococo, and Italian Renaissance styles with Greek and Egyptian Revival influences to create contemporary interpretations of historical styles...",
    "wof:parent_id": 1159160869,
    "wof:placetype": "custom",
    "wof:placetype_alt": [
      "instagram"
    ],
    "wof:repo": "sfomuseum-data-socialmedia-instagram",
    "wof:superseded_by": [],
    "wof:supersedes": []
  },
  "bbox": [
    -122.386166,
    37.616356,
    -122.386166,
    37.616356
  ],
  "geometry": {"type":"Point","coordinates":[-122.386166,37.616356]}
}
