{
  "id": 1729357469,
  "type": "Feature",
  "properties": {
    "date:cessation_lower": "2018-10-30",
    "date:cessation_upper": "2018-10-30",
    "date:inception_lower": "2018-10-30",
    "date:inception_upper": "2018-10-30",
    "edtf:cessation": "2018-10-30T01:42:00-07:00",
    "edtf:inception": "2018-10-30T01:42:00-07:00",
    "geom:area": 0,
    "geom:bbox": "-122.386166,37.616356,-122.386166,37.616356",
    "geom:latitude": 37.616356,
    "geom:longitude": -122.386166,
    "instagram:post": {
      "caption": {
        "body": "The streets of San Francisco’s Mission District come alive in Ramin Talaie’s documentation of the city’s annual celebration of Día de Muertos (Day of the Dead), a public holiday observed throughout Mexico and by people of Mexican ancestry everywhere.  See \"Día De Los Muerto\" by Ramin Talaie, now playing in the Video Arts gallery, located pre-security in the International Terminal. https://www.flysfo.com/museum/video-arts/d%C3%ADa-de-los-muerto",
        "excerpt": "The streets of San Francisco’s Mission District come alive in Ramin Talaie’s documentation of the city’s annual celebration of Día de Muertos (Day of the Dead), a public holiday observed throughout Mexico and by people of Mexican ancestry everywhere.",
        "hashtags": [
          "VideoArtsSFOM",
          "video",
          "film",
          "documentary",
          "diadelosmuerto",
          "DíadeMuertos",
          "missiondistrict",
          "sanfrancisco",
          "mission",
          "mexican",
          "mexico",
          "mexicanamerican",
          "dayofthedead"
        ],
        "users": []
      },
      "media_id": "eeb3b49278ded955eaf4e7f8824912ed",
      "path": "media/other/42109498_2239497089416491_235020166226456592_n_17979950635110049.jpg",
      "perceptual_hash": "p:95b9bf9832883a6c",
      "taken": 1540888920,
      "taken_at": "Oct 30, 2018 8:42 am"
    },
    "millsfield:similar": {
      "google/siglip2-so400m-patch16-naflex": [
        {
          "distance": 0.29417484998703003,
          "id": 1763559091
        },
        {
          "distance": 0.3002443313598633,
          "id": 1729355515
        },
        {
          "distance": 0.32860058546066284,
          "id": 1763559091
        },
        {
          "distance": 0.3310951590538025,
          "id": 1729358341
        },
        {
          "distance": 0.3343316316604614,
          "id": 1729356481
        },
        {
          "distance": 0.33490991592407227,
          "id": 1729355541
        },
        {
          "distance": 0.34459638595581055,
          "id": 1763559317
        },
        {
          "distance": 0.34461671113967896,
          "id": 1947425011
        },
        {
          "distance": 0.34530341625213623,
          "id": 1763559271
        },
        {
          "distance": 0.3497166633605957,
          "id": 1729359681
        }
      ]
    },
    "sfomuseum:placetype": "instagram",
    "src:geom": "sfomuseum",
    "wof:belongsto": [
      1159160869,
      102527513,
      102191575,
      85633793,
      102087579,
      85922583,
      85688637
    ],
    "wof:country": "US",
    "wof:created": 1540888920,
    "wof:geomhash": "b6e33f47475d56bc8da457bc31afadc8",
    "wof:hierarchy": [
      {
        "building_id": 1159160869,
        "campus_id": 102527513,
        "continent_id": 102191575,
        "country_id": 85633793,
        "county_id": 102087579,
        "custom_id": 1729357469,
        "instagram_id": 1729357469,
        "locality_id": 85922583,
        "neighbourhood_id": -1,
        "region_id": 85688637
      }
    ],
    "wof:id": 1729357469,
    "wof:lastmodified": 1787777631,
    "wof:name": "The streets of San Francisco’s Mission District come alive in Ramin Talaie’s documentation of the city’s annual celebration of Día de Muertos (Day of the Dead), a public holiday observed throughout Mexico and by people of Mexican ancestry everywhere...",
    "wof:parent_id": 1159160869,
    "wof:placetype": "custom",
    "wof:placetype_alt": [
      "instagram"
    ],
    "wof:repo": "sfomuseum-data-socialmedia-instagram",
    "wof:superseded_by": [],
    "wof:supersedes": []
  },
  "bbox": [
    -122.386166,
    37.616356,
    -122.386166,
    37.616356
  ],
  "geometry": {"type":"Point","coordinates":[-122.386166,37.616356]}
}
