{
  "id": 1729356091,
  "type": "Feature",
  "properties": {
    "date:cessation_lower": "2019-09-16",
    "date:cessation_upper": "2019-09-16",
    "date:inception_lower": "2019-09-16",
    "date:inception_upper": "2019-09-16",
    "edtf:cessation": "2019-09-16T04:36:00-07:00",
    "edtf:inception": "2019-09-16T04:36:00-07:00",
    "geom:area": 0,
    "geom:bbox": "-122.386166,37.616356,-122.386166,37.616356",
    "geom:latitude": 37.616356,
    "geom:longitude": -122.386166,
    "instagram:post": {
      "caption": {
        "body": "#OnThisDay in 1927, Charles Lindbergh landed his Ryan NYP \"Spirit of St. Louis\" at Mills Field. San Francisco celebrated the famous aviator by declaring the day “Lindbergh Day”, throwing a parade on Market Street, and hosting a reception at the Civic Center. A special enclosure was installed at Mills Field for his airplane.  Image: Charles Lindbergh at Mills Field Municipal Airport of San Francisco in the Spirit of St. Louis, September 16, 1927. 2011.134.001",
        "excerpt": "#OnThisDay in 1927, Charles Lindbergh landed his Ryan NYP \"Spirit of St. Louis\" at Mills Field.",
        "hashtags": [
          "SFOHistory",
          "SFHistory",
          "Lindbergh",
          "CharlesLindbergh"
        ],
        "users": []
      },
      "media_id": "253b25b88e1176a74c2b4c963c3f8a2f",
      "path": "media/other/69494279_423102404985684_5886185902670031486_n_17848270681614814.jpg",
      "perceptual_hash": "p:abd084736a8ff462",
      "taken": 1568633760,
      "taken_at": "Sep 16, 2019 11:36 am"
    },
    "millsfield:similar": {
      "google/siglip2-so400m-patch16-naflex": [
        {
          "distance": 0.007873177528381348,
          "id": 1729360319
        },
        {
          "distance": 0.010217666625976562,
          "id": 1880151445
        },
        {
          "distance": 0.08402878046035767,
          "id": 1729360319
        },
        {
          "distance": 0.0940055251121521,
          "id": 1729357841
        },
        {
          "distance": 0.09465402364730835,
          "id": 1880151387
        },
        {
          "distance": 0.09922856092453003,
          "id": 1880151445
        },
        {
          "distance": 0.12197822332382202,
          "id": 1880151387
        },
        {
          "distance": 0.12607252597808838,
          "id": 1880151189
        },
        {
          "distance": 0.12958955764770508,
          "id": 1763558839
        },
        {
          "distance": 0.13173478841781616,
          "id": 1729355657
        }
      ]
    },
    "sfomuseum:placetype": "instagram",
    "src:geom": "sfomuseum",
    "wof:belongsto": [
      1159160869,
      102527513,
      102191575,
      85633793,
      102087579,
      85922583,
      85688637
    ],
    "wof:country": "US",
    "wof:created": 1568633760,
    "wof:geomhash": "b6e33f47475d56bc8da457bc31afadc8",
    "wof:hierarchy": [
      {
        "building_id": 1159160869,
        "campus_id": 102527513,
        "continent_id": 102191575,
        "country_id": 85633793,
        "county_id": 102087579,
        "custom_id": 1729356091,
        "instagram_id": 1729356091,
        "locality_id": 85922583,
        "neighbourhood_id": -1,
        "region_id": 85688637
      }
    ],
    "wof:id": 1729356091,
    "wof:lastmodified": 1787777628,
    "wof:name": "#OnThisDay in 1927, Charles Lindbergh landed his Ryan NYP \"Spirit of St. Louis\" at Mills Field...",
    "wof:parent_id": 1159160869,
    "wof:placetype": "custom",
    "wof:placetype_alt": [
      "instagram"
    ],
    "wof:repo": "sfomuseum-data-socialmedia-instagram",
    "wof:superseded_by": [],
    "wof:supersedes": []
  },
  "bbox": [
    -122.386166,
    37.616356,
    -122.386166,
    37.616356
  ],
  "geometry": {"type":"Point","coordinates":[-122.386166,37.616356]}
}
