{
  "id": 1729357329,
  "type": "Feature",
  "properties": {
    "date:cessation_lower": "2018-11-22",
    "date:cessation_upper": "2018-11-22",
    "date:inception_lower": "2018-11-22",
    "date:inception_upper": "2018-11-22",
    "edtf:cessation": "2018-11-22T13:38:00-08:00",
    "edtf:inception": "2018-11-22T13:38:00-08:00",
    "geom:area": 0,
    "geom:bbox": "-122.386166,37.616356,-122.386166,37.616356",
    "geom:latitude": 37.616356,
    "geom:longitude": -122.386166,
    "instagram:post": {
      "caption": {
        "body": "Happy Thanksgiving! The Aviation Museum and Library will be closed for Thanksgiving and the day after, and will reopen on Saturday. All of our other exhibitions are open. See what's currently on display at the airport: http://bit.ly/SFOMuseum What are you thankful for this year?  Image:  Pan American World Airways menu, Thanksgiving, 1983. Gift of Angela Ausman. 2015.045.111 . . .",
        "excerpt": "Happy Thanksgiving!",
        "hashtags": [
          "happythanksgiving",
          "thanksgiving"
        ],
        "users": []
      },
      "media_id": "368b5e875fc44cfec9d713109af4df1d",
      "path": "media/other/46537054_314727235795742_1567381513442414640_n_17895276076273517.jpg",
      "perceptual_hash": "p:bfc0d01fc6303d4e",
      "taken": 1542922680,
      "taken_at": "Nov 22, 2018 9:38 pm"
    },
    "millsfield:similar": {
      "google/siglip2-so400m-patch16-naflex": [
        {
          "distance": 0.041321396827697754,
          "id": 1763558981
        },
        {
          "distance": 0.13472384214401245,
          "id": 1763558981
        },
        {
          "distance": 0.33328378200531006,
          "id": 1729358881
        },
        {
          "distance": 0.33365362882614136,
          "id": 1729360075
        },
        {
          "distance": 0.34118616580963135,
          "id": 1729360075
        },
        {
          "distance": 0.35188543796539307,
          "id": 1729358881
        },
        {
          "distance": 0.39657407999038696,
          "id": 1729356139
        },
        {
          "distance": 0.3977547287940979,
          "id": 1729358909
        },
        {
          "distance": 0.4098758101463318,
          "id": 1729360695
        },
        {
          "distance": 0.4142245650291443,
          "id": 1729358909
        }
      ]
    },
    "sfomuseum:placetype": "instagram",
    "src:geom": "sfomuseum",
    "wof:belongsto": [
      1159160869,
      102527513,
      102191575,
      85633793,
      102087579,
      85922583,
      85688637
    ],
    "wof:country": "US",
    "wof:created": 1542922680,
    "wof:geomhash": "b6e33f47475d56bc8da457bc31afadc8",
    "wof:hierarchy": [
      {
        "building_id": 1159160869,
        "campus_id": 102527513,
        "continent_id": 102191575,
        "country_id": 85633793,
        "county_id": 102087579,
        "custom_id": 1729357329,
        "instagram_id": 1729357329,
        "locality_id": 85922583,
        "neighbourhood_id": -1,
        "region_id": 85688637
      }
    ],
    "wof:id": 1729357329,
    "wof:lastmodified": 1787777631,
    "wof:name": "Happy Thanksgiving!..",
    "wof:parent_id": 1159160869,
    "wof:placetype": "custom",
    "wof:placetype_alt": [
      "instagram"
    ],
    "wof:repo": "sfomuseum-data-socialmedia-instagram",
    "wof:superseded_by": [],
    "wof:supersedes": []
  },
  "bbox": [
    -122.386166,
    37.616356,
    -122.386166,
    37.616356
  ],
  "geometry": {"type":"Point","coordinates":[-122.386166,37.616356]}
}
