{
  "id": 1729355401,
  "type": "Feature",
  "properties": {
    "date:cessation_lower": "2020-04-01",
    "date:cessation_upper": "2020-04-01",
    "date:inception_lower": "2020-04-01",
    "date:inception_upper": "2020-04-01",
    "edtf:cessation": "2020-03-31T17:21:57-07:00",
    "edtf:inception": "2020-03-31T17:21:57-07:00",
    "geom:area": 0,
    "geom:bbox": "-122.386166,37.616356,-122.386166,37.616356",
    "geom:latitude": 37.616356,
    "geom:longitude": -122.386166,
    "instagram:post": {
      "caption": {
        "body": "In her “Psychscapes”, Terri Loewenthal draws upon the history of California landscape photography, reimagining the genre in a psychedelic light. She captures each image as a single exposure using her unique in-camera process. Her technique shifts colors into oversaturated hues of purples, blues and yellows and overlaps multiple vantage points, offering the viewer a revelatory experience of the Eastern Sierra landscape. By creating images that are “familiar but otherworldly,” Loewenthal presents a vision of the natural world that extends beyond its economic and recreational value, illuminating possibilities of spiritual connection and transcendence. “Psychscape 73 (Downs, Mount, CA)” and “Psychscape 18 (Banner Ridge, CA)” are on display in the Grand Hyatt Hotel. See them online at: https://bit.ly/3drfCaz",
        "excerpt": "In her “Psychscapes”, Terri Loewenthal draws upon the history of California landscape photography, reimagining the genre in a psychedelic light.",
        "hashtags": [
          "TerriLoewenthal",
          "Psychscapes",
          "California",
          "Photography",
          "SierraNavada",
          "MuseumFromHome"
        ],
        "users": [
          "lowandtall"
        ]
      },
      "location": "",
      "media_id": "202dd98f43c533dd51934ea6998a1dd9",
      "path": "photos/202003/202dd98f43c533dd51934ea6998a1dd9.jpg",
      "perceptual_hash": "p:a6d1fcd0267806fc",
      "taken": 1585671660,
      "taken_at": "Mar 31, 2020, 4:21 PM"
    },
    "millsfield:similar": {
      "google/siglip2-so400m-patch16-naflex": [
        {
          "distance": 0.12674492597579956,
          "id": 1729356773
        },
        {
          "distance": 0.13114964962005615,
          "id": 1729355379
        },
        {
          "distance": 0.18622523546218872,
          "id": 1729356549
        },
        {
          "distance": 0.19559931755065918,
          "id": 1729355379
        },
        {
          "distance": 0.20100581645965576,
          "id": 1729356819
        },
        {
          "distance": 0.20613664388656616,
          "id": 1729359363
        },
        {
          "distance": 0.20764780044555664,
          "id": 1729356547
        },
        {
          "distance": 0.2077925205230713,
          "id": 1729356001
        },
        {
          "distance": 0.2095785140991211,
          "id": 1729356557
        },
        {
          "distance": 0.2111777663230896,
          "id": 1729356785
        }
      ]
    },
    "sfomuseum:placetype": "instagram",
    "src:geom": "sfomuseum",
    "wof:belongsto": [
      1159160869,
      102527513,
      102191575,
      85633793,
      102087579,
      85922583,
      85688637
    ],
    "wof:country": "US",
    "wof:created": 1585700517,
    "wof:geomhash": "b6e33f47475d56bc8da457bc31afadc8",
    "wof:hierarchy": [
      {
        "building_id": 1159160869,
        "campus_id": 102527513,
        "continent_id": 102191575,
        "country_id": 85633793,
        "county_id": 102087579,
        "custom_id": 1729355401,
        "instagram_id": 1729355401,
        "locality_id": 85922583,
        "neighbourhood_id": -1,
        "region_id": 85688637
      }
    ],
    "wof:id": 1729355401,
    "wof:lastmodified": 1787777624,
    "wof:name": "In her “Psychscapes”, Terri Loewenthal draws upon the history of California landscape photography, reimagining the genre in a psychedelic light...",
    "wof:parent_id": 1159160869,
    "wof:placetype": "custom",
    "wof:placetype_alt": [
      "instagram"
    ],
    "wof:repo": "sfomuseum-data-socialmedia-instagram",
    "wof:superseded_by": [],
    "wof:supersedes": []
  },
  "bbox": [
    -122.386166,
    37.616356,
    -122.386166,
    37.616356
  ],
  "geometry": {"type":"Point","coordinates":[-122.386166,37.616356]}
}
