{
  "id": 1729360671,
  "type": "Feature",
  "properties": {
    "date:cessation_lower": "2016-05-27",
    "date:cessation_upper": "2016-05-27",
    "date:inception_lower": "2016-05-27",
    "date:inception_upper": "2016-05-27",
    "edtf:cessation": "2016-05-27T01:43:00-07:00",
    "edtf:inception": "2016-05-27T01:43:00-07:00",
    "geom:area": 0,
    "geom:bbox": "-122.386166,37.616356,-122.386166,37.616356",
    "geom:latitude": 37.616356,
    "geom:longitude": -122.386166,
    "instagram:post": {
      "caption": {
        "body": "Pan American flight attendants were given this circa 1980 manual for uniform regulation. Stay tuned to see this uniform featured in our upcoming #FashionInFlight exhibition. #FashionFriday  Pan American World Airways flight attendant manual, apparel c. 1980 Gift of Katherine Koelsch Kriken SFO Museum Collection 2014.126.009",
        "excerpt": "Pan American flight attendants were given this circa 1980 manual for uniform regulation.",
        "hashtags": [],
        "users": []
      },
      "media_id": "3eae8cf967e76a78ce920c68a38174e4",
      "path": "media/other/13248955_278810572462897_551874500_n_17847810961121230.jpg",
      "perceptual_hash": "p:e843b13c4b93db16",
      "taken": 1464338580,
      "taken_at": "May 27, 2016 8:43 am"
    },
    "millsfield:similar": {
      "google/siglip2-so400m-patch16-naflex": [
        {
          "distance": 0.17946362495422363,
          "id": 1729359339
        },
        {
          "distance": 0.21634501218795776,
          "id": 1729359339
        },
        {
          "distance": 0.24665045738220215,
          "id": 1729358293
        },
        {
          "distance": 0.2516337037086487,
          "id": 1729355261
        },
        {
          "distance": 0.2547110319137573,
          "id": 1729361153
        },
        {
          "distance": 0.25515449047088623,
          "id": 1729360365
        },
        {
          "distance": 0.25559788942337036,
          "id": 1729357283
        },
        {
          "distance": 0.2631286382675171,
          "id": 1729359201
        },
        {
          "distance": 0.26425349712371826,
          "id": 1729355335
        },
        {
          "distance": 0.26442480087280273,
          "id": 1763558845
        }
      ]
    },
    "sfomuseum:placetype": "instagram",
    "src:geom": "sfomuseum",
    "wof:belongsto": [
      1159160869,
      102527513,
      102191575,
      85633793,
      102087579,
      85922583,
      85688637
    ],
    "wof:country": "US",
    "wof:created": 1464338580,
    "wof:geomhash": "b6e33f47475d56bc8da457bc31afadc8",
    "wof:hierarchy": [
      {
        "building_id": 1159160869,
        "campus_id": 102527513,
        "continent_id": 102191575,
        "country_id": 85633793,
        "county_id": 102087579,
        "custom_id": 1729360671,
        "instagram_id": 1729360671,
        "locality_id": 85922583,
        "neighbourhood_id": -1,
        "region_id": 85688637
      }
    ],
    "wof:id": 1729360671,
    "wof:lastmodified": 1787777640,
    "wof:name": "Pan American flight attendants were given this circa 1980 manual for uniform regulation...",
    "wof:parent_id": 1159160869,
    "wof:placetype": "custom",
    "wof:placetype_alt": [
      "instagram"
    ],
    "wof:repo": "sfomuseum-data-socialmedia-instagram",
    "wof:superseded_by": [],
    "wof:supersedes": []
  },
  "bbox": [
    -122.386166,
    37.616356,
    -122.386166,
    37.616356
  ],
  "geometry": {"type":"Point","coordinates":[-122.386166,37.616356]}
}
