{
  "id": 1729359685,
  "type": "Feature",
  "properties": {
    "date:cessation_lower": "2017-03-22",
    "date:cessation_upper": "2017-03-22",
    "date:inception_lower": "2017-03-22",
    "date:inception_upper": "2017-03-22",
    "edtf:cessation": "2017-03-22T11:43:00-07:00",
    "edtf:inception": "2017-03-22T11:43:00-07:00",
    "geom:area": 0,
    "geom:bbox": "-122.386166,37.616356,-122.386166,37.616356",
    "geom:latitude": 37.616356,
    "geom:longitude": -122.386166,
    "instagram:post": {
      "caption": {
        "body": "United Air Lines produced this 1957 flight attendant employee pamphlet that introduces potential applicants to the profession. \"You, as a United Air Lines stewardess, will have many of the same duties and responsibilities as if you were entertaining in your own home – making advance preparations, greeting guests and doing all possible to make them welcome.  Your “guests” will include a wide variety of interesting people, possibly a business man from Bombay, a military family moving from New York to Seattle, even your next-door-neighbor.  Visiting with passengers aloft, you will soon realize your position as a stewardess offers new opportunities to increase your knowledge of the world. As you say goodbye to your passengers when they reach their destinations, you will have a deep feeling of satisfaction and pride in your career as a stewardess.\" Image:  United Air Lines employee pamphlet, stewardess, 1957. Gift of Eric Barclay. 2016.028.003",
        "excerpt": "United Air Lines produced this 1957 flight attendant employee pamphlet that introduces potential applicants to the profession.",
        "hashtags": [
          "United",
          "crewlife",
          "paxex",
          "FlightAttendant",
          "crewlife",
          "FA",
          "fashioninflight",
          "hostesses",
          "FlightAttendantlife",
          "FlightAttendanttraining",
          "Flightcrew",
          "avgeek",
          "aviationhistory",
          "WomenInAviation",
          "Womenshistorymonth"
        ],
        "users": []
      },
      "media_id": "b66b5014a93d98cd84d409b14cde6279",
      "path": "media/posts/201703/17493595_1786355161694460_610112980708753408_n_17874917269063717.jpg",
      "perceptual_hash": "p:ffd4917e0482cb8a",
      "taken": 1490208180,
      "taken_at": "Mar 22, 2017 6:43 pm"
    },
    "millsfield:similar": {
      "google/siglip2-so400m-patch16-naflex": [
        {
          "distance": 0.1830715537071228,
          "id": 1729359989
        },
        {
          "distance": 0.19642502069473267,
          "id": 1729356405
        },
        {
          "distance": 0.2248293161392212,
          "id": 1729360195
        },
        {
          "distance": 0.23189961910247803,
          "id": 1729360981
        },
        {
          "distance": 0.24301767349243164,
          "id": 1729355113
        },
        {
          "distance": 0.2462010383605957,
          "id": 1729361015
        },
        {
          "distance": 0.24666178226470947,
          "id": 1729360733
        },
        {
          "distance": 0.24795854091644287,
          "id": 1729355261
        },
        {
          "distance": 0.2484649419784546,
          "id": 1729360843
        },
        {
          "distance": 0.2508407235145569,
          "id": 1729360195
        }
      ]
    },
    "sfomuseum:placetype": "instagram",
    "src:geom": "sfomuseum",
    "wof:belongsto": [
      1159160869,
      102527513,
      102191575,
      85633793,
      102087579,
      85922583,
      85688637
    ],
    "wof:country": "US",
    "wof:created": 1490208180,
    "wof:geomhash": "b6e33f47475d56bc8da457bc31afadc8",
    "wof:hierarchy": [
      {
        "building_id": 1159160869,
        "campus_id": 102527513,
        "continent_id": 102191575,
        "country_id": 85633793,
        "county_id": 102087579,
        "custom_id": 1729359685,
        "instagram_id": 1729359685,
        "locality_id": 85922583,
        "neighbourhood_id": -1,
        "region_id": 85688637
      }
    ],
    "wof:id": 1729359685,
    "wof:lastmodified": 1787777636,
    "wof:name": "United Air Lines produced this 1957 flight attendant employee pamphlet that introduces potential applicants to the profession...",
    "wof:parent_id": 1159160869,
    "wof:placetype": "custom",
    "wof:placetype_alt": [
      "instagram"
    ],
    "wof:repo": "sfomuseum-data-socialmedia-instagram",
    "wof:superseded_by": [],
    "wof:supersedes": []
  },
  "bbox": [
    -122.386166,
    37.616356,
    -122.386166,
    37.616356
  ],
  "geometry": {"type":"Point","coordinates":[-122.386166,37.616356]}
}
