{
  "id": 1729356591,
  "type": "Feature",
  "properties": {
    "date:cessation_lower": "2019-05-08",
    "date:cessation_upper": "2019-05-08",
    "date:inception_lower": "2019-05-08",
    "date:inception_upper": "2019-05-08",
    "edtf:cessation": "2019-05-08T04:32:00-07:00",
    "edtf:inception": "2019-05-08T04:32:00-07:00",
    "geom:area": 0,
    "geom:bbox": "-122.386166,37.616356,-122.386166,37.616356",
    "geom:latitude": 37.616356,
    "geom:longitude": -122.386166,
    "instagram:post": {
      "caption": {
        "body": "Modern airliners such as the Boeing 247, Douglas DC-2, and Douglas DC-3 were rolled out with passenger seats made from aluminum alloys. These seats featured either upholstery crafted into the seat and either slip-on or strap-on cushions. The aluminum seat shown here was designed in the 1940s by the Warren McArthur Corporation specifically for the Douglas DC-3 and C-47, the military transport version of the DC-3. It was the first seat designed by the company for passenger use in an airplane and adjustable to five positions. \"Aluminum: The Miracle Metal of Aviation\" is on display, pre-security, in the Aviation Museum and Library in the International Terminal. http://bit.ly/AviationAluminum  Image: Douglas DC-3 airplane seat, c. 1943. Gift of the San Francisco Aeronautical Society. 2018.034.001",
        "excerpt": "Modern airliners such as the Boeing 247, Douglas DC-2, and Douglas DC-3 were rolled out with passenger seats made from aluminum alloys.",
        "hashtags": [
          "AviationAluminum",
          "Aluminum",
          "design",
          "industrialdesign",
          "avgeek",
          "paxex",
          "seating",
          "airplaneseating",
          "airplaneseats"
        ],
        "users": []
      },
      "media_id": "d062085824afe983c19f3e59b0dc8615",
      "path": "media/other/58409209_1307483992735869_8937495834424431545_n_18064677565043156.jpg",
      "perceptual_hash": "p:ef489237a5389a87",
      "taken": 1557315120,
      "taken_at": "May 08, 2019 11:32 am"
    },
    "millsfield:similar": {
      "google/siglip2-so400m-patch16-naflex": [
        {
          "distance": 0.20234471559524536,
          "id": 1729360699
        },
        {
          "distance": 0.2371235489845276,
          "id": 1729360699
        },
        {
          "distance": 0.2672468423843384,
          "id": 1729359265
        },
        {
          "distance": 0.27938026189804077,
          "id": 1947424963
        },
        {
          "distance": 0.30318379402160645,
          "id": 1947424963
        },
        {
          "distance": 0.30444788932800293,
          "id": 1729359265
        },
        {
          "distance": 0.3154181241989136,
          "id": 1729360303
        },
        {
          "distance": 0.3166967034339905,
          "id": 1729359763
        },
        {
          "distance": 0.32767361402511597,
          "id": 1729356839
        },
        {
          "distance": 0.3283287286758423,
          "id": 1947425209
        }
      ]
    },
    "sfomuseum:placetype": "instagram",
    "src:geom": "sfomuseum",
    "wof:belongsto": [
      1159160869,
      102527513,
      102191575,
      85633793,
      102087579,
      85922583,
      85688637
    ],
    "wof:country": "US",
    "wof:created": 1557315120,
    "wof:geomhash": "b6e33f47475d56bc8da457bc31afadc8",
    "wof:hierarchy": [
      {
        "building_id": 1159160869,
        "campus_id": 102527513,
        "continent_id": 102191575,
        "country_id": 85633793,
        "county_id": 102087579,
        "custom_id": 1729356591,
        "instagram_id": 1729356591,
        "locality_id": 85922583,
        "neighbourhood_id": -1,
        "region_id": 85688637
      }
    ],
    "wof:id": 1729356591,
    "wof:lastmodified": 1787777629,
    "wof:name": "Modern airliners such as the Boeing 247, Douglas DC-2, and Douglas DC-3 were rolled out with passenger seats made from aluminum alloys...",
    "wof:parent_id": 1159160869,
    "wof:placetype": "custom",
    "wof:placetype_alt": [
      "instagram"
    ],
    "wof:repo": "sfomuseum-data-socialmedia-instagram",
    "wof:superseded_by": [],
    "wof:supersedes": []
  },
  "bbox": [
    -122.386166,
    37.616356,
    -122.386166,
    37.616356
  ],
  "geometry": {"type":"Point","coordinates":[-122.386166,37.616356]}
}
