{
  "id": 1729362481,
  "type": "Feature",
  "properties": {
    "date:cessation_lower": "2013-11-18",
    "date:cessation_upper": "2013-11-18",
    "date:inception_lower": "2013-11-18",
    "date:inception_upper": "2013-11-18",
    "edtf:cessation": "2013-11-18T08:50:00-08:00",
    "edtf:inception": "2013-11-18T08:50:00-08:00",
    "geom:area": 0,
    "geom:bbox": "-122.386166,37.616356,-122.386166,37.616356",
    "geom:latitude": 37.616356,
    "geom:longitude": -122.386166,
    "instagram:post": {
      "caption": {
        "body": "",
        "excerpt": "",
        "hashtags": [
          "LighterThanAir"
        ],
        "users": []
      },
      "media_id": "f16e296b42d924e27287fe28cf8e9f9d",
      "path": "media/other/1170645_397623790369124_1262138753_n_17842377007062499.jpg",
      "perceptual_hash": "p:8ec761c791b195d2",
      "taken": 1384793400,
      "taken_at": "Nov 18, 2013 4:50 pm"
    },
    "millsfield:similar": {
      "google/siglip2-so400m-patch16-naflex": [
        {
          "distance": 0.2619049549102783,
          "id": 1729362461
        },
        {
          "distance": 0.2855546474456787,
          "id": 1729359995
        },
        {
          "distance": 0.30097222328186035,
          "id": 1729359995
        },
        {
          "distance": 0.30968421697616577,
          "id": 1729361573
        },
        {
          "distance": 0.3101964592933655,
          "id": 1729362461
        },
        {
          "distance": 0.3136622905731201,
          "id": 1729357751
        },
        {
          "distance": 0.3148394227027893,
          "id": 1729362795
        },
        {
          "distance": 0.31633007526397705,
          "id": 1729357357
        },
        {
          "distance": 0.3236914277076721,
          "id": 1729357381
        },
        {
          "distance": 0.32429128885269165,
          "id": 1763559539
        }
      ]
    },
    "sfomuseum:placetype": "instagram",
    "src:geom": "sfomuseum",
    "wof:belongsto": [
      1159160869,
      102527513,
      102191575,
      85633793,
      102087579,
      85922583,
      85688637
    ],
    "wof:country": "US",
    "wof:created": 1384793400,
    "wof:geomhash": "b6e33f47475d56bc8da457bc31afadc8",
    "wof:hierarchy": [
      {
        "building_id": 1159160869,
        "campus_id": 102527513,
        "continent_id": 102191575,
        "country_id": 85633793,
        "county_id": 102087579,
        "custom_id": 1729362481,
        "instagram_id": 1729362481,
        "locality_id": 85922583,
        "neighbourhood_id": -1,
        "region_id": 85688637
      }
    ],
    "wof:id": 1729362481,
    "wof:lastmodified": 1787777647,
    "wof:name": "..",
    "wof:parent_id": 1159160869,
    "wof:placetype": "custom",
    "wof:placetype_alt": [
      "instagram"
    ],
    "wof:repo": "sfomuseum-data-socialmedia-instagram",
    "wof:superseded_by": [],
    "wof:supersedes": []
  },
  "bbox": [
    -122.386166,
    37.616356,
    -122.386166,
    37.616356
  ],
  "geometry": {"type":"Point","coordinates":[-122.386166,37.616356]}
}
