{
  "id": 1729360981,
  "type": "Feature",
  "properties": {
    "date:cessation_lower": "2016-03-04",
    "date:cessation_upper": "2016-03-04",
    "date:inception_lower": "2016-03-04",
    "date:inception_upper": "2016-03-04",
    "edtf:cessation": "2016-03-04T02:16:00-08:00",
    "edtf:inception": "2016-03-04T02:16:00-08:00",
    "geom:area": 0,
    "geom:bbox": "-122.386166,37.616356,-122.386166,37.616356",
    "geom:latitude": 37.616356,
    "geom:longitude": -122.386166,
    "instagram:post": {
      "caption": {
        "body": "These wonderfully dressed ladies modeled various Pan American World Airways flight attendant uniforms (from 1950s through 1980) at SFO in 1985 for the 50th anniversary of the China Clipper’s inaugural flight. What is your favorite flight attendant uniform? #FashionFriday  Pan American World Airways, San Francisco International Airport (SFO), China Clipper 50th anniversary SFO Museum Collection Gift of Beatrice H. Springer 1995.35.77",
        "excerpt": "These wonderfully dressed ladies modeled various Pan American World Airways flight attendant uniforms (from 1950s through 1980) at SFO in 1985 for the 50th anniversary of the China Clipper’s inaugural flight.",
        "hashtags": [],
        "users": []
      },
      "media_id": "9bddc96916295cca75e36084027afa77",
      "path": "media/other/12750315_197024957330152_717427050_n_17853970558054678.jpg",
      "perceptual_hash": "p:813e3e9353d15476",
      "taken": 1457086560,
      "taken_at": "Mar 04, 2016 10:16 am"
    },
    "millsfield:similar": {
      "google/siglip2-so400m-patch16-naflex": [
        {
          "distance": 0.1204943060874939,
          "id": 1729359107
        },
        {
          "distance": 0.13300371170043945,
          "id": 1729357681
        },
        {
          "distance": 0.14939045906066895,
          "id": 1729359107
        },
        {
          "distance": 0.15089619159698486,
          "id": 1729357681
        },
        {
          "distance": 0.15909093618392944,
          "id": 1729360473
        },
        {
          "distance": 0.1608140468597412,
          "id": 1729359743
        },
        {
          "distance": 0.16417980194091797,
          "id": 1729355261
        },
        {
          "distance": 0.16715580224990845,
          "id": 1729360365
        },
        {
          "distance": 0.17248284816741943,
          "id": 1729359113
        },
        {
          "distance": 0.1731836199760437,
          "id": 1729360551
        }
      ]
    },
    "sfomuseum:placetype": "instagram",
    "src:geom": "sfomuseum",
    "wof:belongsto": [
      1159160869,
      102527513,
      102191575,
      85633793,
      102087579,
      85922583,
      85688637
    ],
    "wof:country": "US",
    "wof:created": 1457086560,
    "wof:geomhash": "b6e33f47475d56bc8da457bc31afadc8",
    "wof:hierarchy": [
      {
        "building_id": 1159160869,
        "campus_id": 102527513,
        "continent_id": 102191575,
        "country_id": 85633793,
        "county_id": 102087579,
        "custom_id": 1729360981,
        "instagram_id": 1729360981,
        "locality_id": 85922583,
        "neighbourhood_id": -1,
        "region_id": 85688637
      }
    ],
    "wof:id": 1729360981,
    "wof:lastmodified": 1787777640,
    "wof:name": "These wonderfully dressed ladies modeled various Pan American World Airways flight attendant uniforms (from 1950s through 1980) at SFO in 1985 for the 50th anniversary of the China Clipper’s inaugural flight...",
    "wof:parent_id": 1159160869,
    "wof:placetype": "custom",
    "wof:placetype_alt": [
      "instagram"
    ],
    "wof:repo": "sfomuseum-data-socialmedia-instagram",
    "wof:superseded_by": [],
    "wof:supersedes": []
  },
  "bbox": [
    -122.386166,
    37.616356,
    -122.386166,
    37.616356
  ],
  "geometry": {"type":"Point","coordinates":[-122.386166,37.616356]}
}
