{
  "id": 1729360713,
  "type": "Feature",
  "properties": {
    "date:cessation_lower": "2016-05-17",
    "date:cessation_upper": "2016-05-17",
    "date:inception_lower": "2016-05-17",
    "date:inception_upper": "2016-05-17",
    "edtf:cessation": "2016-05-17T10:51:00-07:00",
    "edtf:inception": "2016-05-17T10:51:00-07:00",
    "geom:area": 0,
    "geom:bbox": "-122.386166,37.616356,-122.386166,37.616356",
    "geom:latitude": 37.616356,
    "geom:longitude": -122.386166,
    "instagram:post": {
      "caption": {
        "body": "airberlin returned to SFO for seasonal service last week. Based in Berlin, airberlin is the second largest German airline. airberlin has offered seasonal summer service from SFO to Düsseldorf since 2010. Have you ever been to Düsseldorf. #TravelTuesday  airberlin Airbus A320 postcard  c. 2007 SFO Museum Gift of the William Hough Collection 2008.055.078",
        "excerpt": "airberlin returned to SFO for seasonal service last week.",
        "hashtags": [],
        "users": []
      },
      "media_id": "ac15f254951c60f05145e022ef500d72",
      "path": "media/other/13249960_238802629826221_920266756_n_17856154396018476.jpg",
      "perceptual_hash": "p:817e70ad3f853b30",
      "taken": 1463507460,
      "taken_at": "May 17, 2016 5:51 pm"
    },
    "millsfield:similar": {
      "google/siglip2-so400m-patch16-naflex": [
        {
          "distance": 0.26160532236099243,
          "id": 1729360749
        },
        {
          "distance": 0.26623260974884033,
          "id": 1729360469
        },
        {
          "distance": 0.2670503854751587,
          "id": 1763559479
        },
        {
          "distance": 0.2696459889411926,
          "id": 1763559479
        },
        {
          "distance": 0.2696491479873657,
          "id": 1729360469
        },
        {
          "distance": 0.2818565368652344,
          "id": 1729356049
        },
        {
          "distance": 0.28473371267318726,
          "id": 1729360749
        },
        {
          "distance": 0.29172277450561523,
          "id": 1729358105
        },
        {
          "distance": 0.29341787099838257,
          "id": 1729355417
        },
        {
          "distance": 0.2957398295402527,
          "id": 1729355417
        }
      ]
    },
    "sfomuseum:placetype": "instagram",
    "src:geom": "sfomuseum",
    "wof:belongsto": [
      1159160869,
      102527513,
      102191575,
      85633793,
      102087579,
      85922583,
      85688637
    ],
    "wof:country": "US",
    "wof:created": 1463507460,
    "wof:geomhash": "b6e33f47475d56bc8da457bc31afadc8",
    "wof:hierarchy": [
      {
        "building_id": 1159160869,
        "campus_id": 102527513,
        "continent_id": 102191575,
        "country_id": 85633793,
        "county_id": 102087579,
        "custom_id": 1729360713,
        "instagram_id": 1729360713,
        "locality_id": 85922583,
        "neighbourhood_id": -1,
        "region_id": 85688637
      }
    ],
    "wof:id": 1729360713,
    "wof:lastmodified": 1787777640,
    "wof:name": "airberlin returned to SFO for seasonal service last week...",
    "wof:parent_id": 1159160869,
    "wof:placetype": "custom",
    "wof:placetype_alt": [
      "instagram"
    ],
    "wof:repo": "sfomuseum-data-socialmedia-instagram",
    "wof:superseded_by": [],
    "wof:supersedes": []
  },
  "bbox": [
    -122.386166,
    37.616356,
    -122.386166,
    37.616356
  ],
  "geometry": {"type":"Point","coordinates":[-122.386166,37.616356]}
}
