{
  "id": 1729355767,
  "type": "Feature",
  "properties": {
    "date:cessation_lower": "2019-12-19",
    "date:cessation_upper": "2019-12-19",
    "date:inception_lower": "2019-12-19",
    "date:inception_upper": "2019-12-19",
    "edtf:cessation": "2019-12-19T13:48:59-08:00",
    "edtf:inception": "2019-12-19T13:48:59-08:00",
    "geom:area": 0,
    "geom:bbox": "-122.386166,37.616356,-122.386166,37.616356",
    "geom:latitude": 37.616356,
    "geom:longitude": -122.386166,
    "instagram:post": {
      "caption": {
        "body": "With multiple holidays coming up, we hope you will find time to gather with loved ones for great company and a good meal. Need some cooking inspiration? In the 1950s, Carnation advertised a recipe for creamed chipped beef and Dole offered “6 wonder-working varieties” of canned pineapple! \"The Modern Consumer: 1950s Products and Style\" is on display, post-security, in Terminal 3. http://bit.ly/1950sConsumer",
        "excerpt": "With multiple holidays coming up, we hope you will find time to gather with loved ones for great company and a good meal.",
        "hashtags": [
          "1950sConsumer",
          "1950s",
          "vintage",
          "50s",
          "midcentury",
          "classic",
          "retro",
          "meals",
          "recipes"
        ],
        "users": []
      },
      "location": "",
      "media_id": "3854a934361b0d071f2095d08c762b7b",
      "path": "photos/201912/3854a934361b0d071f2095d08c762b7b.jpg",
      "perceptual_hash": "p:ec4bc3361cc93764",
      "taken": 1576763280,
      "taken_at": "Dec 19, 2019, 1:48 PM"
    },
    "millsfield:similar": {
      "google/siglip2-so400m-patch16-naflex": [
        {
          "distance": 0.40659385919570923,
          "id": 1729355753
        },
        {
          "distance": 0.43079614639282227,
          "id": 1729360001
        },
        {
          "distance": 0.459380567073822,
          "id": 1729355753
        },
        {
          "distance": 0.4823452830314636,
          "id": 1729358467
        },
        {
          "distance": 0.4855935573577881,
          "id": 1729360001
        },
        {
          "distance": 0.5049978494644165,
          "id": 1729360805
        },
        {
          "distance": 0.506341278553009,
          "id": 1729359921
        },
        {
          "distance": 0.5088154077529907,
          "id": 1729355263
        },
        {
          "distance": 0.5099402666091919,
          "id": 1729356951
        },
        {
          "distance": 0.5112121105194092,
          "id": 1763559577
        }
      ]
    },
    "sfomuseum:placetype": "instagram",
    "src:geom": "sfomuseum",
    "wof:belongsto": [
      1159160869,
      102527513,
      102191575,
      85633793,
      102087579,
      85922583,
      85688637
    ],
    "wof:country": "US",
    "wof:created": 1576792139,
    "wof:geomhash": "b6e33f47475d56bc8da457bc31afadc8",
    "wof:hierarchy": [
      {
        "building_id": 1159160869,
        "campus_id": 102527513,
        "continent_id": 102191575,
        "country_id": 85633793,
        "county_id": 102087579,
        "custom_id": 1729355767,
        "instagram_id": 1729355767,
        "locality_id": 85922583,
        "neighbourhood_id": -1,
        "region_id": 85688637
      }
    ],
    "wof:id": 1729355767,
    "wof:lastmodified": 1787777627,
    "wof:name": "With multiple holidays coming up, we hope you will find time to gather with loved ones for great company and a good meal...",
    "wof:parent_id": 1159160869,
    "wof:placetype": "custom",
    "wof:placetype_alt": [
      "instagram"
    ],
    "wof:repo": "sfomuseum-data-socialmedia-instagram",
    "wof:superseded_by": [],
    "wof:supersedes": []
  },
  "bbox": [
    -122.386166,
    37.616356,
    -122.386166,
    37.616356
  ],
  "geometry": {"type":"Point","coordinates":[-122.386166,37.616356]}
}
