{
  "id": 1729361513,
  "type": "Feature",
  "properties": {
    "date:cessation_lower": "2015-09-30",
    "date:cessation_upper": "2015-09-30",
    "date:inception_lower": "2015-09-30",
    "date:inception_upper": "2015-09-30",
    "edtf:cessation": "2015-09-30T11:31:00-07:00",
    "edtf:inception": "2015-09-30T11:31:00-07:00",
    "geom:area": 0,
    "geom:bbox": "-122.386166,37.616356,-122.386166,37.616356",
    "geom:latitude": 37.616356,
    "geom:longitude": -122.386166,
    "instagram:post": {
      "caption": {
        "body": "In 1915, for the first time in human history, the general public had access to the crowning achievement of the industrial age—the “aeroplane.” Death defying aviators performed aerial stunts at the 1915 Panama Pacific International Exposition as huge audiences swooned. Also offered to the public were rides on an airplane above San Francisco. Paying passengers included women who were thrilled to try this exciting new form of transportation. Check out more historical photographs created from the original glass plate negatives in Fancy Flying: Aviation at the 1915 Panama Pacific International Exposition on display pre-security in the Aviation Museum and Library. The Aviation Museum and Library is open from 10:00am to 4:30pm Sunday through Friday. #WomenInAviation  Robert Fowler in his Christofferson flying boat with Carl J. Schilling and Ada Schilling at the Panama Pacific International Exposition, San Francisco  1915 Cardinell-Vincent Company  SFO Museum Collection Gift of Edwin I. Power, Jr. and Linda L. Liscom Printed with funds provided by the San Francisco Aeronautical Society 2015.040.045",
        "excerpt": "In 1915, for the first time in human history, the general public had access to the crowning achievement of the industrial age—the “aeroplane.” Death defying aviators performed aerial stunts at the 1915 Panama Pacific International Exposition as huge audiences swooned.",
        "hashtags": [],
        "users": []
      },
      "media_id": "18b0c66798dc1b63d204bdb83d2b50a3",
      "path": "media/other/11378886_759234500871034_543125767_n_17843972170062499.jpg",
      "perceptual_hash": "p:ca5a3ddb25254596",
      "taken": 1443637860,
      "taken_at": "Sep 30, 2015 6:31 pm"
    },
    "millsfield:similar": {
      "google/siglip2-so400m-patch16-naflex": [
        {
          "distance": 0.2023584246635437,
          "id": 1763559651
        },
        {
          "distance": 0.22186219692230225,
          "id": 1729361271
        },
        {
          "distance": 0.22366225719451904,
          "id": 1729361881
        },
        {
          "distance": 0.2248978614807129,
          "id": 1763559651
        },
        {
          "distance": 0.23228740692138672,
          "id": 1729361391
        },
        {
          "distance": 0.23297232389450073,
          "id": 1729357537
        },
        {
          "distance": 0.24334311485290527,
          "id": 1729356037
        },
        {
          "distance": 0.24460333585739136,
          "id": 1880151691
        },
        {
          "distance": 0.25001639127731323,
          "id": 1729361271
        },
        {
          "distance": 0.25013232231140137,
          "id": 1729357041
        }
      ]
    },
    "sfomuseum:placetype": "instagram",
    "src:geom": "sfomuseum",
    "wof:belongsto": [
      1159160869,
      102527513,
      102191575,
      85633793,
      102087579,
      85922583,
      85688637
    ],
    "wof:country": "US",
    "wof:created": 1443637860,
    "wof:geomhash": "b6e33f47475d56bc8da457bc31afadc8",
    "wof:hierarchy": [
      {
        "building_id": 1159160869,
        "campus_id": 102527513,
        "continent_id": 102191575,
        "country_id": 85633793,
        "county_id": 102087579,
        "custom_id": 1729361513,
        "instagram_id": 1729361513,
        "locality_id": 85922583,
        "neighbourhood_id": -1,
        "region_id": 85688637
      }
    ],
    "wof:id": 1729361513,
    "wof:lastmodified": 1787777645,
    "wof:name": "In 1915, for the first time in human history, the general public had access to the crowning achievement of the industrial age—the “aeroplane.” Death defying aviators performed aerial stunts at the 1915 Panama Pacific International Exposition as huge audiences swooned...",
    "wof:parent_id": 1159160869,
    "wof:placetype": "custom",
    "wof:placetype_alt": [
      "instagram"
    ],
    "wof:repo": "sfomuseum-data-socialmedia-instagram",
    "wof:superseded_by": [],
    "wof:supersedes": []
  },
  "bbox": [
    -122.386166,
    37.616356,
    -122.386166,
    37.616356
  ],
  "geometry": {"type":"Point","coordinates":[-122.386166,37.616356]}
}
