{
  "id": 1729362499,
  "type": "Feature",
  "properties": {
    "date:cessation_lower": "2013-10-23",
    "date:cessation_upper": "2013-10-23",
    "date:inception_lower": "2013-10-23",
    "date:inception_upper": "2013-10-23",
    "edtf:cessation": "2013-10-23T02:55:00-07:00",
    "edtf:inception": "2013-10-23T02:55:00-07:00",
    "geom:area": 0,
    "geom:bbox": "-122.386166,37.616356,-122.386166,37.616356",
    "geom:latitude": 37.616356,
    "geom:longitude": -122.386166,
    "instagram:post": {
      "caption": {
        "body": "",
        "excerpt": "",
        "hashtags": [
          "recology"
        ],
        "users": []
      },
      "media_id": "7dad5882ee64b5452d4f80f7daf6f57b",
      "path": "media/other/1170066_177207619147870_469466339_n_17842370251062499.jpg",
      "perceptual_hash": "p:d46b342e931a653b",
      "taken": 1382522100,
      "taken_at": "Oct 23, 2013 9:55 am"
    },
    "millsfield:similar": {
      "google/siglip2-so400m-patch16-naflex": [
        {
          "distance": 0.1411982774734497,
          "id": 1729362775
        },
        {
          "distance": 0.1911892294883728,
          "id": 1729362775
        },
        {
          "distance": 0.3006322383880615,
          "id": 1729355451
        },
        {
          "distance": 0.3171426057815552,
          "id": 1729362571
        },
        {
          "distance": 0.31896817684173584,
          "id": 1729362473
        },
        {
          "distance": 0.32013481855392456,
          "id": 1729355451
        },
        {
          "distance": 0.3277903199195862,
          "id": 1729362737
        },
        {
          "distance": 0.3332759737968445,
          "id": 1729362737
        },
        {
          "distance": 0.334067165851593,
          "id": 1729362477
        },
        {
          "distance": 0.3344690799713135,
          "id": 1729362913
        }
      ]
    },
    "sfomuseum:placetype": "instagram",
    "src:geom": "sfomuseum",
    "wof:belongsto": [
      1159160869,
      102527513,
      102191575,
      85633793,
      102087579,
      85922583,
      85688637
    ],
    "wof:country": "US",
    "wof:created": 1382522100,
    "wof:geomhash": "b6e33f47475d56bc8da457bc31afadc8",
    "wof:hierarchy": [
      {
        "building_id": 1159160869,
        "campus_id": 102527513,
        "continent_id": 102191575,
        "country_id": 85633793,
        "county_id": 102087579,
        "custom_id": 1729362499,
        "instagram_id": 1729362499,
        "locality_id": 85922583,
        "neighbourhood_id": -1,
        "region_id": 85688637
      }
    ],
    "wof:id": 1729362499,
    "wof:lastmodified": 1787777647,
    "wof:name": "..",
    "wof:parent_id": 1159160869,
    "wof:placetype": "custom",
    "wof:placetype_alt": [
      "instagram"
    ],
    "wof:repo": "sfomuseum-data-socialmedia-instagram",
    "wof:superseded_by": [],
    "wof:supersedes": []
  },
  "bbox": [
    -122.386166,
    37.616356,
    -122.386166,
    37.616356
  ],
  "geometry": {"type":"Point","coordinates":[-122.386166,37.616356]}
}
