{
  "id": 1729355667,
  "type": "Feature",
  "properties": {
    "date:cessation_lower": "2020-01-15",
    "date:cessation_upper": "2020-01-15",
    "date:inception_lower": "2020-01-15",
    "date:inception_upper": "2020-01-15",
    "edtf:cessation": "2020-01-15T09:34:00-08:00",
    "edtf:inception": "2020-01-15T09:34:00-08:00",
    "geom:area": 0,
    "geom:bbox": "-122.386166,37.616356,-122.386166,37.616356",
    "geom:latitude": 37.616356,
    "geom:longitude": -122.386166,
    "instagram:post": {
      "caption": {
        "body": "“Light has become more important than anything in the object world. There is no life without light. All matter is some form of radiant energy. It is through the magic of photography that light becomes the subject matter with colors, forms, and space/time relationships that express my deepest feelings and beliefs.” Wynn Bullock (1902-1975)  To create the images in “Color Light Abstractions” photographer Wynn Bullock produced an apparatus that held a number of horizontal sheets of clear glass spaced evenly above one another. Upon these, he would place a series of materials—water, shards of stained glass, brightly colored cellophane. By positioning the camera above and manipulating the materials on each layer of glass below, Bullock could precisely compose each frame to create his light abstractions. The resulting scenes were significant not only in their ability to transport the viewer to evocative worlds consisting solely of light and color. “Color Light Abstractions” by #WynnBullock is on display,  post-security, in Terminal 3. http://bit.ly/2oDnQIr",
        "excerpt": "“Light has become more important than anything in the object world.",
        "hashtags": [
          "photography",
          "WynnBullock",
          "light",
          "color",
          "abstraction",
          "photographer"
        ],
        "users": []
      },
      "media_id": "bafa6a9481561745e833fbde8dbc740c",
      "path": "media/posts/202001/79900253_2243818869243742_3827872924947245331_n_17867328142603562.jpg",
      "perceptual_hash": "p:850f6077057b3d8e",
      "taken": 1579109640,
      "taken_at": "Jan 15, 2020 5:34 pm"
    },
    "millsfield:similar": {
      "google/siglip2-so400m-patch16-naflex": [
        {
          "distance": 0.005596458911895752,
          "id": 1729355883
        },
        {
          "distance": 0.10875570774078369,
          "id": 1729355883
        },
        {
          "distance": 0.15616077184677124,
          "id": 1729355903
        },
        {
          "distance": 0.1584712266921997,
          "id": 1729355677
        },
        {
          "distance": 0.16835790872573853,
          "id": 1729355677
        },
        {
          "distance": 0.17255806922912598,
          "id": 1729355903
        },
        {
          "distance": 0.18078941106796265,
          "id": 1729355663
        },
        {
          "distance": 0.18537557125091553,
          "id": 1729355885
        },
        {
          "distance": 0.19440323114395142,
          "id": 1729355885
        },
        {
          "distance": 0.20052456855773926,
          "id": 1729355663
        }
      ]
    },
    "sfomuseum:placetype": "instagram",
    "src:geom": "sfomuseum",
    "wof:belongsto": [
      1159160869,
      102527513,
      102191575,
      85633793,
      102087579,
      85922583,
      85688637
    ],
    "wof:country": "US",
    "wof:created": 1579109640,
    "wof:geomhash": "b6e33f47475d56bc8da457bc31afadc8",
    "wof:hierarchy": [
      {
        "building_id": 1159160869,
        "campus_id": 102527513,
        "continent_id": 102191575,
        "country_id": 85633793,
        "county_id": 102087579,
        "custom_id": 1729355667,
        "instagram_id": 1729355667,
        "locality_id": 85922583,
        "neighbourhood_id": -1,
        "region_id": 85688637
      }
    ],
    "wof:id": 1729355667,
    "wof:lastmodified": 1787777627,
    "wof:name": "“Light has become more important than anything in the object world...",
    "wof:parent_id": 1159160869,
    "wof:placetype": "custom",
    "wof:placetype_alt": [
      "instagram"
    ],
    "wof:repo": "sfomuseum-data-socialmedia-instagram",
    "wof:superseded_by": [],
    "wof:supersedes": []
  },
  "bbox": [
    -122.386166,
    37.616356,
    -122.386166,
    37.616356
  ],
  "geometry": {"type":"Point","coordinates":[-122.386166,37.616356]}
}
