{
  "id": 1729361381,
  "type": "Feature",
  "properties": {
    "date:cessation_lower": "2015-11-06",
    "date:cessation_upper": "2015-11-06",
    "date:inception_lower": "2015-11-06",
    "date:inception_upper": "2015-11-06",
    "edtf:cessation": "2015-11-06T14:55:00-08:00",
    "edtf:inception": "2015-11-06T14:55:00-08:00",
    "geom:area": 0,
    "geom:bbox": "-122.386166,37.616356,-122.386166,37.616356",
    "geom:latitude": 37.616356,
    "geom:longitude": -122.386166,
    "instagram:post": {
      "caption": {
        "body": "",
        "excerpt": "",
        "hashtags": [
          "sfhistory"
        ],
        "users": []
      },
      "media_id": "4db64590750fed0a56c399eb7f7f0f50",
      "path": "media/other/12224108_188117234861324_1763240831_n_17841898171115664.jpg",
      "perceptual_hash": "p:abed5252847e5709",
      "taken": 1446850500,
      "taken_at": "Nov 06, 2015 10:55 pm"
    },
    "millsfield:similar": {
      "google/siglip2-so400m-patch16-naflex": [
        {
          "distance": 0.1165357232093811,
          "id": 1729357989
        },
        {
          "distance": 0.13672035932540894,
          "id": 1729358177
        },
        {
          "distance": 0.1531861424446106,
          "id": 1729358177
        },
        {
          "distance": 0.18409550189971924,
          "id": 1729355227
        },
        {
          "distance": 0.20029789209365845,
          "id": 1729357125
        },
        {
          "distance": 0.20986568927764893,
          "id": 1880151215
        },
        {
          "distance": 0.2104945182800293,
          "id": 1763558929
        },
        {
          "distance": 0.21172958612442017,
          "id": 1729357989
        },
        {
          "distance": 0.21451330184936523,
          "id": 1729357125
        },
        {
          "distance": 0.23186779022216797,
          "id": 1729359877
        }
      ]
    },
    "sfomuseum:placetype": "instagram",
    "src:geom": "sfomuseum",
    "wof:belongsto": [
      1159160869,
      102527513,
      102191575,
      85633793,
      102087579,
      85922583,
      85688637
    ],
    "wof:country": "US",
    "wof:created": 1446850500,
    "wof:geomhash": "b6e33f47475d56bc8da457bc31afadc8",
    "wof:hierarchy": [
      {
        "building_id": 1159160869,
        "campus_id": 102527513,
        "continent_id": 102191575,
        "country_id": 85633793,
        "county_id": 102087579,
        "custom_id": 1729361381,
        "instagram_id": 1729361381,
        "locality_id": 85922583,
        "neighbourhood_id": -1,
        "region_id": 85688637
      }
    ],
    "wof:id": 1729361381,
    "wof:lastmodified": 1787777645,
    "wof:name": "..",
    "wof:parent_id": 1159160869,
    "wof:placetype": "custom",
    "wof:placetype_alt": [
      "instagram"
    ],
    "wof:repo": "sfomuseum-data-socialmedia-instagram",
    "wof:superseded_by": [],
    "wof:supersedes": []
  },
  "bbox": [
    -122.386166,
    37.616356,
    -122.386166,
    37.616356
  ],
  "geometry": {"type":"Point","coordinates":[-122.386166,37.616356]}
}
