{
  "id": 1729360015,
  "type": "Feature",
  "properties": {
    "date:cessation_lower": "2016-12-13",
    "date:cessation_upper": "2016-12-13",
    "date:inception_lower": "2016-12-13",
    "date:inception_upper": "2016-12-13",
    "edtf:cessation": "2016-12-13T02:02:00-08:00",
    "edtf:inception": "2016-12-13T02:02:00-08:00",
    "geom:area": 0,
    "geom:bbox": "-122.386166,37.616356,-122.386166,37.616356",
    "geom:latitude": 37.616356,
    "geom:longitude": -122.386166,
    "instagram:post": {
      "caption": {
        "body": "Western Air Lines introduced Wally Bird as its mascot in 1955. His name derived from the phrase “Western Air Lines Loves You.” The plump yellow bird with prominent beak reclined against the tail fin of one of Western’s passenger planes while hoisting a glass of champagne and toasting the luxurious treatment provided by Western Air Lines. Wally’s catchphrase “It’s the Ooonly way to fly!” became ingrained in popular culture. Do you remember Wally Bird? #Wally #WesternAirlines #logos #adicons  Wally Bird  c. 1960 Western Air Lines  Courtesy of the Warren Dotz Collection L2014.0601.009",
        "excerpt": "Western Air Lines introduced Wally Bird as its mascot in 1955.",
        "hashtags": [],
        "users": []
      },
      "media_id": "45f96a549c3f80f54d5812dca5c7ae10",
      "path": "media/posts/201612/15306105_831087600328252_3870583802275299328_n_17855616856091127.jpg",
      "perceptual_hash": "p:c513103c1e6fcb73",
      "taken": 1481623320,
      "taken_at": "Dec 13, 2016 10:02 am"
    },
    "millsfield:similar": {
      "google/siglip2-so400m-patch16-naflex": [
        {
          "distance": 0.4069446921348572,
          "id": 1947424883
        },
        {
          "distance": 0.439150333404541,
          "id": 1729362445
        },
        {
          "distance": 0.45485156774520874,
          "id": 1729356949
        },
        {
          "distance": 0.4679502248764038,
          "id": 1947424883
        },
        {
          "distance": 0.48413753509521484,
          "id": 1729360697
        },
        {
          "distance": 0.4865974187850952,
          "id": 1729358097
        },
        {
          "distance": 0.4876089096069336,
          "id": 1729362479
        },
        {
          "distance": 0.48949766159057617,
          "id": 1729360699
        },
        {
          "distance": 0.490056574344635,
          "id": 1729361973
        },
        {
          "distance": 0.4949691891670227,
          "id": 1729362655
        }
      ]
    },
    "sfomuseum:placetype": "instagram",
    "src:geom": "sfomuseum",
    "wof:belongsto": [
      1159160869,
      102527513,
      102191575,
      85633793,
      102087579,
      85922583,
      85688637
    ],
    "wof:country": "US",
    "wof:created": 1481623320,
    "wof:geomhash": "b6e33f47475d56bc8da457bc31afadc8",
    "wof:hierarchy": [
      {
        "building_id": 1159160869,
        "campus_id": 102527513,
        "continent_id": 102191575,
        "country_id": 85633793,
        "county_id": 102087579,
        "custom_id": 1729360015,
        "instagram_id": 1729360015,
        "locality_id": 85922583,
        "neighbourhood_id": -1,
        "region_id": 85688637
      }
    ],
    "wof:id": 1729360015,
    "wof:lastmodified": 1787777638,
    "wof:name": "Western Air Lines introduced Wally Bird as its mascot in 1955...",
    "wof:parent_id": 1159160869,
    "wof:placetype": "custom",
    "wof:placetype_alt": [
      "instagram"
    ],
    "wof:repo": "sfomuseum-data-socialmedia-instagram",
    "wof:superseded_by": [],
    "wof:supersedes": []
  },
  "bbox": [
    -122.386166,
    37.616356,
    -122.386166,
    37.616356
  ],
  "geometry": {"type":"Point","coordinates":[-122.386166,37.616356]}
}
