{
  "id": 1729359785,
  "type": "Feature",
  "properties": {
    "date:cessation_lower": "2017-03-01",
    "date:cessation_upper": "2017-03-01",
    "date:inception_lower": "2017-03-01",
    "date:inception_upper": "2017-03-01",
    "edtf:cessation": "2017-03-01T11:01:00-08:00",
    "edtf:inception": "2017-03-01T11:01:00-08:00",
    "geom:area": 0,
    "geom:bbox": "-122.386166,37.616356,-122.386166,37.616356",
    "geom:latitude": 37.616356,
    "geom:longitude": -122.386166,
    "instagram:post": {
      "caption": {
        "body": "Born in Bergamo, Italy in 1606, painter Viviano Codazzi reached Naples by the 1620s, where he demonstrated remarkable skill with \"quadratura\"—architectural perspective. Codazzi pursued an illusionistic realism, employing his skills of perspective, architectural rendering, and strong lighting to create a picture of a very real place, even if the viewpoint was impossible and the details inaccurate. Codazzi’s body of work largely consists of medium-size architectural paintings. This large, impressive picture of the Colosseum is characteristic of the painter’s mature work of the 1650s. The highly realized figure group is by Michelangelo Cerquozzi (1602–60), with whom Codazzi collaborated on many pictures.",
        "excerpt": "Born in Bergamo, Italy in 1606, painter Viviano Codazzi reached Naples by the 1620s, where he demonstrated remarkable skill with \"quadratura\"—architectural perspective.",
        "hashtags": [
          "Rome:",
          "Piraneseum\",",
          "AllRoadsRome",
          "GrandTour",
          "Italy",
          "travel"
        ],
        "users": []
      },
      "media_id": "624ff6cf5df946bb33b71067876f22c7",
      "path": "media/posts/201703/16908419_1825685314360281_8191338872194465792_n_17860954375091212.jpg",
      "perceptual_hash": "p:92d26d3c33c9c596",
      "taken": 1488394860,
      "taken_at": "Mar 01, 2017 7:01 pm"
    },
    "millsfield:similar": {
      "google/siglip2-so400m-patch16-naflex": [
        {
          "distance": 0.19218933582305908,
          "id": 1729359449
        },
        {
          "distance": 0.24032437801361084,
          "id": 1729359449
        },
        {
          "distance": 0.24269956350326538,
          "id": 1729359347
        },
        {
          "distance": 0.2750587463378906,
          "id": 1729359469
        },
        {
          "distance": 0.2809355854988098,
          "id": 1729359347
        },
        {
          "distance": 0.3208404779434204,
          "id": 1729359469
        },
        {
          "distance": 0.39579659700393677,
          "id": 1729359871
        },
        {
          "distance": 0.39627015590667725,
          "id": 1729360183
        },
        {
          "distance": 0.3979785442352295,
          "id": 1729360173
        },
        {
          "distance": 0.3989713788032532,
          "id": 1729359331
        }
      ]
    },
    "sfomuseum:placetype": "instagram",
    "src:geom": "sfomuseum",
    "wof:belongsto": [
      1159160869,
      102527513,
      102191575,
      85633793,
      102087579,
      85922583,
      85688637
    ],
    "wof:country": "US",
    "wof:created": 1488394860,
    "wof:geomhash": "b6e33f47475d56bc8da457bc31afadc8",
    "wof:hierarchy": [
      {
        "building_id": 1159160869,
        "campus_id": 102527513,
        "continent_id": 102191575,
        "country_id": 85633793,
        "county_id": 102087579,
        "custom_id": 1729359785,
        "instagram_id": 1729359785,
        "locality_id": 85922583,
        "neighbourhood_id": -1,
        "region_id": 85688637
      }
    ],
    "wof:id": 1729359785,
    "wof:lastmodified": 1787777636,
    "wof:name": "Born in Bergamo, Italy in 1606, painter Viviano Codazzi reached Naples by the 1620s, where he demonstrated remarkable skill with \"quadratura\"—architectural perspective...",
    "wof:parent_id": 1159160869,
    "wof:placetype": "custom",
    "wof:placetype_alt": [
      "instagram"
    ],
    "wof:repo": "sfomuseum-data-socialmedia-instagram",
    "wof:superseded_by": [],
    "wof:supersedes": []
  },
  "bbox": [
    -122.386166,
    37.616356,
    -122.386166,
    37.616356
  ],
  "geometry": {"type":"Point","coordinates":[-122.386166,37.616356]}
}
