{
  "id": 1729360839,
  "type": "Feature",
  "properties": {
    "date:cessation_lower": "2016-04-12",
    "date:cessation_upper": "2016-04-12",
    "date:inception_lower": "2016-04-12",
    "date:inception_upper": "2016-04-12",
    "edtf:cessation": "2016-04-12T12:44:00-07:00",
    "edtf:inception": "2016-04-12T12:44:00-07:00",
    "geom:area": 0,
    "geom:bbox": "-122.386166,37.616356,-122.386166,37.616356",
    "geom:latitude": 37.616356,
    "geom:longitude": -122.386166,
    "instagram:post": {
      "caption": {
        "body": "",
        "excerpt": "",
        "hashtags": [
          "TravelTuesday"
        ],
        "users": []
      },
      "media_id": "069dde5ea709827782327c5207a8c650",
      "path": "media/other/12501523_813915592086209_870391977_n_17846605873081734.jpg",
      "perceptual_hash": "p:acd8c5b2cd619339",
      "taken": 1460490240,
      "taken_at": "Apr 12, 2016 7:44 pm"
    },
    "millsfield:similar": {
      "google/siglip2-so400m-patch16-naflex": [
        {
          "distance": 0.260170578956604,
          "id": 1763559353
        },
        {
          "distance": 0.27072328329086304,
          "id": 1729356257
        },
        {
          "distance": 0.31182318925857544,
          "id": 1729356257
        },
        {
          "distance": 0.32974714040756226,
          "id": 1763559353
        },
        {
          "distance": 0.33318471908569336,
          "id": 1729355329
        },
        {
          "distance": 0.3689523935317993,
          "id": 1729361531
        },
        {
          "distance": 0.3692399859428406,
          "id": 1729355329
        },
        {
          "distance": 0.3772152066230774,
          "id": 1947424877
        },
        {
          "distance": 0.3842768669128418,
          "id": 1729360489
        },
        {
          "distance": 0.38446295261383057,
          "id": 1729360883
        }
      ]
    },
    "sfomuseum:placetype": "instagram",
    "src:geom": "sfomuseum",
    "wof:belongsto": [
      1159160869,
      102527513,
      102191575,
      85633793,
      102087579,
      85922583,
      85688637
    ],
    "wof:country": "US",
    "wof:created": 1460490240,
    "wof:geomhash": "b6e33f47475d56bc8da457bc31afadc8",
    "wof:hierarchy": [
      {
        "building_id": 1159160869,
        "campus_id": 102527513,
        "continent_id": 102191575,
        "country_id": 85633793,
        "county_id": 102087579,
        "custom_id": 1729360839,
        "instagram_id": 1729360839,
        "locality_id": 85922583,
        "neighbourhood_id": -1,
        "region_id": 85688637
      }
    ],
    "wof:id": 1729360839,
    "wof:lastmodified": 1787777640,
    "wof:name": "..",
    "wof:parent_id": 1159160869,
    "wof:placetype": "custom",
    "wof:placetype_alt": [
      "instagram"
    ],
    "wof:repo": "sfomuseum-data-socialmedia-instagram",
    "wof:superseded_by": [],
    "wof:supersedes": []
  },
  "bbox": [
    -122.386166,
    37.616356,
    -122.386166,
    37.616356
  ],
  "geometry": {"type":"Point","coordinates":[-122.386166,37.616356]}
}
