{
  "id": 1729358133,
  "type": "Feature",
  "properties": {
    "date:cessation_lower": "2018-06-08",
    "date:cessation_upper": "2018-06-08",
    "date:inception_lower": "2018-06-08",
    "date:inception_upper": "2018-06-08",
    "edtf:cessation": "2018-06-08T11:31:00-07:00",
    "edtf:inception": "2018-06-08T11:31:00-07:00",
    "geom:area": 0,
    "geom:bbox": "-122.386166,37.616356,-122.386166,37.616356",
    "geom:latitude": 37.616356,
    "geom:longitude": -122.386166,
    "instagram:post": {
      "caption": {
        "body": "Airlines discovered early that providing children with jobs, albeit pretend ones, was a way to make them feel useful and keep them from getting bored on long flights. Similar to having children help at home, carriers enlisted child participation in the flight by making them part of a junior flight crew, while also encouraging them to imagine a possible future career in commercial aviation. Beginning in the late 1940s, this included issuing junior pilot and flight attendant wings. Do you have any junior pilot or flight attendant wings?  Image: Pan American World Airways children's souvenir wings, c. 1960. SFO Museum Collection. 1995.43.04 i - United Air Lines, Future Flight Attendant children's souvenir wings, 1970s. Gift of Thomas G. Dragges. 2000.098.025-1",
        "excerpt": "Airlines discovered early that providing children with jobs, albeit pretend ones, was a way to make them feel useful and keep them from getting bored on long flights.",
        "hashtags": [
          "avgeek",
          "avationgeek",
          "aviation",
          "aviationhistory",
          "vintageaviation",
          "history",
          "avhistory",
          "aviationgeeks",
          "avgeeks"
        ],
        "users": []
      },
      "media_id": "f81a39f536acc34d157c4b0409f8ac55",
      "path": "media/posts/201806/33019936_533171300418258_5277374982593183744_n_17936826481115295.jpg",
      "perceptual_hash": "p:e6e6999965619616",
      "taken": 1528482660,
      "taken_at": "Jun 08, 2018 6:31 pm"
    },
    "millsfield:similar": {
      "google/siglip2-so400m-patch16-naflex": [
        {
          "distance": 0.11621910333633423,
          "id": 1729361309
        },
        {
          "distance": 0.17906445264816284,
          "id": 1729361309
        },
        {
          "distance": 0.1879555583000183,
          "id": 1729357357
        },
        {
          "distance": 0.19871068000793457,
          "id": 1729357363
        },
        {
          "distance": 0.2084638476371765,
          "id": 1729358139
        },
        {
          "distance": 0.21341866254806519,
          "id": 1729358139
        },
        {
          "distance": 0.21479153633117676,
          "id": 1729357381
        },
        {
          "distance": 0.23676669597625732,
          "id": 1729357357
        },
        {
          "distance": 0.24383693933486938,
          "id": 1729357955
        },
        {
          "distance": 0.2474600076675415,
          "id": 1880151505
        }
      ]
    },
    "sfomuseum:placetype": "instagram",
    "src:geom": "sfomuseum",
    "wof:belongsto": [
      1159160869,
      102527513,
      102191575,
      85633793,
      102087579,
      85922583,
      85688637
    ],
    "wof:country": "US",
    "wof:created": 1528482660,
    "wof:geomhash": "b6e33f47475d56bc8da457bc31afadc8",
    "wof:hierarchy": [
      {
        "building_id": 1159160869,
        "campus_id": 102527513,
        "continent_id": 102191575,
        "country_id": 85633793,
        "county_id": 102087579,
        "custom_id": 1729358133,
        "instagram_id": 1729358133,
        "locality_id": 85922583,
        "neighbourhood_id": -1,
        "region_id": 85688637
      }
    ],
    "wof:id": 1729358133,
    "wof:lastmodified": 1787777632,
    "wof:name": "Airlines discovered early that providing children with jobs, albeit pretend ones, was a way to make them feel useful and keep them from getting bored on long flights...",
    "wof:parent_id": 1159160869,
    "wof:placetype": "custom",
    "wof:placetype_alt": [
      "instagram"
    ],
    "wof:repo": "sfomuseum-data-socialmedia-instagram",
    "wof:superseded_by": [],
    "wof:supersedes": []
  },
  "bbox": [
    -122.386166,
    37.616356,
    -122.386166,
    37.616356
  ],
  "geometry": {"type":"Point","coordinates":[-122.386166,37.616356]}
}
