{
  "id": 1729359113,
  "type": "Feature",
  "properties": {
    "date:cessation_lower": "2017-09-06",
    "date:cessation_upper": "2017-09-06",
    "date:inception_lower": "2017-09-06",
    "date:inception_upper": "2017-09-06",
    "edtf:cessation": "2017-09-06T06:43:00-07:00",
    "edtf:inception": "2017-09-06T06:43:00-07:00",
    "geom:area": 0,
    "geom:bbox": "-122.386166,37.616356,-122.386166,37.616356",
    "geom:latitude": 37.616356,
    "geom:longitude": -122.386166,
    "instagram:post": {
      "caption": {
        "body": "Parisian by birth, Hollywood costumer Jean Louis (1907–1997) designed for hundreds of leading ladies, including a famous strapless gown worn by Rita Hayworth in “Gilda.” A frequent nominee and Oscar-winner, Louis had a long engagement with United Airlines and created this uniform for the airline’s 4,500 stewardesses. Worn from 1968 to 1970, the all-season outfit came in Hawaiian Sunset and Maliblue with a Miami Sands stripe. Two optional dresses were also made in Miami Sands with a Hawaiian Sunset or Maliblue stripe, along with a tri-color “jet-a-long” version worn only in flight. \"#FashionInFlight: A History of Airline Uniform Design\" is on display, pre-security, in the Aviation Museum until September 10th. http://bit.ly/FashionInFlight1",
        "excerpt": "Parisian by birth, Hollywood costumer Jean Louis (1907–1997) designed for hundreds of leading ladies, including a famous strapless gown worn by Rita Hayworth in “Gilda.” A frequent nominee and Oscar-winner, Louis had a long engagement with United Airlines and created this uniform for the airline’s 4,500 stewardesses.",
        "hashtags": [
          "FashioninFlight",
          "WomenInAviation",
          "Avgeek",
          "aviationhistory",
          "crewlife",
          "paxex",
          "FlightAttendant",
          "cabincrew",
          "FA",
          "fashion",
          "hostesses",
          "FlightAttendantlife",
          "Flightcrew",
          "uniform",
          "aviationgeek",
          "fashionHistory",
          "aviation",
          "falife",
          "stewardess"
        ],
        "users": []
      },
      "media_id": "1319dcd63c0d2eb1385018aafc91a209",
      "path": "media/posts/201709/21372367_1745529482410711_4078906646892380160_n_17897569477023546.jpg",
      "perceptual_hash": "p:f6d1d9ec47031334",
      "taken": 1504705380,
      "taken_at": "Sep 06, 2017 1:43 pm"
    },
    "millsfield:similar": {
      "google/siglip2-so400m-patch16-naflex": [
        {
          "distance": 0.038929104804992676,
          "id": 1729359743
        },
        {
          "distance": 0.07329201698303223,
          "id": 1729359743
        },
        {
          "distance": 0.12112802267074585,
          "id": 1729360551
        },
        {
          "distance": 0.12991034984588623,
          "id": 1729358221
        },
        {
          "distance": 0.13957637548446655,
          "id": 1729360365
        },
        {
          "distance": 0.15404802560806274,
          "id": 1729360211
        },
        {
          "distance": 0.15523821115493774,
          "id": 1729360261
        },
        {
          "distance": 0.1559809446334839,
          "id": 1729360253
        },
        {
          "distance": 0.1579301953315735,
          "id": 1729360261
        },
        {
          "distance": 0.16277563571929932,
          "id": 1729360551
        }
      ]
    },
    "sfomuseum:placetype": "instagram",
    "src:geom": "sfomuseum",
    "wof:belongsto": [
      1159160869,
      102527513,
      102191575,
      85633793,
      102087579,
      85922583,
      85688637
    ],
    "wof:country": "US",
    "wof:created": 1504705380,
    "wof:geomhash": "b6e33f47475d56bc8da457bc31afadc8",
    "wof:hierarchy": [
      {
        "building_id": 1159160869,
        "campus_id": 102527513,
        "continent_id": 102191575,
        "country_id": 85633793,
        "county_id": 102087579,
        "custom_id": 1729359113,
        "instagram_id": 1729359113,
        "locality_id": 85922583,
        "neighbourhood_id": -1,
        "region_id": 85688637
      }
    ],
    "wof:id": 1729359113,
    "wof:lastmodified": 1787777635,
    "wof:name": "Parisian by birth, Hollywood costumer Jean Louis (1907–1997) designed for hundreds of leading ladies, including a famous strapless gown worn by Rita Hayworth in “Gilda.” A frequent nominee and Oscar-winner, Louis had a long engagement with United Airlines and created this uniform for the airline’s 4,500 stewardesses...",
    "wof:parent_id": 1159160869,
    "wof:placetype": "custom",
    "wof:placetype_alt": [
      "instagram"
    ],
    "wof:repo": "sfomuseum-data-socialmedia-instagram",
    "wof:superseded_by": [],
    "wof:supersedes": []
  },
  "bbox": [
    -122.386166,
    37.616356,
    -122.386166,
    37.616356
  ],
  "geometry": {"type":"Point","coordinates":[-122.386166,37.616356]}
}
