{
  "id": 1947424881,
  "type": "Feature",
  "properties": {
    "date:cessation_lower": "2024-09-03",
    "date:cessation_upper": "2024-09-03",
    "date:inception_lower": "2024-09-03",
    "date:inception_upper": "2024-09-03",
    "edtf:cessation": "2024-09-03T08:28:00-07:00",
    "edtf:inception": "2024-09-03T08:28:00-07:00",
    "geom:area": 0,
    "geom:bbox": "-122.386166,37.616356,-122.386166,37.616356",
    "geom:latitude": 37.616356,
    "geom:longitude": -122.386166,
    "instagram:post": {
      "caption": {
        "body": "Born in Australia in 1929, Harry Rogers was a poster artist and graphic designer for Qantas from the late 1950s through the ‘80s. He designed the Qantas logo-font in the mid-1960s and created numerous travel posters for the airline from the 1950s to the ’70s. For each poster series, Rogers conceived a distinct style using different illustration techniques. These included cut paper and collage, animal portraits, watercolor illustrations, and oil paintings on glass. He served as director for the Qantas inflight and staff magazines from 1976 to 1984 and designed safety brochures and oversaw Qantas branding from 1970 to 1984.   See \"Artists of the Airways: Airline Travel Posters from the SFO Museum Collection\" on display in the Aviation Museum and Library. The Aviation Museum and Library is located pre-security, in the International Terminal. https://bit.ly/AirwaysArtists  📸: 1. Qantas Empire Airways Japan travel poster c. 1956 Harry Rogers paper, ink Collection of SFO Museum Gift of Thomas G. Dragges 2015.109.070 R2024.0601.014  2. postcard: Qantas Airways, Boeing 707; c. 1965 Gift of Catherine J. Allen Paulsen 1997.04.03",
        "excerpt": "Born in Australia in 1929, Harry Rogers was a poster artist and graphic designer for Qantas from the late 1950s through the ‘80s.",
        "hashtags": [
          "AirwaysArtists",
          "AvGeek"
        ],
        "users": []
      },
      "media_id": "e628e59da201ffe6f3bcb09db7ebd9e1a829c9b5",
      "path": "media/posts/202409/458086531_1020275696776026_5822370971191764850_n_17868991317123620.jpg",
      "perceptual_hash": "p:8334ec4b9b65c59c",
      "taken": 1725377280,
      "taken_at": "Sep 03, 2024 3:28 pm"
    },
    "millsfield:similar": {
      "google/siglip2-so400m-patch16-naflex": [
        {
          "distance": 0.23434996604919434,
          "id": 1947424845
        },
        {
          "distance": 0.23434996604919434,
          "id": 1947424837
        },
        {
          "distance": 0.24725258350372314,
          "id": 1947424943
        },
        {
          "distance": 0.2543482184410095,
          "id": 1880151439
        },
        {
          "distance": 0.2544861435890198,
          "id": 1729357337
        },
        {
          "distance": 0.2562374472618103,
          "id": 1947425027
        },
        {
          "distance": 0.2562374472618103,
          "id": 1947425009
        },
        {
          "distance": 0.2590867877006531,
          "id": 1729357405
        },
        {
          "distance": 0.26249557733535767,
          "id": 1729356835
        },
        {
          "distance": 0.2646976113319397,
          "id": 1947425017
        }
      ]
    },
    "sfomuseum:placetype": "instagram",
    "src:geom": "sfomuseum",
    "wof:belongsto": [
      1159160869,
      102527513,
      102191575,
      85633793,
      102087579,
      85922583,
      85688637
    ],
    "wof:country": "US",
    "wof:created": 1725377280,
    "wof:geomhash": "b6e33f47475d56bc8da457bc31afadc8",
    "wof:hierarchy": [
      {
        "building_id": 1159160869,
        "campus_id": 102527513,
        "continent_id": 102191575,
        "country_id": 85633793,
        "county_id": 102087579,
        "custom_id": 1947424881,
        "locality_id": 85922583,
        "neighbourhood_id": -1,
        "region_id": 85688637
      }
    ],
    "wof:id": 1947424881,
    "wof:lastmodified": 1787777664,
    "wof:name": "Born in Australia in 1929, Harry Rogers was a poster artist and graphic designer for Qantas from the late 1950s through the ‘80s...",
    "wof:parent_id": 1159160869,
    "wof:placetype": "custom",
    "wof:repo": "sfomuseum-data-socialmedia-instagram",
    "wof:superseded_by": [],
    "wof:supersedes": []
  },
  "bbox": [
    -122.386166,
    37.616356,
    -122.386166,
    37.616356
  ],
  "geometry": {"type":"Point","coordinates":[-122.386166,37.616356]}
}
