{
  "id": 1763558957,
  "type": "Feature",
  "properties": {
    "date:cessation_lower": "2020-12-18",
    "date:cessation_upper": "2020-12-18",
    "date:inception_lower": "2020-12-18",
    "date:inception_upper": "2020-12-18",
    "edtf:cessation": "2020-12-18T09:24:00-08:00",
    "edtf:inception": "2020-12-18T09:24:00-08:00",
    "geom:area": 0,
    "geom:bbox": "-122.386166,37.616356,-122.386166,37.616356",
    "geom:latitude": 37.616356,
    "geom:longitude": -122.386166,
    "instagram:post": {
      "caption": {
        "body": "#Onthisday in 2017, Delta Air Lines’ last 747 took its final scheduled international flight from Seoul, South Korea, to Detroit. Though originally scheduled December 17th, the flight was rescheduled. Did you ever fly on a Delta Boeing 747?  Image: Delta Air Lines postcard, Boeing 747, c. 1970. Gift of Thomas G. Dragges. 2015.166.0620",
        "excerpt": "#Onthisday in 2017, Delta Air Lines’ last 747 took its final scheduled international flight from Seoul, South Korea, to Detroit.",
        "hashtags": [
          "avgeek",
          "MuseumFromHome",
          "Delta",
          "747"
        ],
        "users": []
      },
      "media_id": "b56db845ed41cd397f14b90885dd19af32cf1054",
      "path": "media/other/131659023_399817544589721_8037371262705927398_n_17867087237156674.jpg",
      "perceptual_hash": "p:dc0de50ecc951778",
      "taken": 1608312240,
      "taken_at": "Dec 18, 2020 5:24 pm"
    },
    "millsfield:similar": {
      "google/siglip2-so400m-patch16-naflex": [
        {
          "distance": 0.11774015426635742,
          "id": 1763559461
        },
        {
          "distance": 0.12062418460845947,
          "id": 1729358921
        },
        {
          "distance": 0.13416433334350586,
          "id": 1729358929
        },
        {
          "distance": 0.13581866025924683,
          "id": 1729360117
        },
        {
          "distance": 0.13946747779846191,
          "id": 1729357689
        },
        {
          "distance": 0.14144837856292725,
          "id": 1729355649
        },
        {
          "distance": 0.14191502332687378,
          "id": 1763559461
        },
        {
          "distance": 0.14445710182189941,
          "id": 1729358663
        },
        {
          "distance": 0.14571356773376465,
          "id": 1729360045
        },
        {
          "distance": 0.14678573608398438,
          "id": 1729358563
        }
      ]
    },
    "sfomuseum:placetype": "instagram",
    "src:geom": "sfomuseum",
    "wof:belongsto": [
      1159160869,
      102527513,
      102191575,
      85633793,
      102087579,
      85922583,
      85688637
    ],
    "wof:country": "US",
    "wof:created": 1608312240,
    "wof:geomhash": "b6e33f47475d56bc8da457bc31afadc8",
    "wof:hierarchy": [
      {
        "building_id": 1159160869,
        "campus_id": 102527513,
        "continent_id": 102191575,
        "country_id": 85633793,
        "county_id": 102087579,
        "custom_id": 1763558957,
        "instagram_id": 1763558957,
        "locality_id": 85922583,
        "neighbourhood_id": -1,
        "region_id": 85688637
      }
    ],
    "wof:id": 1763558957,
    "wof:lastmodified": 1787777660,
    "wof:name": "#Onthisday in 2017, Delta Air Lines’ last 747 took its final scheduled international flight from Seoul, South Korea, to Detroit...",
    "wof:parent_id": 1159160869,
    "wof:placetype": "custom",
    "wof:placetype_alt": [
      "instagram"
    ],
    "wof:repo": "sfomuseum-data-socialmedia-instagram",
    "wof:superseded_by": [],
    "wof:supersedes": []
  },
  "bbox": [
    -122.386166,
    37.616356,
    -122.386166,
    37.616356
  ],
  "geometry": {"type":"Point","coordinates":[-122.386166,37.616356]}
}
