{
  "id": 1729356665,
  "type": "Feature",
  "properties": {
    "date:cessation_lower": "2019-04-12",
    "date:cessation_upper": "2019-04-12",
    "date:inception_lower": "2019-04-12",
    "date:inception_upper": "2019-04-12",
    "edtf:cessation": "2019-04-12T11:48:43-07:00",
    "edtf:inception": "2019-04-12T11:48:43-07:00",
    "geom:area": 0,
    "geom:bbox": "-122.386166,37.616356,-122.386166,37.616356",
    "geom:latitude": 37.616356,
    "geom:longitude": -122.386166,
    "instagram:post": {
      "caption": {
        "body": "Initially trained as a painter, Miriam Hanid was introduced to silversmithing while studying mixed-media art at the University for the Creative Arts at Farnham in South East England. Hanid takes an artistic, painterly approach to silver, incorporating chasing, engraving, and repoussé to add detail to her sculptural forms. In 2011, the artist hand-raised and chased her Winding Ways vase from a single, rectangular sheet of silver. Her surface decoration is inspired by the momentary pattern of flowing water and its “subtle yet powerful ability to shape the landscape.” Special thanks to The Pearson Silver Collection. \"A Sterling Renaissance: British Silver Design 1957 to 2018\" is on display, pre-security, in the International Terminal. http://bit.ly/BritishSilver",
        "excerpt": "Initially trained as a painter, Miriam Hanid was introduced to silversmithing while studying mixed-media art at the University for the Creative Arts at Farnham in South East England.",
        "hashtags": [
          "BritishSilver",
          "silver",
          "sterling",
          "sterlingsilver",
          "silverdesign",
          "silversmith",
          "silversmithing",
          "vase",
          "handmade"
        ],
        "users": [
          "miriamhanid"
        ]
      },
      "location": "",
      "media_id": "498e3602a40570a2eadb639569d958b0",
      "path": "photos/201904/498e3602a40570a2eadb639569d958b0.jpg",
      "perceptual_hash": "p:9615545b4ae319af",
      "taken": 1555066080,
      "taken_at": "Apr 12, 2019, 10:48 AM"
    },
    "millsfield:similar": {
      "google/siglip2-so400m-patch16-naflex": [
        {
          "distance": 0.15881115198135376,
          "id": 1729357253
        },
        {
          "distance": 0.17867469787597656,
          "id": 1729356775
        },
        {
          "distance": 0.201224684715271,
          "id": 1729362423
        },
        {
          "distance": 0.22805410623550415,
          "id": 1729356659
        },
        {
          "distance": 0.2418268918991089,
          "id": 1729356981
        },
        {
          "distance": 0.24234014749526978,
          "id": 1729357441
        },
        {
          "distance": 0.24420815706253052,
          "id": 1729356725
        },
        {
          "distance": 0.25200897455215454,
          "id": 1729357093
        },
        {
          "distance": 0.2662196159362793,
          "id": 1729356767
        },
        {
          "distance": 0.26710641384124756,
          "id": 1729357441
        }
      ]
    },
    "sfomuseum:placetype": "instagram",
    "src:geom": "sfomuseum",
    "wof:belongsto": [
      1159160869,
      102527513,
      102191575,
      85633793,
      102087579,
      85922583,
      85688637
    ],
    "wof:country": "US",
    "wof:created": 1555094923,
    "wof:geomhash": "b6e33f47475d56bc8da457bc31afadc8",
    "wof:hierarchy": [
      {
        "building_id": 1159160869,
        "campus_id": 102527513,
        "continent_id": 102191575,
        "country_id": 85633793,
        "county_id": 102087579,
        "custom_id": 1729356665,
        "instagram_id": 1729356665,
        "locality_id": 85922583,
        "neighbourhood_id": -1,
        "region_id": 85688637
      }
    ],
    "wof:id": 1729356665,
    "wof:lastmodified": 1787777629,
    "wof:name": "Initially trained as a painter, Miriam Hanid was introduced to silversmithing while studying mixed-media art at the University for the Creative Arts at Farnham in South East England...",
    "wof:parent_id": 1159160869,
    "wof:placetype": "custom",
    "wof:placetype_alt": [
      "instagram"
    ],
    "wof:repo": "sfomuseum-data-socialmedia-instagram",
    "wof:superseded_by": [],
    "wof:supersedes": []
  },
  "bbox": [
    -122.386166,
    37.616356,
    -122.386166,
    37.616356
  ],
  "geometry": {"type":"Point","coordinates":[-122.386166,37.616356]}
}
