{
  "id": 1729362851,
  "type": "Feature",
  "properties": {
    "date:cessation_lower": "2012-11-02",
    "date:cessation_upper": "2012-11-02",
    "date:inception_lower": "2012-11-02",
    "date:inception_upper": "2012-11-02",
    "edtf:cessation": "2012-11-02T02:05:00-07:00",
    "edtf:inception": "2012-11-02T02:05:00-07:00",
    "geom:area": 0,
    "geom:bbox": "-122.386166,37.616356,-122.386166,37.616356",
    "geom:latitude": 37.616356,
    "geom:longitude": -122.386166,
    "instagram:post": {
      "caption": {
        "body": "Things you notice only from a boom lift: the floor under Janet Echelman's T2 artwork echoes the shape of the netting above.",
        "excerpt": "Things you notice only from a boom lift: the floor under Janet Echelman's T2 artwork echoes the shape of the netting above.",
        "hashtags": [],
        "users": []
      },
      "media_id": "1b230d332f33b814bf4bb6e5a5e51d69",
      "path": "media/other/11208040_1576502685962131_379160954_n_17842278754062499.jpg",
      "perceptual_hash": "p:d52332c52e586f8d",
      "taken": 1351847100,
      "taken_at": "Nov 02, 2012 9:05 am"
    },
    "millsfield:similar": {
      "google/siglip2-so400m-patch16-naflex": [
        {
          "distance": 0.20057618618011475,
          "id": 1729362273
        },
        {
          "distance": 0.24626529216766357,
          "id": 1729361661
        },
        {
          "distance": 0.25374215841293335,
          "id": 1729362273
        },
        {
          "distance": 0.2886103391647339,
          "id": 1729362995
        },
        {
          "distance": 0.3132254481315613,
          "id": 1729361661
        },
        {
          "distance": 0.3317446708679199,
          "id": 1729362435
        },
        {
          "distance": 0.33988404273986816,
          "id": 1729362585
        },
        {
          "distance": 0.34704333543777466,
          "id": 1729362773
        },
        {
          "distance": 0.3555462956428528,
          "id": 1880151031
        },
        {
          "distance": 0.36074233055114746,
          "id": 1729361937
        }
      ]
    },
    "sfomuseum:placetype": "instagram",
    "src:geom": "sfomuseum",
    "wof:belongsto": [
      1159160869,
      102527513,
      102191575,
      85633793,
      102087579,
      85922583,
      85688637
    ],
    "wof:country": "US",
    "wof:created": 1351847100,
    "wof:geomhash": "b6e33f47475d56bc8da457bc31afadc8",
    "wof:hierarchy": [
      {
        "building_id": 1159160869,
        "campus_id": 102527513,
        "continent_id": 102191575,
        "country_id": 85633793,
        "county_id": 102087579,
        "custom_id": 1729362851,
        "instagram_id": 1729362851,
        "locality_id": 85922583,
        "neighbourhood_id": -1,
        "region_id": 85688637
      }
    ],
    "wof:id": 1729362851,
    "wof:lastmodified": 1787777654,
    "wof:name": "Things you notice only from a boom lift: the floor under Janet Echelman's T2 artwork echoes the shape of the netting above...",
    "wof:parent_id": 1159160869,
    "wof:placetype": "custom",
    "wof:placetype_alt": [
      "instagram"
    ],
    "wof:repo": "sfomuseum-data-socialmedia-instagram",
    "wof:superseded_by": [],
    "wof:supersedes": []
  },
  "bbox": [
    -122.386166,
    37.616356,
    -122.386166,
    37.616356
  ],
  "geometry": {"type":"Point","coordinates":[-122.386166,37.616356]}
}
