{
  "id": 1729360167,
  "type": "Feature",
  "properties": {
    "date:cessation_lower": "2016-11-01",
    "date:cessation_upper": "2016-11-01",
    "date:inception_lower": "2016-11-01",
    "date:inception_upper": "2016-11-01",
    "edtf:cessation": "2016-11-01T10:09:00-07:00",
    "edtf:inception": "2016-11-01T10:09:00-07:00",
    "geom:area": 0,
    "geom:bbox": "-122.386166,37.616356,-122.386166,37.616356",
    "geom:latitude": 37.616356,
    "geom:longitude": -122.386166,
    "instagram:post": {
      "caption": {
        "body": "",
        "excerpt": "",
        "hashtags": [
          "travelTuesday",
          "panam",
          "aviationhistory",
          "crewlife"
        ],
        "users": []
      },
      "media_id": "5696e7a4df546cda73c00b1614a7a052",
      "path": "media/posts/201611/14727442_625411630953928_5738892192328450048_n_17853848248082851.jpg",
      "perceptual_hash": "p:81cdaf6958b4c91d",
      "taken": 1478020140,
      "taken_at": "Nov 01, 2016 5:09 pm"
    },
    "millsfield:similar": {
      "google/siglip2-so400m-patch16-naflex": [
        {
          "distance": 0.28424936532974243,
          "id": 1763558913
        },
        {
          "distance": 0.2847772240638733,
          "id": 1763559347
        },
        {
          "distance": 0.2895009517669678,
          "id": 1729355791
        },
        {
          "distance": 0.2902851104736328,
          "id": 1763559347
        },
        {
          "distance": 0.29045969247817993,
          "id": 1729355791
        },
        {
          "distance": 0.29394352436065674,
          "id": 1763558913
        },
        {
          "distance": 0.31677109003067017,
          "id": 1729361643
        },
        {
          "distance": 0.31813764572143555,
          "id": 1729360387
        },
        {
          "distance": 0.33813583850860596,
          "id": 1729361119
        },
        {
          "distance": 0.33974510431289673,
          "id": 1729356859
        }
      ]
    },
    "sfomuseum:placetype": "instagram",
    "src:geom": "sfomuseum",
    "wof:belongsto": [
      1159160869,
      102527513,
      102191575,
      85633793,
      102087579,
      85922583,
      85688637
    ],
    "wof:country": "US",
    "wof:created": 1478020140,
    "wof:geomhash": "b6e33f47475d56bc8da457bc31afadc8",
    "wof:hierarchy": [
      {
        "building_id": 1159160869,
        "campus_id": 102527513,
        "continent_id": 102191575,
        "country_id": 85633793,
        "county_id": 102087579,
        "custom_id": 1729360167,
        "instagram_id": 1729360167,
        "locality_id": 85922583,
        "neighbourhood_id": -1,
        "region_id": 85688637
      }
    ],
    "wof:id": 1729360167,
    "wof:lastmodified": 1787777639,
    "wof:name": "..",
    "wof:parent_id": 1159160869,
    "wof:placetype": "custom",
    "wof:placetype_alt": [
      "instagram"
    ],
    "wof:repo": "sfomuseum-data-socialmedia-instagram",
    "wof:superseded_by": [],
    "wof:supersedes": []
  },
  "bbox": [
    -122.386166,
    37.616356,
    -122.386166,
    37.616356
  ],
  "geometry": {"type":"Point","coordinates":[-122.386166,37.616356]}
}
