{
  "id": 1729362275,
  "type": "Feature",
  "properties": {
    "date:cessation_lower": "2014-05-27",
    "date:cessation_upper": "2014-05-27",
    "date:inception_lower": "2014-05-27",
    "date:inception_upper": "2014-05-27",
    "edtf:cessation": "2014-05-27T07:32:00-07:00",
    "edtf:inception": "2014-05-27T07:32:00-07:00",
    "geom:area": 0,
    "geom:bbox": "-122.386166,37.616356,-122.386166,37.616356",
    "geom:latitude": 37.616356,
    "geom:longitude": -122.386166,
    "instagram:post": {
      "caption": {
        "body": "Brian W. Choy's photography of The Chinese World Building, San Francisco 1980s. On exhibit in terminal 3",
        "excerpt": "Brian W. Choy's photography of The Chinese World Building, San Francisco 1980s.",
        "hashtags": [],
        "users": []
      },
      "media_id": "6e1e4fba5ff72dbf0bdd2e6812db2d67",
      "path": "media/other/10401531_1486930824871907_1223882775_n_17842433206062499.jpg",
      "perceptual_hash": "p:eafe33347a0a82d4",
      "taken": 1401201120,
      "taken_at": "May 27, 2014 2:32 pm"
    },
    "millsfield:similar": {
      "google/siglip2-so400m-patch16-naflex": [
        {
          "distance": 0.28774988651275635,
          "id": 1729359953
        },
        {
          "distance": 0.31414222717285156,
          "id": 1729360901
        },
        {
          "distance": 0.3156379461288452,
          "id": 1729357197
        },
        {
          "distance": 0.3283849358558655,
          "id": 1729360873
        },
        {
          "distance": 0.34090960025787354,
          "id": 1729361289
        },
        {
          "distance": 0.343656063079834,
          "id": 1729361113
        },
        {
          "distance": 0.34702324867248535,
          "id": 1729359587
        },
        {
          "distance": 0.347034215927124,
          "id": 1947425253
        },
        {
          "distance": 0.34932321310043335,
          "id": 1729360901
        },
        {
          "distance": 0.34951674938201904,
          "id": 1729361227
        }
      ]
    },
    "sfomuseum:placetype": "instagram",
    "src:geom": "sfomuseum",
    "wof:belongsto": [
      1159160869,
      102527513,
      102191575,
      85633793,
      102087579,
      85922583,
      85688637
    ],
    "wof:country": "US",
    "wof:created": 1401201120,
    "wof:geomhash": "b6e33f47475d56bc8da457bc31afadc8",
    "wof:hierarchy": [
      {
        "building_id": 1159160869,
        "campus_id": 102527513,
        "continent_id": 102191575,
        "country_id": 85633793,
        "county_id": 102087579,
        "custom_id": 1729362275,
        "instagram_id": 1729362275,
        "locality_id": 85922583,
        "neighbourhood_id": -1,
        "region_id": 85688637
      }
    ],
    "wof:id": 1729362275,
    "wof:lastmodified": 1787777646,
    "wof:name": "Brian W. Choy's photography of The Chinese World Building, San Francisco 1980s...",
    "wof:parent_id": 1159160869,
    "wof:placetype": "custom",
    "wof:placetype_alt": [
      "instagram"
    ],
    "wof:repo": "sfomuseum-data-socialmedia-instagram",
    "wof:superseded_by": [],
    "wof:supersedes": []
  },
  "bbox": [
    -122.386166,
    37.616356,
    -122.386166,
    37.616356
  ],
  "geometry": {"type":"Point","coordinates":[-122.386166,37.616356]}
}
