{
  "id": 1729355941,
  "type": "Feature",
  "properties": {
    "date:cessation_lower": "2019-10-29",
    "date:cessation_upper": "2019-10-29",
    "date:inception_lower": "2019-10-29",
    "date:inception_upper": "2019-10-29",
    "edtf:cessation": "2019-10-29T01:38:00-07:00",
    "edtf:inception": "2019-10-29T01:38:00-07:00",
    "geom:area": 0,
    "geom:bbox": "-122.386166,37.616356,-122.386166,37.616356",
    "geom:latitude": 37.616356,
    "geom:longitude": -122.386166,
    "instagram:post": {
      "caption": {
        "body": "The Airbus A300 was the first wide-body airliner produced by Airbus Industries, a European aerospace manufacturing consortium formed in 1970. The fuselage of the A300 was wide enough to seat eight across in economy, which was arranged in a two-four-two configuration with two aisles. The first-class cabin seated six across, also with two aisles, in a two-two-two arrangement. The A300 could carry as many as 266 passengers in this two-class configuration, which was a similar capacity to the McDonnell Douglas DC-10 and the Lockheed L1011 TriStar widebody airliners, but with two engines instead of three the A300 used approximately thirty percent less fuel. This amounted to a substantial reduction in operating costs for the airlines flying the aircraft, and was one of the major reasons for the aircraft’s success. The A300 established Airbus as a major European airliner manufacturer.  Image: Singapore Airlines poster, Airbus A300, c. 1981. Gift of the William Hough Collection. 2006.010.273",
        "excerpt": "The Airbus A300 was the first wide-body airliner produced by Airbus Industries, a European aerospace manufacturing consortium formed in 1970.",
        "hashtags": [
          "a300",
          "airbus",
          "avgeek",
          "widebody",
          "Singapore"
        ],
        "users": []
      },
      "media_id": "119acc48ab615c6db77bbe13278cd7e3",
      "path": "media/other/73259663_928088740903491_3580080233123503292_n_17849277571685603.jpg",
      "perceptual_hash": "p:be2d81cad435ead0",
      "taken": 1572338280,
      "taken_at": "Oct 29, 2019 8:38 am"
    },
    "millsfield:similar": {
      "google/siglip2-so400m-patch16-naflex": [
        {
          "distance": 0.004188060760498047,
          "id": 1729358121
        },
        {
          "distance": 0.068855881690979,
          "id": 1729358121
        },
        {
          "distance": 0.08268791437149048,
          "id": 1947424813
        },
        {
          "distance": 0.09900408983230591,
          "id": 1947424813
        },
        {
          "distance": 0.24662435054779053,
          "id": 1729355459
        },
        {
          "distance": 0.26282697916030884,
          "id": 1729357689
        },
        {
          "distance": 0.2650248408317566,
          "id": 1729355171
        },
        {
          "distance": 0.2659198045730591,
          "id": 1729357689
        },
        {
          "distance": 0.26797324419021606,
          "id": 1729357817
        },
        {
          "distance": 0.2685670852661133,
          "id": 1729355459
        }
      ]
    },
    "sfomuseum:placetype": "instagram",
    "src:geom": "sfomuseum",
    "wof:belongsto": [
      1159160869,
      102527513,
      102191575,
      85633793,
      102087579,
      85922583,
      85688637
    ],
    "wof:country": "US",
    "wof:created": 1572338280,
    "wof:geomhash": "b6e33f47475d56bc8da457bc31afadc8",
    "wof:hierarchy": [
      {
        "building_id": 1159160869,
        "campus_id": 102527513,
        "continent_id": 102191575,
        "country_id": 85633793,
        "county_id": 102087579,
        "custom_id": 1729355941,
        "instagram_id": 1729355941,
        "locality_id": 85922583,
        "neighbourhood_id": -1,
        "region_id": 85688637
      }
    ],
    "wof:id": 1729355941,
    "wof:lastmodified": 1787777627,
    "wof:name": "The Airbus A300 was the first wide-body airliner produced by Airbus Industries, a European aerospace manufacturing consortium formed in 1970...",
    "wof:parent_id": 1159160869,
    "wof:placetype": "custom",
    "wof:placetype_alt": [
      "instagram"
    ],
    "wof:repo": "sfomuseum-data-socialmedia-instagram",
    "wof:superseded_by": [],
    "wof:supersedes": []
  },
  "bbox": [
    -122.386166,
    37.616356,
    -122.386166,
    37.616356
  ],
  "geometry": {"type":"Point","coordinates":[-122.386166,37.616356]}
}
