{
  "id": 1729362925,
  "type": "Feature",
  "properties": {
    "date:cessation_lower": "2012-08-17",
    "date:cessation_upper": "2012-08-17",
    "date:inception_lower": "2012-08-17",
    "date:inception_upper": "2012-08-17",
    "edtf:cessation": "2012-08-17T07:59:00-07:00",
    "edtf:inception": "2012-08-17T07:59:00-07:00",
    "geom:area": 0,
    "geom:bbox": "-122.386166,37.616356,-122.386166,37.616356",
    "geom:latitude": 37.616356,
    "geom:longitude": -122.386166,
    "instagram:post": {
      "caption": {
        "body": "Gear on display!! Ever wonder what the inside of a modern suspension fork looks like?",
        "excerpt": "Gear on display!!",
        "hashtags": [],
        "users": []
      },
      "media_id": "5802cbeb6ce53b24c4ad028f3136944e",
      "path": "media/other/11195770_958579500860390_1348744617_n_17842264504062499.jpg",
      "perceptual_hash": "p:be2ec191f90bd407",
      "taken": 1345215540,
      "taken_at": "Aug 17, 2012 2:59 pm"
    },
    "millsfield:similar": {
      "google/siglip2-so400m-patch16-naflex": [
        {
          "distance": 0.2361133098602295,
          "id": 1729362853
        },
        {
          "distance": 0.2686973214149475,
          "id": 1729362853
        },
        {
          "distance": 0.2692447900772095,
          "id": 1729362801
        },
        {
          "distance": 0.2801339030265808,
          "id": 1729362815
        },
        {
          "distance": 0.2890147566795349,
          "id": 1729363019
        },
        {
          "distance": 0.3079671859741211,
          "id": 1729362869
        },
        {
          "distance": 0.3091127872467041,
          "id": 1729363019
        },
        {
          "distance": 0.3146783113479614,
          "id": 1729362801
        },
        {
          "distance": 0.3173339366912842,
          "id": 1729362815
        },
        {
          "distance": 0.3204362392425537,
          "id": 1729362941
        }
      ]
    },
    "sfomuseum:placetype": "instagram",
    "src:geom": "sfomuseum",
    "wof:belongsto": [
      1159160869,
      102527513,
      102191575,
      85633793,
      102087579,
      85922583,
      85688637
    ],
    "wof:country": "US",
    "wof:created": 1345215540,
    "wof:geomhash": "b6e33f47475d56bc8da457bc31afadc8",
    "wof:hierarchy": [
      {
        "building_id": 1159160869,
        "campus_id": 102527513,
        "continent_id": 102191575,
        "country_id": 85633793,
        "county_id": 102087579,
        "custom_id": 1729362925,
        "instagram_id": 1729362925,
        "locality_id": 85922583,
        "neighbourhood_id": -1,
        "region_id": 85688637
      }
    ],
    "wof:id": 1729362925,
    "wof:lastmodified": 1787777656,
    "wof:name": "Gear on display!!..",
    "wof:parent_id": 1159160869,
    "wof:placetype": "custom",
    "wof:placetype_alt": [
      "instagram"
    ],
    "wof:repo": "sfomuseum-data-socialmedia-instagram",
    "wof:superseded_by": [],
    "wof:supersedes": []
  },
  "bbox": [
    -122.386166,
    37.616356,
    -122.386166,
    37.616356
  ],
  "geometry": {"type":"Point","coordinates":[-122.386166,37.616356]}
}
