{
  "id": 1729362097,
  "type": "Feature",
  "properties": {
    "date:cessation_lower": "2014-10-09",
    "date:cessation_upper": "2014-10-09",
    "date:inception_lower": "2014-10-09",
    "date:inception_upper": "2014-10-09",
    "edtf:cessation": "2014-10-09T07:34:00-07:00",
    "edtf:inception": "2014-10-09T07:34:00-07:00",
    "geom:area": 0,
    "geom:bbox": "-122.386166,37.616356,-122.386166,37.616356",
    "geom:latitude": 37.616356,
    "geom:longitude": -122.386166,
    "instagram:post": {
      "caption": {
        "body": "",
        "excerpt": "",
        "hashtags": [
          "ThrowbackThursday",
          "tbt",
          "origami"
        ],
        "users": []
      },
      "media_id": "9f479fc33cc1737c38bf3d57cb25d345",
      "path": "media/other/1391378_634685729981590_1032289243_n_17841758581062499.jpg",
      "perceptual_hash": "p:c0543f39b62f403f",
      "taken": 1412865240,
      "taken_at": "Oct 09, 2014 2:34 pm"
    },
    "millsfield:similar": {
      "google/siglip2-so400m-patch16-naflex": [
        {
          "distance": 0.08260869979858398,
          "id": 1729355431
        },
        {
          "distance": 0.1368970274925232,
          "id": 1729355431
        },
        {
          "distance": 0.3045862317085266,
          "id": 1729362355
        },
        {
          "distance": 0.3165166974067688,
          "id": 1729362379
        },
        {
          "distance": 0.32166361808776855,
          "id": 1729362605
        },
        {
          "distance": 0.328360378742218,
          "id": 1729362387
        },
        {
          "distance": 0.3374273180961609,
          "id": 1729362959
        },
        {
          "distance": 0.34010255336761475,
          "id": 1729362797
        },
        {
          "distance": 0.340279221534729,
          "id": 1729362449
        },
        {
          "distance": 0.34418708086013794,
          "id": 1729362883
        }
      ]
    },
    "sfomuseum:placetype": "instagram",
    "src:geom": "sfomuseum",
    "wof:belongsto": [
      1159160869,
      102527513,
      102191575,
      85633793,
      102087579,
      85922583,
      85688637
    ],
    "wof:country": "US",
    "wof:created": 1412865240,
    "wof:geomhash": "b6e33f47475d56bc8da457bc31afadc8",
    "wof:hierarchy": [
      {
        "building_id": 1159160869,
        "campus_id": 102527513,
        "continent_id": 102191575,
        "country_id": 85633793,
        "county_id": 102087579,
        "custom_id": 1729362097,
        "instagram_id": 1729362097,
        "locality_id": 85922583,
        "neighbourhood_id": -1,
        "region_id": 85688637
      }
    ],
    "wof:id": 1729362097,
    "wof:lastmodified": 1787777646,
    "wof:name": "..",
    "wof:parent_id": 1159160869,
    "wof:placetype": "custom",
    "wof:placetype_alt": [
      "instagram"
    ],
    "wof:repo": "sfomuseum-data-socialmedia-instagram",
    "wof:superseded_by": [],
    "wof:supersedes": []
  },
  "bbox": [
    -122.386166,
    37.616356,
    -122.386166,
    37.616356
  ],
  "geometry": {"type":"Point","coordinates":[-122.386166,37.616356]}
}
