{
  "id": 1729358867,
  "type": "Feature",
  "properties": {
    "date:cessation_lower": "2017-12-03",
    "date:cessation_upper": "2017-12-03",
    "date:inception_lower": "2017-12-03",
    "date:inception_upper": "2017-12-03",
    "edtf:cessation": "2017-12-03T04:15:00-08:00",
    "edtf:inception": "2017-12-03T04:15:00-08:00",
    "geom:area": 0,
    "geom:bbox": "-122.386166,37.616356,-122.386166,37.616356",
    "geom:latitude": 37.616356,
    "geom:longitude": -122.386166,
    "instagram:post": {
      "caption": {
        "body": "Born in England in 1964, Annu Palakunnathu Matthew spent her teenage years living in India before moving to the United States, where she currently resides. In her series, \"Memories of India\", Matthew returns to India to produce ethereal images of daily life in her cultural homeland. As an artist who relates to multiple cultures, Matthew works with the sense of someone who is both an insider and an outsider, creating images that are nostalgic and familiar, while also evoking a sense of discovery. We are left with dreamlike moments that recall the sights, smells, and sounds of India, seen through the lens of Matthew’s memory.  See \"Memories of India\" by Annu Palakunnathu Matthew, post-security, in Terminal 3. http://bit.ly/2zDKPGU",
        "excerpt": "Born in England in 1964, Annu Palakunnathu Matthew spent her teenage years living in India before moving to the United States, where she currently resides.",
        "hashtags": [
          "MemoriesofIndia",
          "India",
          "IndianAmerican",
          "AnnuPalakunnathuMatthew",
          "nostalgia",
          "memories",
          "publicart",
          "photography",
          "fineart",
          "fineartphotography",
          "photographer",
          "photographyisart",
          "photographylife",
          "photographylover",
          "photos",
          "instaphoto",
          "instagood",
          "instart",
          "foto",
          "instaphotos",
          "instaph",
          "instashot",
          "instaphotography"
        ],
        "users": [
          "annumatthew"
        ]
      },
      "media_id": "485a08d61db6064f2b0b7cf2eff6875a",
      "path": "media/other/24254311_2029778210638412_5635811774633607168_n_17913796714000561.jpg",
      "perceptual_hash": "p:c9e9ecfc6d118198",
      "taken": 1512303300,
      "taken_at": "Dec 03, 2017 12:15 pm"
    },
    "millsfield:similar": {
      "google/siglip2-so400m-patch16-naflex": [
        {
          "distance": 0.36742526292800903,
          "id": 1729356955
        },
        {
          "distance": 0.36983591318130493,
          "id": 1729361809
        },
        {
          "distance": 0.3705458641052246,
          "id": 1729355313
        },
        {
          "distance": 0.3732335567474365,
          "id": 1729361325
        },
        {
          "distance": 0.3787190318107605,
          "id": 1763558729
        },
        {
          "distance": 0.3787190318107605,
          "id": 1729358233
        },
        {
          "distance": 0.3824496269226074,
          "id": 1729356191
        },
        {
          "distance": 0.3845817446708679,
          "id": 1729355613
        },
        {
          "distance": 0.3855336308479309,
          "id": 1729356883
        },
        {
          "distance": 0.38819438219070435,
          "id": 1729360387
        }
      ]
    },
    "sfomuseum:placetype": "instagram",
    "src:geom": "sfomuseum",
    "wof:belongsto": [
      1159160869,
      102527513,
      102191575,
      85633793,
      102087579,
      85922583,
      85688637
    ],
    "wof:country": "US",
    "wof:created": 1512303300,
    "wof:geomhash": "b6e33f47475d56bc8da457bc31afadc8",
    "wof:hierarchy": [
      {
        "building_id": 1159160869,
        "campus_id": 102527513,
        "continent_id": 102191575,
        "country_id": 85633793,
        "county_id": 102087579,
        "custom_id": 1729358867,
        "instagram_id": 1729358867,
        "locality_id": 85922583,
        "neighbourhood_id": -1,
        "region_id": 85688637
      }
    ],
    "wof:id": 1729358867,
    "wof:lastmodified": 1787777634,
    "wof:name": "Born in England in 1964, Annu Palakunnathu Matthew spent her teenage years living in India before moving to the United States, where she currently resides...",
    "wof:parent_id": 1159160869,
    "wof:placetype": "custom",
    "wof:placetype_alt": [
      "instagram"
    ],
    "wof:repo": "sfomuseum-data-socialmedia-instagram",
    "wof:superseded_by": [],
    "wof:supersedes": []
  },
  "bbox": [
    -122.386166,
    37.616356,
    -122.386166,
    37.616356
  ],
  "geometry": {"type":"Point","coordinates":[-122.386166,37.616356]}
}
