{
  "id": 1729357647,
  "type": "Feature",
  "properties": {
    "date:cessation_lower": "2018-09-24",
    "date:cessation_upper": "2018-09-24",
    "date:inception_lower": "2018-09-24",
    "date:inception_upper": "2018-09-24",
    "edtf:cessation": "2018-09-24T09:22:00-07:00",
    "edtf:inception": "2018-09-24T09:22:00-07:00",
    "geom:area": 0,
    "geom:bbox": "-122.386166,37.616356,-122.386166,37.616356",
    "geom:latitude": 37.616356,
    "geom:longitude": -122.386166,
    "instagram:post": {
      "caption": {
        "body": "Cathay Pacific Airways was registered in Hong Kong #onthisday in 1946 by former WWII pilots Sydney de Kantzow and Roy Farrell. Here you can see Cathay Pacific’s first plane, a Douglas C-47, the military designation for the DC-3, nicknamed “Betsy” with the call letters, VR-HDB. Betsy served the airline from 1946 to 1955, and then was sold as the airline modernized its fleet. Betsy was found delivering cargo in the Australian outback in the 1980s, lovingly restored to her 1940s livery, and is now on display in the Hong Kong Science Museum. Have you ever been to Hong Kong? http://ow.ly/SCDO50jbQ6y . . .",
        "excerpt": "Cathay Pacific Airways was registered in Hong Kong #onthisday in 1946 by former WWII pilots Sydney de Kantzow and Roy Farrell.",
        "hashtags": [
          "HongKong",
          "Cathay",
          "CathayPacific",
          "DC3",
          "c47",
          "Betsy",
          "aviationgeek",
          "aviation",
          "aviationhistory",
          "aviationlovers",
          "vintageaviation",
          "history",
          "aviationgeeks",
          "avgeek",
          "avgeeks"
        ],
        "users": []
      },
      "media_id": "9233be4c3031fafef640b486039e6f46",
      "path": "media/other/40627631_240192253322532_6618964810883973553_n_17864853754283369.jpg",
      "perceptual_hash": "p:f4e1e2da942569ca",
      "taken": 1537806120,
      "taken_at": "Sep 24, 2018 4:22 pm"
    },
    "millsfield:similar": {
      "google/siglip2-so400m-patch16-naflex": [
        {
          "distance": 0.016933798789978027,
          "id": 1729355043
        },
        {
          "distance": 0.059031128883361816,
          "id": 1729361005
        },
        {
          "distance": 0.08761250972747803,
          "id": 1729355043
        },
        {
          "distance": 0.10658538341522217,
          "id": 1729361005
        },
        {
          "distance": 0.16046589612960815,
          "id": 1729356043
        },
        {
          "distance": 0.192501962184906,
          "id": 1729358655
        },
        {
          "distance": 0.19643431901931763,
          "id": 1729356043
        },
        {
          "distance": 0.20271611213684082,
          "id": 1763559235
        },
        {
          "distance": 0.20497000217437744,
          "id": 1763559293
        },
        {
          "distance": 0.20761680603027344,
          "id": 1880151589
        }
      ]
    },
    "sfomuseum:placetype": "instagram",
    "src:geom": "sfomuseum",
    "wof:belongsto": [
      1159160869,
      102527513,
      102191575,
      85633793,
      102087579,
      85922583,
      85688637
    ],
    "wof:country": "US",
    "wof:created": 1537806120,
    "wof:geomhash": "b6e33f47475d56bc8da457bc31afadc8",
    "wof:hierarchy": [
      {
        "building_id": 1159160869,
        "campus_id": 102527513,
        "continent_id": 102191575,
        "country_id": 85633793,
        "county_id": 102087579,
        "custom_id": 1729357647,
        "instagram_id": 1729357647,
        "locality_id": 85922583,
        "neighbourhood_id": -1,
        "region_id": 85688637
      }
    ],
    "wof:id": 1729357647,
    "wof:lastmodified": 1787777632,
    "wof:name": "Cathay Pacific Airways was registered in Hong Kong #onthisday in 1946 by former WWII pilots Sydney de Kantzow and Roy Farrell...",
    "wof:parent_id": 1159160869,
    "wof:placetype": "custom",
    "wof:placetype_alt": [
      "instagram"
    ],
    "wof:repo": "sfomuseum-data-socialmedia-instagram",
    "wof:superseded_by": [],
    "wof:supersedes": []
  },
  "bbox": [
    -122.386166,
    37.616356,
    -122.386166,
    37.616356
  ],
  "geometry": {"type":"Point","coordinates":[-122.386166,37.616356]}
}
