{
  "id": 1729361375,
  "type": "Feature",
  "properties": {
    "date:cessation_lower": "2015-11-09",
    "date:cessation_upper": "2015-11-09",
    "date:inception_lower": "2015-11-09",
    "date:inception_upper": "2015-11-09",
    "edtf:cessation": "2015-11-09T11:54:00-08:00",
    "edtf:inception": "2015-11-09T11:54:00-08:00",
    "geom:area": 0,
    "geom:bbox": "-122.386166,37.616356,-122.386166,37.616356",
    "geom:latitude": 37.616356,
    "geom:longitude": -122.386166,
    "instagram:post": {
      "caption": {
        "body": "",
        "excerpt": "",
        "hashtags": [
          "Chargers",
          "Bears",
          "MondayNightFootball",
          "TheNationsGame"
        ],
        "users": []
      },
      "media_id": "599056844c011c65bc1ec76c9e6b6a50",
      "path": "media/other/12224652_175162756165312_978469658_n_17842054231121834.jpg",
      "perceptual_hash": "p:d3b02cd5b05ee6e0",
      "taken": 1447098840,
      "taken_at": "Nov 09, 2015 7:54 pm"
    },
    "millsfield:similar": {
      "google/siglip2-so400m-patch16-naflex": [
        {
          "distance": 0.16930371522903442,
          "id": 1729361399
        },
        {
          "distance": 0.1694810390472412,
          "id": 1729361443
        },
        {
          "distance": 0.17507880926132202,
          "id": 1729361123
        },
        {
          "distance": 0.177382230758667,
          "id": 1729361225
        },
        {
          "distance": 0.1877681016921997,
          "id": 1729361247
        },
        {
          "distance": 0.19146674871444702,
          "id": 1729361443
        },
        {
          "distance": 0.21526235342025757,
          "id": 1729361399
        },
        {
          "distance": 0.2484663724899292,
          "id": 1729361225
        },
        {
          "distance": 0.25948280096054077,
          "id": 1729361099
        },
        {
          "distance": 0.2616422772407532,
          "id": 1729361247
        }
      ]
    },
    "sfomuseum:placetype": "instagram",
    "src:geom": "sfomuseum",
    "wof:belongsto": [
      1159160869,
      102527513,
      102191575,
      85633793,
      102087579,
      85922583,
      85688637
    ],
    "wof:country": "US",
    "wof:created": 1447098840,
    "wof:geomhash": "b6e33f47475d56bc8da457bc31afadc8",
    "wof:hierarchy": [
      {
        "building_id": 1159160869,
        "campus_id": 102527513,
        "continent_id": 102191575,
        "country_id": 85633793,
        "county_id": 102087579,
        "custom_id": 1729361375,
        "instagram_id": 1729361375,
        "locality_id": 85922583,
        "neighbourhood_id": -1,
        "region_id": 85688637
      }
    ],
    "wof:id": 1729361375,
    "wof:lastmodified": 1787777645,
    "wof:name": "..",
    "wof:parent_id": 1159160869,
    "wof:placetype": "custom",
    "wof:placetype_alt": [
      "instagram"
    ],
    "wof:repo": "sfomuseum-data-socialmedia-instagram",
    "wof:superseded_by": [],
    "wof:supersedes": []
  },
  "bbox": [
    -122.386166,
    37.616356,
    -122.386166,
    37.616356
  ],
  "geometry": {"type":"Point","coordinates":[-122.386166,37.616356]}
}
