{
  "id": 1729356681,
  "type": "Feature",
  "properties": {
    "date:cessation_lower": "2019-04-09",
    "date:cessation_upper": "2019-04-09",
    "date:inception_lower": "2019-04-09",
    "date:inception_upper": "2019-04-09",
    "edtf:cessation": "2019-04-08T18:11:38-07:00",
    "edtf:inception": "2019-04-08T18:11:38-07:00",
    "geom:area": 0,
    "geom:bbox": "-122.386166,37.616356,-122.386166,37.616356",
    "geom:latitude": 37.616356,
    "geom:longitude": -122.386166,
    "instagram:post": {
      "caption": {
        "body": "",
        "excerpt": "",
        "hashtags": [
          "behindthescenes",
          "modelairplanes",
          "collectionsstorage",
          "museumlife",
          "museummonday"
        ],
        "users": []
      },
      "location": "",
      "media_id": "a45ffa270eef0e0a5aa2231d90896325",
      "path": "photos/201904/a45ffa270eef0e0a5aa2231d90896325.jpg",
      "perceptual_hash": "p:cf3fe039c039c4cc",
      "taken": 1554743460,
      "taken_at": "Apr 8, 2019, 5:11 PM"
    },
    "millsfield:similar": {
      "google/siglip2-so400m-patch16-naflex": [
        {
          "distance": 0.23134195804595947,
          "id": 1729357493
        },
        {
          "distance": 0.23194867372512817,
          "id": 1729357033
        },
        {
          "distance": 0.2353103756904602,
          "id": 1729358657
        },
        {
          "distance": 0.23539471626281738,
          "id": 1763558763
        },
        {
          "distance": 0.24023067951202393,
          "id": 1729356977
        },
        {
          "distance": 0.2426297664642334,
          "id": 1729357109
        },
        {
          "distance": 0.2457824945449829,
          "id": 1729357609
        },
        {
          "distance": 0.24744832515716553,
          "id": 1729358531
        },
        {
          "distance": 0.24840903282165527,
          "id": 1729357553
        },
        {
          "distance": 0.24895966053009033,
          "id": 1729358383
        }
      ]
    },
    "sfomuseum:placetype": "instagram",
    "src:geom": "sfomuseum",
    "wof:belongsto": [
      1159160869,
      102527513,
      102191575,
      85633793,
      102087579,
      85922583,
      85688637
    ],
    "wof:country": "US",
    "wof:created": 1554772298,
    "wof:geomhash": "b6e33f47475d56bc8da457bc31afadc8",
    "wof:hierarchy": [
      {
        "building_id": 1159160869,
        "campus_id": 102527513,
        "continent_id": 102191575,
        "country_id": 85633793,
        "county_id": 102087579,
        "custom_id": 1729356681,
        "instagram_id": 1729356681,
        "locality_id": 85922583,
        "neighbourhood_id": -1,
        "region_id": 85688637
      }
    ],
    "wof:id": 1729356681,
    "wof:lastmodified": 1787777629,
    "wof:name": "..",
    "wof:parent_id": 1159160869,
    "wof:placetype": "custom",
    "wof:placetype_alt": [
      "instagram"
    ],
    "wof:repo": "sfomuseum-data-socialmedia-instagram",
    "wof:superseded_by": [],
    "wof:supersedes": []
  },
  "bbox": [
    -122.386166,
    37.616356,
    -122.386166,
    37.616356
  ],
  "geometry": {"type":"Point","coordinates":[-122.386166,37.616356]}
}
