{
  "id": 1729361377,
  "type": "Feature",
  "properties": {
    "date:cessation_lower": "2015-11-16",
    "date:cessation_upper": "2015-11-16",
    "date:inception_lower": "2015-11-16",
    "date:inception_upper": "2015-11-16",
    "edtf:cessation": "2015-11-16T11:18:00-08:00",
    "edtf:inception": "2015-11-16T11:18:00-08:00",
    "geom:area": 0,
    "geom:bbox": "-122.386166,37.616356,-122.386166,37.616356",
    "geom:latitude": 37.616356,
    "geom:longitude": -122.386166,
    "instagram:post": {
      "caption": {
        "body": "",
        "excerpt": "",
        "hashtags": [
          "Texans",
          "Bengals",
          "MondayNightFootball.",
          "TheNationsGame,",
          "MondayNightFootball"
        ],
        "users": []
      },
      "media_id": "59e395a1b1afc3639ea38225548a3bbf",
      "path": "media/other/12132731_538764749624973_16180056_n_17843183620079664.jpg",
      "perceptual_hash": "p:a279cfc3c94f9406",
      "taken": 1447701480,
      "taken_at": "Nov 16, 2015 7:18 pm"
    },
    "millsfield:similar": {
      "google/siglip2-so400m-patch16-naflex": [
        {
          "distance": 0.30024105310440063,
          "id": 1729361181
        },
        {
          "distance": 0.3267133831977844,
          "id": 1729361181
        },
        {
          "distance": 0.336109459400177,
          "id": 1729361399
        },
        {
          "distance": 0.34682023525238037,
          "id": 1729361225
        },
        {
          "distance": 0.3695778250694275,
          "id": 1729361123
        },
        {
          "distance": 0.3820258378982544,
          "id": 1729361247
        },
        {
          "distance": 0.3874729871749878,
          "id": 1729361323
        },
        {
          "distance": 0.3880366086959839,
          "id": 1729361375
        },
        {
          "distance": 0.38831794261932373,
          "id": 1729361099
        },
        {
          "distance": 0.4052492380142212,
          "id": 1729361225
        }
      ]
    },
    "sfomuseum:placetype": "instagram",
    "src:geom": "sfomuseum",
    "wof:belongsto": [
      1159160869,
      102527513,
      102191575,
      85633793,
      102087579,
      85922583,
      85688637
    ],
    "wof:country": "US",
    "wof:created": 1447701480,
    "wof:geomhash": "b6e33f47475d56bc8da457bc31afadc8",
    "wof:hierarchy": [
      {
        "building_id": 1159160869,
        "campus_id": 102527513,
        "continent_id": 102191575,
        "country_id": 85633793,
        "county_id": 102087579,
        "custom_id": 1729361377,
        "instagram_id": 1729361377,
        "locality_id": 85922583,
        "neighbourhood_id": -1,
        "region_id": 85688637
      }
    ],
    "wof:id": 1729361377,
    "wof:lastmodified": 1787777645,
    "wof:name": "..",
    "wof:parent_id": 1159160869,
    "wof:placetype": "custom",
    "wof:placetype_alt": [
      "instagram"
    ],
    "wof:repo": "sfomuseum-data-socialmedia-instagram",
    "wof:superseded_by": [],
    "wof:supersedes": []
  },
  "bbox": [
    -122.386166,
    37.616356,
    -122.386166,
    37.616356
  ],
  "geometry": {"type":"Point","coordinates":[-122.386166,37.616356]}
}
