{
  "id": 1947425269,
  "type": "Feature",
  "properties": {
    "date:cessation_lower": "2023-10-18",
    "date:cessation_upper": "2023-10-18",
    "date:inception_lower": "2023-10-18",
    "date:inception_upper": "2023-10-18",
    "edtf:cessation": "2023-10-18T09:47:00-07:00",
    "edtf:inception": "2023-10-18T09:47:00-07:00",
    "geom:area": 0,
    "geom:bbox": "-122.386166,37.616356,-122.386166,37.616356",
    "geom:latitude": 37.616356,
    "geom:longitude": -122.386166,
    "instagram:post": {
      "caption": {
        "body": "Steel oil drum containers were initially left behind by U.S. Marines between 1915 and 1934 during the United States’ occupation of Haiti following the assassination of Haiti’s president Jean Vilbrun Guillaume Sam (1859–1915) in 1915. Haitians such as visionary artist, Georges Liautaud (1899–1991) soon began repurposing them. These same steel oil drums are also used to create steel pan drums in Trinidad \u0026 Tobago. Today, with so many Haitian artists working in the medium and selling and exporting works, artisans now purchase steel oil drums to craft metal sculpture, employ used or new fifty-gallon tomato paste drums, or even use sheet metal for large-scale commissions.   See “The Enduring Spirit of Haitian Metal Sculpture” on display, pre-security, in the International Terminal. https://bit.ly/HaitianMetal",
        "excerpt": "Steel oil drum containers were initially left behind by U.S. Marines between 1915 and 1934 during the United States’ occupation of Haiti following the assassination of Haiti’s president Jean Vilbrun Guillaume Sam (1859–1915) in 1915.",
        "hashtags": [
          "HaitianMetal",
          "GeorgesLiautaud",
          "HaitianMetalArts",
          "Haiti"
        ],
        "users": []
      },
      "media_id": "01bf84de7d2299c2e2837493a1a39e31c8848e06",
      "path": "media/posts/202310/391666497_793281756142089_987428353993507961_n_18240550957224650.jpg",
      "perceptual_hash": "p:bcc25b6eea12dc41",
      "taken": 1697647620,
      "taken_at": "Oct 18, 2023 4:47 pm"
    },
    "millsfield:similar": {
      "google/siglip2-so400m-patch16-naflex": [
        {
          "distance": 0.00897061824798584,
          "id": 1947425235
        },
        {
          "distance": 0.033914923667907715,
          "id": 1947424853
        },
        {
          "distance": 0.03410738706588745,
          "id": 1947424829
        },
        {
          "distance": 0.03918224573135376,
          "id": 1947424957
        },
        {
          "distance": 0.06914615631103516,
          "id": 1947425273
        },
        {
          "distance": 0.09768277406692505,
          "id": 1947425273
        },
        {
          "distance": 0.09878557920455933,
          "id": 1947424829
        },
        {
          "distance": 0.09880197048187256,
          "id": 1947424853
        },
        {
          "distance": 0.09956628084182739,
          "id": 1947425235
        },
        {
          "distance": 0.10513150691986084,
          "id": 1947424957
        }
      ]
    },
    "sfomuseum:placetype": "instagram",
    "src:geom": "sfomuseum",
    "wof:belongsto": [
      1159160869,
      102527513,
      102191575,
      85633793,
      102087579,
      85922583,
      85688637
    ],
    "wof:country": "US",
    "wof:created": 1697647620,
    "wof:geomhash": "b6e33f47475d56bc8da457bc31afadc8",
    "wof:hierarchy": [
      {
        "building_id": 1159160869,
        "campus_id": 102527513,
        "continent_id": 102191575,
        "country_id": 85633793,
        "county_id": 102087579,
        "custom_id": 1947425269,
        "locality_id": 85922583,
        "neighbourhood_id": -1,
        "region_id": 85688637
      }
    ],
    "wof:id": 1947425269,
    "wof:lastmodified": 1787777664,
    "wof:name": "Steel oil drum containers were initially left behind by U.S. Marines between 1915 and 1934 during the United States’ occupation of Haiti following the assassination of Haiti’s president Jean Vilbrun Guillaume Sam (1859–1915) in 1915...",
    "wof:parent_id": 1159160869,
    "wof:placetype": "custom",
    "wof:repo": "sfomuseum-data-socialmedia-instagram",
    "wof:superseded_by": [],
    "wof:supersedes": []
  },
  "bbox": [
    -122.386166,
    37.616356,
    -122.386166,
    37.616356
  ],
  "geometry": {"type":"Point","coordinates":[-122.386166,37.616356]}
}
