{
  "id": 1729361371,
  "type": "Feature",
  "properties": {
    "date:cessation_lower": "2015-11-12",
    "date:cessation_upper": "2015-11-12",
    "date:inception_lower": "2015-11-12",
    "date:inception_upper": "2015-11-12",
    "edtf:cessation": "2015-11-12T02:01:00-08:00",
    "edtf:inception": "2015-11-12T02:01:00-08:00",
    "geom:area": 0,
    "geom:bbox": "-122.386166,37.616356,-122.386166,37.616356",
    "geom:latitude": 37.616356,
    "geom:longitude": -122.386166,
    "instagram:post": {
      "caption": {
        "body": "Art from the San Francisco Waldorf School will be up in the Arrivals Level of Terminal 1 until the end of the month. Come brighten up your day with these amazing pieces of art.",
        "excerpt": "Art from the San Francisco Waldorf School will be up in the Arrivals Level of Terminal 1 until the end of the month.",
        "hashtags": [],
        "users": []
      },
      "media_id": "9225d2d010ac3abfb38badf5a2d7547f",
      "path": "media/other/12224170_1687225238156455_1893059282_n_17842188373085761.jpg",
      "perceptual_hash": "p:d19d197872cd2d26",
      "taken": 1447322460,
      "taken_at": "Nov 12, 2015 10:01 am"
    },
    "millsfield:similar": {
      "google/siglip2-so400m-patch16-naflex": [
        {
          "distance": 0.29359614849090576,
          "id": 1729359635
        },
        {
          "distance": 0.3097637891769409,
          "id": 1729359635
        },
        {
          "distance": 0.33824318647384644,
          "id": 1729357869
        },
        {
          "distance": 0.33862972259521484,
          "id": 1729357097
        },
        {
          "distance": 0.33884984254837036,
          "id": 1729362205
        },
        {
          "distance": 0.34035980701446533,
          "id": 1729356905
        },
        {
          "distance": 0.3496308922767639,
          "id": 1763558975
        },
        {
          "distance": 0.3549222946166992,
          "id": 1880151495
        },
        {
          "distance": 0.3622807264328003,
          "id": 1729360715
        },
        {
          "distance": 0.36330747604370117,
          "id": 1729357895
        }
      ]
    },
    "sfomuseum:placetype": "instagram",
    "src:geom": "sfomuseum",
    "wof:belongsto": [
      1159160869,
      102527513,
      102191575,
      85633793,
      102087579,
      85922583,
      85688637
    ],
    "wof:country": "US",
    "wof:created": 1447322460,
    "wof:geomhash": "b6e33f47475d56bc8da457bc31afadc8",
    "wof:hierarchy": [
      {
        "building_id": 1159160869,
        "campus_id": 102527513,
        "continent_id": 102191575,
        "country_id": 85633793,
        "county_id": 102087579,
        "custom_id": 1729361371,
        "instagram_id": 1729361371,
        "locality_id": 85922583,
        "neighbourhood_id": -1,
        "region_id": 85688637
      }
    ],
    "wof:id": 1729361371,
    "wof:lastmodified": 1787777645,
    "wof:name": "Art from the San Francisco Waldorf School will be up in the Arrivals Level of Terminal 1 until the end of the month...",
    "wof:parent_id": 1159160869,
    "wof:placetype": "custom",
    "wof:placetype_alt": [
      "instagram"
    ],
    "wof:repo": "sfomuseum-data-socialmedia-instagram",
    "wof:superseded_by": [],
    "wof:supersedes": []
  },
  "bbox": [
    -122.386166,
    37.616356,
    -122.386166,
    37.616356
  ],
  "geometry": {"type":"Point","coordinates":[-122.386166,37.616356]}
}
