{
  "id": 1729362371,
  "type": "Feature",
  "properties": {
    "date:cessation_lower": "2014-03-18",
    "date:cessation_upper": "2014-03-18",
    "date:inception_lower": "2014-03-18",
    "date:inception_upper": "2014-03-18",
    "edtf:cessation": "2014-03-18T05:14:00-07:00",
    "edtf:inception": "2014-03-18T05:14:00-07:00",
    "geom:area": 0,
    "geom:bbox": "-122.386166,37.616356,-122.386166,37.616356",
    "geom:latitude": 37.616356,
    "geom:longitude": -122.386166,
    "instagram:post": {
      "caption": {
        "body": "",
        "excerpt": "",
        "hashtags": [
          "books",
          "library",
          "aviation"
        ],
        "users": []
      },
      "media_id": "d2d54df75e9fdd7c9c12846c37201fe9",
      "path": "media/other/11380060_1004156412962907_433394556_n_17842411984062499.jpg",
      "perceptual_hash": "p:d12ec1d152e378f1",
      "taken": 1395144840,
      "taken_at": "Mar 18, 2014 12:14 pm"
    },
    "millsfield:similar": {
      "google/siglip2-so400m-patch16-naflex": [
        {
          "distance": 0.14792680740356445,
          "id": 1729361991
        },
        {
          "distance": 0.1509820818901062,
          "id": 1729362799
        },
        {
          "distance": 0.158686101436615,
          "id": 1729362903
        },
        {
          "distance": 0.16031843423843384,
          "id": 1729362799
        },
        {
          "distance": 0.17182469367980957,
          "id": 1729356635
        },
        {
          "distance": 0.17602771520614624,
          "id": 1729361991
        },
        {
          "distance": 0.1939460039138794,
          "id": 1729362903
        },
        {
          "distance": 0.22917360067367554,
          "id": 1729362739
        },
        {
          "distance": 0.23752939701080322,
          "id": 1729362895
        },
        {
          "distance": 0.23789364099502563,
          "id": 1729356635
        }
      ]
    },
    "sfomuseum:placetype": "instagram",
    "src:geom": "sfomuseum",
    "wof:belongsto": [
      1159160869,
      102527513,
      102191575,
      85633793,
      102087579,
      85922583,
      85688637
    ],
    "wof:country": "US",
    "wof:created": 1395144840,
    "wof:geomhash": "b6e33f47475d56bc8da457bc31afadc8",
    "wof:hierarchy": [
      {
        "building_id": 1159160869,
        "campus_id": 102527513,
        "continent_id": 102191575,
        "country_id": 85633793,
        "county_id": 102087579,
        "custom_id": 1729362371,
        "instagram_id": 1729362371,
        "locality_id": 85922583,
        "neighbourhood_id": -1,
        "region_id": 85688637
      }
    ],
    "wof:id": 1729362371,
    "wof:lastmodified": 1787777647,
    "wof:name": "..",
    "wof:parent_id": 1159160869,
    "wof:placetype": "custom",
    "wof:placetype_alt": [
      "instagram"
    ],
    "wof:repo": "sfomuseum-data-socialmedia-instagram",
    "wof:superseded_by": [],
    "wof:supersedes": []
  },
  "bbox": [
    -122.386166,
    37.616356,
    -122.386166,
    37.616356
  ],
  "geometry": {"type":"Point","coordinates":[-122.386166,37.616356]}
}
