{
  "id": 1729360495,
  "type": "Feature",
  "properties": {
    "date:cessation_lower": "2016-07-25",
    "date:cessation_upper": "2016-07-25",
    "date:inception_lower": "2016-07-25",
    "date:inception_upper": "2016-07-25",
    "edtf:cessation": "2016-07-25T15:55:00-07:00",
    "edtf:inception": "2016-07-25T15:55:00-07:00",
    "geom:area": 0,
    "geom:bbox": "-122.386166,37.616356,-122.386166,37.616356",
    "geom:latitude": 37.616356,
    "geom:longitude": -122.386166,
    "instagram:post": {
      "caption": {
        "body": "Happy birthday to Alphonse Mucha, who was born yesterday in 1860. His artwork represents the culmination of Art Nouveau graphic arts. Born in Moravia, in what is now the Czech Republic, Mucha first worked as a stage painter and attended the Académie Julian in Paris before he became a renowned graphic artist and designer.",
        "excerpt": "Happy birthday to Alphonse Mucha, who was born yesterday in 1860.",
        "hashtags": [
          "AlphonseMucha",
          "ArtNouveauSFO"
        ],
        "users": []
      },
      "media_id": "31bc03ae10529485c6c9d57286f7428c",
      "path": "media/other/13649150_458461330945047_2095244517_n_17849901193113773.jpg",
      "perceptual_hash": "p:ae62b525d19bc664",
      "taken": 1469487300,
      "taken_at": "Jul 25, 2016 10:55 pm"
    },
    "millsfield:similar": {
      "google/siglip2-so400m-patch16-naflex": [
        {
          "distance": 0.3421633839607239,
          "id": 1729361047
        },
        {
          "distance": 0.36643141508102417,
          "id": 1729360771
        },
        {
          "distance": 0.36974167823791504,
          "id": 1729361793
        },
        {
          "distance": 0.37352508306503296,
          "id": 1729361047
        },
        {
          "distance": 0.3735879063606262,
          "id": 1729356535
        },
        {
          "distance": 0.3826979994773865,
          "id": 1729359561
        },
        {
          "distance": 0.3828716278076172,
          "id": 1729359491
        },
        {
          "distance": 0.38697749376296997,
          "id": 1729360771
        },
        {
          "distance": 0.3870958685874939,
          "id": 1729359331
        },
        {
          "distance": 0.3946266174316406,
          "id": 1729359223
        }
      ]
    },
    "sfomuseum:placetype": "instagram",
    "src:geom": "sfomuseum",
    "wof:belongsto": [
      1159160869,
      102527513,
      102191575,
      85633793,
      102087579,
      85922583,
      85688637
    ],
    "wof:country": "US",
    "wof:created": 1469487300,
    "wof:geomhash": "b6e33f47475d56bc8da457bc31afadc8",
    "wof:hierarchy": [
      {
        "building_id": 1159160869,
        "campus_id": 102527513,
        "continent_id": 102191575,
        "country_id": 85633793,
        "county_id": 102087579,
        "custom_id": 1729360495,
        "instagram_id": 1729360495,
        "locality_id": 85922583,
        "neighbourhood_id": -1,
        "region_id": 85688637
      }
    ],
    "wof:id": 1729360495,
    "wof:lastmodified": 1787777640,
    "wof:name": "Happy birthday to Alphonse Mucha, who was born yesterday in 1860...",
    "wof:parent_id": 1159160869,
    "wof:placetype": "custom",
    "wof:placetype_alt": [
      "instagram"
    ],
    "wof:repo": "sfomuseum-data-socialmedia-instagram",
    "wof:superseded_by": [],
    "wof:supersedes": []
  },
  "bbox": [
    -122.386166,
    37.616356,
    -122.386166,
    37.616356
  ],
  "geometry": {"type":"Point","coordinates":[-122.386166,37.616356]}
}
