{
  "id": 1729360077,
  "type": "Feature",
  "properties": {
    "date:cessation_lower": "2016-11-26",
    "date:cessation_upper": "2016-11-26",
    "date:inception_lower": "2016-11-26",
    "date:inception_upper": "2016-11-26",
    "edtf:cessation": "2016-11-26T12:55:00-08:00",
    "edtf:inception": "2016-11-26T12:55:00-08:00",
    "geom:area": 0,
    "geom:bbox": "-122.386166,37.616356,-122.386166,37.616356",
    "geom:latitude": 37.616356,
    "geom:longitude": -122.386166,
    "instagram:post": {
      "caption": {
        "body": "SFO is constantly planning and implementing improvements to provide innovative terminals with the capacity to support an ever-increasing number of passengers.  One exciting current project is a multi-year renovation of Terminal 1.  See how far SFO has come since 1927 through historical photos in our online database: http://bit.ly/SFOHistory  San Francisco International Airport (SFO), parking garage construction 1968 SFO Museum Collection 2011.032.1776",
        "excerpt": "SFO is constantly planning and implementing improvements to provide innovative terminals with the capacity to support an ever-increasing number of passengers.",
        "hashtags": [],
        "users": []
      },
      "media_id": "32b020c5a17a38288270da670a0c8f18",
      "path": "media/posts/201611/14566802_1872428932993221_9105187713828519936_n_17865913117050719.jpg",
      "perceptual_hash": "p:c2e9f42ed13ed026",
      "taken": 1480193700,
      "taken_at": "Nov 26, 2016 8:55 pm"
    },
    "millsfield:similar": {
      "google/siglip2-so400m-patch16-naflex": [
        {
          "distance": 0.1233413815498352,
          "id": 1729356113
        },
        {
          "distance": 0.16939020156860352,
          "id": 1729360689
        },
        {
          "distance": 0.18343043327331543,
          "id": 1729356113
        },
        {
          "distance": 0.19196820259094238,
          "id": 1729360337
        },
        {
          "distance": 0.19572794437408447,
          "id": 1729360247
        },
        {
          "distance": 0.19870662689208984,
          "id": 1729355041
        },
        {
          "distance": 0.199956476688385,
          "id": 1729361129
        },
        {
          "distance": 0.2016150951385498,
          "id": 1729356895
        },
        {
          "distance": 0.21022814512252808,
          "id": 1729355041
        },
        {
          "distance": 0.21237462759017944,
          "id": 1729359077
        }
      ]
    },
    "sfomuseum:placetype": "instagram",
    "src:geom": "sfomuseum",
    "wof:belongsto": [
      1159160869,
      102527513,
      102191575,
      85633793,
      102087579,
      85922583,
      85688637
    ],
    "wof:country": "US",
    "wof:created": 1480193700,
    "wof:geomhash": "b6e33f47475d56bc8da457bc31afadc8",
    "wof:hierarchy": [
      {
        "building_id": 1159160869,
        "campus_id": 102527513,
        "continent_id": 102191575,
        "country_id": 85633793,
        "county_id": 102087579,
        "custom_id": 1729360077,
        "instagram_id": 1729360077,
        "locality_id": 85922583,
        "neighbourhood_id": -1,
        "region_id": 85688637
      }
    ],
    "wof:id": 1729360077,
    "wof:lastmodified": 1787777639,
    "wof:name": "SFO is constantly planning and implementing improvements to provide innovative terminals with the capacity to support an ever-increasing number of passengers...",
    "wof:parent_id": 1159160869,
    "wof:placetype": "custom",
    "wof:placetype_alt": [
      "instagram"
    ],
    "wof:repo": "sfomuseum-data-socialmedia-instagram",
    "wof:superseded_by": [],
    "wof:supersedes": []
  },
  "bbox": [
    -122.386166,
    37.616356,
    -122.386166,
    37.616356
  ],
  "geometry": {"type":"Point","coordinates":[-122.386166,37.616356]}
}
