{
  "id": 1729362931,
  "type": "Feature",
  "properties": {
    "date:cessation_lower": "2012-07-24",
    "date:cessation_upper": "2012-07-24",
    "date:inception_lower": "2012-07-24",
    "date:inception_upper": "2012-07-24",
    "edtf:cessation": "2012-07-24T02:14:00-07:00",
    "edtf:inception": "2012-07-24T02:14:00-07:00",
    "geom:area": 0,
    "geom:bbox": "-122.386166,37.616356,-122.386166,37.616356",
    "geom:latitude": 37.616356,
    "geom:longitude": -122.386166,
    "instagram:post": {
      "caption": {
        "body": "No sign of her yet, but happy 115th birthday to Amelia Earhart!",
        "excerpt": "No sign of her yet, but happy 115th birthday to Amelia Earhart!",
        "hashtags": [],
        "users": []
      },
      "media_id": "d0c7e1cf49bcf6cc91892e5d944b5874",
      "path": "media/other/11208117_473211112837862_1292305423_n_17842259602062499.jpg",
      "perceptual_hash": "p:bf7c9094cc39c463",
      "taken": 1343121240,
      "taken_at": "Jul 24, 2012 9:14 am"
    },
    "millsfield:similar": {
      "google/siglip2-so400m-patch16-naflex": [
        {
          "distance": 0.3083723783493042,
          "id": 1880150885
        },
        {
          "distance": 0.31066930294036865,
          "id": 1729359671
        },
        {
          "distance": 0.3166965842247009,
          "id": 1729359277
        },
        {
          "distance": 0.31739407777786255,
          "id": 1729361581
        },
        {
          "distance": 0.3215128183364868,
          "id": 1729357001
        },
        {
          "distance": 0.3252147436141968,
          "id": 1729361253
        },
        {
          "distance": 0.32572513818740845,
          "id": 1729361941
        },
        {
          "distance": 0.3280748724937439,
          "id": 1729357331
        },
        {
          "distance": 0.32918781042099,
          "id": 1729361991
        },
        {
          "distance": 0.3298090100288391,
          "id": 1729361391
        }
      ]
    },
    "sfomuseum:placetype": "instagram",
    "src:geom": "sfomuseum",
    "wof:belongsto": [
      1159160869,
      102527513,
      102191575,
      85633793,
      102087579,
      85922583,
      85688637
    ],
    "wof:country": "US",
    "wof:created": 1343121240,
    "wof:geomhash": "b6e33f47475d56bc8da457bc31afadc8",
    "wof:hierarchy": [
      {
        "building_id": 1159160869,
        "campus_id": 102527513,
        "continent_id": 102191575,
        "country_id": 85633793,
        "county_id": 102087579,
        "custom_id": 1729362931,
        "instagram_id": 1729362931,
        "locality_id": 85922583,
        "neighbourhood_id": -1,
        "region_id": 85688637
      }
    ],
    "wof:id": 1729362931,
    "wof:lastmodified": 1787777657,
    "wof:name": "No sign of her yet, but happy 115th birthday to Amelia Earhart!..",
    "wof:parent_id": 1159160869,
    "wof:placetype": "custom",
    "wof:placetype_alt": [
      "instagram"
    ],
    "wof:repo": "sfomuseum-data-socialmedia-instagram",
    "wof:superseded_by": [],
    "wof:supersedes": []
  },
  "bbox": [
    -122.386166,
    37.616356,
    -122.386166,
    37.616356
  ],
  "geometry": {"type":"Point","coordinates":[-122.386166,37.616356]}
}
