{
  "id": 1729361171,
  "type": "Feature",
  "properties": {
    "date:cessation_lower": "2016-01-14",
    "date:cessation_upper": "2016-01-14",
    "date:inception_lower": "2016-01-14",
    "date:inception_upper": "2016-01-14",
    "edtf:cessation": "2016-01-14T12:05:00-08:00",
    "edtf:inception": "2016-01-14T12:05:00-08:00",
    "geom:area": 0,
    "geom:bbox": "-122.386166,37.616356,-122.386166,37.616356",
    "geom:latitude": 37.616356,
    "geom:longitude": -122.386166,
    "instagram:post": {
      "caption": {
        "body": "",
        "excerpt": "",
        "hashtags": [
          "ThrowbackThursday",
          "TBT"
        ],
        "users": []
      },
      "media_id": "e1aba6cb927a33af4507e9f6f07ad2e4",
      "path": "media/other/12558807_972570592779361_1149016840_n_17852880760017476.jpg",
      "perceptual_hash": "p:c33c1c43e3bc4ae3",
      "taken": 1452801900,
      "taken_at": "Jan 14, 2016 8:05 pm"
    },
    "millsfield:similar": {
      "google/siglip2-so400m-patch16-naflex": [
        {
          "distance": 0.14463210105895996,
          "id": 1729358771
        },
        {
          "distance": 0.1733471155166626,
          "id": 1729358771
        },
        {
          "distance": 0.18798238039016724,
          "id": 1763558843
        },
        {
          "distance": 0.1884291172027588,
          "id": 1763559413
        },
        {
          "distance": 0.19350206851959229,
          "id": 1729356895
        },
        {
          "distance": 0.19494891166687012,
          "id": 1729359805
        },
        {
          "distance": 0.19904518127441406,
          "id": 1729360877
        },
        {
          "distance": 0.19963544607162476,
          "id": 1763558843
        },
        {
          "distance": 0.20337015390396118,
          "id": 1729360689
        },
        {
          "distance": 0.20342868566513062,
          "id": 1729356783
        }
      ]
    },
    "sfomuseum:placetype": "instagram",
    "src:geom": "sfomuseum",
    "wof:belongsto": [
      1159160869,
      102527513,
      102191575,
      85633793,
      102087579,
      85922583,
      85688637
    ],
    "wof:country": "US",
    "wof:created": 1452801900,
    "wof:geomhash": "b6e33f47475d56bc8da457bc31afadc8",
    "wof:hierarchy": [
      {
        "building_id": 1159160869,
        "campus_id": 102527513,
        "continent_id": 102191575,
        "country_id": 85633793,
        "county_id": 102087579,
        "custom_id": 1729361171,
        "instagram_id": 1729361171,
        "locality_id": 85922583,
        "neighbourhood_id": -1,
        "region_id": 85688637
      }
    ],
    "wof:id": 1729361171,
    "wof:lastmodified": 1787777645,
    "wof:name": "..",
    "wof:parent_id": 1159160869,
    "wof:placetype": "custom",
    "wof:placetype_alt": [
      "instagram"
    ],
    "wof:repo": "sfomuseum-data-socialmedia-instagram",
    "wof:superseded_by": [],
    "wof:supersedes": []
  },
  "bbox": [
    -122.386166,
    37.616356,
    -122.386166,
    37.616356
  ],
  "geometry": {"type":"Point","coordinates":[-122.386166,37.616356]}
}
