{
  "id": 1729361447,
  "type": "Feature",
  "properties": {
    "date:cessation_lower": "2015-10-20",
    "date:cessation_upper": "2015-10-20",
    "date:inception_lower": "2015-10-20",
    "date:inception_upper": "2015-10-20",
    "edtf:cessation": "2015-10-20T13:02:00-07:00",
    "edtf:inception": "2015-10-20T13:02:00-07:00",
    "geom:area": 0,
    "geom:bbox": "-122.386166,37.616356,-122.386166,37.616356",
    "geom:latitude": 37.616356,
    "geom:longitude": -122.386166,
    "instagram:post": {
      "caption": {
        "body": "",
        "excerpt": "",
        "hashtags": [
          "TravelTuesday"
        ],
        "users": []
      },
      "media_id": "41bc77695997262d1899bc0e1f4a855a",
      "path": "media/other/12093289_833472833433208_1150005628_n_17844528685062499.jpg",
      "perceptual_hash": "p:c33c32c796c13c9b",
      "taken": 1445371320,
      "taken_at": "Oct 20, 2015 8:02 pm"
    },
    "millsfield:similar": {
      "google/siglip2-so400m-patch16-naflex": [
        {
          "distance": 0.2529382109642029,
          "id": 1729356715
        },
        {
          "distance": 0.2726755142211914,
          "id": 1729359217
        },
        {
          "distance": 0.2787798047065735,
          "id": 1763558689
        },
        {
          "distance": 0.2787798047065735,
          "id": 1729359221
        },
        {
          "distance": 0.28227752447128296,
          "id": 1763558899
        },
        {
          "distance": 0.2906707525253296,
          "id": 1729359049
        },
        {
          "distance": 0.29290831089019775,
          "id": 1729360805
        },
        {
          "distance": 0.29709744453430176,
          "id": 1729359921
        },
        {
          "distance": 0.30250757932662964,
          "id": 1729360397
        },
        {
          "distance": 0.30676108598709106,
          "id": 1729358547
        }
      ]
    },
    "sfomuseum:placetype": "instagram",
    "src:geom": "sfomuseum",
    "wof:belongsto": [
      1159160869,
      102527513,
      102191575,
      85633793,
      102087579,
      85922583,
      85688637
    ],
    "wof:country": "US",
    "wof:created": 1445371320,
    "wof:geomhash": "b6e33f47475d56bc8da457bc31afadc8",
    "wof:hierarchy": [
      {
        "building_id": 1159160869,
        "campus_id": 102527513,
        "continent_id": 102191575,
        "country_id": 85633793,
        "county_id": 102087579,
        "custom_id": 1729361447,
        "instagram_id": 1729361447,
        "locality_id": 85922583,
        "neighbourhood_id": -1,
        "region_id": 85688637
      }
    ],
    "wof:id": 1729361447,
    "wof:lastmodified": 1787777645,
    "wof:name": "..",
    "wof:parent_id": 1159160869,
    "wof:placetype": "custom",
    "wof:placetype_alt": [
      "instagram"
    ],
    "wof:repo": "sfomuseum-data-socialmedia-instagram",
    "wof:superseded_by": [],
    "wof:supersedes": []
  },
  "bbox": [
    -122.386166,
    37.616356,
    -122.386166,
    37.616356
  ],
  "geometry": {"type":"Point","coordinates":[-122.386166,37.616356]}
}
