{
  "id": 1729357091,
  "type": "Feature",
  "properties": {
    "date:cessation_lower": "2019-01-16",
    "date:cessation_upper": "2019-01-16",
    "date:inception_lower": "2019-01-16",
    "date:inception_upper": "2019-01-16",
    "edtf:cessation": "2019-01-15T17:54:52-08:00",
    "edtf:inception": "2019-01-15T17:54:52-08:00",
    "geom:area": 0,
    "geom:bbox": "-122.386166,37.616356,-122.386166,37.616356",
    "geom:latitude": 37.616356,
    "geom:longitude": -122.386166,
    "instagram:post": {
      "caption": {
        "body": "A distinctly modern, consumer-based American youth culture emerged during the 1950s. On average, middle-class adolescents earned more in allowance per week than many families took in during the Great Depression, and young people became consumers for the first time. Toys and other products were marketed specifically to girls and boys, and kids personalized their rooms with a variety of items. Hula hoops, jump ropes, plastic purses, chewing-gum wrapper chains, and other fads abounded. \"The Modern Consumer: Products and Style\" is on display, post-security, in Terminal 3. http://bit.ly/1950sConsumer",
        "excerpt": "A distinctly modern, consumer-based American youth culture emerged during the 1950s.",
        "hashtags": [
          "1950sConsumer",
          "1950s",
          "50s"
        ],
        "users": []
      },
      "location": "",
      "media_id": "c1e67f3fd157e800babeda28429ebd25",
      "path": "photos/201901/c1e67f3fd157e800babeda28429ebd25.jpg",
      "perceptual_hash": "p:f912c64d7338c633",
      "taken": 1547574840,
      "taken_at": "Jan 15, 2019, 5:54 PM"
    },
    "millsfield:similar": {
      "google/siglip2-so400m-patch16-naflex": [
        {
          "distance": 0.14357072114944458,
          "id": 1729357095
        },
        {
          "distance": 0.23468464612960815,
          "id": 1729357095
        },
        {
          "distance": 0.30297964811325073,
          "id": 1729357113
        },
        {
          "distance": 0.3450140953063965,
          "id": 1729356873
        },
        {
          "distance": 0.34716928005218506,
          "id": 1729358115
        },
        {
          "distance": 0.3568890690803528,
          "id": 1729358245
        },
        {
          "distance": 0.3586370348930359,
          "id": 1729357113
        },
        {
          "distance": 0.3753018379211426,
          "id": 1729358247
        },
        {
          "distance": 0.3838517665863037,
          "id": 1729358269
        },
        {
          "distance": 0.3847154378890991,
          "id": 1729356873
        }
      ]
    },
    "sfomuseum:placetype": "instagram",
    "src:geom": "sfomuseum",
    "wof:belongsto": [
      1159160869,
      102527513,
      102191575,
      85633793,
      102087579,
      85922583,
      85688637
    ],
    "wof:country": "US",
    "wof:created": 1547603692,
    "wof:geomhash": "b6e33f47475d56bc8da457bc31afadc8",
    "wof:hierarchy": [
      {
        "building_id": 1159160869,
        "campus_id": 102527513,
        "continent_id": 102191575,
        "country_id": 85633793,
        "county_id": 102087579,
        "custom_id": 1729357091,
        "instagram_id": 1729357091,
        "locality_id": 85922583,
        "neighbourhood_id": -1,
        "region_id": 85688637
      }
    ],
    "wof:id": 1729357091,
    "wof:lastmodified": 1787777630,
    "wof:name": "A distinctly modern, consumer-based American youth culture emerged during the 1950s...",
    "wof:parent_id": 1159160869,
    "wof:placetype": "custom",
    "wof:placetype_alt": [
      "instagram"
    ],
    "wof:repo": "sfomuseum-data-socialmedia-instagram",
    "wof:superseded_by": [],
    "wof:supersedes": []
  },
  "bbox": [
    -122.386166,
    37.616356,
    -122.386166,
    37.616356
  ],
  "geometry": {"type":"Point","coordinates":[-122.386166,37.616356]}
}
