{
  "id": 1947425345,
  "type": "Feature",
  "properties": {
    "date:cessation_lower": "2023-07-25",
    "date:cessation_upper": "2023-07-25",
    "date:inception_lower": "2023-07-25",
    "date:inception_upper": "2023-07-25",
    "edtf:cessation": "2023-07-25T01:48:00-07:00",
    "edtf:inception": "2023-07-25T01:48:00-07:00",
    "geom:area": 0,
    "geom:bbox": "-122.386166,37.616356,-122.386166,37.616356",
    "geom:latitude": 37.616356,
    "geom:longitude": -122.386166,
    "instagram:post": {
      "caption": {
        "body": "𝘙𝘪𝘨𝘰𝘭𝘦𝘵𝘵𝘰 closed San Francisco Opera’s first season in 1923. Composed by Italian Giuseppe Verdi (1813–1901), 𝘙𝘪𝘨𝘰𝘭𝘦𝘵𝘵𝘰’s story was adapted by Italian librettist Francesco Maria Piave (1810–76) from French Romantic novelist and poet Victor-Marie Hugo’s (1802–85) play 𝘓𝘦 𝘙𝘰𝘪 𝘴’𝘢𝘮𝘶𝘴𝘦. Considered a 19th–century operatic masterpiece, the dramatic plot of 𝘙𝘪𝘨𝘰𝘭𝘦𝘵𝘵𝘰 is centered around a prophetic curse that ends in tragedy. During the 2012 San Francisco Opera production, Rigoletto’s master, The Duke of Mantua, was played by Mexican tenor Arturo Chacón-Cruz (b. 1977), winner of the 2005 Operalia, an annual competition that was founded by Spanish opera singer and conductor Plácido Domingo (b. 1941). Italian baritone Marco Vratogna (b. 1973), who studied at the Conservatorio Giacomo Puccini in his hometown of La Spezia, sang the title role and wore the Rigoletto costume on exhibition—complete with jester’s scepters that represent the lead character’s alter egos.   Learn more about San Francisco Opera’s history in our exhibition “San Francisco Opera: A Centennial Celebration” on display, post-security, in Harvey Milk Terminal 1. https://bit.ly/SFOperaCentennial",
        "excerpt": "𝘙𝘪𝘨𝘰𝘭𝘦𝘵𝘵𝘰 closed San Francisco Opera’s first season in 1923.",
        "hashtags": [
          "SFOperaCentennial",
          "SFOpera",
          "Opera"
        ],
        "users": [
          "sfopera"
        ]
      },
      "media_id": "0f431f86a1af54dffdcc456cd0017604349de048",
      "path": "media/posts/202307/359834609_732558015547797_2021478922670848972_n_18043795387478088.jpg",
      "perceptual_hash": "p:c652390d47de70b9",
      "taken": 1690274880,
      "taken_at": "Jul 25, 2023 8:48 am"
    },
    "millsfield:similar": {
      "google/siglip2-so400m-patch16-naflex": []
    },
    "sfomuseum:placetype": "instagram",
    "src:geom": "sfomuseum",
    "wof:belongsto": [
      1159160869,
      102527513,
      102191575,
      85633793,
      102087579,
      85922583,
      85688637
    ],
    "wof:country": "US",
    "wof:created": 1690274880,
    "wof:geomhash": "b6e33f47475d56bc8da457bc31afadc8",
    "wof:hierarchy": [
      {
        "building_id": 1159160869,
        "campus_id": 102527513,
        "continent_id": 102191575,
        "country_id": 85633793,
        "county_id": 102087579,
        "custom_id": 1947425345,
        "locality_id": 85922583,
        "neighbourhood_id": -1,
        "region_id": 85688637
      }
    ],
    "wof:id": 1947425345,
    "wof:lastmodified": 1787777664,
    "wof:name": "𝘙𝘪𝘨𝘰𝘭𝘦𝘵𝘵𝘰 closed San Francisco Opera’s first season in 1923...",
    "wof:parent_id": 1159160869,
    "wof:placetype": "custom",
    "wof:repo": "sfomuseum-data-socialmedia-instagram",
    "wof:superseded_by": [],
    "wof:supersedes": []
  },
  "bbox": [
    -122.386166,
    37.616356,
    -122.386166,
    37.616356
  ],
  "geometry": {"type":"Point","coordinates":[-122.386166,37.616356]}
}
