{
  "id": 1729357737,
  "type": "Feature",
  "properties": {
    "date:cessation_lower": "2018-08-31",
    "date:cessation_upper": "2018-08-31",
    "date:inception_lower": "2018-08-31",
    "date:inception_upper": "2018-08-31",
    "edtf:cessation": "2018-08-31T03:12:00-07:00",
    "edtf:inception": "2018-08-31T03:12:00-07:00",
    "geom:area": 0,
    "geom:bbox": "-122.386166,37.616356,-122.386166,37.616356",
    "geom:latitude": 37.616356,
    "geom:longitude": -122.386166,
    "instagram:post": {
      "caption": {
        "body": "Wonder what's happening behind the scenes at SFO Museum? Want to know more about the history of the airport? Check out our new blog!  http://bit.ly/SFOMBlog  Image: San Francisco Bay Area map, airfields, c. 1927. SFO Museum Collection. 2000.018.059",
        "excerpt": "Wonder what's happening behind the scenes at SFO Museum?",
        "hashtags": [],
        "users": []
      },
      "media_id": "3f4a3e4ab9b006e49c1ba77e91487a8b",
      "path": "media/other/39790042_311702979594269_2907822799332573184_n_17868227743278303.jpg",
      "perceptual_hash": "p:dd494bc326923c3e",
      "taken": 1535710320,
      "taken_at": "Aug 31, 2018 10:12 am"
    },
    "millsfield:similar": {
      "google/siglip2-so400m-patch16-naflex": [
        {
          "distance": 0.1742052435874939,
          "id": 1729362391
        },
        {
          "distance": 0.17965692281723022,
          "id": 1729362089
        },
        {
          "distance": 0.19617241621017456,
          "id": 1763559455
        },
        {
          "distance": 0.19679713249206543,
          "id": 1729355339
        },
        {
          "distance": 0.19935452938079834,
          "id": 1729355665
        },
        {
          "distance": 0.1997869610786438,
          "id": 1729360929
        },
        {
          "distance": 0.20649218559265137,
          "id": 1763559173
        },
        {
          "distance": 0.2072080373764038,
          "id": 1880151203
        },
        {
          "distance": 0.209184467792511,
          "id": 1729360929
        },
        {
          "distance": 0.20982861518859863,
          "id": 1729362309
        }
      ]
    },
    "sfomuseum:placetype": "instagram",
    "src:geom": "sfomuseum",
    "wof:belongsto": [
      1159160869,
      102527513,
      102191575,
      85633793,
      102087579,
      85922583,
      85688637
    ],
    "wof:country": "US",
    "wof:created": 1535710320,
    "wof:geomhash": "b6e33f47475d56bc8da457bc31afadc8",
    "wof:hierarchy": [
      {
        "building_id": 1159160869,
        "campus_id": 102527513,
        "continent_id": 102191575,
        "country_id": 85633793,
        "county_id": 102087579,
        "custom_id": 1729357737,
        "instagram_id": 1729357737,
        "locality_id": 85922583,
        "neighbourhood_id": -1,
        "region_id": 85688637
      }
    ],
    "wof:id": 1729357737,
    "wof:lastmodified": 1787777632,
    "wof:name": "Wonder what's happening behind the scenes at SFO Museum?..",
    "wof:parent_id": 1159160869,
    "wof:placetype": "custom",
    "wof:placetype_alt": [
      "instagram"
    ],
    "wof:repo": "sfomuseum-data-socialmedia-instagram",
    "wof:superseded_by": [],
    "wof:supersedes": []
  },
  "bbox": [
    -122.386166,
    37.616356,
    -122.386166,
    37.616356
  ],
  "geometry": {"type":"Point","coordinates":[-122.386166,37.616356]}
}
