{
  "id": 1729361711,
  "type": "Feature",
  "properties": {
    "date:cessation_lower": "2015-07-17",
    "date:cessation_upper": "2015-07-17",
    "date:inception_lower": "2015-07-17",
    "date:inception_upper": "2015-07-17",
    "edtf:cessation": "2015-07-17T03:04:00-07:00",
    "edtf:inception": "2015-07-17T03:04:00-07:00",
    "geom:area": 0,
    "geom:bbox": "-122.386166,37.616356,-122.386166,37.616356",
    "geom:latitude": 37.616356,
    "geom:longitude": -122.386166,
    "instagram:post": {
      "caption": {
        "body": "It's the last month to come and see our #joseffofhollywood exhibition featuring jewelry from some of your favorite classic movies! Thanks to @nconrick for the great photo recap!",
        "excerpt": "It's the last month to come and see our #joseffofhollywood exhibition featuring jewelry from some of your favorite classic movies!",
        "hashtags": [
          "Repost",
          "vintage",
          "jewelry",
          "hollywood",
          "sanfrancisco"
        ],
        "users": []
      },
      "media_id": "1fa3eb01990acffe92aaa0a1e5d20336",
      "path": "media/other/11176481_1424093294587782_1401258223_n_17842004977062499.jpg",
      "perceptual_hash": "p:eb1ff03ee5608861",
      "taken": 1437127440,
      "taken_at": "Jul 17, 2015 10:04 am"
    },
    "millsfield:similar": {
      "google/siglip2-so400m-patch16-naflex": [
        {
          "distance": 0.3380551338195801,
          "id": 1729361839
        },
        {
          "distance": 0.363736093044281,
          "id": 1729362005
        },
        {
          "distance": 0.3709965944290161,
          "id": 1729361685
        },
        {
          "distance": 0.37314486503601074,
          "id": 1729362797
        },
        {
          "distance": 0.388827919960022,
          "id": 1729361649
        },
        {
          "distance": 0.397438108921051,
          "id": 1729361649
        },
        {
          "distance": 0.4001504182815552,
          "id": 1729362795
        },
        {
          "distance": 0.4006710648536682,
          "id": 1729361839
        },
        {
          "distance": 0.40182268619537354,
          "id": 1729361863
        },
        {
          "distance": 0.40373557806015015,
          "id": 1729361663
        }
      ]
    },
    "sfomuseum:placetype": "instagram",
    "src:geom": "sfomuseum",
    "wof:belongsto": [
      1159160869,
      102527513,
      102191575,
      85633793,
      102087579,
      85922583,
      85688637
    ],
    "wof:country": "US",
    "wof:created": 1437127440,
    "wof:geomhash": "b6e33f47475d56bc8da457bc31afadc8",
    "wof:hierarchy": [
      {
        "building_id": 1159160869,
        "campus_id": 102527513,
        "continent_id": 102191575,
        "country_id": 85633793,
        "county_id": 102087579,
        "custom_id": 1729361711,
        "instagram_id": 1729361711,
        "locality_id": 85922583,
        "neighbourhood_id": -1,
        "region_id": 85688637
      }
    ],
    "wof:id": 1729361711,
    "wof:lastmodified": 1787777646,
    "wof:name": "It's the last month to come and see our #joseffofhollywood exhibition featuring jewelry from some of your favorite classic movies!..",
    "wof:parent_id": 1159160869,
    "wof:placetype": "custom",
    "wof:placetype_alt": [
      "instagram"
    ],
    "wof:repo": "sfomuseum-data-socialmedia-instagram",
    "wof:superseded_by": [],
    "wof:supersedes": []
  },
  "bbox": [
    -122.386166,
    37.616356,
    -122.386166,
    37.616356
  ],
  "geometry": {"type":"Point","coordinates":[-122.386166,37.616356]}
}
