{
  "id": 1729359793,
  "type": "Feature",
  "properties": {
    "date:cessation_lower": "2017-02-19",
    "date:cessation_upper": "2017-02-19",
    "date:inception_lower": "2017-02-19",
    "date:inception_upper": "2017-02-19",
    "edtf:cessation": "2017-02-19T05:27:00-08:00",
    "edtf:inception": "2017-02-19T05:27:00-08:00",
    "geom:area": 0,
    "geom:bbox": "-122.386166,37.616356,-122.386166,37.616356",
    "geom:latitude": 37.616356,
    "geom:longitude": -122.386166,
    "instagram:post": {
      "caption": {
        "body": "#OnThisDay in 1982, the first test flight of the #Boeing 757 took off. Boeing 757s were produced between 1981 to 2004 and are still in service today. Have you ever flown on a Boeing 757? #aviationhistory #avgeek #boeing757  Image: Eastern Air Lines postcard, Boeing 757, 1980s, Gift of Captain Jon Simmonds, 2015.057.407",
        "excerpt": "#OnThisDay in 1982, the first test flight of the #Boeing 757 took off.",
        "hashtags": [],
        "users": []
      },
      "media_id": "47c4ff319047c7e7dca5052ca499d9da",
      "path": "media/posts/201702/16789836_197564117391776_8410852692187938816_n_17862557974106366.jpg",
      "perceptual_hash": "p:ff6a9ac2a4b492c2",
      "taken": 1487510820,
      "taken_at": "Feb 19, 2017 1:27 pm"
    },
    "millsfield:similar": {
      "google/siglip2-so400m-patch16-naflex": [
        {
          "distance": 0.15874063968658447,
          "id": 1729357575
        },
        {
          "distance": 0.16917330026626587,
          "id": 1729358105
        },
        {
          "distance": 0.17385536432266235,
          "id": 1729357769
        },
        {
          "distance": 0.18890559673309326,
          "id": 1729358663
        },
        {
          "distance": 0.18929725885391235,
          "id": 1729355477
        },
        {
          "distance": 0.1932373046875,
          "id": 1729359569
        },
        {
          "distance": 0.1963847279548645,
          "id": 1729355649
        },
        {
          "distance": 0.19767504930496216,
          "id": 1729358563
        },
        {
          "distance": 0.19866150617599487,
          "id": 1729355649
        },
        {
          "distance": 0.19945192337036133,
          "id": 1729357629
        }
      ]
    },
    "sfomuseum:placetype": "instagram",
    "src:geom": "sfomuseum",
    "wof:belongsto": [
      1159160869,
      102527513,
      102191575,
      85633793,
      102087579,
      85922583,
      85688637
    ],
    "wof:country": "US",
    "wof:created": 1487510820,
    "wof:geomhash": "b6e33f47475d56bc8da457bc31afadc8",
    "wof:hierarchy": [
      {
        "building_id": 1159160869,
        "campus_id": 102527513,
        "continent_id": 102191575,
        "country_id": 85633793,
        "county_id": 102087579,
        "custom_id": 1729359793,
        "instagram_id": 1729359793,
        "locality_id": 85922583,
        "neighbourhood_id": -1,
        "region_id": 85688637
      }
    ],
    "wof:id": 1729359793,
    "wof:lastmodified": 1787777637,
    "wof:name": "#OnThisDay in 1982, the first test flight of the #Boeing 757 took off...",
    "wof:parent_id": 1159160869,
    "wof:placetype": "custom",
    "wof:placetype_alt": [
      "instagram"
    ],
    "wof:repo": "sfomuseum-data-socialmedia-instagram",
    "wof:superseded_by": [],
    "wof:supersedes": []
  },
  "bbox": [
    -122.386166,
    37.616356,
    -122.386166,
    37.616356
  ],
  "geometry": {"type":"Point","coordinates":[-122.386166,37.616356]}
}
