{
  "id": 1763558699,
  "type": "Feature",
  "properties": {
    "date:cessation_lower": "2017-12-07",
    "date:cessation_upper": "2017-12-07",
    "date:inception_lower": "2017-12-07",
    "date:inception_upper": "2017-12-07",
    "edtf:cessation": "2017-12-07T08:53:00-08:00",
    "edtf:inception": "2017-12-07T08:53:00-08:00",
    "geom:area": 0,
    "geom:bbox": "-122.386166,37.616356,-122.386166,37.616356",
    "geom:latitude": 37.616356,
    "geom:longitude": -122.386166,
    "instagram:post": {
      "caption": {
        "body": "Art found in ancient sites throughout the Chiapas highlands preserves images of early attire and the oldest symbols utilized in contemporary Mayan weaving. A stone carving from a lintel at the Bonampak temple complex shows one of the most common ancient designs, known today as the cruz or feathered cross. The symbol decorates a long and elaborate huipil worn by Lady K'ab'al Xook, queen of Yaxchilán, who is performing a bloodletting ritual with her husband, Shield Jaguar II in the year 709CE. Glyphs on the lintel identify dates along with the king and queen, yet do not give a name or interpretation of the cruz symbol. While the true meaning of the feathered cross is lost to time, its design survives in weaving as a representation of Mayan antiquity.  Learn more about \"Empowering Threads: Textiles of Jolom Mayaetik\" on display, pre-security, in the International Terminal. http://bit.ly/EmpoweringThreads",
        "excerpt": "Art found in ancient sites throughout the Chiapas highlands preserves images of early attire and the oldest symbols utilized in contemporary Mayan weaving.",
        "hashtags": [
          "EmpoweringThreads",
          "mayantextiles",
          "textile",
          "textiles",
          "mayan",
          "mexico",
          "mexican",
          "mexicanhistory",
          "mayanhistory",
          "JolomMayaetik",
          "weavers",
          "weaving",
          "blouses",
          "huipiles",
          "looms",
          "backstraploom",
          "mayanculture",
          "handwoven",
          "sewing",
          "cooperativa",
          "artesanaschiapanecas",
          "chiapas",
          "cojinesartesanales",
          "artesanias",
          "empoweringwomen"
        ],
        "users": []
      },
      "media_id": "fd0a860549a289e5199ca9d524dc77d56dca514a",
      "path": "media/posts/201712/25008726_1483332705054187_7061293943954079744_n_17882163847171004.jpg",
      "perceptual_hash": "p:e19e8e929b868b4d",
      "taken": 1512665580,
      "taken_at": "Dec 07, 2017 4:53 pm"
    },
    "millsfield:similar": {
      "google/siglip2-so400m-patch16-naflex": [
        {
          "distance": 0.00002390146255493164,
          "id": 1729358843
        },
        {
          "distance": 0.10935801267623901,
          "id": 1729358557
        },
        {
          "distance": 0.19675540924072266,
          "id": 1729358617
        },
        {
          "distance": 0.20059311389923096,
          "id": 1729358843
        },
        {
          "distance": 0.25967472791671753,
          "id": 1729358557
        },
        {
          "distance": 0.2930012345314026,
          "id": 1729358419
        },
        {
          "distance": 0.3082003593444824,
          "id": 1729358427
        },
        {
          "distance": 0.31365716457366943,
          "id": 1729358581
        },
        {
          "distance": 0.3137595057487488,
          "id": 1729358835
        },
        {
          "distance": 0.3174211382865906,
          "id": 1729358527
        }
      ]
    },
    "sfomuseum:placetype": "instagram",
    "src:geom": "sfomuseum",
    "wof:belongsto": [
      1159160869,
      102527513,
      102191575,
      85633793,
      102087579,
      85922583,
      85688637
    ],
    "wof:country": "US",
    "wof:created": 1512665580,
    "wof:geomhash": "b6e33f47475d56bc8da457bc31afadc8",
    "wof:hierarchy": [
      {
        "building_id": 1159160869,
        "campus_id": 102527513,
        "continent_id": 102191575,
        "country_id": 85633793,
        "county_id": 102087579,
        "custom_id": 1763558699,
        "instagram_id": 1763558699,
        "locality_id": 85922583,
        "neighbourhood_id": -1,
        "region_id": 85688637
      }
    ],
    "wof:id": 1763558699,
    "wof:lastmodified": 1787777659,
    "wof:name": "Art found in ancient sites throughout the Chiapas highlands preserves images of early attire and the oldest symbols utilized in contemporary Mayan weaving...",
    "wof:parent_id": 1159160869,
    "wof:placetype": "custom",
    "wof:placetype_alt": [
      "instagram"
    ],
    "wof:repo": "sfomuseum-data-socialmedia-instagram",
    "wof:superseded_by": [],
    "wof:supersedes": []
  },
  "bbox": [
    -122.386166,
    37.616356,
    -122.386166,
    37.616356
  ],
  "geometry": {"type":"Point","coordinates":[-122.386166,37.616356]}
}
