{
  "id": 1729361699,
  "type": "Feature",
  "properties": {
    "date:cessation_lower": "2015-07-13",
    "date:cessation_upper": "2015-07-13",
    "date:inception_lower": "2015-07-13",
    "date:inception_upper": "2015-07-13",
    "edtf:cessation": "2015-07-13T08:54:00-07:00",
    "edtf:inception": "2015-07-13T08:54:00-07:00",
    "geom:area": 0,
    "geom:bbox": "-122.386166,37.616356,-122.386166,37.616356",
    "geom:latitude": 37.616356,
    "geom:longitude": -122.386166,
    "instagram:post": {
      "caption": {
        "body": "",
        "excerpt": "",
        "hashtags": [
          "ILoveYouCA",
          "owlpuns",
          "birdpuns",
          "naturalhistory"
        ],
        "users": []
      },
      "media_id": "1c7ac5ad40b2d5c9f3662e0b178509a5",
      "path": "media/other/11420735_1633622100252418_1287101660_n_17841988072062499.jpg",
      "perceptual_hash": "p:dd6610273933bc39",
      "taken": 1436802840,
      "taken_at": "Jul 13, 2015 3:54 pm"
    },
    "millsfield:similar": {
      "google/siglip2-so400m-patch16-naflex": [
        {
          "distance": 0.1796761155128479,
          "id": 1729359673
        },
        {
          "distance": 0.20562487840652466,
          "id": 1729359673
        },
        {
          "distance": 0.22998046875,
          "id": 1729361803
        },
        {
          "distance": 0.24121791124343872,
          "id": 1729361803
        },
        {
          "distance": 0.25270700454711914,
          "id": 1729361773
        },
        {
          "distance": 0.2535429000854492,
          "id": 1729361773
        },
        {
          "distance": 0.28718358278274536,
          "id": 1729356269
        },
        {
          "distance": 0.2950447201728821,
          "id": 1729356593
        },
        {
          "distance": 0.3041664958000183,
          "id": 1729356371
        },
        {
          "distance": 0.31072998046875,
          "id": 1729355879
        }
      ]
    },
    "sfomuseum:placetype": "instagram",
    "src:geom": "sfomuseum",
    "wof:belongsto": [
      1159160869,
      102527513,
      102191575,
      85633793,
      102087579,
      85922583,
      85688637
    ],
    "wof:country": "US",
    "wof:created": 1436802840,
    "wof:geomhash": "b6e33f47475d56bc8da457bc31afadc8",
    "wof:hierarchy": [
      {
        "building_id": 1159160869,
        "campus_id": 102527513,
        "continent_id": 102191575,
        "country_id": 85633793,
        "county_id": 102087579,
        "custom_id": 1729361699,
        "instagram_id": 1729361699,
        "locality_id": 85922583,
        "neighbourhood_id": -1,
        "region_id": 85688637
      }
    ],
    "wof:id": 1729361699,
    "wof:lastmodified": 1787777646,
    "wof:name": "..",
    "wof:parent_id": 1159160869,
    "wof:placetype": "custom",
    "wof:placetype_alt": [
      "instagram"
    ],
    "wof:repo": "sfomuseum-data-socialmedia-instagram",
    "wof:superseded_by": [],
    "wof:supersedes": []
  },
  "bbox": [
    -122.386166,
    37.616356,
    -122.386166,
    37.616356
  ],
  "geometry": {"type":"Point","coordinates":[-122.386166,37.616356]}
}
