{
  "id": 1729360999,
  "type": "Feature",
  "properties": {
    "date:cessation_lower": "2016-02-26",
    "date:cessation_upper": "2016-02-26",
    "date:inception_lower": "2016-02-26",
    "date:inception_upper": "2016-02-26",
    "edtf:cessation": "2016-02-26T11:55:00-08:00",
    "edtf:inception": "2016-02-26T11:55:00-08:00",
    "geom:area": 0,
    "geom:bbox": "-122.386166,37.616356,-122.386166,37.616356",
    "geom:latitude": 37.616356,
    "geom:longitude": -122.386166,
    "instagram:post": {
      "caption": {
        "body": "According to this 1940s advertisement, Airlite Syracuse China, took 30 months of experimentation by American Airlines engineers and Syracuse China potters to create. The finished product was claimed to be the lightest, thinnest China mass produced for commercial usage. Lightweight creations such as this allowed carriers to maintain maximum passenger and freight loads, while maintaining the level of service their customers expected.  American Airlines advertisement c. 1946 SFO Museum Collection 2001.013.003",
        "excerpt": "According to this 1940s advertisement, Airlite Syracuse China, took 30 months of experimentation by American Airlines engineers and Syracuse China potters to create.",
        "hashtags": [],
        "users": []
      },
      "media_id": "d06871cda3f5a160772ba037065347c9",
      "path": "media/other/12748365_974158875953348_1600821022_n_17853754390039449.jpg",
      "perceptual_hash": "p:ea68b591994b81b7",
      "taken": 1456516500,
      "taken_at": "Feb 26, 2016 7:55 pm"
    },
    "millsfield:similar": {
      "google/siglip2-so400m-patch16-naflex": [
        {
          "distance": 0.38218504190444946,
          "id": 1729358855
        },
        {
          "distance": 0.386135458946228,
          "id": 1729359397
        },
        {
          "distance": 0.3890974521636963,
          "id": 1729360805
        },
        {
          "distance": 0.39504069089889526,
          "id": 1763559085
        },
        {
          "distance": 0.4029228687286377,
          "id": 1763558899
        },
        {
          "distance": 0.40609949827194214,
          "id": 1729359659
        },
        {
          "distance": 0.40882664918899536,
          "id": 1729355263
        },
        {
          "distance": 0.4097626805305481,
          "id": 1729358635
        },
        {
          "distance": 0.4148281216621399,
          "id": 1729360367
        },
        {
          "distance": 0.41626209020614624,
          "id": 1729359067
        }
      ]
    },
    "sfomuseum:placetype": "instagram",
    "src:geom": "sfomuseum",
    "wof:belongsto": [
      1159160869,
      102527513,
      102191575,
      85633793,
      102087579,
      85922583,
      85688637
    ],
    "wof:country": "US",
    "wof:created": 1456516500,
    "wof:geomhash": "b6e33f47475d56bc8da457bc31afadc8",
    "wof:hierarchy": [
      {
        "building_id": 1159160869,
        "campus_id": 102527513,
        "continent_id": 102191575,
        "country_id": 85633793,
        "county_id": 102087579,
        "custom_id": 1729360999,
        "instagram_id": 1729360999,
        "locality_id": 85922583,
        "neighbourhood_id": -1,
        "region_id": 85688637
      }
    ],
    "wof:id": 1729360999,
    "wof:lastmodified": 1787777640,
    "wof:name": "According to this 1940s advertisement, Airlite Syracuse China, took 30 months of experimentation by American Airlines engineers and Syracuse China potters to create...",
    "wof:parent_id": 1159160869,
    "wof:placetype": "custom",
    "wof:placetype_alt": [
      "instagram"
    ],
    "wof:repo": "sfomuseum-data-socialmedia-instagram",
    "wof:superseded_by": [],
    "wof:supersedes": []
  },
  "bbox": [
    -122.386166,
    37.616356,
    -122.386166,
    37.616356
  ],
  "geometry": {"type":"Point","coordinates":[-122.386166,37.616356]}
}
