{
  "id": 1729363025,
  "type": "Feature",
  "properties": {
    "date:cessation_lower": "2012-04-25",
    "date:cessation_upper": "2012-04-25",
    "date:inception_lower": "2012-04-25",
    "date:inception_upper": "2012-04-25",
    "edtf:cessation": "2012-04-25T07:55:00-07:00",
    "edtf:inception": "2012-04-25T07:55:00-07:00",
    "geom:area": 0,
    "geom:bbox": "-122.386166,37.616356,-122.386166,37.616356",
    "geom:latitude": 37.616356,
    "geom:longitude": -122.386166,
    "instagram:post": {
      "caption": {
        "body": "Panel in progress on museum partnerships at the Aviation Museum!",
        "excerpt": "Panel in progress on museum partnerships at the Aviation Museum!",
        "hashtags": [],
        "users": []
      },
      "media_id": "52e8f01fb262e04dbefd79134b705897",
      "path": "media/other/11189978_625413807559286_402052153_n_17842248424062499.jpg",
      "perceptual_hash": "p:ee961bc2c59ce381",
      "taken": 1335365700,
      "taken_at": "Apr 25, 2012 2:55 pm"
    },
    "millsfield:similar": {
      "google/siglip2-so400m-patch16-naflex": [
        {
          "distance": 0.07693654298782349,
          "id": 1729362583
        },
        {
          "distance": 0.08482062816619873,
          "id": 1729361911
        },
        {
          "distance": 0.1254151463508606,
          "id": 1729361911
        },
        {
          "distance": 0.1386241912841797,
          "id": 1729362583
        },
        {
          "distance": 0.25516200065612793,
          "id": 1729361913
        },
        {
          "distance": 0.25570225715637207,
          "id": 1729362935
        },
        {
          "distance": 0.28516441583633423,
          "id": 1947425189
        },
        {
          "distance": 0.28850090503692627,
          "id": 1729362935
        },
        {
          "distance": 0.29430973529815674,
          "id": 1729362979
        },
        {
          "distance": 0.29834282398223877,
          "id": 1729363057
        }
      ]
    },
    "sfomuseum:placetype": "instagram",
    "src:geom": "sfomuseum",
    "wof:belongsto": [
      1159160869,
      102527513,
      102191575,
      85633793,
      102087579,
      85922583,
      85688637
    ],
    "wof:country": "US",
    "wof:created": 1335365700,
    "wof:geomhash": "b6e33f47475d56bc8da457bc31afadc8",
    "wof:hierarchy": [
      {
        "building_id": 1159160869,
        "campus_id": 102527513,
        "continent_id": 102191575,
        "country_id": 85633793,
        "county_id": 102087579,
        "custom_id": 1729363025,
        "instagram_id": 1729363025,
        "locality_id": 85922583,
        "neighbourhood_id": -1,
        "region_id": 85688637
      }
    ],
    "wof:id": 1729363025,
    "wof:lastmodified": 1787777657,
    "wof:name": "Panel in progress on museum partnerships at the Aviation Museum!..",
    "wof:parent_id": 1159160869,
    "wof:placetype": "custom",
    "wof:placetype_alt": [
      "instagram"
    ],
    "wof:repo": "sfomuseum-data-socialmedia-instagram",
    "wof:superseded_by": [],
    "wof:supersedes": []
  },
  "bbox": [
    -122.386166,
    37.616356,
    -122.386166,
    37.616356
  ],
  "geometry": {"type":"Point","coordinates":[-122.386166,37.616356]}
}
