{
  "id": 1729362495,
  "type": "Feature",
  "properties": {
    "date:cessation_lower": "2013-10-29",
    "date:cessation_upper": "2013-10-29",
    "date:inception_lower": "2013-10-29",
    "date:inception_upper": "2013-10-29",
    "edtf:cessation": "2013-10-29T08:36:00-07:00",
    "edtf:inception": "2013-10-29T08:36:00-07:00",
    "geom:area": 0,
    "geom:bbox": "-122.386166,37.616356,-122.386166,37.616356",
    "geom:latitude": 37.616356,
    "geom:longitude": -122.386166,
    "instagram:post": {
      "caption": {
        "body": "",
        "excerpt": "",
        "hashtags": [
          "AirportPlay"
        ],
        "users": []
      },
      "media_id": "5833ec0901749a322db870150bec01e0",
      "path": "media/other/1173194_181445575379448_1997604251_n_17842371634062499.jpg",
      "perceptual_hash": "p:c1400fd73a9b79c5",
      "taken": 1383060960,
      "taken_at": "Oct 29, 2013 3:36 pm"
    },
    "millsfield:similar": {
      "google/siglip2-so400m-patch16-naflex": [
        {
          "distance": 0.18533074855804443,
          "id": 1729362541
        },
        {
          "distance": 0.21992945671081543,
          "id": 1729362617
        },
        {
          "distance": 0.22297203540802002,
          "id": 1729362541
        },
        {
          "distance": 0.25755101442337036,
          "id": 1729362655
        },
        {
          "distance": 0.2578337788581848,
          "id": 1729362373
        },
        {
          "distance": 0.2594572901725769,
          "id": 1729362655
        },
        {
          "distance": 0.26617664098739624,
          "id": 1729362229
        },
        {
          "distance": 0.26750218868255615,
          "id": 1729362721
        },
        {
          "distance": 0.2684984803199768,
          "id": 1729362617
        },
        {
          "distance": 0.2895764112472534,
          "id": 1729362957
        }
      ]
    },
    "sfomuseum:placetype": "instagram",
    "src:geom": "sfomuseum",
    "wof:belongsto": [
      1159160869,
      102527513,
      102191575,
      85633793,
      102087579,
      85922583,
      85688637
    ],
    "wof:country": "US",
    "wof:created": 1383060960,
    "wof:geomhash": "b6e33f47475d56bc8da457bc31afadc8",
    "wof:hierarchy": [
      {
        "building_id": 1159160869,
        "campus_id": 102527513,
        "continent_id": 102191575,
        "country_id": 85633793,
        "county_id": 102087579,
        "custom_id": 1729362495,
        "instagram_id": 1729362495,
        "locality_id": 85922583,
        "neighbourhood_id": -1,
        "region_id": 85688637
      }
    ],
    "wof:id": 1729362495,
    "wof:lastmodified": 1787777647,
    "wof:name": "..",
    "wof:parent_id": 1159160869,
    "wof:placetype": "custom",
    "wof:placetype_alt": [
      "instagram"
    ],
    "wof:repo": "sfomuseum-data-socialmedia-instagram",
    "wof:superseded_by": [],
    "wof:supersedes": []
  },
  "bbox": [
    -122.386166,
    37.616356,
    -122.386166,
    37.616356
  ],
  "geometry": {"type":"Point","coordinates":[-122.386166,37.616356]}
}
