{
  "id": 1729355493,
  "type": "Feature",
  "properties": {
    "date:cessation_lower": "2020-03-04",
    "date:cessation_upper": "2020-03-04",
    "date:inception_lower": "2020-03-04",
    "date:inception_upper": "2020-03-04",
    "edtf:cessation": "2020-03-04T08:32:09-08:00",
    "edtf:inception": "2020-03-04T08:32:09-08:00",
    "geom:area": 0,
    "geom:bbox": "-122.386166,37.616356,-122.386166,37.616356",
    "geom:latitude": 37.616356,
    "geom:longitude": -122.386166,
    "instagram:post": {
      "caption": {
        "body": "“No Other Lands Their Glory Know” by Alice Shaw is a photographic image of a redwood forest on Mount Tamalpais in Marin County, California just north of San Francisco. The title for this artwork is taken from a line in a poem, The Redwoods, written by Joseph B. Strauss who was the chief engineer of the Golden Gate Bridge. Visitors are invited to enjoy the natural splendor of The Golden State while at the airport.  See “No Other Lands Their Glory Know” by Alice Shaw on display, post security, in the International Terminal above gate G7. http://bit.ly/39UEapY 📸 © Ethan Kaplan",
        "excerpt": "“No Other Lands Their Glory Know” by Alice Shaw is a photographic image of a redwood forest on Mount Tamalpais in Marin County, California just north of San Francisco.",
        "hashtags": [
          "AliceShaw",
          "5womenartists",
          "photograph",
          "publicart",
          "SFAC"
        ],
        "users": []
      },
      "location": "",
      "media_id": "bd88b59f2a0c2337539479c2e29f8b2b",
      "path": "photos/202003/bd88b59f2a0c2337539479c2e29f8b2b.jpg",
      "perceptual_hash": "p:83f495e0f817e04f",
      "taken": 1583310720,
      "taken_at": "Mar 4, 2020, 8:32 AM"
    },
    "millsfield:similar": {
      "google/siglip2-so400m-patch16-naflex": [
        {
          "distance": 0.2124537229537964,
          "id": 1729359059
        },
        {
          "distance": 0.21918100118637085,
          "id": 1947425077
        },
        {
          "distance": 0.2240803837776184,
          "id": 1880150959
        },
        {
          "distance": 0.22547221183776855,
          "id": 1729355145
        },
        {
          "distance": 0.22729945182800293,
          "id": 1729356547
        },
        {
          "distance": 0.23612982034683228,
          "id": 1729355331
        },
        {
          "distance": 0.23724490404129028,
          "id": 1729355487
        },
        {
          "distance": 0.2378852367401123,
          "id": 1729359059
        },
        {
          "distance": 0.24140429496765137,
          "id": 1729355011
        },
        {
          "distance": 0.2534181475639343,
          "id": 1729355023
        }
      ]
    },
    "sfomuseum:placetype": "instagram",
    "src:geom": "sfomuseum",
    "wof:belongsto": [
      1159160869,
      102527513,
      102191575,
      85633793,
      102087579,
      85922583,
      85688637
    ],
    "wof:country": "US",
    "wof:created": 1583339529,
    "wof:geomhash": "b6e33f47475d56bc8da457bc31afadc8",
    "wof:hierarchy": [
      {
        "building_id": 1159160869,
        "campus_id": 102527513,
        "continent_id": 102191575,
        "country_id": 85633793,
        "county_id": 102087579,
        "custom_id": 1729355493,
        "instagram_id": 1729355493,
        "locality_id": 85922583,
        "neighbourhood_id": -1,
        "region_id": 85688637
      }
    ],
    "wof:id": 1729355493,
    "wof:lastmodified": 1787777625,
    "wof:name": "“No Other Lands Their Glory Know” by Alice Shaw is a photographic image of a redwood forest on Mount Tamalpais in Marin County, California just north of San Francisco...",
    "wof:parent_id": 1159160869,
    "wof:placetype": "custom",
    "wof:placetype_alt": [
      "instagram"
    ],
    "wof:repo": "sfomuseum-data-socialmedia-instagram",
    "wof:superseded_by": [],
    "wof:supersedes": []
  },
  "bbox": [
    -122.386166,
    37.616356,
    -122.386166,
    37.616356
  ],
  "geometry": {"type":"Point","coordinates":[-122.386166,37.616356]}
}
