{
  "id": 1947425333,
  "type": "Feature",
  "properties": {
    "date:cessation_lower": "2023-08-04",
    "date:cessation_upper": "2023-08-04",
    "date:inception_lower": "2023-08-04",
    "date:inception_upper": "2023-08-04",
    "edtf:cessation": "2023-08-04T01:19:00-07:00",
    "edtf:inception": "2023-08-04T01:19:00-07:00",
    "geom:area": 0,
    "geom:bbox": "-122.386166,37.616356,-122.386166,37.616356",
    "geom:latitude": 37.616356,
    "geom:longitude": -122.386166,
    "instagram:post": {
      "caption": {
        "body": "In 2008, San Francisco Ballet celebrated its seventy-fifth anniversary season, which culminated in a New Works Festival of ten world premieres by ten of the dance world’s most diverse and acclaimed choreographers, including Boston Ballet’s resident choreographer Jorma Elo. 𝘋𝘰𝘶𝘣𝘭𝘦 𝘌𝘷𝘪𝘭 was his first commissioned work for San Francisco Ballet. It is a ballet of extremes, with movements both classical and modern. The idea, Elo explains, “is to shake audiences out of complacency. Sometimes you want to break the dynamic of things.” Elo’s ballet possesses high-pitched kinetic energy, which is tempered by gentler movement. The ballet’s bipolarity arises from the contrasts in the score—energetic drums in American composer Philip Glass’ (b. 1937) Concerto Fantasy for Two Timpanists and Orchestra oppose and complement Russian composer Vladimir Martynov’s (b. 1946) slow, romantic Come In!  This ocean blue tutu is layered with jeweled gold panels—a quintessential ballerina costume. Now retired, principal dancer Vanessa Zahorian wore the tutu in San Francisco Ballet’s premiere of 𝘋𝘰𝘶𝘣𝘭𝘦 𝘌𝘷𝘪𝘭. The costumes for the ballet were designed by Holly Hynes, an award-winning designer with over two hundred fifty designs for several major ballet companies, including New York City Ballet, American Ballet Theatre, Houston Ballet, and over a dozen works for San Francisco Ballet.   Special thank you to San Francisco Ballet for making this exhibition possible. See “San Francisco Ballet at 90” on display, pre-security, in the International Terminal and online at: https://bit.ly/SFBalletAt90",
        "excerpt": "In 2008, San Francisco Ballet celebrated its seventy-fifth anniversary season, which culminated in a New Works Festival of ten world premieres by ten of the dance world’s most diverse and acclaimed choreographers, including Boston Ballet’s resident choreographer Jorma Elo.",
        "hashtags": [
          "SFBalletAt90"
        ],
        "users": [
          "sfballet"
        ]
      },
      "media_id": "115b9c9e123c5f7baf8a11ecb97c87ffeada901f",
      "path": "media/posts/202308/362207315_732592362211029_2490449199664047636_n_17960636078620088.jpg",
      "perceptual_hash": "p:c40de65982dba6e3",
      "taken": 1691137140,
      "taken_at": "Aug 04, 2023 8:19 am"
    },
    "millsfield:similar": {
      "google/siglip2-so400m-patch16-naflex": []
    },
    "sfomuseum:placetype": "instagram",
    "src:geom": "sfomuseum",
    "wof:belongsto": [
      1159160869,
      102527513,
      102191575,
      85633793,
      102087579,
      85922583,
      85688637
    ],
    "wof:country": "US",
    "wof:created": 1691137140,
    "wof:geomhash": "b6e33f47475d56bc8da457bc31afadc8",
    "wof:hierarchy": [
      {
        "building_id": 1159160869,
        "campus_id": 102527513,
        "continent_id": 102191575,
        "country_id": 85633793,
        "county_id": 102087579,
        "custom_id": 1947425333,
        "locality_id": 85922583,
        "neighbourhood_id": -1,
        "region_id": 85688637
      }
    ],
    "wof:id": 1947425333,
    "wof:lastmodified": 1787777664,
    "wof:name": "In 2008, San Francisco Ballet celebrated its seventy-fifth anniversary season, which culminated in a New Works Festival of ten world premieres by ten of the dance world’s most diverse and acclaimed choreographers, including Boston Ballet’s resident choreographer Jorma Elo...",
    "wof:parent_id": 1159160869,
    "wof:placetype": "custom",
    "wof:repo": "sfomuseum-data-socialmedia-instagram",
    "wof:superseded_by": [],
    "wof:supersedes": []
  },
  "bbox": [
    -122.386166,
    37.616356,
    -122.386166,
    37.616356
  ],
  "geometry": {"type":"Point","coordinates":[-122.386166,37.616356]}
}
