{
  "id": 1729356739,
  "type": "Feature",
  "properties": {
    "date:cessation_lower": "2019-03-29",
    "date:cessation_upper": "2019-03-29",
    "date:inception_lower": "2019-03-29",
    "date:inception_upper": "2019-03-29",
    "edtf:cessation": "2019-03-29T10:18:00-07:00",
    "edtf:inception": "2019-03-29T10:18:00-07:00",
    "geom:area": 0,
    "geom:bbox": "-122.386166,37.616356,-122.386166,37.616356",
    "geom:latitude": 37.616356,
    "geom:longitude": -122.386166,
    "instagram:post": {
      "caption": {
        "body": "Many lamps from the 1950s represent an eclectic range of taste and design. Companies created lamps that featured novel, multi-purpose functions. Bilt-Rite Manufacturing of Chicago combined an aquarium, planter, and TV lamp into one unit—complete with an illustrated, mountain riverscape as a backdrop for the fish. \"The Modern Consumer: Products and Style\" is on display, post-security, in Terminal 3. http://bit.ly/1950sConsumer",
        "excerpt": "Many lamps from the 1950s represent an eclectic range of taste and design.",
        "hashtags": [
          "1950sConsumer",
          "1950s",
          "vintage",
          "50s",
          "midcentury",
          "classic",
          "retro",
          "lamps",
          "noveltylamp",
          "lamp"
        ],
        "users": []
      },
      "media_id": "47b90de48dcb9ce97edb372a8329c26e",
      "path": "media/posts/201903/53845798_306573163319841_5596072245353167549_n_18044578888071585.jpg",
      "perceptual_hash": "p:ca3af46c1b866d92",
      "taken": 1553879880,
      "taken_at": "Mar 29, 2019 5:18 pm"
    },
    "millsfield:similar": {
      "google/siglip2-so400m-patch16-naflex": [
        {
          "distance": 0.22100108861923218,
          "id": 1729356719
        },
        {
          "distance": 0.2536890506744385,
          "id": 1729358007
        },
        {
          "distance": 0.2546170949935913,
          "id": 1729356335
        },
        {
          "distance": 0.258564829826355,
          "id": 1729356583
        },
        {
          "distance": 0.25893115997314453,
          "id": 1729358039
        },
        {
          "distance": 0.26058655977249146,
          "id": 1729357951
        },
        {
          "distance": 0.26285266876220703,
          "id": 1729356695
        },
        {
          "distance": 0.2648624777793884,
          "id": 1880151115
        },
        {
          "distance": 0.2706000804901123,
          "id": 1880151121
        },
        {
          "distance": 0.2713349461555481,
          "id": 1947425021
        }
      ]
    },
    "sfomuseum:placetype": "instagram",
    "src:geom": "sfomuseum",
    "wof:belongsto": [
      1159160869,
      102527513,
      102191575,
      85633793,
      102087579,
      85922583,
      85688637
    ],
    "wof:country": "US",
    "wof:created": 1553879880,
    "wof:geomhash": "b6e33f47475d56bc8da457bc31afadc8",
    "wof:hierarchy": [
      {
        "building_id": 1159160869,
        "campus_id": 102527513,
        "continent_id": 102191575,
        "country_id": 85633793,
        "county_id": 102087579,
        "custom_id": 1729356739,
        "instagram_id": 1729356739,
        "locality_id": 85922583,
        "neighbourhood_id": -1,
        "region_id": 85688637
      }
    ],
    "wof:id": 1729356739,
    "wof:lastmodified": 1787777629,
    "wof:name": "Many lamps from the 1950s represent an eclectic range of taste and design...",
    "wof:parent_id": 1159160869,
    "wof:placetype": "custom",
    "wof:placetype_alt": [
      "instagram"
    ],
    "wof:repo": "sfomuseum-data-socialmedia-instagram",
    "wof:superseded_by": [],
    "wof:supersedes": []
  },
  "bbox": [
    -122.386166,
    37.616356,
    -122.386166,
    37.616356
  ],
  "geometry": {"type":"Point","coordinates":[-122.386166,37.616356]}
}
