{
  "id": 1729359751,
  "type": "Feature",
  "properties": {
    "date:cessation_lower": "2017-03-04",
    "date:cessation_upper": "2017-03-04",
    "date:inception_lower": "2017-03-04",
    "date:inception_upper": "2017-03-04",
    "edtf:cessation": "2017-03-04T04:55:00-08:00",
    "edtf:inception": "2017-03-04T04:55:00-08:00",
    "geom:area": 0,
    "geom:bbox": "-122.386166,37.616356,-122.386166,37.616356",
    "geom:latitude": 37.616356,
    "geom:longitude": -122.386166,
    "instagram:post": {
      "caption": {
        "body": "“I surfed first and then shot photos. As things got more serious, I shot first and surfed later. Getting the shot became almost as fulfilling as getting the wave.” -Jeff Divine",
        "excerpt": "“I surfed first and then shot photos.",
        "hashtags": [
          "Surf",
          "Photography\"",
          "JeffDivine",
          "waves",
          "surfing",
          "surfinglife",
          "surfingphotos",
          "surfsup",
          "surfers",
          "surflife",
          "airportart",
          "hawaii",
          "socal"
        ],
        "users": []
      },
      "media_id": "a8d5259c6c31ee5516e07f20e442f216",
      "path": "media/posts/201703/17076771_266928463764909_8778729225344516096_n_17852713405136857.jpg",
      "perceptual_hash": "p:e69919e4e419a9e6",
      "taken": 1488632100,
      "taken_at": "Mar 04, 2017 12:55 pm"
    },
    "millsfield:similar": {
      "google/siglip2-so400m-patch16-naflex": [
        {
          "distance": 0.12942540645599365,
          "id": 1729356881
        },
        {
          "distance": 0.16891640424728394,
          "id": 1729356881
        },
        {
          "distance": 0.21408402919769287,
          "id": 1729357023
        },
        {
          "distance": 0.3004283308982849,
          "id": 1729358367
        },
        {
          "distance": 0.31489282846450806,
          "id": 1729356789
        },
        {
          "distance": 0.3222060799598694,
          "id": 1729360159
        },
        {
          "distance": 0.33443933725357056,
          "id": 1729356483
        },
        {
          "distance": 0.33923429250717163,
          "id": 1729358367
        },
        {
          "distance": 0.34072959423065186,
          "id": 1880151595
        },
        {
          "distance": 0.3413386344909668,
          "id": 1729360159
        }
      ]
    },
    "sfomuseum:placetype": "instagram",
    "src:geom": "sfomuseum",
    "wof:belongsto": [
      1159160869,
      102527513,
      102191575,
      85633793,
      102087579,
      85922583,
      85688637
    ],
    "wof:country": "US",
    "wof:created": 1488632100,
    "wof:geomhash": "b6e33f47475d56bc8da457bc31afadc8",
    "wof:hierarchy": [
      {
        "building_id": 1159160869,
        "campus_id": 102527513,
        "continent_id": 102191575,
        "country_id": 85633793,
        "county_id": 102087579,
        "custom_id": 1729359751,
        "instagram_id": 1729359751,
        "locality_id": 85922583,
        "neighbourhood_id": -1,
        "region_id": 85688637
      }
    ],
    "wof:id": 1729359751,
    "wof:lastmodified": 1787777636,
    "wof:name": "“I surfed first and then shot photos...",
    "wof:parent_id": 1159160869,
    "wof:placetype": "custom",
    "wof:placetype_alt": [
      "instagram"
    ],
    "wof:repo": "sfomuseum-data-socialmedia-instagram",
    "wof:superseded_by": [],
    "wof:supersedes": []
  },
  "bbox": [
    -122.386166,
    37.616356,
    -122.386166,
    37.616356
  ],
  "geometry": {"type":"Point","coordinates":[-122.386166,37.616356]}
}
