{
  "id": 1729361631,
  "type": "Feature",
  "properties": {
    "date:cessation_lower": "2015-08-07",
    "date:cessation_upper": "2015-08-07",
    "date:inception_lower": "2015-08-07",
    "date:inception_upper": "2015-08-07",
    "edtf:cessation": "2015-08-07T04:28:00-07:00",
    "edtf:inception": "2015-08-07T04:28:00-07:00",
    "geom:area": 0,
    "geom:bbox": "-122.386166,37.616356,-122.386166,37.616356",
    "geom:latitude": 37.616356,
    "geom:longitude": -122.386166,
    "instagram:post": {
      "caption": {
        "body": "Val Britton's Voyage is located in the connector walkway between Terminal One and Two. As an amalgamation of maps, plans, weather patterns, and flight routes, this piece encourages the viewer to create an emotional connection to where they are located at the moment. Thanks to @westonteruya for the 📷. #regram #repost • • •",
        "excerpt": "Val Britton's Voyage is located in the connector walkway between Terminal One and Two.",
        "hashtags": [
          "publicart",
          "translatingpapertoglass",
          "otherpeoplesart",
          "valbritton"
        ],
        "users": []
      },
      "media_id": "249ebe42c0f6df619fd5eb5246c52291",
      "path": "media/other/11429543_954961254554112_505545336_n_17842095898062499.jpg",
      "perceptual_hash": "p:92ac7360e70b663e",
      "taken": 1438946880,
      "taken_at": "Aug 07, 2015 11:28 am"
    },
    "millsfield:similar": {
      "google/siglip2-so400m-patch16-naflex": [
        {
          "distance": 0.1891201138496399,
          "id": 1729357895
        },
        {
          "distance": 0.23045504093170166,
          "id": 1729357871
        },
        {
          "distance": 0.23333430290222168,
          "id": 1729357869
        },
        {
          "distance": 0.2390192747116089,
          "id": 1729357895
        },
        {
          "distance": 0.24198460578918457,
          "id": 1729361679
        },
        {
          "distance": 0.25061607360839844,
          "id": 1729359425
        },
        {
          "distance": 0.25937360525131226,
          "id": 1729361567
        },
        {
          "distance": 0.27083325386047363,
          "id": 1729357869
        },
        {
          "distance": 0.2781045436859131,
          "id": 1880151091
        },
        {
          "distance": 0.2781652808189392,
          "id": 1729360153
        }
      ]
    },
    "sfomuseum:placetype": "instagram",
    "src:geom": "sfomuseum",
    "wof:belongsto": [
      1159160869,
      102527513,
      102191575,
      85633793,
      102087579,
      85922583,
      85688637
    ],
    "wof:country": "US",
    "wof:created": 1438946880,
    "wof:geomhash": "b6e33f47475d56bc8da457bc31afadc8",
    "wof:hierarchy": [
      {
        "building_id": 1159160869,
        "campus_id": 102527513,
        "continent_id": 102191575,
        "country_id": 85633793,
        "county_id": 102087579,
        "custom_id": 1729361631,
        "instagram_id": 1729361631,
        "locality_id": 85922583,
        "neighbourhood_id": -1,
        "region_id": 85688637
      }
    ],
    "wof:id": 1729361631,
    "wof:lastmodified": 1787777646,
    "wof:name": "Val Britton's Voyage is located in the connector walkway between Terminal One and Two...",
    "wof:parent_id": 1159160869,
    "wof:placetype": "custom",
    "wof:placetype_alt": [
      "instagram"
    ],
    "wof:repo": "sfomuseum-data-socialmedia-instagram",
    "wof:superseded_by": [],
    "wof:supersedes": []
  },
  "bbox": [
    -122.386166,
    37.616356,
    -122.386166,
    37.616356
  ],
  "geometry": {"type":"Point","coordinates":[-122.386166,37.616356]}
}
