{
  "id": 1729361369,
  "type": "Feature",
  "properties": {
    "date:cessation_lower": "2015-11-13",
    "date:cessation_upper": "2015-11-13",
    "date:inception_lower": "2015-11-13",
    "date:inception_upper": "2015-11-13",
    "edtf:cessation": "2015-11-13T01:57:00-08:00",
    "edtf:inception": "2015-11-13T01:57:00-08:00",
    "geom:area": 0,
    "geom:bbox": "-122.386166,37.616356,-122.386166,37.616356",
    "geom:latitude": 37.616356,
    "geom:longitude": -122.386166,
    "instagram:post": {
      "caption": {
        "body": "",
        "excerpt": "",
        "hashtags": [
          "ILoveYouCA"
        ],
        "users": []
      },
      "media_id": "deb7065ac368592b1165c39f3db3f3be",
      "path": "media/other/11363926_931856916851224_1455537502_n_17845624417061723.jpg",
      "perceptual_hash": "p:e61ab5255ad0374d",
      "taken": 1447408620,
      "taken_at": "Nov 13, 2015 9:57 am"
    },
    "millsfield:similar": {
      "google/siglip2-so400m-patch16-naflex": [
        {
          "distance": 0.11219608783721924,
          "id": 1729361707
        },
        {
          "distance": 0.1350780725479126,
          "id": 1729361707
        },
        {
          "distance": 0.2470201849937439,
          "id": 1729361515
        },
        {
          "distance": 0.26688915491104126,
          "id": 1729356429
        },
        {
          "distance": 0.2807033061981201,
          "id": 1729361803
        },
        {
          "distance": 0.2835632562637329,
          "id": 1729361757
        },
        {
          "distance": 0.2859684228897095,
          "id": 1729361803
        },
        {
          "distance": 0.2871586084365845,
          "id": 1729356429
        },
        {
          "distance": 0.29262930154800415,
          "id": 1729356433
        },
        {
          "distance": 0.2936033010482788,
          "id": 1729361515
        }
      ]
    },
    "sfomuseum:placetype": "instagram",
    "src:geom": "sfomuseum",
    "wof:belongsto": [
      1159160869,
      102527513,
      102191575,
      85633793,
      102087579,
      85922583,
      85688637
    ],
    "wof:country": "US",
    "wof:created": 1447408620,
    "wof:geomhash": "b6e33f47475d56bc8da457bc31afadc8",
    "wof:hierarchy": [
      {
        "building_id": 1159160869,
        "campus_id": 102527513,
        "continent_id": 102191575,
        "country_id": 85633793,
        "county_id": 102087579,
        "custom_id": 1729361369,
        "instagram_id": 1729361369,
        "locality_id": 85922583,
        "neighbourhood_id": -1,
        "region_id": 85688637
      }
    ],
    "wof:id": 1729361369,
    "wof:lastmodified": 1787777645,
    "wof:name": "..",
    "wof:parent_id": 1159160869,
    "wof:placetype": "custom",
    "wof:placetype_alt": [
      "instagram"
    ],
    "wof:repo": "sfomuseum-data-socialmedia-instagram",
    "wof:superseded_by": [],
    "wof:supersedes": []
  },
  "bbox": [
    -122.386166,
    37.616356,
    -122.386166,
    37.616356
  ],
  "geometry": {"type":"Point","coordinates":[-122.386166,37.616356]}
}
