{
  "id": 1729361063,
  "type": "Feature",
  "properties": {
    "date:cessation_lower": "2016-02-15",
    "date:cessation_upper": "2016-02-15",
    "date:inception_lower": "2016-02-15",
    "date:inception_upper": "2016-02-15",
    "edtf:cessation": "2016-02-15T01:43:00-08:00",
    "edtf:inception": "2016-02-15T01:43:00-08:00",
    "geom:area": 0,
    "geom:bbox": "-122.386166,37.616356,-122.386166,37.616356",
    "geom:latitude": 37.616356,
    "geom:longitude": -122.386166,
    "instagram:post": {
      "caption": {
        "body": "The Aviation Museum and Library is closed today to observe President’s Day and will reopen tomorrow at 10 am. All other exhibitions around the airport are still open. Learn more about what we have on display: http://www.flysfo.com/museum/exhibitions",
        "excerpt": "The Aviation Museum and Library is closed today to observe President’s Day and will reopen tomorrow at 10 am.",
        "hashtags": [],
        "users": []
      },
      "media_id": "c51a486ea8b7e3483f351c4e1cee609d",
      "path": "media/other/12328490_1597754087130489_2041063885_n_17853922777010610.jpg",
      "perceptual_hash": "p:81b6da553ed43ec0",
      "taken": 1455529380,
      "taken_at": "Feb 15, 2016 9:43 am"
    },
    "millsfield:similar": {
      "google/siglip2-so400m-patch16-naflex": [
        {
          "distance": 0.219990074634552,
          "id": 1729357077
        },
        {
          "distance": 0.24904000759124756,
          "id": 1729355059
        },
        {
          "distance": 0.2614613175392151,
          "id": 1763559119
        },
        {
          "distance": 0.2621709108352661,
          "id": 1729357135
        },
        {
          "distance": 0.2621709108352661,
          "id": 1763558801
        },
        {
          "distance": 0.2632884383201599,
          "id": 1947424919
        },
        {
          "distance": 0.26996898651123047,
          "id": 1729355059
        },
        {
          "distance": 0.2710007429122925,
          "id": 1729358531
        },
        {
          "distance": 0.27659446001052856,
          "id": 1729357077
        },
        {
          "distance": 0.2771655321121216,
          "id": 1947424919
        }
      ]
    },
    "sfomuseum:placetype": "instagram",
    "src:geom": "sfomuseum",
    "wof:belongsto": [
      1159160869,
      102527513,
      102191575,
      85633793,
      102087579,
      85922583,
      85688637
    ],
    "wof:country": "US",
    "wof:created": 1455529380,
    "wof:geomhash": "b6e33f47475d56bc8da457bc31afadc8",
    "wof:hierarchy": [
      {
        "building_id": 1159160869,
        "campus_id": 102527513,
        "continent_id": 102191575,
        "country_id": 85633793,
        "county_id": 102087579,
        "custom_id": 1729361063,
        "instagram_id": 1729361063,
        "locality_id": 85922583,
        "neighbourhood_id": -1,
        "region_id": 85688637
      }
    ],
    "wof:id": 1729361063,
    "wof:lastmodified": 1787777643,
    "wof:name": "The Aviation Museum and Library is closed today to observe President’s Day and will reopen tomorrow at 10 am...",
    "wof:parent_id": 1159160869,
    "wof:placetype": "custom",
    "wof:placetype_alt": [
      "instagram"
    ],
    "wof:repo": "sfomuseum-data-socialmedia-instagram",
    "wof:superseded_by": [],
    "wof:supersedes": []
  },
  "bbox": [
    -122.386166,
    37.616356,
    -122.386166,
    37.616356
  ],
  "geometry": {"type":"Point","coordinates":[-122.386166,37.616356]}
}
