{
  "id": 1729362025,
  "type": "Feature",
  "properties": {
    "date:cessation_lower": "2014-11-26",
    "date:cessation_upper": "2014-11-26",
    "date:inception_lower": "2014-11-26",
    "date:inception_upper": "2014-11-26",
    "edtf:cessation": "2014-11-26T05:54:00-08:00",
    "edtf:inception": "2014-11-26T05:54:00-08:00",
    "geom:area": 0,
    "geom:bbox": "-122.386166,37.616356,-122.386166,37.616356",
    "geom:latitude": 37.616356,
    "geom:longitude": -122.386166,
    "instagram:post": {
      "caption": {
        "body": "",
        "excerpt": "",
        "hashtags": [
          "StudioGlass",
          "glass"
        ],
        "users": []
      },
      "media_id": "a7babd99f374e467dfff7f90187b8c2d",
      "path": "media/other/927429_1594110074144050_948706996_n_17842497673062499.jpg",
      "perceptual_hash": "p:bf17c069c6609b5a",
      "taken": 1417010040,
      "taken_at": "Nov 26, 2014 1:54 pm"
    },
    "millsfield:similar": {
      "google/siglip2-so400m-patch16-naflex": [
        {
          "distance": 0.18961787223815918,
          "id": 1729361917
        },
        {
          "distance": 0.2592359781265259,
          "id": 1729361917
        },
        {
          "distance": 0.28935879468917847,
          "id": 1729361791
        },
        {
          "distance": 0.29326367378234863,
          "id": 1729356283
        },
        {
          "distance": 0.29910147190093994,
          "id": 1729362759
        },
        {
          "distance": 0.30534905195236206,
          "id": 1729360727
        },
        {
          "distance": 0.3061985969543457,
          "id": 1729359679
        },
        {
          "distance": 0.3099573850631714,
          "id": 1729360285
        },
        {
          "distance": 0.3129116892814636,
          "id": 1729362453
        },
        {
          "distance": 0.3156399130821228,
          "id": 1729355817
        }
      ]
    },
    "sfomuseum:placetype": "instagram",
    "src:geom": "sfomuseum",
    "wof:belongsto": [
      1159160869,
      102527513,
      102191575,
      85633793,
      102087579,
      85922583,
      85688637
    ],
    "wof:country": "US",
    "wof:created": 1417010040,
    "wof:geomhash": "b6e33f47475d56bc8da457bc31afadc8",
    "wof:hierarchy": [
      {
        "building_id": 1159160869,
        "campus_id": 102527513,
        "continent_id": 102191575,
        "country_id": 85633793,
        "county_id": 102087579,
        "custom_id": 1729362025,
        "instagram_id": 1729362025,
        "locality_id": 85922583,
        "neighbourhood_id": -1,
        "region_id": 85688637
      }
    ],
    "wof:id": 1729362025,
    "wof:lastmodified": 1787777646,
    "wof:name": "..",
    "wof:parent_id": 1159160869,
    "wof:placetype": "custom",
    "wof:placetype_alt": [
      "instagram"
    ],
    "wof:repo": "sfomuseum-data-socialmedia-instagram",
    "wof:superseded_by": [],
    "wof:supersedes": []
  },
  "bbox": [
    -122.386166,
    37.616356,
    -122.386166,
    37.616356
  ],
  "geometry": {"type":"Point","coordinates":[-122.386166,37.616356]}
}
