{
  "id": 1729360829,
  "type": "Feature",
  "properties": {
    "date:cessation_lower": "2016-04-14",
    "date:cessation_upper": "2016-04-14",
    "date:inception_lower": "2016-04-14",
    "date:inception_upper": "2016-04-14",
    "edtf:cessation": "2016-04-14T01:47:00-07:00",
    "edtf:inception": "2016-04-14T01:47:00-07:00",
    "geom:area": 0,
    "geom:bbox": "-122.386166,37.616356,-122.386166,37.616356",
    "geom:latitude": 37.616356,
    "geom:longitude": -122.386166,
    "instagram:post": {
      "caption": {
        "body": "“Sanctuary/Sanctuario” by Juana Alicia \u0026 Emmanuel C. Montoya is a family portrait of the Bay Area, a place rich with many different cultures. Just as arrival at SFO is the beginning of a new life for many immigrants, it is also a refuge to many shore birds that flock annually to surrounding wetlands. The mural is painted in traditional “fresco buono,” an ancient painting technique that mixes pigment directly into wet plaster. See “Sanctuary/Sanctuario” by Juana Alicia \u0026 Emmanuel C. Montoya, post-security, in the International Terminal, Boarding Area G, near Gate 97. http://bit.ly/1qIIMJk #AirportArt  Sanctuary/Sanctuario  2000 Juana Alicia \u0026 Emmanuel C. Montoya  Fresco mural and basswood bas-relief sculpture 240 in. x 288 in. SFAC 93",
        "excerpt": "“Sanctuary/Sanctuario” by Juana Alicia \u0026 Emmanuel C. Montoya is a family portrait of the Bay Area, a place rich with many different cultures.",
        "hashtags": [],
        "users": []
      },
      "media_id": "94dcbb871df44c75c569bdacd7d5b5bf",
      "path": "media/other/12912660_248339435516812_1672136561_n_17856656353063279.jpg",
      "perceptual_hash": "p:ead79518a46bc516",
      "taken": 1460623620,
      "taken_at": "Apr 14, 2016 8:47 am"
    },
    "millsfield:similar": {
      "google/siglip2-so400m-patch16-naflex": [
        {
          "distance": 0.27685266733169556,
          "id": 1947425317
        },
        {
          "distance": 0.2785581350326538,
          "id": 1947425317
        },
        {
          "distance": 0.2820228338241577,
          "id": 1729362061
        },
        {
          "distance": 0.28844547271728516,
          "id": 1729362061
        },
        {
          "distance": 0.28900712728500366,
          "id": 1729359013
        },
        {
          "distance": 0.2893347144126892,
          "id": 1729357913
        },
        {
          "distance": 0.306510865688324,
          "id": 1729359425
        },
        {
          "distance": 0.3083375096321106,
          "id": 1880151091
        },
        {
          "distance": 0.3146525025367737,
          "id": 1729359635
        },
        {
          "distance": 0.32473891973495483,
          "id": 1880151205
        }
      ]
    },
    "sfomuseum:placetype": "instagram",
    "src:geom": "sfomuseum",
    "wof:belongsto": [
      1159160869,
      102527513,
      102191575,
      85633793,
      102087579,
      85922583,
      85688637
    ],
    "wof:country": "US",
    "wof:created": 1460623620,
    "wof:geomhash": "b6e33f47475d56bc8da457bc31afadc8",
    "wof:hierarchy": [
      {
        "building_id": 1159160869,
        "campus_id": 102527513,
        "continent_id": 102191575,
        "country_id": 85633793,
        "county_id": 102087579,
        "custom_id": 1729360829,
        "instagram_id": 1729360829,
        "locality_id": 85922583,
        "neighbourhood_id": -1,
        "region_id": 85688637
      }
    ],
    "wof:id": 1729360829,
    "wof:lastmodified": 1787777640,
    "wof:name": "“Sanctuary/Sanctuario” by Juana Alicia \u0026 Emmanuel C. Montoya is a family portrait of the Bay Area, a place rich with many different cultures...",
    "wof:parent_id": 1159160869,
    "wof:placetype": "custom",
    "wof:placetype_alt": [
      "instagram"
    ],
    "wof:repo": "sfomuseum-data-socialmedia-instagram",
    "wof:superseded_by": [],
    "wof:supersedes": []
  },
  "bbox": [
    -122.386166,
    37.616356,
    -122.386166,
    37.616356
  ],
  "geometry": {"type":"Point","coordinates":[-122.386166,37.616356]}
}
