{
  "id": 1880151283,
  "type": "Feature",
  "properties": {
    "date:cessation_lower": "2022-12-07",
    "date:cessation_upper": "2022-12-07",
    "date:inception_lower": "2022-12-07",
    "date:inception_upper": "2022-12-07",
    "edtf:cessation": "2022-12-07T03:13:00-08:00",
    "edtf:inception": "2022-12-07T03:13:00-08:00",
    "geom:area": 0,
    "geom:bbox": "-122.386166,37.616356,-122.386166,37.616356",
    "geom:latitude": 37.616356,
    "geom:longitude": -122.386166,
    "instagram:post": {
      "caption": {
        "body": "#Onthisday in 1941, San Francisco Airport became an U.S. Army Air Corps training and staging facility. At the outbreak of World War II in the Pacific, fortified revetments were installed on the airfield to protect aircraft from attack. While commercial airlines were permitted to operate under wartime conditions, all civilian flying was suspended.",
        "excerpt": "#Onthisday in 1941, San Francisco Airport became an U.S. Army Air Corps training and staging facility.",
        "hashtags": [
          "AvGeek",
          "SFOHistory"
        ],
        "users": []
      },
      "media_id": "f8e9a78922393a723f7a84e97be335ee8c617e58",
      "path": "media/other/318927198_136003092589454_5197578590553259947_n_17893521608666664.jpg",
      "perceptual_hash": "p:f8de9303703c8a9e",
      "taken": 1670411580,
      "taken_at": "Dec 07, 2022 11:13 am"
    },
    "millsfield:similar": {
      "google/siglip2-so400m-patch16-naflex": [
        {
          "distance": 0.08324456214904785,
          "id": 1729358837
        },
        {
          "distance": 0.09257543087005615,
          "id": 1729358837
        },
        {
          "distance": 0.1941826343536377,
          "id": 1880151589
        },
        {
          "distance": 0.19570893049240112,
          "id": 1729359361
        },
        {
          "distance": 0.19833391904830933,
          "id": 1729357145
        },
        {
          "distance": 0.2000824213027954,
          "id": 1729358009
        },
        {
          "distance": 0.20274007320404053,
          "id": 1763559505
        },
        {
          "distance": 0.2029067873954773,
          "id": 1729355811
        },
        {
          "distance": 0.2048180103302002,
          "id": 1729356979
        },
        {
          "distance": 0.207741379737854,
          "id": 1729356979
        }
      ]
    },
    "sfomuseum:placetype": "instagram",
    "src:geom": "sfomuseum",
    "wof:belongsto": [
      1159160869,
      102527513,
      102191575,
      85633793,
      102087579,
      85922583,
      85688637
    ],
    "wof:country": "US",
    "wof:created": 1670411580,
    "wof:geomhash": "b6e33f47475d56bc8da457bc31afadc8",
    "wof:hierarchy": [
      {
        "building_id": 1159160869,
        "campus_id": 102527513,
        "continent_id": 102191575,
        "country_id": 85633793,
        "county_id": 102087579,
        "custom_id": 1880151283,
        "instagram_id": 1880151283,
        "locality_id": 85922583,
        "neighbourhood_id": -1,
        "region_id": 85688637
      }
    ],
    "wof:id": 1880151283,
    "wof:lastmodified": 1787777662,
    "wof:name": "#Onthisday in 1941, San Francisco Airport became an U.S. Army Air Corps training and staging facility...",
    "wof:parent_id": 1159160869,
    "wof:placetype": "custom",
    "wof:placetype_alt": [
      "instagram"
    ],
    "wof:repo": "sfomuseum-data-socialmedia-instagram",
    "wof:superseded_by": [],
    "wof:supersedes": []
  },
  "bbox": [
    -122.386166,
    37.616356,
    -122.386166,
    37.616356
  ],
  "geometry": {"type":"Point","coordinates":[-122.386166,37.616356]}
}
