{
  "id": 1729360391,
  "type": "Feature",
  "properties": {
    "date:cessation_lower": "2016-08-25",
    "date:cessation_upper": "2016-08-25",
    "date:inception_lower": "2016-08-25",
    "date:inception_upper": "2016-08-25",
    "edtf:cessation": "2016-08-25T11:02:00-07:00",
    "edtf:inception": "2016-08-25T11:02:00-07:00",
    "geom:area": 0,
    "geom:bbox": "-122.386166,37.616356,-122.386166,37.616356",
    "geom:latitude": 37.616356,
    "geom:longitude": -122.386166,
    "instagram:post": {
      "caption": {
        "body": "",
        "excerpt": "",
        "hashtags": [
          "FindYourPark",
          "nps100"
        ],
        "users": []
      },
      "media_id": "21389e409aa3edda2197af334008badb",
      "path": "media/other/13687289_1172545146135288_737658672_n_17854992523067616.jpg",
      "perceptual_hash": "p:896b6bb491a435b3",
      "taken": 1472148120,
      "taken_at": "Aug 25, 2016 6:02 pm"
    },
    "millsfield:similar": {
      "google/siglip2-so400m-patch16-naflex": [
        {
          "distance": 0.28312939405441284,
          "id": 1729358535
        },
        {
          "distance": 0.2874816060066223,
          "id": 1729360693
        },
        {
          "distance": 0.29404348134994507,
          "id": 1729360137
        },
        {
          "distance": 0.29869717359542847,
          "id": 1880151359
        },
        {
          "distance": 0.2989848852157593,
          "id": 1729360693
        },
        {
          "distance": 0.3006945848464966,
          "id": 1729360783
        },
        {
          "distance": 0.3011603355407715,
          "id": 1729360163
        },
        {
          "distance": 0.3174334168434143,
          "id": 1729361299
        },
        {
          "distance": 0.31893032789230347,
          "id": 1729360137
        },
        {
          "distance": 0.3389897346496582,
          "id": 1729360163
        }
      ]
    },
    "sfomuseum:placetype": "instagram",
    "src:geom": "sfomuseum",
    "wof:belongsto": [
      1159160869,
      102527513,
      102191575,
      85633793,
      102087579,
      85922583,
      85688637
    ],
    "wof:country": "US",
    "wof:created": 1472148120,
    "wof:geomhash": "b6e33f47475d56bc8da457bc31afadc8",
    "wof:hierarchy": [
      {
        "building_id": 1159160869,
        "campus_id": 102527513,
        "continent_id": 102191575,
        "country_id": 85633793,
        "county_id": 102087579,
        "custom_id": 1729360391,
        "instagram_id": 1729360391,
        "locality_id": 85922583,
        "neighbourhood_id": -1,
        "region_id": 85688637
      }
    ],
    "wof:id": 1729360391,
    "wof:lastmodified": 1787777639,
    "wof:name": "..",
    "wof:parent_id": 1159160869,
    "wof:placetype": "custom",
    "wof:placetype_alt": [
      "instagram"
    ],
    "wof:repo": "sfomuseum-data-socialmedia-instagram",
    "wof:superseded_by": [],
    "wof:supersedes": []
  },
  "bbox": [
    -122.386166,
    37.616356,
    -122.386166,
    37.616356
  ],
  "geometry": {"type":"Point","coordinates":[-122.386166,37.616356]}
}
