{
  "id": 1729361193,
  "type": "Feature",
  "properties": {
    "date:cessation_lower": "2016-01-07",
    "date:cessation_upper": "2016-01-07",
    "date:inception_lower": "2016-01-07",
    "date:inception_upper": "2016-01-07",
    "edtf:cessation": "2016-01-07T12:02:00-08:00",
    "edtf:inception": "2016-01-07T12:02:00-08:00",
    "geom:area": 0,
    "geom:bbox": "-122.386166,37.616356,-122.386166,37.616356",
    "geom:latitude": 37.616356,
    "geom:longitude": -122.386166,
    "instagram:post": {
      "caption": {
        "body": "United Air Lines signed a lease on October 1, 1940, to relocate their Western Division operation, maintenance, and overhaul base from Cheyenne, Wyo., to San Francisco Airport, which was a great boost to the local economy. Cheyenne had been a critical midpoint between Chicago and San Francisco in the 1930s for shorter-range, unpressurized aircraft of the day.",
        "excerpt": "United Air Lines signed a lease on October 1, 1940, to relocate their Western Division operation, maintenance, and overhaul base from Cheyenne, Wyo., to San Francisco Airport, which was a great boost to the local economy.",
        "hashtags": [],
        "users": []
      },
      "media_id": "18c8cd2ab6d386e1c5587d7604be5e5c",
      "path": "media/other/12534136_1548132685477785_1791929517_n_17853786016010041.jpg",
      "perceptual_hash": "p:f35e814f86a30be2",
      "taken": 1452196920,
      "taken_at": "Jan 07, 2016 8:02 pm"
    },
    "millsfield:similar": {
      "google/siglip2-so400m-patch16-naflex": [
        {
          "distance": 0.22625678777694702,
          "id": 1729356303
        },
        {
          "distance": 0.2278118133544922,
          "id": 1729361615
        },
        {
          "distance": 0.23214590549468994,
          "id": 1729360637
        },
        {
          "distance": 0.23927253484725952,
          "id": 1729359601
        },
        {
          "distance": 0.24750661849975586,
          "id": 1729357747
        },
        {
          "distance": 0.25282102823257446,
          "id": 1947425255
        },
        {
          "distance": 0.253032386302948,
          "id": 1729359759
        },
        {
          "distance": 0.25377899408340454,
          "id": 1729359479
        },
        {
          "distance": 0.2544650435447693,
          "id": 1729361037
        },
        {
          "distance": 0.2631456255912781,
          "id": 1729359719
        }
      ]
    },
    "sfomuseum:placetype": "instagram",
    "src:geom": "sfomuseum",
    "wof:belongsto": [
      1159160869,
      102527513,
      102191575,
      85633793,
      102087579,
      85922583,
      85688637
    ],
    "wof:country": "US",
    "wof:created": 1452196920,
    "wof:geomhash": "b6e33f47475d56bc8da457bc31afadc8",
    "wof:hierarchy": [
      {
        "building_id": 1159160869,
        "campus_id": 102527513,
        "continent_id": 102191575,
        "country_id": 85633793,
        "county_id": 102087579,
        "custom_id": 1729361193,
        "instagram_id": 1729361193,
        "locality_id": 85922583,
        "neighbourhood_id": -1,
        "region_id": 85688637
      }
    ],
    "wof:id": 1729361193,
    "wof:lastmodified": 1787777645,
    "wof:name": "United Air Lines signed a lease on October 1, 1940, to relocate their Western Division operation, maintenance, and overhaul base from Cheyenne, Wyo., to San Francisco Airport, which was a great boost to the local economy...",
    "wof:parent_id": 1159160869,
    "wof:placetype": "custom",
    "wof:placetype_alt": [
      "instagram"
    ],
    "wof:repo": "sfomuseum-data-socialmedia-instagram",
    "wof:superseded_by": [],
    "wof:supersedes": []
  },
  "bbox": [
    -122.386166,
    37.616356,
    -122.386166,
    37.616356
  ],
  "geometry": {"type":"Point","coordinates":[-122.386166,37.616356]}
}
