{
  "id": 1729361941,
  "type": "Feature",
  "properties": {
    "date:cessation_lower": "2015-02-04",
    "date:cessation_upper": "2015-02-04",
    "date:inception_lower": "2015-02-04",
    "date:inception_upper": "2015-02-04",
    "edtf:cessation": "2015-02-04T04:56:00-08:00",
    "edtf:inception": "2015-02-04T04:56:00-08:00",
    "geom:area": 0,
    "geom:bbox": "-122.386166,37.616356,-122.386166,37.616356",
    "geom:latitude": 37.616356,
    "geom:longitude": -122.386166,
    "instagram:post": {
      "caption": {
        "body": "",
        "excerpt": "",
        "hashtags": [
          "CharlesLindbergh",
          "Lindbergh",
          "aviation",
          "aviationhistory"
        ],
        "users": []
      },
      "media_id": "bd00f385a484a9873f61cddb6242f894",
      "path": "media/other/10950557_786585321421618_735047339_n_17841721648062499.jpg",
      "perceptual_hash": "p:abd08667988f96cc",
      "taken": 1423054560,
      "taken_at": "Feb 04, 2015 12:56 pm"
    },
    "millsfield:similar": {
      "google/siglip2-so400m-patch16-naflex": [
        {
          "distance": 0.03558921813964844,
          "id": 1729357001
        },
        {
          "distance": 0.08384042978286743,
          "id": 1729357001
        },
        {
          "distance": 0.17253607511520386,
          "id": 1729359671
        },
        {
          "distance": 0.17564129829406738,
          "id": 1729361581
        },
        {
          "distance": 0.1807458996772766,
          "id": 1729357331
        },
        {
          "distance": 0.1886710524559021,
          "id": 1729359671
        },
        {
          "distance": 0.19251465797424316,
          "id": 1729361581
        },
        {
          "distance": 0.19850915670394897,
          "id": 1763559319
        },
        {
          "distance": 0.2001292109489441,
          "id": 1729362189
        },
        {
          "distance": 0.20053857564926147,
          "id": 1729357331
        }
      ]
    },
    "sfomuseum:placetype": "instagram",
    "src:geom": "sfomuseum",
    "wof:belongsto": [
      1159160869,
      102527513,
      102191575,
      85633793,
      102087579,
      85922583,
      85688637
    ],
    "wof:country": "US",
    "wof:created": 1423054560,
    "wof:geomhash": "b6e33f47475d56bc8da457bc31afadc8",
    "wof:hierarchy": [
      {
        "building_id": 1159160869,
        "campus_id": 102527513,
        "continent_id": 102191575,
        "country_id": 85633793,
        "county_id": 102087579,
        "custom_id": 1729361941,
        "instagram_id": 1729361941,
        "locality_id": 85922583,
        "neighbourhood_id": -1,
        "region_id": 85688637
      }
    ],
    "wof:id": 1729361941,
    "wof:lastmodified": 1787777646,
    "wof:name": "..",
    "wof:parent_id": 1159160869,
    "wof:placetype": "custom",
    "wof:placetype_alt": [
      "instagram"
    ],
    "wof:repo": "sfomuseum-data-socialmedia-instagram",
    "wof:superseded_by": [],
    "wof:supersedes": []
  },
  "bbox": [
    -122.386166,
    37.616356,
    -122.386166,
    37.616356
  ],
  "geometry": {"type":"Point","coordinates":[-122.386166,37.616356]}
}
