{
  "id": 1729358997,
  "type": "Feature",
  "properties": {
    "date:cessation_lower": "2017-10-13",
    "date:cessation_upper": "2017-10-13",
    "date:inception_lower": "2017-10-13",
    "date:inception_upper": "2017-10-13",
    "edtf:cessation": "2017-10-13T06:55:00-07:00",
    "edtf:inception": "2017-10-13T06:55:00-07:00",
    "geom:area": 0,
    "geom:bbox": "-122.386166,37.616356,-122.386166,37.616356",
    "geom:latitude": 37.616356,
    "geom:longitude": -122.386166,
    "instagram:post": {
      "caption": {
        "body": "What's going on in the design lab? We're currently designing our newest exhibition on Braniff Advertising. Do you recognize any of these ads?",
        "excerpt": "What's going on in the design lab?",
        "hashtags": [
          "behindthescenes",
          "sneakpeek",
          "Braniff",
          "avgeek",
          "avationgeek",
          "aviation",
          "aviationhistory",
          "aviationlovers",
          "vintageaviation",
          "history",
          "avhistory",
          "aviationgeeks",
          "instaplane",
          "flying",
          "plane",
          "flight",
          "airline",
          "avgeeks",
          "aviation4u",
          "aviationdaily"
        ],
        "users": []
      },
      "media_id": "f01df67a58df819a38ec81d59ab5d4a1",
      "path": "media/posts/201710/22426991_609320642571568_8115258723456253952_n_17903098156023527.jpg",
      "perceptual_hash": "p:e2af58943d447669",
      "taken": 1507902900,
      "taken_at": "Oct 13, 2017 1:55 pm"
    },
    "millsfield:similar": {
      "google/siglip2-so400m-patch16-naflex": [
        {
          "distance": 0.24473387002944946,
          "id": 1729360455
        },
        {
          "distance": 0.24915742874145508,
          "id": 1729356149
        },
        {
          "distance": 0.2503886818885803,
          "id": 1729355755
        },
        {
          "distance": 0.25144439935684204,
          "id": 1947424969
        },
        {
          "distance": 0.25188565254211426,
          "id": 1729356149
        },
        {
          "distance": 0.25976288318634033,
          "id": 1729357669
        },
        {
          "distance": 0.26243096590042114,
          "id": 1729357109
        },
        {
          "distance": 0.2645219564437866,
          "id": 1729357553
        },
        {
          "distance": 0.26457053422927856,
          "id": 1947424861
        },
        {
          "distance": 0.26628267765045166,
          "id": 1729357493
        }
      ]
    },
    "sfomuseum:placetype": "instagram",
    "src:geom": "sfomuseum",
    "wof:belongsto": [
      1159160869,
      102527513,
      102191575,
      85633793,
      102087579,
      85922583,
      85688637
    ],
    "wof:country": "US",
    "wof:created": 1507902900,
    "wof:geomhash": "b6e33f47475d56bc8da457bc31afadc8",
    "wof:hierarchy": [
      {
        "building_id": 1159160869,
        "campus_id": 102527513,
        "continent_id": 102191575,
        "country_id": 85633793,
        "county_id": 102087579,
        "custom_id": 1729358997,
        "instagram_id": 1729358997,
        "locality_id": 85922583,
        "neighbourhood_id": -1,
        "region_id": 85688637
      }
    ],
    "wof:id": 1729358997,
    "wof:lastmodified": 1787777634,
    "wof:name": "What's going on in the design lab?..",
    "wof:parent_id": 1159160869,
    "wof:placetype": "custom",
    "wof:placetype_alt": [
      "instagram"
    ],
    "wof:repo": "sfomuseum-data-socialmedia-instagram",
    "wof:superseded_by": [],
    "wof:supersedes": []
  },
  "bbox": [
    -122.386166,
    37.616356,
    -122.386166,
    37.616356
  ],
  "geometry": {"type":"Point","coordinates":[-122.386166,37.616356]}
}
