{
  "id": 1729355681,
  "type": "Feature",
  "properties": {
    "date:cessation_lower": "2020-01-11",
    "date:cessation_upper": "2020-01-11",
    "date:inception_lower": "2020-01-11",
    "date:inception_upper": "2020-01-11",
    "edtf:cessation": "2020-01-10T21:35:02-08:00",
    "edtf:inception": "2020-01-10T21:35:02-08:00",
    "geom:area": 0,
    "geom:bbox": "-122.386166,37.616356,-122.386166,37.616356",
    "geom:latitude": 37.616356,
    "geom:longitude": -122.386166,
    "instagram:post": {
      "caption": {
        "body": "Louis Comfort Tiffany (1848–1933) left a prodigious mark on American glass and decorative arts during his career that spanned nearly fifty years. Although Tiffany’s name is most often associated with his work in the medium of glass, he began a career as an interior designer during the late 1870s. He also designed furniture. Tiffany’s residence in New York featured dining room walls covered in Japanese papers, a drawing room with Moorish columns, and a fireplace with mica panels in a spider web pattern. The unusual glass-bejeweled pedestal shown here evoke Tiffany’s love of both exoticism and glass. “The Style of Display: Victorian Pedestals” is on display pre-security in the International Terminal. http://bit.ly/VictorianPedestals",
        "excerpt": "Louis Comfort Tiffany (1848–1933) left a prodigious mark on American glass and decorative arts during his career that spanned nearly fifty years.",
        "hashtags": [
          "VictorianPedestals",
          "victorian",
          "pedestals",
          "victorianfurniture",
          "victoriana",
          "design",
          "decorativeart",
          "interiorstyle",
          "Tiffany"
        ],
        "users": []
      },
      "location": "",
      "media_id": "21263764750edd2379e7b2cc7c8ee7c7",
      "path": "photos/202001/21263764750edd2379e7b2cc7c8ee7c7.jpg",
      "perceptual_hash": "p:eaf074c398e49a66",
      "taken": 1578692100,
      "taken_at": "Jan 10, 2020, 9:35 PM"
    },
    "millsfield:similar": {
      "google/siglip2-so400m-patch16-naflex": [
        {
          "distance": 0.04506409168243408,
          "id": 1729356205
        },
        {
          "distance": 0.16045266389846802,
          "id": 1729356125
        },
        {
          "distance": 0.16842323541641235,
          "id": 1729356419
        },
        {
          "distance": 0.17735731601715088,
          "id": 1729356205
        },
        {
          "distance": 0.19609153270721436,
          "id": 1729355775
        },
        {
          "distance": 0.2035313844680786,
          "id": 1729356161
        },
        {
          "distance": 0.208027184009552,
          "id": 1729355901
        },
        {
          "distance": 0.21265989542007446,
          "id": 1729356397
        },
        {
          "distance": 0.21350866556167603,
          "id": 1729355975
        },
        {
          "distance": 0.2514106035232544,
          "id": 1729356487
        }
      ]
    },
    "sfomuseum:placetype": "instagram",
    "src:geom": "sfomuseum",
    "wof:belongsto": [
      1159160869,
      102527513,
      102191575,
      85633793,
      102087579,
      85922583,
      85688637
    ],
    "wof:country": "US",
    "wof:created": 1578720902,
    "wof:geomhash": "b6e33f47475d56bc8da457bc31afadc8",
    "wof:hierarchy": [
      {
        "building_id": 1159160869,
        "campus_id": 102527513,
        "continent_id": 102191575,
        "country_id": 85633793,
        "county_id": 102087579,
        "custom_id": 1729355681,
        "instagram_id": 1729355681,
        "locality_id": 85922583,
        "neighbourhood_id": -1,
        "region_id": 85688637
      }
    ],
    "wof:id": 1729355681,
    "wof:lastmodified": 1787777627,
    "wof:name": "Louis Comfort Tiffany (1848–1933) left a prodigious mark on American glass and decorative arts during his career that spanned nearly fifty years...",
    "wof:parent_id": 1159160869,
    "wof:placetype": "custom",
    "wof:placetype_alt": [
      "instagram"
    ],
    "wof:repo": "sfomuseum-data-socialmedia-instagram",
    "wof:superseded_by": [],
    "wof:supersedes": []
  },
  "bbox": [
    -122.386166,
    37.616356,
    -122.386166,
    37.616356
  ],
  "geometry": {"type":"Point","coordinates":[-122.386166,37.616356]}
}
