{
  "id": 1729357783,
  "type": "Feature",
  "properties": {
    "date:cessation_lower": "2018-08-14",
    "date:cessation_upper": "2018-08-14",
    "date:inception_lower": "2018-08-14",
    "date:inception_upper": "2018-08-14",
    "edtf:cessation": "2018-08-14T09:05:00-07:00",
    "edtf:inception": "2018-08-14T09:05:00-07:00",
    "geom:area": 0,
    "geom:bbox": "-122.386166,37.616356,-122.386166,37.616356",
    "geom:latitude": 37.616356,
    "geom:longitude": -122.386166,
    "instagram:post": {
      "caption": {
        "body": "During the early twentieth century, these compact and simple, coin-operated vendors were placed atop the counters of stores, restaurants, and bars across the United States. Countertop vending machines dispensed small products that were best suited to sales of a single item. Postage and postcard machines conveniently vended items for mail correspondence outside of the post office, such as the Duplex stamp vendor, which fed one- and two-cent stamps from rolls behind glass sides. Jackson Vending’s safety match vendors, popular in cigar stores, public houses, and saloons, dispensed a box of safety matches from a rotating carousel housed under a glass dome.  All objects courtesy of Joe Welch American Antique Museum. \"The Automatic Age: Coin-Operated Machines\" is on display, pre-security, in the International Terminal. http://bit.ly/CoinOperated",
        "excerpt": "During the early twentieth century, these compact and simple, coin-operated vendors were placed atop the counters of stores, restaurants, and bars across the United States.",
        "hashtags": [
          "coinoperated",
          "TheAutomaticAge",
          "coinop",
          "vintage",
          "antique",
          "matches",
          "slotmachine",
          "slotmachines",
          "vendingmachine"
        ],
        "users": []
      },
      "media_id": "cb8b9cbd20cf9d3a0856b5062c523173",
      "path": "media/other/38225652_1729378020463569_4358664766261035008_n_17940304261176117.jpg",
      "perceptual_hash": "p:bcc4913bec33c394",
      "taken": 1534262700,
      "taken_at": "Aug 14, 2018 4:05 pm"
    },
    "millsfield:similar": {
      "google/siglip2-so400m-patch16-naflex": [
        {
          "distance": 0.05925750732421875,
          "id": 1729358697
        },
        {
          "distance": 0.1546010971069336,
          "id": 1729358697
        },
        {
          "distance": 0.2002301812171936,
          "id": 1729358411
        },
        {
          "distance": 0.21087604761123657,
          "id": 1729359887
        },
        {
          "distance": 0.2216208577156067,
          "id": 1729358693
        },
        {
          "distance": 0.2378489375114441,
          "id": 1729359887
        },
        {
          "distance": 0.2432047724723816,
          "id": 1729359861
        },
        {
          "distance": 0.24519693851470947,
          "id": 1729358735
        },
        {
          "distance": 0.24972397089004517,
          "id": 1729358711
        },
        {
          "distance": 0.2504732012748718,
          "id": 1729358587
        }
      ]
    },
    "sfomuseum:placetype": "instagram",
    "src:geom": "sfomuseum",
    "wof:belongsto": [
      1159160869,
      102527513,
      102191575,
      85633793,
      102087579,
      85922583,
      85688637
    ],
    "wof:country": "US",
    "wof:created": 1534262700,
    "wof:geomhash": "b6e33f47475d56bc8da457bc31afadc8",
    "wof:hierarchy": [
      {
        "building_id": 1159160869,
        "campus_id": 102527513,
        "continent_id": 102191575,
        "country_id": 85633793,
        "county_id": 102087579,
        "custom_id": 1729357783,
        "instagram_id": 1729357783,
        "locality_id": 85922583,
        "neighbourhood_id": -1,
        "region_id": 85688637
      }
    ],
    "wof:id": 1729357783,
    "wof:lastmodified": 1787777632,
    "wof:name": "During the early twentieth century, these compact and simple, coin-operated vendors were placed atop the counters of stores, restaurants, and bars across the United States...",
    "wof:parent_id": 1159160869,
    "wof:placetype": "custom",
    "wof:placetype_alt": [
      "instagram"
    ],
    "wof:repo": "sfomuseum-data-socialmedia-instagram",
    "wof:superseded_by": [],
    "wof:supersedes": []
  },
  "bbox": [
    -122.386166,
    37.616356,
    -122.386166,
    37.616356
  ],
  "geometry": {"type":"Point","coordinates":[-122.386166,37.616356]}
}
