{
  "id": 1729358851,
  "type": "Feature",
  "properties": {
    "date:cessation_lower": "2017-12-04",
    "date:cessation_upper": "2017-12-04",
    "date:inception_lower": "2017-12-04",
    "date:inception_upper": "2017-12-04",
    "edtf:cessation": "2017-12-04T06:38:00-08:00",
    "edtf:inception": "2017-12-04T06:38:00-08:00",
    "geom:area": 0,
    "geom:bbox": "-122.386166,37.616356,-122.386166,37.616356",
    "geom:latitude": 37.616356,
    "geom:longitude": -122.386166,
    "instagram:post": {
      "caption": {
        "body": "#Onthisday in 1991, the last Pan American World Airways flight took off from Barbados to Miami, Florida, Pan American’s birthplace. After years of turmoil, the pioneering airline filed for bankruptcy and ceased operations.  What is your favorite memory of Pan American?  Image: San Francisco International Airport (SFO), Pan American World Airways, Boeing 747-100, 1970s. SFO Museum Collection. 1997.52.084.072",
        "excerpt": "#Onthisday in 1991, the last Pan American World Airways flight took off from Barbados to Miami, Florida, Pan American’s birthplace.",
        "hashtags": [
          "panam",
          "avgeek",
          "avationgeek",
          "aviation",
          "aviationhistory",
          "aviationlovers",
          "vintageaviation",
          "history",
          "avhistory",
          "aviationgeeks",
          "instaplane",
          "flying",
          "plane",
          "flight",
          "airline",
          "avgeeks",
          "aviation4u",
          "aviationdaily"
        ],
        "users": []
      },
      "media_id": "d5435ccac155e7304b141ec2c9be3e78",
      "path": "media/other/24327483_788333804672518_6335925623231348736_n_17911829068051723.jpg",
      "perceptual_hash": "p:9ec11ee94639c31e",
      "taken": 1512398280,
      "taken_at": "Dec 04, 2017 2:38 pm"
    },
    "millsfield:similar": {
      "google/siglip2-so400m-patch16-naflex": [
        {
          "distance": 0.08368074893951416,
          "id": 1763558959
        },
        {
          "distance": 0.12668222188949585,
          "id": 1947424953
        },
        {
          "distance": 0.13919615745544434,
          "id": 1729355133
        },
        {
          "distance": 0.14093053340911865,
          "id": 1763558959
        },
        {
          "distance": 0.14403730630874634,
          "id": 1880151167
        },
        {
          "distance": 0.14859336614608765,
          "id": 1763559357
        },
        {
          "distance": 0.152756929397583,
          "id": 1729355109
        },
        {
          "distance": 0.1596848964691162,
          "id": 1729358863
        },
        {
          "distance": 0.1639258861541748,
          "id": 1729357215
        },
        {
          "distance": 0.16799187660217285,
          "id": 1947424953
        }
      ]
    },
    "sfomuseum:placetype": "instagram",
    "src:geom": "sfomuseum",
    "wof:belongsto": [
      1159160869,
      102527513,
      102191575,
      85633793,
      102087579,
      85922583,
      85688637
    ],
    "wof:country": "US",
    "wof:created": 1512398280,
    "wof:geomhash": "b6e33f47475d56bc8da457bc31afadc8",
    "wof:hierarchy": [
      {
        "building_id": 1159160869,
        "campus_id": 102527513,
        "continent_id": 102191575,
        "country_id": 85633793,
        "county_id": 102087579,
        "custom_id": 1729358851,
        "instagram_id": 1729358851,
        "locality_id": 85922583,
        "neighbourhood_id": -1,
        "region_id": 85688637
      }
    ],
    "wof:id": 1729358851,
    "wof:lastmodified": 1787777634,
    "wof:name": "#Onthisday in 1991, the last Pan American World Airways flight took off from Barbados to Miami, Florida, Pan American’s birthplace...",
    "wof:parent_id": 1159160869,
    "wof:placetype": "custom",
    "wof:placetype_alt": [
      "instagram"
    ],
    "wof:repo": "sfomuseum-data-socialmedia-instagram",
    "wof:superseded_by": [],
    "wof:supersedes": []
  },
  "bbox": [
    -122.386166,
    37.616356,
    -122.386166,
    37.616356
  ],
  "geometry": {"type":"Point","coordinates":[-122.386166,37.616356]}
}
