{
  "id": 1729362535,
  "type": "Feature",
  "properties": {
    "date:cessation_lower": "2013-10-03",
    "date:cessation_upper": "2013-10-03",
    "date:inception_lower": "2013-10-03",
    "date:inception_upper": "2013-10-03",
    "edtf:cessation": "2013-10-03T01:29:00-07:00",
    "edtf:inception": "2013-10-03T01:29:00-07:00",
    "geom:area": 0,
    "geom:bbox": "-122.386166,37.616356,-122.386166,37.616356",
    "geom:latitude": 37.616356,
    "geom:longitude": -122.386166,
    "instagram:post": {
      "caption": {
        "body": "With over 40 exhibits produced each year, we move a lot of objects to and from the Airport, so the arrival this morning of our new, customized van got a lot of staff excitement and oooooohs \u0026 aaaaaaaahs!",
        "excerpt": "With over 40 exhibits produced each year, we move a lot of objects to and from the Airport, so the arrival this morning of our new, customized van got a lot of staff excitement and oooooohs \u0026 aaaaaaaahs!",
        "hashtags": [],
        "users": []
      },
      "media_id": "3da3656403a1f058f4532b642af79070",
      "path": "media/other/11248983_698038830342572_1073216278_n_17842364275062499.jpg",
      "perceptual_hash": "p:eaf19f0ecc60b132",
      "taken": 1380788940,
      "taken_at": "Oct 03, 2013 8:29 am"
    },
    "millsfield:similar": {
      "google/siglip2-so400m-patch16-naflex": [
        {
          "distance": 0.2715611457824707,
          "id": 1729363051
        },
        {
          "distance": 0.2838759422302246,
          "id": 1729362611
        },
        {
          "distance": 0.2854599952697754,
          "id": 1729362955
        },
        {
          "distance": 0.2866966128349304,
          "id": 1729362949
        },
        {
          "distance": 0.29008716344833374,
          "id": 1729363057
        },
        {
          "distance": 0.2923944592475891,
          "id": 1729362513
        },
        {
          "distance": 0.29247933626174927,
          "id": 1729362743
        },
        {
          "distance": 0.3061261773109436,
          "id": 1729362515
        },
        {
          "distance": 0.3076096773147583,
          "id": 1729362727
        },
        {
          "distance": 0.31441330909729004,
          "id": 1729362911
        }
      ]
    },
    "sfomuseum:placetype": "instagram",
    "src:geom": "sfomuseum",
    "wof:belongsto": [
      1159160869,
      102527513,
      102191575,
      85633793,
      102087579,
      85922583,
      85688637
    ],
    "wof:country": "US",
    "wof:created": 1380788940,
    "wof:geomhash": "b6e33f47475d56bc8da457bc31afadc8",
    "wof:hierarchy": [
      {
        "building_id": 1159160869,
        "campus_id": 102527513,
        "continent_id": 102191575,
        "country_id": 85633793,
        "county_id": 102087579,
        "custom_id": 1729362535,
        "instagram_id": 1729362535,
        "locality_id": 85922583,
        "neighbourhood_id": -1,
        "region_id": 85688637
      }
    ],
    "wof:id": 1729362535,
    "wof:lastmodified": 1787777647,
    "wof:name": "With over 40 exhibits produced each year, we move a lot of objects to and from the Airport, so the arrival this morning of our new, customized van got a lot of staff excitement and oooooohs \u0026 aaaaaaaahs!..",
    "wof:parent_id": 1159160869,
    "wof:placetype": "custom",
    "wof:placetype_alt": [
      "instagram"
    ],
    "wof:repo": "sfomuseum-data-socialmedia-instagram",
    "wof:superseded_by": [],
    "wof:supersedes": []
  },
  "bbox": [
    -122.386166,
    37.616356,
    -122.386166,
    37.616356
  ],
  "geometry": {"type":"Point","coordinates":[-122.386166,37.616356]}
}
