{
  "id": 1729359349,
  "type": "Feature",
  "properties": {
    "date:cessation_lower": "2017-07-05",
    "date:cessation_upper": "2017-07-05",
    "date:inception_lower": "2017-07-05",
    "date:inception_upper": "2017-07-05",
    "edtf:cessation": "2017-07-05T12:00:55-07:00",
    "edtf:inception": "2017-07-05T12:00:55-07:00",
    "geom:area": 0,
    "geom:bbox": "-122.386166,37.616356,-122.386166,37.616356",
    "geom:latitude": 37.616356,
    "geom:longitude": -122.386166,
    "instagram:post": {
      "caption": {
        "body": "#Onthisday in 1994, the \"rebooted\" Frontier Airlines commenced operations. The ultra low cost carrier traces its legacy back to the first Frontier Airlines, which was founded in 1950 and operated until 1986. In 1994, the new Frontier introduced a livery which included animals painted on the tail of every aircraft. Every animal also has a name, which is included in Frontier marketing and branding, a clever marketing approach. Passengers have reported to have favorite animals. Have you ever flown on Frontier?  Image:  Frontier Airlines postcard, Boeing 737, 1996. Mark F. Adams Collection. 2001.106.154",
        "excerpt": "#Onthisday in 1994, the \"rebooted\" Frontier Airlines commenced operations.",
        "hashtags": [
          "avgeek",
          "aviationhistory",
          "frontier",
          "frontierairlines",
          "ULCC",
          "livery",
          "liveryhistory"
        ],
        "users": []
      },
      "location": "SFO Museum",
      "media_id": "2d3d5827e3531120d6a4f59d15e4b476",
      "path": "photos/201707/2d3d5827e3531120d6a4f59d15e4b476.jpg",
      "perceptual_hash": "p:9f9f6b61d4706860",
      "taken": 1499252400,
      "taken_at": "Jul 5, 2017, 11:00 AM"
    },
    "millsfield:similar": {
      "google/siglip2-so400m-patch16-naflex": [
        {
          "distance": 0.013419747352600098,
          "id": 1763558677
        },
        {
          "distance": 0.08991384506225586,
          "id": 1763558677
        },
        {
          "distance": 0.21556627750396729,
          "id": 1729358137
        },
        {
          "distance": 0.21721488237380981,
          "id": 1729358779
        },
        {
          "distance": 0.21871858835220337,
          "id": 1763558697
        },
        {
          "distance": 0.21974027156829834,
          "id": 1763558697
        },
        {
          "distance": 0.22724205255508423,
          "id": 1729358779
        },
        {
          "distance": 0.237837016582489,
          "id": 1729358137
        },
        {
          "distance": 0.24465054273605347,
          "id": 1729357629
        },
        {
          "distance": 0.255631685256958,
          "id": 1729355477
        }
      ]
    },
    "sfomuseum:placetype": "instagram",
    "src:geom": "sfomuseum",
    "wof:belongsto": [
      1159160869,
      102527513,
      102191575,
      85633793,
      102087579,
      85922583,
      85688637
    ],
    "wof:country": "US",
    "wof:created": 1499281255,
    "wof:geomhash": "b6e33f47475d56bc8da457bc31afadc8",
    "wof:hierarchy": [
      {
        "building_id": 1159160869,
        "campus_id": 102527513,
        "continent_id": 102191575,
        "country_id": 85633793,
        "county_id": 102087579,
        "custom_id": 1729359349,
        "instagram_id": 1729359349,
        "locality_id": 85922583,
        "neighbourhood_id": -1,
        "region_id": 85688637
      }
    ],
    "wof:id": 1729359349,
    "wof:lastmodified": 1787777635,
    "wof:name": "#Onthisday in 1994, the \"rebooted\" Frontier Airlines commenced operations...",
    "wof:parent_id": 1159160869,
    "wof:placetype": "custom",
    "wof:placetype_alt": [
      "instagram"
    ],
    "wof:repo": "sfomuseum-data-socialmedia-instagram",
    "wof:superseded_by": [],
    "wof:supersedes": []
  },
  "bbox": [
    -122.386166,
    37.616356,
    -122.386166,
    37.616356
  ],
  "geometry": {"type":"Point","coordinates":[-122.386166,37.616356]}
}
