{
  "id": 1729362489,
  "type": "Feature",
  "properties": {
    "date:cessation_lower": "2013-11-01",
    "date:cessation_upper": "2013-11-01",
    "date:inception_lower": "2013-11-01",
    "date:inception_upper": "2013-11-01",
    "edtf:cessation": "2013-11-01T03:55:00-07:00",
    "edtf:inception": "2013-11-01T03:55:00-07:00",
    "geom:area": 0,
    "geom:bbox": "-122.386166,37.616356,-122.386166,37.616356",
    "geom:latitude": 37.616356,
    "geom:longitude": -122.386166,
    "instagram:post": {
      "caption": {
        "body": "",
        "excerpt": "",
        "hashtags": [
          "JapaneseToys"
        ],
        "users": []
      },
      "media_id": "5558240e04afe26bc6ffb73b17fb2284",
      "path": "media/other/1389166_708563802489201_832690505_n_17842372489062499.jpg",
      "perceptual_hash": "p:e0f3d80f259c16cb",
      "taken": 1383303300,
      "taken_at": "Nov 01, 2013 10:55 am"
    },
    "millsfield:similar": {
      "google/siglip2-so400m-patch16-naflex": [
        {
          "distance": 0.17399823665618896,
          "id": 1729362625
        },
        {
          "distance": 0.22474080324172974,
          "id": 1729362625
        },
        {
          "distance": 0.2678818106651306,
          "id": 1729361801
        },
        {
          "distance": 0.2731439471244812,
          "id": 1729362079
        },
        {
          "distance": 0.283388614654541,
          "id": 1729362291
        },
        {
          "distance": 0.28495240211486816,
          "id": 1729362327
        },
        {
          "distance": 0.2895670533180237,
          "id": 1729362419
        },
        {
          "distance": 0.2991117835044861,
          "id": 1729362693
        },
        {
          "distance": 0.30099791288375854,
          "id": 1729362949
        },
        {
          "distance": 0.30143940448760986,
          "id": 1729362913
        }
      ]
    },
    "sfomuseum:placetype": "instagram",
    "src:geom": "sfomuseum",
    "wof:belongsto": [
      1159160869,
      102527513,
      102191575,
      85633793,
      102087579,
      85922583,
      85688637
    ],
    "wof:country": "US",
    "wof:created": 1383303300,
    "wof:geomhash": "b6e33f47475d56bc8da457bc31afadc8",
    "wof:hierarchy": [
      {
        "building_id": 1159160869,
        "campus_id": 102527513,
        "continent_id": 102191575,
        "country_id": 85633793,
        "county_id": 102087579,
        "custom_id": 1729362489,
        "instagram_id": 1729362489,
        "locality_id": 85922583,
        "neighbourhood_id": -1,
        "region_id": 85688637
      }
    ],
    "wof:id": 1729362489,
    "wof:lastmodified": 1787777647,
    "wof:name": "..",
    "wof:parent_id": 1159160869,
    "wof:placetype": "custom",
    "wof:placetype_alt": [
      "instagram"
    ],
    "wof:repo": "sfomuseum-data-socialmedia-instagram",
    "wof:superseded_by": [],
    "wof:supersedes": []
  },
  "bbox": [
    -122.386166,
    37.616356,
    -122.386166,
    37.616356
  ],
  "geometry": {"type":"Point","coordinates":[-122.386166,37.616356]}
}
