{
  "id": 1729357275,
  "type": "Feature",
  "properties": {
    "date:cessation_lower": "2018-12-07",
    "date:cessation_upper": "2018-12-07",
    "date:inception_lower": "2018-12-07",
    "date:inception_upper": "2018-12-07",
    "edtf:cessation": "2018-12-07T10:04:00-08:00",
    "edtf:inception": "2018-12-07T10:04:00-08:00",
    "geom:area": 0,
    "geom:bbox": "-122.386166,37.616356,-122.386166,37.616356",
    "geom:latitude": 37.616356,
    "geom:longitude": -122.386166,
    "instagram:post": {
      "caption": {
        "body": "The Lockheed Model 14 Super Electra was a twin-engine, low-wing monoplane with a clean, aerodynamic fuselage and a twin tail. It was developed in response to criticism from airlines that the earlier Model 10 Electra was too small. The Model 14 had more powerful engines than the Model 10, could carry two more passengers, and featured Fowler flaps on the wings that enabled it to glide at low speed on the approach to landings. More than two hundred were built in the United States and under license in Japan. They were operated by airlines worldwide. In 1938, a modified version was flown by Howard Hughes and a crew of four to circumnavigate the northern hemisphere, covering 23,804 miles in three days and nineteen hours, a world record.  See \"Aviation Evolutions: The Jim Lund 1:72 Scale Model Airplane Collection\", which features more than 200 models, on display, pre-security, in the Aviation Museum. http://bit.ly/AviationEvolutions",
        "excerpt": "The Lockheed Model 14 Super Electra was a twin-engine, low-wing monoplane with a clean, aerodynamic fuselage and a twin tail.",
        "hashtags": [
          "AviationEvolutions",
          "jimlund",
          "lockheed",
          "avgeek",
          "aviationgeek",
          "aviation",
          "aviationhistory",
          "vintageaviation",
          "history",
          "aviationgeeks",
          "modelplane",
          "scalemodel",
          "avgeeks"
        ],
        "users": []
      },
      "media_id": "724dd3894ac72e493618c8b92a53c7b3",
      "path": "media/posts/201812/46303519_2135515983444513_876017085318908667_n_17981965186137664.jpg",
      "perceptual_hash": "p:90c3866f2bd52ad6",
      "taken": 1544205840,
      "taken_at": "Dec 07, 2018 6:04 pm"
    },
    "millsfield:similar": {
      "google/siglip2-so400m-patch16-naflex": [
        {
          "distance": 0.015252172946929932,
          "id": 1729357993
        },
        {
          "distance": 0.05066549777984619,
          "id": 1729356977
        },
        {
          "distance": 0.05331110954284668,
          "id": 1729357733
        },
        {
          "distance": 0.05453532934188843,
          "id": 1729357033
        },
        {
          "distance": 0.060439884662628174,
          "id": 1729358383
        },
        {
          "distance": 0.06630063056945801,
          "id": 1729358313
        },
        {
          "distance": 0.06913590431213379,
          "id": 1763558763
        },
        {
          "distance": 0.08193022012710571,
          "id": 1729358143
        },
        {
          "distance": 0.08735167980194092,
          "id": 1729357493
        },
        {
          "distance": 0.09957265853881836,
          "id": 1729357959
        }
      ]
    },
    "sfomuseum:placetype": "instagram",
    "src:geom": "sfomuseum",
    "wof:belongsto": [
      1159160869,
      102527513,
      102191575,
      85633793,
      102087579,
      85922583,
      85688637
    ],
    "wof:country": "US",
    "wof:created": 1544205840,
    "wof:geomhash": "b6e33f47475d56bc8da457bc31afadc8",
    "wof:hierarchy": [
      {
        "building_id": 1159160869,
        "campus_id": 102527513,
        "continent_id": 102191575,
        "country_id": 85633793,
        "county_id": 102087579,
        "custom_id": 1729357275,
        "instagram_id": 1729357275,
        "locality_id": 85922583,
        "neighbourhood_id": -1,
        "region_id": 85688637
      }
    ],
    "wof:id": 1729357275,
    "wof:lastmodified": 1787777630,
    "wof:name": "The Lockheed Model 14 Super Electra was a twin-engine, low-wing monoplane with a clean, aerodynamic fuselage and a twin tail...",
    "wof:parent_id": 1159160869,
    "wof:placetype": "custom",
    "wof:placetype_alt": [
      "instagram"
    ],
    "wof:repo": "sfomuseum-data-socialmedia-instagram",
    "wof:superseded_by": [],
    "wof:supersedes": []
  },
  "bbox": [
    -122.386166,
    37.616356,
    -122.386166,
    37.616356
  ],
  "geometry": {"type":"Point","coordinates":[-122.386166,37.616356]}
}
