{
  "id": 1729361951,
  "type": "Feature",
  "properties": {
    "date:cessation_lower": "2015-01-23",
    "date:cessation_upper": "2015-01-23",
    "date:inception_lower": "2015-01-23",
    "date:inception_upper": "2015-01-23",
    "edtf:cessation": "2015-01-23T06:34:00-08:00",
    "edtf:inception": "2015-01-23T06:34:00-08:00",
    "geom:area": 0,
    "geom:bbox": "-122.386166,37.616356,-122.386166,37.616356",
    "geom:latitude": 37.616356,
    "geom:longitude": -122.386166,
    "instagram:post": {
      "caption": {
        "body": "",
        "excerpt": "",
        "hashtags": [
          "FlyingDownUnder",
          "LuggageLabel"
        ],
        "users": []
      },
      "media_id": "b3deca1c6880c57d802c2fec5332bab2",
      "path": "media/other/10919153_330525433739474_4902210_n_17842025149062499.jpg",
      "perceptual_hash": "p:b399cc9999669b30",
      "taken": 1422023640,
      "taken_at": "Jan 23, 2015 2:34 pm"
    },
    "millsfield:similar": {
      "google/siglip2-so400m-patch16-naflex": [
        {
          "distance": 0.3253837823867798,
          "id": 1729356715
        },
        {
          "distance": 0.32614946365356445,
          "id": 1880151645
        },
        {
          "distance": 0.33086633682250977,
          "id": 1729361695
        },
        {
          "distance": 0.33355802297592163,
          "id": 1729360785
        },
        {
          "distance": 0.3357030153274536,
          "id": 1729360785
        },
        {
          "distance": 0.3357453942298889,
          "id": 1729360155
        },
        {
          "distance": 0.3443402647972107,
          "id": 1729359217
        },
        {
          "distance": 0.3463333249092102,
          "id": 1880151505
        },
        {
          "distance": 0.3511360287666321,
          "id": 1729357541
        },
        {
          "distance": 0.35795944929122925,
          "id": 1729360475
        }
      ]
    },
    "sfomuseum:placetype": "instagram",
    "src:geom": "sfomuseum",
    "wof:belongsto": [
      1159160869,
      102527513,
      102191575,
      85633793,
      102087579,
      85922583,
      85688637
    ],
    "wof:country": "US",
    "wof:created": 1422023640,
    "wof:geomhash": "b6e33f47475d56bc8da457bc31afadc8",
    "wof:hierarchy": [
      {
        "building_id": 1159160869,
        "campus_id": 102527513,
        "continent_id": 102191575,
        "country_id": 85633793,
        "county_id": 102087579,
        "custom_id": 1729361951,
        "instagram_id": 1729361951,
        "locality_id": 85922583,
        "neighbourhood_id": -1,
        "region_id": 85688637
      }
    ],
    "wof:id": 1729361951,
    "wof:lastmodified": 1787777646,
    "wof:name": "..",
    "wof:parent_id": 1159160869,
    "wof:placetype": "custom",
    "wof:placetype_alt": [
      "instagram"
    ],
    "wof:repo": "sfomuseum-data-socialmedia-instagram",
    "wof:superseded_by": [],
    "wof:supersedes": []
  },
  "bbox": [
    -122.386166,
    37.616356,
    -122.386166,
    37.616356
  ],
  "geometry": {"type":"Point","coordinates":[-122.386166,37.616356]}
}
