{
  "id": 1729355251,
  "type": "Feature",
  "properties": {
    "date:cessation_lower": "2020-05-15",
    "date:cessation_upper": "2020-05-15",
    "date:inception_lower": "2020-05-15",
    "date:inception_upper": "2020-05-15",
    "edtf:cessation": "2020-05-15T16:41:44-07:00",
    "edtf:inception": "2020-05-15T16:41:44-07:00",
    "geom:area": 0,
    "geom:bbox": "-122.386166,37.616356,-122.386166,37.616356",
    "geom:latitude": 37.616356,
    "geom:longitude": -122.386166,
    "instagram:post": {
      "caption": {
        "body": "During the Vietnam War, commercial airliners along with their crews were chartered to fly US troops into combat zones. Soldiers no longer deployed to the war zone with their units, but as individuals or in small groups for distribution to their units upon arrival. A typical charter flight of about 200 people included members of dozens of different units and all branches of service. Veterans recall this as an isolating and disorienting experience. These feelings of isolation and confusion made the efforts of the flight attendants critical. Flight attendants remember the passengers being very respectful to them.  Learn more about these chartered flights in “Flying the Freedom Birds: Airlines and the Vietnam War.” See the online exhibition at: http://bit.ly/FreedomBirds",
        "excerpt": "During the Vietnam War, commercial airliners along with their crews were chartered to fly US troops into combat zones.",
        "hashtags": [
          "FreedomBird",
          "VietnamWar",
          "avgeek",
          "MuseumFromHome"
        ],
        "users": []
      },
      "location": "",
      "media_id": "329aa2d6838fb0716332a2a6187a70a3",
      "path": "photos/202005/329aa2d6838fb0716332a2a6187a70a3.jpg",
      "perceptual_hash": "p:d2bd9768adb211d0",
      "taken": 1589557260,
      "taken_at": "May 15, 2020, 3:41 PM"
    },
    "millsfield:similar": {
      "google/siglip2-so400m-patch16-naflex": [
        {
          "distance": 0.13943326473236084,
          "id": 1729361255
        },
        {
          "distance": 0.17484110593795776,
          "id": 1729355759
        },
        {
          "distance": 0.18344056606292725,
          "id": 1729360537
        },
        {
          "distance": 0.18638455867767334,
          "id": 1729361255
        },
        {
          "distance": 0.18835335969924927,
          "id": 1729355763
        },
        {
          "distance": 0.1922515630722046,
          "id": 1729355261
        },
        {
          "distance": 0.19615858793258667,
          "id": 1729359201
        },
        {
          "distance": 0.19632500410079956,
          "id": 1729359947
        },
        {
          "distance": 0.20561492443084717,
          "id": 1763559527
        },
        {
          "distance": 0.20631474256515503,
          "id": 1729360551
        }
      ]
    },
    "sfomuseum:placetype": "instagram",
    "src:geom": "sfomuseum",
    "wof:belongsto": [
      1159160869,
      102527513,
      102191575,
      85633793,
      102087579,
      85922583,
      85688637
    ],
    "wof:country": "US",
    "wof:created": 1589586104,
    "wof:geomhash": "b6e33f47475d56bc8da457bc31afadc8",
    "wof:hierarchy": [
      {
        "building_id": 1159160869,
        "campus_id": 102527513,
        "continent_id": 102191575,
        "country_id": 85633793,
        "county_id": 102087579,
        "custom_id": 1729355251,
        "instagram_id": 1729355251,
        "locality_id": 85922583,
        "neighbourhood_id": -1,
        "region_id": 85688637
      }
    ],
    "wof:id": 1729355251,
    "wof:lastmodified": 1787777621,
    "wof:name": "During the Vietnam War, commercial airliners along with their crews were chartered to fly US troops into combat zones...",
    "wof:parent_id": 1159160869,
    "wof:placetype": "custom",
    "wof:placetype_alt": [
      "instagram"
    ],
    "wof:repo": "sfomuseum-data-socialmedia-instagram",
    "wof:superseded_by": [],
    "wof:supersedes": []
  },
  "bbox": [
    -122.386166,
    37.616356,
    -122.386166,
    37.616356
  ],
  "geometry": {"type":"Point","coordinates":[-122.386166,37.616356]}
}
