{
  "id": 1729359551,
  "type": "Feature",
  "properties": {
    "date:cessation_lower": "2017-04-29",
    "date:cessation_upper": "2017-04-29",
    "date:inception_lower": "2017-04-29",
    "date:inception_upper": "2017-04-29",
    "edtf:cessation": "2017-04-29T03:17:00-07:00",
    "edtf:inception": "2017-04-29T03:17:00-07:00",
    "geom:area": 0,
    "geom:bbox": "-122.386166,37.616356,-122.386166,37.616356",
    "geom:latitude": 37.616356,
    "geom:longitude": -122.386166,
    "instagram:post": {
      "caption": {
        "body": "Inspired by American folk art, quilting, and storytelling, Clare Rojas creates dreamlike images executed in tightly drawn, crystalline shapes. Rojas intends to bring a sense of warmth and comfort to the viewer, and she often changes the exhibition space to better fit the feeling of her work. Here she transforms the gate room wall into space more reminiscent of home. Blue Deer is based on a children’s book Rojas wrote and illustrated, Blue Deer and Red Fox.  See \"Blue Deer\" by Clare Rojas, post-security, in the International Terminal. http://bit.ly/2oSr60h",
        "excerpt": "Inspired by American folk art, quilting, and storytelling, Clare Rojas creates dreamlike images executed in tightly drawn, crystalline shapes.",
        "hashtags": [
          "AirportArt",
          "ClareRojas",
          "BlueDeer",
          "painting",
          "fineart",
          "sfo",
          "paxex"
        ],
        "users": []
      },
      "media_id": "3197d6773d58509d4937e914f5ef67c4",
      "path": "media/posts/201704/18252533_769348406567914_1913236578352758784_n_17854424881189940.jpg",
      "perceptual_hash": "p:e59619e943ee5c11",
      "taken": 1493461020,
      "taken_at": "Apr 29, 2017 10:17 am"
    },
    "millsfield:similar": {
      "google/siglip2-so400m-patch16-naflex": [
        {
          "distance": 0.10977965593338013,
          "id": 1729362151
        },
        {
          "distance": 0.13248765468597412,
          "id": 1763559019
        },
        {
          "distance": 0.14855962991714478,
          "id": 1763559019
        },
        {
          "distance": 0.3400382399559021,
          "id": 1729357777
        },
        {
          "distance": 0.3603188395500183,
          "id": 1947425317
        },
        {
          "distance": 0.36754876375198364,
          "id": 1729355779
        },
        {
          "distance": 0.3738468885421753,
          "id": 1763558965
        },
        {
          "distance": 0.3824496865272522,
          "id": 1729355779
        },
        {
          "distance": 0.3832738995552063,
          "id": 1763558965
        },
        {
          "distance": 0.3843672275543213,
          "id": 1763559493
        }
      ]
    },
    "sfomuseum:placetype": "instagram",
    "src:geom": "sfomuseum",
    "wof:belongsto": [
      1159160869,
      102527513,
      102191575,
      85633793,
      102087579,
      85922583,
      85688637
    ],
    "wof:country": "US",
    "wof:created": 1493461020,
    "wof:geomhash": "b6e33f47475d56bc8da457bc31afadc8",
    "wof:hierarchy": [
      {
        "building_id": 1159160869,
        "campus_id": 102527513,
        "continent_id": 102191575,
        "country_id": 85633793,
        "county_id": 102087579,
        "custom_id": 1729359551,
        "instagram_id": 1729359551,
        "locality_id": 85922583,
        "neighbourhood_id": -1,
        "region_id": 85688637
      }
    ],
    "wof:id": 1729359551,
    "wof:lastmodified": 1787777636,
    "wof:name": "Inspired by American folk art, quilting, and storytelling, Clare Rojas creates dreamlike images executed in tightly drawn, crystalline shapes...",
    "wof:parent_id": 1159160869,
    "wof:placetype": "custom",
    "wof:placetype_alt": [
      "instagram"
    ],
    "wof:repo": "sfomuseum-data-socialmedia-instagram",
    "wof:superseded_by": [],
    "wof:supersedes": []
  },
  "bbox": [
    -122.386166,
    37.616356,
    -122.386166,
    37.616356
  ],
  "geometry": {"type":"Point","coordinates":[-122.386166,37.616356]}
}
