{
  "id": 1729361963,
  "type": "Feature",
  "properties": {
    "date:cessation_lower": "2015-01-15",
    "date:cessation_upper": "2015-01-15",
    "date:inception_lower": "2015-01-15",
    "date:inception_upper": "2015-01-15",
    "edtf:cessation": "2015-01-15T06:20:00-08:00",
    "edtf:inception": "2015-01-15T06:20:00-08:00",
    "geom:area": 0,
    "geom:bbox": "-122.386166,37.616356,-122.386166,37.616356",
    "geom:latitude": 37.616356,
    "geom:longitude": -122.386166,
    "instagram:post": {
      "caption": {
        "body": "",
        "excerpt": "",
        "hashtags": [
          "EgyptianRevival",
          "ouija",
          "ouijaboard"
        ],
        "users": []
      },
      "media_id": "72867b2f89d61cd1cd5cdf50e58be5cc",
      "path": "media/other/10932520_760849314005722_285546339_n_17841751867062499.jpg",
      "perceptual_hash": "p:e14e6da192b39327",
      "taken": 1421331600,
      "taken_at": "Jan 15, 2015 2:20 pm"
    },
    "millsfield:similar": {
      "google/siglip2-so400m-patch16-naflex": [
        {
          "distance": 0.256136953830719,
          "id": 1880151361
        },
        {
          "distance": 0.2616836428642273,
          "id": 1729359689
        },
        {
          "distance": 0.27100569009780884,
          "id": 1729359689
        },
        {
          "distance": 0.3053617477416992,
          "id": 1729355631
        },
        {
          "distance": 0.31458520889282227,
          "id": 1729355631
        },
        {
          "distance": 0.33095788955688477,
          "id": 1729360189
        },
        {
          "distance": 0.334642231464386,
          "id": 1880151361
        },
        {
          "distance": 0.3439790606498718,
          "id": 1729360189
        },
        {
          "distance": 0.35094135999679565,
          "id": 1729359939
        },
        {
          "distance": 0.37603235244750977,
          "id": 1729359741
        }
      ]
    },
    "sfomuseum:placetype": "instagram",
    "src:geom": "sfomuseum",
    "wof:belongsto": [
      1159160869,
      102527513,
      102191575,
      85633793,
      102087579,
      85922583,
      85688637
    ],
    "wof:country": "US",
    "wof:created": 1421331600,
    "wof:geomhash": "b6e33f47475d56bc8da457bc31afadc8",
    "wof:hierarchy": [
      {
        "building_id": 1159160869,
        "campus_id": 102527513,
        "continent_id": 102191575,
        "country_id": 85633793,
        "county_id": 102087579,
        "custom_id": 1729361963,
        "instagram_id": 1729361963,
        "locality_id": 85922583,
        "neighbourhood_id": -1,
        "region_id": 85688637
      }
    ],
    "wof:id": 1729361963,
    "wof:lastmodified": 1787777646,
    "wof:name": "..",
    "wof:parent_id": 1159160869,
    "wof:placetype": "custom",
    "wof:placetype_alt": [
      "instagram"
    ],
    "wof:repo": "sfomuseum-data-socialmedia-instagram",
    "wof:superseded_by": [],
    "wof:supersedes": []
  },
  "bbox": [
    -122.386166,
    37.616356,
    -122.386166,
    37.616356
  ],
  "geometry": {"type":"Point","coordinates":[-122.386166,37.616356]}
}
