{
  "id": 1729360209,
  "type": "Feature",
  "properties": {
    "date:cessation_lower": "2016-10-23",
    "date:cessation_upper": "2016-10-23",
    "date:inception_lower": "2016-10-23",
    "date:inception_upper": "2016-10-23",
    "edtf:cessation": "2016-10-23T05:57:00-07:00",
    "edtf:inception": "2016-10-23T05:57:00-07:00",
    "geom:area": 0,
    "geom:bbox": "-122.386166,37.616356,-122.386166,37.616356",
    "geom:latitude": 37.616356,
    "geom:longitude": -122.386166,
    "instagram:post": {
      "caption": {
        "body": "",
        "excerpt": "",
        "hashtags": [
          "onthisday",
          "britishairways",
          "concorde",
          "aviationhistory",
          "avgeek"
        ],
        "users": []
      },
      "media_id": "04db7b5b096c9ea979d6536f7a49aad7",
      "path": "media/other/14718343_138593773274930_4567269506761621504_n_17854358395116875.jpg",
      "perceptual_hash": "p:d3c82c3ed5c229b5",
      "taken": 1477227420,
      "taken_at": "Oct 23, 2016 12:57 pm"
    },
    "millsfield:similar": {
      "google/siglip2-so400m-patch16-naflex": [
        {
          "distance": 0.06701076030731201,
          "id": 1763559419
        },
        {
          "distance": 0.07223165035247803,
          "id": 1729358971
        },
        {
          "distance": 0.07881289720535278,
          "id": 1729355687
        },
        {
          "distance": 0.08188170194625854,
          "id": 1729355495
        },
        {
          "distance": 0.08575433492660522,
          "id": 1729357503
        },
        {
          "distance": 0.10292547941207886,
          "id": 1729356065
        },
        {
          "distance": 0.1089479923248291,
          "id": 1729358971
        },
        {
          "distance": 0.11005103588104248,
          "id": 1763559419
        },
        {
          "distance": 0.11016607284545898,
          "id": 1729356529
        },
        {
          "distance": 0.11409294605255127,
          "id": 1729355945
        }
      ]
    },
    "sfomuseum:placetype": "instagram",
    "src:geom": "sfomuseum",
    "wof:belongsto": [
      1159160869,
      102527513,
      102191575,
      85633793,
      102087579,
      85922583,
      85688637
    ],
    "wof:country": "US",
    "wof:created": 1477227420,
    "wof:geomhash": "b6e33f47475d56bc8da457bc31afadc8",
    "wof:hierarchy": [
      {
        "building_id": 1159160869,
        "campus_id": 102527513,
        "continent_id": 102191575,
        "country_id": 85633793,
        "county_id": 102087579,
        "custom_id": 1729360209,
        "instagram_id": 1729360209,
        "locality_id": 85922583,
        "neighbourhood_id": -1,
        "region_id": 85688637
      }
    ],
    "wof:id": 1729360209,
    "wof:lastmodified": 1787777639,
    "wof:name": "..",
    "wof:parent_id": 1159160869,
    "wof:placetype": "custom",
    "wof:placetype_alt": [
      "instagram"
    ],
    "wof:repo": "sfomuseum-data-socialmedia-instagram",
    "wof:superseded_by": [],
    "wof:supersedes": []
  },
  "bbox": [
    -122.386166,
    37.616356,
    -122.386166,
    37.616356
  ],
  "geometry": {"type":"Point","coordinates":[-122.386166,37.616356]}
}
