{
  "id": 1729361807,
  "type": "Feature",
  "properties": {
    "date:cessation_lower": "2015-04-29",
    "date:cessation_upper": "2015-04-29",
    "date:inception_lower": "2015-04-29",
    "date:inception_upper": "2015-04-29",
    "edtf:cessation": "2015-04-29T05:34:00-07:00",
    "edtf:inception": "2015-04-29T05:34:00-07:00",
    "geom:area": 0,
    "geom:bbox": "-122.386166,37.616356,-122.386166,37.616356",
    "geom:latitude": 37.616356,
    "geom:longitude": -122.386166,
    "instagram:post": {
      "caption": {
        "body": "",
        "excerpt": "",
        "hashtags": [
          "Tushanwan",
          "pagoda",
          "PPIE",
          "PPIE100"
        ],
        "users": []
      },
      "media_id": "45fe43dccda8c1714de62282c1875686",
      "path": "media/other/11189184_894855450552614_40601770_n_17841607852062499.jpg",
      "perceptual_hash": "p:be93c16cc0930ff1",
      "taken": 1430310840,
      "taken_at": "Apr 29, 2015 12:34 pm"
    },
    "millsfield:similar": {
      "google/siglip2-so400m-patch16-naflex": [
        {
          "distance": 0.09656071662902832,
          "id": 1729361705
        },
        {
          "distance": 0.10248410701751709,
          "id": 1729361755
        },
        {
          "distance": 0.11620986461639404,
          "id": 1729361771
        },
        {
          "distance": 0.1364666223526001,
          "id": 1729361705
        },
        {
          "distance": 0.14359831809997559,
          "id": 1729361753
        },
        {
          "distance": 0.14414244890213013,
          "id": 1729361755
        },
        {
          "distance": 0.1456570029258728,
          "id": 1729361753
        },
        {
          "distance": 0.15347355604171753,
          "id": 1729361771
        },
        {
          "distance": 0.19089031219482422,
          "id": 1729361841
        },
        {
          "distance": 0.19629257917404175,
          "id": 1729361831
        }
      ]
    },
    "sfomuseum:placetype": "instagram",
    "src:geom": "sfomuseum",
    "wof:belongsto": [
      1159160869,
      102527513,
      102191575,
      85633793,
      102087579,
      85922583,
      85688637
    ],
    "wof:country": "US",
    "wof:created": 1430310840,
    "wof:geomhash": "b6e33f47475d56bc8da457bc31afadc8",
    "wof:hierarchy": [
      {
        "building_id": 1159160869,
        "campus_id": 102527513,
        "continent_id": 102191575,
        "country_id": 85633793,
        "county_id": 102087579,
        "custom_id": 1729361807,
        "instagram_id": 1729361807,
        "locality_id": 85922583,
        "neighbourhood_id": -1,
        "region_id": 85688637
      }
    ],
    "wof:id": 1729361807,
    "wof:lastmodified": 1787777646,
    "wof:name": "..",
    "wof:parent_id": 1159160869,
    "wof:placetype": "custom",
    "wof:placetype_alt": [
      "instagram"
    ],
    "wof:repo": "sfomuseum-data-socialmedia-instagram",
    "wof:superseded_by": [],
    "wof:supersedes": []
  },
  "bbox": [
    -122.386166,
    37.616356,
    -122.386166,
    37.616356
  ],
  "geometry": {"type":"Point","coordinates":[-122.386166,37.616356]}
}
