{
  "id": 1729361945,
  "type": "Feature",
  "properties": {
    "date:cessation_lower": "2015-01-30",
    "date:cessation_upper": "2015-01-30",
    "date:inception_lower": "2015-01-30",
    "date:inception_upper": "2015-01-30",
    "edtf:cessation": "2015-01-30T03:39:00-08:00",
    "edtf:inception": "2015-01-30T03:39:00-08:00",
    "geom:area": 0,
    "geom:bbox": "-122.386166,37.616356,-122.386166,37.616356",
    "geom:latitude": 37.616356,
    "geom:longitude": -122.386166,
    "instagram:post": {
      "caption": {
        "body": "",
        "excerpt": "",
        "hashtags": [
          "JoseffOfHollywood",
          "SneakPeek",
          "jewelry"
        ],
        "users": []
      },
      "media_id": "7f412d826059c34e2caa47e45fb0bec6",
      "path": "media/other/10946603_874526135920434_1431076081_n_17843064898062499.jpg",
      "perceptual_hash": "p:eef894c2e812c7a5",
      "taken": 1422617940,
      "taken_at": "Jan 30, 2015 11:39 am"
    },
    "millsfield:similar": {
      "google/siglip2-so400m-patch16-naflex": [
        {
          "distance": 0.19855660200119019,
          "id": 1729361957
        },
        {
          "distance": 0.23562830686569214,
          "id": 1729361957
        },
        {
          "distance": 0.24181705713272095,
          "id": 1729361839
        },
        {
          "distance": 0.2522174119949341,
          "id": 1729361815
        },
        {
          "distance": 0.2565265893936157,
          "id": 1729362961
        },
        {
          "distance": 0.25727421045303345,
          "id": 1729361933
        },
        {
          "distance": 0.2625806927680969,
          "id": 1729361723
        },
        {
          "distance": 0.26809847354888916,
          "id": 1729362419
        },
        {
          "distance": 0.27085572481155396,
          "id": 1729362631
        },
        {
          "distance": 0.27728092670440674,
          "id": 1729361893
        }
      ]
    },
    "sfomuseum:placetype": "instagram",
    "src:geom": "sfomuseum",
    "wof:belongsto": [
      1159160869,
      102527513,
      102191575,
      85633793,
      102087579,
      85922583,
      85688637
    ],
    "wof:country": "US",
    "wof:created": 1422617940,
    "wof:geomhash": "b6e33f47475d56bc8da457bc31afadc8",
    "wof:hierarchy": [
      {
        "building_id": 1159160869,
        "campus_id": 102527513,
        "continent_id": 102191575,
        "country_id": 85633793,
        "county_id": 102087579,
        "custom_id": 1729361945,
        "instagram_id": 1729361945,
        "locality_id": 85922583,
        "neighbourhood_id": -1,
        "region_id": 85688637
      }
    ],
    "wof:id": 1729361945,
    "wof:lastmodified": 1787777646,
    "wof:name": "..",
    "wof:parent_id": 1159160869,
    "wof:placetype": "custom",
    "wof:placetype_alt": [
      "instagram"
    ],
    "wof:repo": "sfomuseum-data-socialmedia-instagram",
    "wof:superseded_by": [],
    "wof:supersedes": []
  },
  "bbox": [
    -122.386166,
    37.616356,
    -122.386166,
    37.616356
  ],
  "geometry": {"type":"Point","coordinates":[-122.386166,37.616356]}
}
