{
  "id": 1729356537,
  "type": "Feature",
  "properties": {
    "date:cessation_lower": "2019-05-22",
    "date:cessation_upper": "2019-05-22",
    "date:inception_lower": "2019-05-22",
    "date:inception_upper": "2019-05-22",
    "edtf:cessation": "2019-05-22T09:09:00-07:00",
    "edtf:inception": "2019-05-22T09:09:00-07:00",
    "geom:area": 0,
    "geom:bbox": "-122.386166,37.616356,-122.386166,37.616356",
    "geom:latitude": 37.616356,
    "geom:longitude": -122.386166,
    "instagram:post": {
      "caption": {
        "body": "",
        "excerpt": "",
        "hashtags": [
          "behindthescenes",
          "sneakpeek",
          "HarveyMilk",
          "HarveyMilkDay",
          "HBD",
          "onthisday",
          "SFhistory"
        ],
        "users": []
      },
      "media_id": "60539bdf8f9cba007c9af571fb8ae755",
      "path": "media/other/60260586_286634908881457_3179708676083024505_n_18070285123055353.jpg",
      "perceptual_hash": "p:ab9d9562f485c839",
      "taken": 1558541340,
      "taken_at": "May 22, 2019 4:09 pm"
    },
    "millsfield:similar": {
      "google/siglip2-so400m-patch16-naflex": [
        {
          "distance": 0.17924988269805908,
          "id": 1729356235
        },
        {
          "distance": 0.17946857213974,
          "id": 1880151235
        },
        {
          "distance": 0.18304896354675293,
          "id": 1880151649
        },
        {
          "distance": 0.18305635452270508,
          "id": 1729356235
        },
        {
          "distance": 0.1966397762298584,
          "id": 1947425151
        },
        {
          "distance": 0.20370370149612427,
          "id": 1880150993
        },
        {
          "distance": 0.22365272045135498,
          "id": 1763559417
        },
        {
          "distance": 0.22631949186325073,
          "id": 1880150869
        },
        {
          "distance": 0.22745537757873535,
          "id": 1763558935
        },
        {
          "distance": 0.23380231857299805,
          "id": 1729355785
        }
      ]
    },
    "sfomuseum:placetype": "instagram",
    "src:geom": "sfomuseum",
    "wof:belongsto": [
      1159160869,
      102527513,
      102191575,
      85633793,
      102087579,
      85922583,
      85688637
    ],
    "wof:country": "US",
    "wof:created": 1558541340,
    "wof:geomhash": "b6e33f47475d56bc8da457bc31afadc8",
    "wof:hierarchy": [
      {
        "building_id": 1159160869,
        "campus_id": 102527513,
        "continent_id": 102191575,
        "country_id": 85633793,
        "county_id": 102087579,
        "custom_id": 1729356537,
        "instagram_id": 1729356537,
        "locality_id": 85922583,
        "neighbourhood_id": -1,
        "region_id": 85688637
      }
    ],
    "wof:id": 1729356537,
    "wof:lastmodified": 1787777629,
    "wof:name": "..",
    "wof:parent_id": 1159160869,
    "wof:placetype": "custom",
    "wof:placetype_alt": [
      "instagram"
    ],
    "wof:repo": "sfomuseum-data-socialmedia-instagram",
    "wof:superseded_by": [],
    "wof:supersedes": []
  },
  "bbox": [
    -122.386166,
    37.616356,
    -122.386166,
    37.616356
  ],
  "geometry": {"type":"Point","coordinates":[-122.386166,37.616356]}
}
