{
  "id": 1729358431,
  "type": "Feature",
  "properties": {
    "date:cessation_lower": "2018-03-22",
    "date:cessation_upper": "2018-03-22",
    "date:inception_lower": "2018-03-22",
    "date:inception_upper": "2018-03-22",
    "edtf:cessation": "2018-03-22T07:18:00-07:00",
    "edtf:inception": "2018-03-22T07:18:00-07:00",
    "geom:area": 0,
    "geom:bbox": "-122.386166,37.616356,-122.386166,37.616356",
    "geom:latitude": 37.616356,
    "geom:longitude": -122.386166,
    "instagram:post": {
      "caption": {
        "body": "Last week, the 10,000th Boeing 737 rolled off the Boeing production line for delivery to Southwest Airlines. The most popular Boeing single-aisle aircraft, the 737 entered service in 1968. The Guinness Book of World Records awarded the Boeing 737 the record for the most produced commercial jet aircraft model on March 13, 2018. Have you ever flown on a Boeing 737?  See a 1:72 model of a Boeing 737 on display in \"Aviation Evolutions: The Jim Lund 1:72 Scale Model Airplane Collection\", pre-security, in the Aviation Museum. http://bit.ly/AviationEvolutions",
        "excerpt": "Last week, the 10,000th Boeing 737 rolled off the Boeing production line for delivery to Southwest Airlines.",
        "hashtags": [
          "AviationEvolutions",
          "JimLund",
          "avgeek",
          "avationgeek",
          "Boeing737",
          "aviation",
          "aviationhistory",
          "aviationlovers",
          "vintageaviation",
          "history",
          "aviationgeeks",
          "modelplane",
          "avgeeks",
          "aviation4u",
          "aviationdaily",
          "modelaircraft",
          "airplane",
          "aircraft"
        ],
        "users": []
      },
      "media_id": "ea28dba7b2484892d442e1f124f42b5a",
      "path": "media/other/28765597_1797461907228400_22858077942317056_n_17872626706215592.jpg",
      "perceptual_hash": "p:e659c13f0cc6f22c",
      "taken": 1521728280,
      "taken_at": "Mar 22, 2018 2:18 pm"
    },
    "millsfield:similar": {
      "google/siglip2-so400m-patch16-naflex": [
        {
          "distance": 0.19385957717895508,
          "id": 1729357973
        },
        {
          "distance": 0.20503956079483032,
          "id": 1729357973
        },
        {
          "distance": 0.23996049165725708,
          "id": 1729357945
        },
        {
          "distance": 0.2429865002632141,
          "id": 1729357123
        },
        {
          "distance": 0.24335503578186035,
          "id": 1763559389
        },
        {
          "distance": 0.24359047412872314,
          "id": 1729358099
        },
        {
          "distance": 0.2451547384262085,
          "id": 1729358643
        },
        {
          "distance": 0.24602681398391724,
          "id": 1880151413
        },
        {
          "distance": 0.2519068121910095,
          "id": 1763559453
        },
        {
          "distance": 0.2526944875717163,
          "id": 1880151413
        }
      ]
    },
    "sfomuseum:placetype": "instagram",
    "src:geom": "sfomuseum",
    "wof:belongsto": [
      1159160869,
      102527513,
      102191575,
      85633793,
      102087579,
      85922583,
      85688637
    ],
    "wof:country": "US",
    "wof:created": 1521728280,
    "wof:geomhash": "b6e33f47475d56bc8da457bc31afadc8",
    "wof:hierarchy": [
      {
        "building_id": 1159160869,
        "campus_id": 102527513,
        "continent_id": 102191575,
        "country_id": 85633793,
        "county_id": 102087579,
        "custom_id": 1729358431,
        "instagram_id": 1729358431,
        "locality_id": 85922583,
        "neighbourhood_id": -1,
        "region_id": 85688637
      }
    ],
    "wof:id": 1729358431,
    "wof:lastmodified": 1787777633,
    "wof:name": "Last week, the 10,000th Boeing 737 rolled off the Boeing production line for delivery to Southwest Airlines...",
    "wof:parent_id": 1159160869,
    "wof:placetype": "custom",
    "wof:placetype_alt": [
      "instagram"
    ],
    "wof:repo": "sfomuseum-data-socialmedia-instagram",
    "wof:superseded_by": [],
    "wof:supersedes": []
  },
  "bbox": [
    -122.386166,
    37.616356,
    -122.386166,
    37.616356
  ],
  "geometry": {"type":"Point","coordinates":[-122.386166,37.616356]}
}
