{
  "id": 1729356187,
  "type": "Feature",
  "properties": {
    "date:cessation_lower": "2019-08-17",
    "date:cessation_upper": "2019-08-17",
    "date:inception_lower": "2019-08-17",
    "date:inception_upper": "2019-08-17",
    "edtf:cessation": "2019-08-17T05:04:00-07:00",
    "edtf:inception": "2019-08-17T05:04:00-07:00",
    "geom:area": 0,
    "geom:bbox": "-122.386166,37.616356,-122.386166,37.616356",
    "geom:latitude": 37.616356,
    "geom:longitude": -122.386166,
    "instagram:post": {
      "caption": {
        "body": "Did you know that SFO Museum has a collection of over 140,000 objects across our museum, library, and archives?  As part of our mission to collect, preserve, interpret, and share the history of commercial aviation, we actively seek out donations of material that help us preserve and share the history of flight with present and future generations. If you’re interested in donating to our collection, you can learn more here: http://bit.ly/SFOMDonating",
        "excerpt": "Did you know that SFO Museum has a collection of over 140,000 objects across our museum, library, and archives?",
        "hashtags": [
          "museum",
          "avgeek"
        ],
        "users": []
      },
      "media_id": "408584aea870be0d5b79b508b01472f9",
      "path": "media/other/67890632_657465651403557_4965071009028928099_n_17972460967281373.jpg",
      "perceptual_hash": "p:9a88b539680f9b73",
      "taken": 1566043440,
      "taken_at": "Aug 17, 2019 12:04 pm"
    },
    "millsfield:similar": {
      "google/siglip2-so400m-patch16-naflex": [
        {
          "distance": 0.2403584122657776,
          "id": 1729361743
        },
        {
          "distance": 0.2929600477218628,
          "id": 1763559391
        },
        {
          "distance": 0.2987186908721924,
          "id": 1729361743
        },
        {
          "distance": 0.30077964067459106,
          "id": 1880151473
        },
        {
          "distance": 0.31569719314575195,
          "id": 1763559499
        },
        {
          "distance": 0.3164510726928711,
          "id": 1880150965
        },
        {
          "distance": 0.3168768882751465,
          "id": 1729360547
        },
        {
          "distance": 0.3173467516899109,
          "id": 1729360767
        },
        {
          "distance": 0.3173559904098511,
          "id": 1729360455
        },
        {
          "distance": 0.31808340549468994,
          "id": 1763559049
        }
      ]
    },
    "sfomuseum:placetype": "instagram",
    "src:geom": "sfomuseum",
    "wof:belongsto": [
      1159160869,
      102527513,
      102191575,
      85633793,
      102087579,
      85922583,
      85688637
    ],
    "wof:country": "US",
    "wof:created": 1566043440,
    "wof:geomhash": "b6e33f47475d56bc8da457bc31afadc8",
    "wof:hierarchy": [
      {
        "building_id": 1159160869,
        "campus_id": 102527513,
        "continent_id": 102191575,
        "country_id": 85633793,
        "county_id": 102087579,
        "custom_id": 1729356187,
        "instagram_id": 1729356187,
        "locality_id": 85922583,
        "neighbourhood_id": -1,
        "region_id": 85688637
      }
    ],
    "wof:id": 1729356187,
    "wof:lastmodified": 1787777628,
    "wof:name": "Did you know that SFO Museum has a collection of over 140,000 objects across our museum, library, and archives?..",
    "wof:parent_id": 1159160869,
    "wof:placetype": "custom",
    "wof:placetype_alt": [
      "instagram"
    ],
    "wof:repo": "sfomuseum-data-socialmedia-instagram",
    "wof:superseded_by": [],
    "wof:supersedes": []
  },
  "bbox": [
    -122.386166,
    37.616356,
    -122.386166,
    37.616356
  ],
  "geometry": {"type":"Point","coordinates":[-122.386166,37.616356]}
}
