{
  "id": 1729360033,
  "type": "Feature",
  "properties": {
    "date:cessation_lower": "2016-12-10",
    "date:cessation_upper": "2016-12-10",
    "date:inception_lower": "2016-12-10",
    "date:inception_upper": "2016-12-10",
    "edtf:cessation": "2016-12-10T08:10:00-08:00",
    "edtf:inception": "2016-12-10T08:10:00-08:00",
    "geom:area": 0,
    "geom:bbox": "-122.386166,37.616356,-122.386166,37.616356",
    "geom:latitude": 37.616356,
    "geom:longitude": -122.386166,
    "instagram:post": {
      "caption": {
        "body": "",
        "excerpt": "",
        "hashtags": [
          "Onthisday",
          "SFOHistory"
        ],
        "users": []
      },
      "media_id": "c367db5371046e190276dcd52dde023f",
      "path": "media/posts/201612/15306106_202065480199659_3208230846582489088_n_17855573773086791.jpg",
      "perceptual_hash": "p:e705a4ba1a93d969",
      "taken": 1481386200,
      "taken_at": "Dec 10, 2016 4:10 pm"
    },
    "millsfield:similar": {
      "google/siglip2-so400m-patch16-naflex": [
        {
          "distance": 0.019621431827545166,
          "id": 1729360753
        },
        {
          "distance": 0.07758057117462158,
          "id": 1729355243
        },
        {
          "distance": 0.09609508514404297,
          "id": 1729360821
        },
        {
          "distance": 0.09871518611907959,
          "id": 1729360753
        },
        {
          "distance": 0.11250054836273193,
          "id": 1729355243
        },
        {
          "distance": 0.12180662155151367,
          "id": 1947425189
        },
        {
          "distance": 0.12695884704589844,
          "id": 1763558771
        },
        {
          "distance": 0.12725621461868286,
          "id": 1729357691
        },
        {
          "distance": 0.13341450691223145,
          "id": 1729360787
        },
        {
          "distance": 0.13917607069015503,
          "id": 1947425189
        }
      ]
    },
    "sfomuseum:placetype": "instagram",
    "src:geom": "sfomuseum",
    "wof:belongsto": [
      1159160869,
      102527513,
      102191575,
      85633793,
      102087579,
      85922583,
      85688637
    ],
    "wof:country": "US",
    "wof:created": 1481386200,
    "wof:geomhash": "b6e33f47475d56bc8da457bc31afadc8",
    "wof:hierarchy": [
      {
        "building_id": 1159160869,
        "campus_id": 102527513,
        "continent_id": 102191575,
        "country_id": 85633793,
        "county_id": 102087579,
        "custom_id": 1729360033,
        "instagram_id": 1729360033,
        "locality_id": 85922583,
        "neighbourhood_id": -1,
        "region_id": 85688637
      }
    ],
    "wof:id": 1729360033,
    "wof:lastmodified": 1787777639,
    "wof:name": "..",
    "wof:parent_id": 1159160869,
    "wof:placetype": "custom",
    "wof:placetype_alt": [
      "instagram"
    ],
    "wof:repo": "sfomuseum-data-socialmedia-instagram",
    "wof:superseded_by": [],
    "wof:supersedes": []
  },
  "bbox": [
    -122.386166,
    37.616356,
    -122.386166,
    37.616356
  ],
  "geometry": {"type":"Point","coordinates":[-122.386166,37.616356]}
}
