{
  "id": 1729361157,
  "type": "Feature",
  "properties": {
    "date:cessation_lower": "2016-01-17",
    "date:cessation_upper": "2016-01-17",
    "date:inception_lower": "2016-01-17",
    "date:inception_upper": "2016-01-17",
    "edtf:cessation": "2016-01-17T03:09:00-08:00",
    "edtf:inception": "2016-01-17T03:09:00-08:00",
    "geom:area": 0,
    "geom:bbox": "-122.386166,37.616356,-122.386166,37.616356",
    "geom:latitude": 37.616356,
    "geom:longitude": -122.386166,
    "instagram:post": {
      "caption": {
        "body": "In the postwar era, the Coast Guard Station next to SFO was again placed under the Treasury Department and Air Station San Francisco updated its aging aircraft. Much of its fixed-wing fleet was replaced with helicopters beginning in 1947 with a Sikorsky HO3S Dragonfly.   The \"United States Coast Guard Air Station San Francisco: Honoring the Guardians of the Golden Gate 75th\" exhibition of photography is on display pre-security, in the Aviation Museum and Library in the International Terminal. The Aviation Museum and Library is open from Sunday through Friday, 10am to 4:30pm. If you can’t make it to the museum, check out our online exhibition at: http://ow.ly/X1WEZ   Sikorsky HO3S-1G Dragonfly helicopter prepares for takeoff at the Presidio of San Francisco with the Golden Gate Bridge in background   1951  SFO Museum Collection Gift of United States Coast Guard, Air Station San Francisco 2014.114.009",
        "excerpt": "In the postwar era, the Coast Guard Station next to SFO was again placed under the Treasury Department and Air Station San Francisco updated its aging aircraft.",
        "hashtags": [],
        "users": []
      },
      "media_id": "a2d8ea8d64eedc04500f02a7879625f0",
      "path": "media/other/12479496_1655444974715215_557655403_n_17845081258074285.jpg",
      "perceptual_hash": "p:f8c50738d9867cd1",
      "taken": 1453028940,
      "taken_at": "Jan 17, 2016 11:09 am"
    },
    "millsfield:similar": {
      "google/siglip2-so400m-patch16-naflex": [
        {
          "distance": 0.18526965379714966,
          "id": 1729360841
        },
        {
          "distance": 0.2154937982559204,
          "id": 1729361109
        },
        {
          "distance": 0.23283642530441284,
          "id": 1729355819
        },
        {
          "distance": 0.23959606885910034,
          "id": 1729355819
        },
        {
          "distance": 0.24595046043395996,
          "id": 1729360561
        },
        {
          "distance": 0.24772930145263672,
          "id": 1729359257
        },
        {
          "distance": 0.2510986328125,
          "id": 1729357015
        },
        {
          "distance": 0.2532469630241394,
          "id": 1729360841
        },
        {
          "distance": 0.2575798034667969,
          "id": 1729358751
        },
        {
          "distance": 0.2584570050239563,
          "id": 1729360207
        }
      ]
    },
    "sfomuseum:placetype": "instagram",
    "src:geom": "sfomuseum",
    "wof:belongsto": [
      1159160869,
      102527513,
      102191575,
      85633793,
      102087579,
      85922583,
      85688637
    ],
    "wof:country": "US",
    "wof:created": 1453028940,
    "wof:geomhash": "b6e33f47475d56bc8da457bc31afadc8",
    "wof:hierarchy": [
      {
        "building_id": 1159160869,
        "campus_id": 102527513,
        "continent_id": 102191575,
        "country_id": 85633793,
        "county_id": 102087579,
        "custom_id": 1729361157,
        "instagram_id": 1729361157,
        "locality_id": 85922583,
        "neighbourhood_id": -1,
        "region_id": 85688637
      }
    ],
    "wof:id": 1729361157,
    "wof:lastmodified": 1787777645,
    "wof:name": "In the postwar era, the Coast Guard Station next to SFO was again placed under the Treasury Department and Air Station San Francisco updated its aging aircraft...",
    "wof:parent_id": 1159160869,
    "wof:placetype": "custom",
    "wof:placetype_alt": [
      "instagram"
    ],
    "wof:repo": "sfomuseum-data-socialmedia-instagram",
    "wof:superseded_by": [],
    "wof:supersedes": []
  },
  "bbox": [
    -122.386166,
    37.616356,
    -122.386166,
    37.616356
  ],
  "geometry": {"type":"Point","coordinates":[-122.386166,37.616356]}
}
