{
  "id": 1729360347,
  "type": "Feature",
  "properties": {
    "date:cessation_lower": "2016-09-09",
    "date:cessation_upper": "2016-09-09",
    "date:inception_lower": "2016-09-09",
    "date:inception_upper": "2016-09-09",
    "edtf:cessation": "2016-09-08T17:00:00-07:00",
    "edtf:inception": "2016-09-08T17:00:00-07:00",
    "geom:area": 0,
    "geom:bbox": "-122.386166,37.616356,-122.386166,37.616356",
    "geom:latitude": 37.616356,
    "geom:longitude": -122.386166,
    "instagram:post": {
      "caption": {
        "body": "Two years after Mills Field Municipal Airport of San Francisco commenced operations, the airport employed just 16 people. As SFO approaches its 90th birthday, approximately 30,000 people are employed at the airport. #SFOHistory #ThrowbackThursday  Mills Field Municipal Airport of San Francisco, Buckley \u0026 Curtin report 1929 SFO Museum Collection 2000.018.081  San Francisco Airport, Administration Building 1931 SFO Museum Collection 2011.032.0111",
        "excerpt": "Two years after Mills Field Municipal Airport of San Francisco commenced operations, the airport employed just 16 people.",
        "hashtags": [],
        "users": []
      },
      "media_id": "8ff00b6880bf820bff069be0bcde9094",
      "path": "media/other/14309849_190792234675138_420505434_n_17842265470132429.jpg",
      "perceptual_hash": "p:f7aa284718acd36c",
      "taken": 1473379200,
      "taken_at": "Sep 09, 2016 12:00 am"
    },
    "millsfield:similar": {
      "google/siglip2-so400m-patch16-naflex": [
        {
          "distance": 0.24849742650985718,
          "id": 1729359523
        },
        {
          "distance": 0.26792049407958984,
          "id": 1729358519
        },
        {
          "distance": 0.2695186138153076,
          "id": 1729357593
        },
        {
          "distance": 0.2741857171058655,
          "id": 1729361227
        },
        {
          "distance": 0.2772001028060913,
          "id": 1729359683
        },
        {
          "distance": 0.2778138518333435,
          "id": 1763559449
        },
        {
          "distance": 0.27813082933425903,
          "id": 1729355115
        },
        {
          "distance": 0.2834707498550415,
          "id": 1729361577
        },
        {
          "distance": 0.28352826833724976,
          "id": 1729355419
        },
        {
          "distance": 0.2849050760269165,
          "id": 1729359987
        }
      ]
    },
    "sfomuseum:placetype": "instagram",
    "src:geom": "sfomuseum",
    "wof:belongsto": [
      1159160869,
      102527513,
      102191575,
      85633793,
      102087579,
      85922583,
      85688637
    ],
    "wof:country": "US",
    "wof:created": 1473379200,
    "wof:geomhash": "b6e33f47475d56bc8da457bc31afadc8",
    "wof:hierarchy": [
      {
        "building_id": 1159160869,
        "campus_id": 102527513,
        "continent_id": 102191575,
        "country_id": 85633793,
        "county_id": 102087579,
        "custom_id": 1729360347,
        "instagram_id": 1729360347,
        "locality_id": 85922583,
        "neighbourhood_id": -1,
        "region_id": 85688637
      }
    ],
    "wof:id": 1729360347,
    "wof:lastmodified": 1787777639,
    "wof:name": "Two years after Mills Field Municipal Airport of San Francisco commenced operations, the airport employed just 16 people...",
    "wof:parent_id": 1159160869,
    "wof:placetype": "custom",
    "wof:placetype_alt": [
      "instagram"
    ],
    "wof:repo": "sfomuseum-data-socialmedia-instagram",
    "wof:superseded_by": [],
    "wof:supersedes": []
  },
  "bbox": [
    -122.386166,
    37.616356,
    -122.386166,
    37.616356
  ],
  "geometry": {"type":"Point","coordinates":[-122.386166,37.616356]}
}
