{
  "id": 1729355365,
  "type": "Feature",
  "properties": {
    "date:cessation_lower": "2020-04-06",
    "date:cessation_upper": "2020-04-06",
    "date:inception_lower": "2020-04-06",
    "date:inception_upper": "2020-04-06",
    "edtf:cessation": "2020-04-06T06:45:00-07:00",
    "edtf:inception": "2020-04-06T06:45:00-07:00",
    "geom:area": 0,
    "geom:bbox": "-122.386166,37.616356,-122.386166,37.616356",
    "geom:latitude": 37.616356,
    "geom:longitude": -122.386166,
    "instagram:post": {
      "caption": {
        "body": "#Onthisday in 1926, Walter T. Varney, a flight school and air taxi operator from San Francisco, launched his air mail service. His company, Varney Air Lines, was acquired by United Aircraft and Transport Corporation in 1930. United Airlines originated from a merger of several early air transport companies, including Varney Air Lines.  Image: Leon D. Cuddleback, chief pilot for Varney Air Lines, c. 1926. Gift of United Airlines Archives. 1999.047.184",
        "excerpt": "#Onthisday in 1926, Walter T. Varney, a flight school and air taxi operator from San Francisco, launched his air mail service.",
        "hashtags": [
          "united",
          "MuseumFromHome",
          "avgeek"
        ],
        "users": []
      },
      "media_id": "a78613329c8ea0e7e35677325e47b905",
      "path": "media/other/92326559_154086132756751_7326842262939713833_n_17872167307633588.jpg",
      "perceptual_hash": "p:ae5a95e5893ac21e",
      "taken": 1586180700,
      "taken_at": "Apr 06, 2020 1:45 pm"
    },
    "millsfield:similar": {
      "google/siglip2-so400m-patch16-naflex": [
        {
          "distance": 0.0026578903198242188,
          "id": 1729359337
        },
        {
          "distance": 0.0031821131706237793,
          "id": 1729360857
        },
        {
          "distance": 0.12195813655853271,
          "id": 1729360857
        },
        {
          "distance": 0.12340152263641357,
          "id": 1729359337
        },
        {
          "distance": 0.19787782430648804,
          "id": 1729356643
        },
        {
          "distance": 0.19878816604614258,
          "id": 1729358203
        },
        {
          "distance": 0.2107180953025818,
          "id": 1729362189
        },
        {
          "distance": 0.21165835857391357,
          "id": 1729356707
        },
        {
          "distance": 0.21291929483413696,
          "id": 1729358371
        },
        {
          "distance": 0.2139596939086914,
          "id": 1729359651
        }
      ]
    },
    "sfomuseum:placetype": "instagram",
    "src:geom": "sfomuseum",
    "wof:belongsto": [
      1159160869,
      102527513,
      102191575,
      85633793,
      102087579,
      85922583,
      85688637
    ],
    "wof:country": "US",
    "wof:created": 1586180700,
    "wof:geomhash": "b6e33f47475d56bc8da457bc31afadc8",
    "wof:hierarchy": [
      {
        "building_id": 1159160869,
        "campus_id": 102527513,
        "continent_id": 102191575,
        "country_id": 85633793,
        "county_id": 102087579,
        "custom_id": 1729355365,
        "instagram_id": 1729355365,
        "locality_id": 85922583,
        "neighbourhood_id": -1,
        "region_id": 85688637
      }
    ],
    "wof:id": 1729355365,
    "wof:lastmodified": 1787777624,
    "wof:name": "#Onthisday in 1926, Walter T. Varney, a flight school and air taxi operator from San Francisco, launched his air mail service...",
    "wof:parent_id": 1159160869,
    "wof:placetype": "custom",
    "wof:placetype_alt": [
      "instagram"
    ],
    "wof:repo": "sfomuseum-data-socialmedia-instagram",
    "wof:superseded_by": [],
    "wof:supersedes": []
  },
  "bbox": [
    -122.386166,
    37.616356,
    -122.386166,
    37.616356
  ],
  "geometry": {"type":"Point","coordinates":[-122.386166,37.616356]}
}
