{
  "id": 1729360621,
  "type": "Feature",
  "properties": {
    "date:cessation_lower": "2016-06-14",
    "date:cessation_upper": "2016-06-14",
    "date:inception_lower": "2016-06-14",
    "date:inception_upper": "2016-06-14",
    "edtf:cessation": "2016-06-14T02:24:00-07:00",
    "edtf:inception": "2016-06-14T02:24:00-07:00",
    "geom:area": 0,
    "geom:bbox": "-122.386166,37.616356,-122.386166,37.616356",
    "geom:latitude": 37.616356,
    "geom:longitude": -122.386166,
    "instagram:post": {
      "caption": {
        "body": "",
        "excerpt": "",
        "hashtags": [
          "TravelTuesday"
        ],
        "users": []
      },
      "media_id": "f86cfbe4a66d2a5e13f91fa44586702c",
      "path": "media/other/13381266_294509564224281_1443803428_n_17848468843111829.jpg",
      "perceptual_hash": "p:ccfb75b90ac0e22a",
      "taken": 1465896240,
      "taken_at": "Jun 14, 2016 9:24 am"
    },
    "millsfield:similar": {
      "google/siglip2-so400m-patch16-naflex": [
        {
          "distance": 0.2522534728050232,
          "id": 1763558661
        },
        {
          "distance": 0.2522534728050232,
          "id": 1729359633
        },
        {
          "distance": 0.2529110312461853,
          "id": 1729355019
        },
        {
          "distance": 0.25620681047439575,
          "id": 1729359159
        },
        {
          "distance": 0.25950711965560913,
          "id": 1947425087
        },
        {
          "distance": 0.26543623208999634,
          "id": 1729359641
        },
        {
          "distance": 0.2762029767036438,
          "id": 1729359159
        },
        {
          "distance": 0.27697789669036865,
          "id": 1763558835
        },
        {
          "distance": 0.2770068049430847,
          "id": 1729355249
        },
        {
          "distance": 0.27762746810913086,
          "id": 1880151243
        }
      ]
    },
    "sfomuseum:placetype": "instagram",
    "src:geom": "sfomuseum",
    "wof:belongsto": [
      1159160869,
      102527513,
      102191575,
      85633793,
      102087579,
      85922583,
      85688637
    ],
    "wof:country": "US",
    "wof:created": 1465896240,
    "wof:geomhash": "b6e33f47475d56bc8da457bc31afadc8",
    "wof:hierarchy": [
      {
        "building_id": 1159160869,
        "campus_id": 102527513,
        "continent_id": 102191575,
        "country_id": 85633793,
        "county_id": 102087579,
        "custom_id": 1729360621,
        "instagram_id": 1729360621,
        "locality_id": 85922583,
        "neighbourhood_id": -1,
        "region_id": 85688637
      }
    ],
    "wof:id": 1729360621,
    "wof:lastmodified": 1787777640,
    "wof:name": "..",
    "wof:parent_id": 1159160869,
    "wof:placetype": "custom",
    "wof:placetype_alt": [
      "instagram"
    ],
    "wof:repo": "sfomuseum-data-socialmedia-instagram",
    "wof:superseded_by": [],
    "wof:supersedes": []
  },
  "bbox": [
    -122.386166,
    37.616356,
    -122.386166,
    37.616356
  ],
  "geometry": {"type":"Point","coordinates":[-122.386166,37.616356]}
}
