{
  "id": 1947425091,
  "type": "Feature",
  "properties": {
    "date:cessation_lower": "2024-03-04",
    "date:cessation_upper": "2024-03-04",
    "date:inception_lower": "2024-03-04",
    "date:inception_upper": "2024-03-04",
    "edtf:cessation": "2024-03-04T08:55:00-08:00",
    "edtf:inception": "2024-03-04T08:55:00-08:00",
    "geom:area": 0,
    "geom:bbox": "-122.386166,37.616356,-122.386166,37.616356",
    "geom:latitude": 37.616356,
    "geom:longitude": -122.386166,
    "instagram:post": {
      "caption": {
        "body": "Our newest exhibition \"A Cut Above: Airplane Models from the SFO Museum Collection\" is now on display in the Mayor Edwin M. Lee International Terminal Departures Hall. On display, are eighteen outstanding examples of airliner models from SFO Museum’s aviation collection. The collection includes nearly two thousand models representing a broad range of aircraft, the majority of which are commercial airliners.   See “A Cut Above: Airplane Models from the SFO Museum Collection” on display, pre-security, in the Mayor Edwin M. Lee International Terminal Departures Hall and online at:  https://ow.ly/2VTb50QLezm",
        "excerpt": "Our newest exhibition \"A Cut Above: Airplane Models from the SFO Museum Collection\" is now on display in the Mayor Edwin M. Lee International Terminal Departures Hall.",
        "hashtags": [
          "CutAboveModels",
          "AirlineModels"
        ],
        "users": []
      },
      "media_id": "f066fb47343c4cff6ecbe91dbabcc0be1cc9feba",
      "path": "media/posts/202403/431115982_1864013847363043_7740461791537684709_n_18062729644503823.jpg",
      "perceptual_hash": "p:ccee1b2908c2f3b3",
      "taken": 1709571300,
      "taken_at": "Mar 04, 2024 4:55 pm"
    },
    "millsfield:similar": {
      "google/siglip2-so400m-patch16-naflex": [
        {
          "distance": 0.29280805587768555,
          "id": 1947424951
        },
        {
          "distance": 0.32193201780319214,
          "id": 1947425053
        },
        {
          "distance": 0.32200080156326294,
          "id": 1763558713
        },
        {
          "distance": 0.32200080156326294,
          "id": 1729358999
        },
        {
          "distance": 0.33130592107772827,
          "id": 1880151521
        },
        {
          "distance": 0.3319590091705322,
          "id": 1880151175
        },
        {
          "distance": 0.33821696043014526,
          "id": 1729358211
        },
        {
          "distance": 0.3410770297050476,
          "id": 1880151175
        },
        {
          "distance": 0.34117186069488525,
          "id": 1763558713
        },
        {
          "distance": 0.34117186069488525,
          "id": 1729358999
        }
      ]
    },
    "sfomuseum:placetype": "instagram",
    "src:geom": "sfomuseum",
    "wof:belongsto": [
      1159160869,
      102527513,
      102191575,
      85633793,
      102087579,
      85922583,
      85688637
    ],
    "wof:country": "US",
    "wof:created": 1709571300,
    "wof:geomhash": "b6e33f47475d56bc8da457bc31afadc8",
    "wof:hierarchy": [
      {
        "building_id": 1159160869,
        "campus_id": 102527513,
        "continent_id": 102191575,
        "country_id": 85633793,
        "county_id": 102087579,
        "custom_id": 1947425091,
        "locality_id": 85922583,
        "neighbourhood_id": -1,
        "region_id": 85688637
      }
    ],
    "wof:id": 1947425091,
    "wof:lastmodified": 1787777664,
    "wof:name": "Our newest exhibition \"A Cut Above: Airplane Models from the SFO Museum Collection\" is now on display in the Mayor Edwin M. Lee International Terminal Departures Hall...",
    "wof:parent_id": 1159160869,
    "wof:placetype": "custom",
    "wof:repo": "sfomuseum-data-socialmedia-instagram",
    "wof:superseded_by": [],
    "wof:supersedes": []
  },
  "bbox": [
    -122.386166,
    37.616356,
    -122.386166,
    37.616356
  ],
  "geometry": {"type":"Point","coordinates":[-122.386166,37.616356]}
}
