{
  "id": 1729357215,
  "type": "Feature",
  "properties": {
    "date:cessation_lower": "2018-12-20",
    "date:cessation_upper": "2018-12-20",
    "date:inception_lower": "2018-12-20",
    "date:inception_upper": "2018-12-20",
    "edtf:cessation": "2018-12-20T06:27:00-08:00",
    "edtf:inception": "2018-12-20T06:27:00-08:00",
    "geom:area": 0,
    "geom:bbox": "-122.386166,37.616356,-122.386166,37.616356",
    "geom:latitude": 37.616356,
    "geom:longitude": -122.386166,
    "instagram:post": {
      "caption": {
        "body": "One of the greatest advances in commercial aviation was the successful introduction of jet airliners during the late 1950s. Although introduced after the British de Havilland Comet and the Soviet Tupolev Tu-104, the Boeing 707 was the first commercial jetliner to provide regular, sustained commercial airline service and thus revolutionized the airline industry, while effectively ushering in the jet age of air travel. #OnThisDay in 1957, the first Boeing 707 took flight from Renton Municipal Airport. N708PA, the aircraft that took this first test flight, was delivered to Pan American World Airways on November 30, 1958. Pan American inaugurated 707 service in October 1958. By October 1983, Pan American and TWA (Trans World Airlines) retired their Boeing 707s. Did you ever fly on a Boeing 707?  Boeing 707-120, first flight, Renton Municipal Airport 1957 SFO Museum Collection The Estate of Fred Nott  2004.016.156",
        "excerpt": "One of the greatest advances in commercial aviation was the successful introduction of jet airliners during the late 1950s.",
        "hashtags": [],
        "users": []
      },
      "media_id": "851f47b62ee8c0a9eb68b2df0f00b60c",
      "path": "media/other/45634499_303347136972974_739989316367876948_n_17984381707193039.jpg",
      "perceptual_hash": "p:a7da502fd3582457",
      "taken": 1545316020,
      "taken_at": "Dec 20, 2018 2:27 pm"
    },
    "millsfield:similar": {
      "google/siglip2-so400m-patch16-naflex": [
        {
          "distance": 0.04361850023269653,
          "id": 1729360005
        },
        {
          "distance": 0.09001892805099487,
          "id": 1729360005
        },
        {
          "distance": 0.15489166975021362,
          "id": 1729358863
        },
        {
          "distance": 0.15775644779205322,
          "id": 1763559357
        },
        {
          "distance": 0.15783393383026123,
          "id": 1729355109
        },
        {
          "distance": 0.16125011444091797,
          "id": 1947424953
        },
        {
          "distance": 0.16398119926452637,
          "id": 1729358851
        },
        {
          "distance": 0.1667029857635498,
          "id": 1763558623
        },
        {
          "distance": 0.17349553108215332,
          "id": 1763559275
        },
        {
          "distance": 0.17438054084777832,
          "id": 1763558959
        }
      ]
    },
    "sfomuseum:placetype": "instagram",
    "src:geom": "sfomuseum",
    "wof:belongsto": [
      1159160869,
      102527513,
      102191575,
      85633793,
      102087579,
      85922583,
      85688637
    ],
    "wof:country": "US",
    "wof:created": 1545316020,
    "wof:geomhash": "b6e33f47475d56bc8da457bc31afadc8",
    "wof:hierarchy": [
      {
        "building_id": 1159160869,
        "campus_id": 102527513,
        "continent_id": 102191575,
        "country_id": 85633793,
        "county_id": 102087579,
        "custom_id": 1729357215,
        "instagram_id": 1729357215,
        "locality_id": 85922583,
        "neighbourhood_id": -1,
        "region_id": 85688637
      }
    ],
    "wof:id": 1729357215,
    "wof:lastmodified": 1787777630,
    "wof:name": "One of the greatest advances in commercial aviation was the successful introduction of jet airliners during the late 1950s...",
    "wof:parent_id": 1159160869,
    "wof:placetype": "custom",
    "wof:placetype_alt": [
      "instagram"
    ],
    "wof:repo": "sfomuseum-data-socialmedia-instagram",
    "wof:superseded_by": [],
    "wof:supersedes": []
  },
  "bbox": [
    -122.386166,
    37.616356,
    -122.386166,
    37.616356
  ],
  "geometry": {"type":"Point","coordinates":[-122.386166,37.616356]}
}
