{
  "id": 1947425115,
  "type": "Feature",
  "properties": {
    "date:cessation_lower": "2024-02-19",
    "date:cessation_upper": "2024-02-19",
    "date:inception_lower": "2024-02-19",
    "date:inception_upper": "2024-02-19",
    "edtf:cessation": "2024-02-19T00:10:00-08:00",
    "edtf:inception": "2024-02-19T00:10:00-08:00",
    "geom:area": 0,
    "geom:bbox": "-122.386166,37.616356,-122.386166,37.616356",
    "geom:latitude": 37.616356,
    "geom:longitude": -122.386166,
    "instagram:post": {
      "caption": {
        "body": "The Aviation Museum and Library will be closed today to observe President’s Day and will reopen tomorrow, February 20th at 10am. All other exhibitions around the airport including “Recollections… from the Unknown Museum” on display in Terminal 2 are available to view. https://ow.ly/JLKq50QEv9x",
        "excerpt": "The Aviation Museum and Library will be closed today to observe President’s Day and will reopen tomorrow, February 20th at 10am.",
        "hashtags": [
          "PresidentsDay"
        ],
        "users": []
      },
      "media_id": "2e0ce242196afd67abf9105c3ae5163cdbbdd27b",
      "path": "media/other/428442420_1103694767433222_5792731069983792971_n_18026258320799777.jpg",
      "perceptual_hash": "p:b53b8a1517c74671",
      "taken": 1708330200,
      "taken_at": "Feb 19, 2024 8:10 am"
    },
    "millsfield:similar": {
      "google/siglip2-so400m-patch16-naflex": [
        {
          "distance": 0.12789613008499146,
          "id": 1947425019
        },
        {
          "distance": 0.16169345378875732,
          "id": 1880151401
        },
        {
          "distance": 0.18270695209503174,
          "id": 1729358347
        },
        {
          "distance": 0.18597817420959473,
          "id": 1947425019
        },
        {
          "distance": 0.1904895305633545,
          "id": 1729357693
        },
        {
          "distance": 0.19411730766296387,
          "id": 1729357325
        },
        {
          "distance": 0.19427341222763062,
          "id": 1729355529
        },
        {
          "distance": 0.20642226934432983,
          "id": 1763559129
        },
        {
          "distance": 0.20774424076080322,
          "id": 1729355059
        },
        {
          "distance": 0.21373718976974487,
          "id": 1729357325
        }
      ]
    },
    "sfomuseum:placetype": "instagram",
    "src:geom": "sfomuseum",
    "wof:belongsto": [
      1159160869,
      102527513,
      102191575,
      85633793,
      102087579,
      85922583,
      85688637
    ],
    "wof:country": "US",
    "wof:created": 1708330200,
    "wof:geomhash": "b6e33f47475d56bc8da457bc31afadc8",
    "wof:hierarchy": [
      {
        "building_id": 1159160869,
        "campus_id": 102527513,
        "continent_id": 102191575,
        "country_id": 85633793,
        "county_id": 102087579,
        "custom_id": 1947425115,
        "locality_id": 85922583,
        "neighbourhood_id": -1,
        "region_id": 85688637
      }
    ],
    "wof:id": 1947425115,
    "wof:lastmodified": 1787777664,
    "wof:name": "The Aviation Museum and Library will be closed today to observe President’s Day and will reopen tomorrow, February 20th at 10am...",
    "wof:parent_id": 1159160869,
    "wof:placetype": "custom",
    "wof:repo": "sfomuseum-data-socialmedia-instagram",
    "wof:superseded_by": [],
    "wof:supersedes": []
  },
  "bbox": [
    -122.386166,
    37.616356,
    -122.386166,
    37.616356
  ],
  "geometry": {"type":"Point","coordinates":[-122.386166,37.616356]}
}
