{
  "id": 1729356943,
  "type": "Feature",
  "properties": {
    "date:cessation_lower": "2019-02-13",
    "date:cessation_upper": "2019-02-13",
    "date:inception_lower": "2019-02-13",
    "date:inception_upper": "2019-02-13",
    "edtf:cessation": "2019-02-13T09:58:26-08:00",
    "edtf:inception": "2019-02-13T09:58:26-08:00",
    "geom:area": 0,
    "geom:bbox": "-122.386166,37.616356,-122.386166,37.616356",
    "geom:latitude": 37.616356,
    "geom:longitude": -122.386166,
    "instagram:post": {
      "caption": {
        "body": "Tow surfers utilize specially designed boards and motorized equipment to ride some of the largest and most powerful waves on earth. By towing into takeoff position behind jet skis, these surfers achieve the high speeds that are necessary to catch waves that can exceed thirty feet in height. Due to the water velocity and wind generated by these waves, foot straps are used to keep riders in place. Jet skis retrieve tow surfers after each ride and reposition them back into the lineup before the next large wave rolls through. In 1992, Laird Hamilton (b. 1964), Darrick Doerner (b. 1957), and Buzzy Kerbox (b. 1956) pioneered tow surfing at Pe‘ahi, a reef break known as Jaws on the North Shore of Maui that was not considered ridable in extremely large surf. That year, Dick Brewer (b. 1936) created “Betsy” for Hamilton and Doerner, the first modern tow board designed with a full-concave bottom profile and reduced tri-fin setup. \"Reflections in Wood — Surfboards and Shapers\" is on display, pre-security, in the International Terminal! http://bit.ly/SurfboardsAndShapers . . .",
        "excerpt": "Tow surfers utilize specially designed boards and motorized equipment to ride some of the largest and most powerful waves on earth.",
        "hashtags": [
          "SurfboardsandShapers",
          "surfers",
          "shapers",
          "surf",
          "surfing",
          "surflife",
          "surfer",
          "surfboards",
          "surfboard"
        ],
        "users": [
          "dick_brewer",
          "lairdhamiltonsurf",
          "darrickd"
        ]
      },
      "location": "",
      "media_id": "dd12cf0224ff3141d0c55f7f3f9f3570",
      "path": "photos/201902/dd12cf0224ff3141d0c55f7f3f9f3570.jpg",
      "perceptual_hash": "p:8e98cfc73163616c",
      "taken": 1550051880,
      "taken_at": "Feb 13, 2019, 9:58 AM"
    },
    "millsfield:similar": {
      "google/siglip2-so400m-patch16-naflex": [
        {
          "distance": 0.050836265087127686,
          "id": 1729356901
        },
        {
          "distance": 0.09714549779891968,
          "id": 1729357019
        },
        {
          "distance": 0.10688591003417969,
          "id": 1729356901
        },
        {
          "distance": 0.11467748880386353,
          "id": 1729356923
        },
        {
          "distance": 0.11853128671646118,
          "id": 1729356945
        },
        {
          "distance": 0.1384449005126953,
          "id": 1729357021
        },
        {
          "distance": 0.13845926523208618,
          "id": 1729357019
        },
        {
          "distance": 0.14676415920257568,
          "id": 1729356945
        },
        {
          "distance": 0.16388928890228271,
          "id": 1729356923
        },
        {
          "distance": 0.19010275602340698,
          "id": 1729357147
        }
      ]
    },
    "sfomuseum:placetype": "instagram",
    "src:geom": "sfomuseum",
    "wof:belongsto": [
      1159160869,
      102527513,
      102191575,
      85633793,
      102087579,
      85922583,
      85688637
    ],
    "wof:country": "US",
    "wof:created": 1550080706,
    "wof:geomhash": "b6e33f47475d56bc8da457bc31afadc8",
    "wof:hierarchy": [
      {
        "building_id": 1159160869,
        "campus_id": 102527513,
        "continent_id": 102191575,
        "country_id": 85633793,
        "county_id": 102087579,
        "custom_id": 1729356943,
        "instagram_id": 1729356943,
        "locality_id": 85922583,
        "neighbourhood_id": -1,
        "region_id": 85688637
      }
    ],
    "wof:id": 1729356943,
    "wof:lastmodified": 1787777629,
    "wof:name": "Tow surfers utilize specially designed boards and motorized equipment to ride some of the largest and most powerful waves on earth...",
    "wof:parent_id": 1159160869,
    "wof:placetype": "custom",
    "wof:placetype_alt": [
      "instagram"
    ],
    "wof:repo": "sfomuseum-data-socialmedia-instagram",
    "wof:superseded_by": [],
    "wof:supersedes": []
  },
  "bbox": [
    -122.386166,
    37.616356,
    -122.386166,
    37.616356
  ],
  "geometry": {"type":"Point","coordinates":[-122.386166,37.616356]}
}
