{
  "id": 1729359835,
  "type": "Feature",
  "properties": {
    "date:cessation_lower": "2017-02-06",
    "date:cessation_upper": "2017-02-06",
    "date:inception_lower": "2017-02-06",
    "date:inception_upper": "2017-02-06",
    "edtf:cessation": "2017-02-06T01:58:00-08:00",
    "edtf:inception": "2017-02-06T01:58:00-08:00",
    "geom:area": 0,
    "geom:bbox": "-122.386166,37.616356,-122.386166,37.616356",
    "geom:latitude": 37.616356,
    "geom:longitude": -122.386166,
    "instagram:post": {
      "caption": {
        "body": "Did you see the #SuperbOwl this weekend? If not, take a tip from this wise flyer on the front of this British Commonwealth Pacific Airlines brochure! 🦉  Image: British Commonwealth Pacific Airlines (#BCPA) brochure, c. 1950,  Gift of Thomas G. Dragges, 2014.110.143",
        "excerpt": "Did you see the #SuperbOwl this weekend?",
        "hashtags": [],
        "users": []
      },
      "media_id": "71d94ed5397c6639d214fe0d8e5508cd",
      "path": "media/posts/201702/16230094_1275144509235850_7967374658628485120_n_17860547329112057.jpg",
      "perceptual_hash": "p:9e9ce26363cd4863",
      "taken": 1486375080,
      "taken_at": "Feb 06, 2017 9:58 am"
    },
    "millsfield:similar": {
      "google/siglip2-so400m-patch16-naflex": [
        {
          "distance": 0.33821427822113037,
          "id": 1729360535
        },
        {
          "distance": 0.3463992476463318,
          "id": 1729360535
        },
        {
          "distance": 0.3465571999549866,
          "id": 1729359701
        },
        {
          "distance": 0.3671431541442871,
          "id": 1729361699
        },
        {
          "distance": 0.3730418086051941,
          "id": 1729358293
        },
        {
          "distance": 0.3732752203941345,
          "id": 1729359733
        },
        {
          "distance": 0.3751194477081299,
          "id": 1729359701
        },
        {
          "distance": 0.3751920461654663,
          "id": 1729359975
        },
        {
          "distance": 0.37531304359436035,
          "id": 1729356623
        },
        {
          "distance": 0.3781103491783142,
          "id": 1763558953
        }
      ]
    },
    "sfomuseum:placetype": "instagram",
    "src:geom": "sfomuseum",
    "wof:belongsto": [
      1159160869,
      102527513,
      102191575,
      85633793,
      102087579,
      85922583,
      85688637
    ],
    "wof:country": "US",
    "wof:created": 1486375080,
    "wof:geomhash": "b6e33f47475d56bc8da457bc31afadc8",
    "wof:hierarchy": [
      {
        "building_id": 1159160869,
        "campus_id": 102527513,
        "continent_id": 102191575,
        "country_id": 85633793,
        "county_id": 102087579,
        "custom_id": 1729359835,
        "instagram_id": 1729359835,
        "locality_id": 85922583,
        "neighbourhood_id": -1,
        "region_id": 85688637
      }
    ],
    "wof:id": 1729359835,
    "wof:lastmodified": 1787777637,
    "wof:name": "Did you see the #SuperbOwl this weekend?..",
    "wof:parent_id": 1159160869,
    "wof:placetype": "custom",
    "wof:placetype_alt": [
      "instagram"
    ],
    "wof:repo": "sfomuseum-data-socialmedia-instagram",
    "wof:superseded_by": [],
    "wof:supersedes": []
  },
  "bbox": [
    -122.386166,
    37.616356,
    -122.386166,
    37.616356
  ],
  "geometry": {"type":"Point","coordinates":[-122.386166,37.616356]}
}
