{
  "id": 1729356637,
  "type": "Feature",
  "properties": {
    "date:cessation_lower": "2019-04-18",
    "date:cessation_upper": "2019-04-18",
    "date:inception_lower": "2019-04-18",
    "date:inception_upper": "2019-04-18",
    "edtf:cessation": "2019-04-18T09:26:00-07:00",
    "edtf:inception": "2019-04-18T09:26:00-07:00",
    "geom:area": 0,
    "geom:bbox": "-122.386166,37.616356,-122.386166,37.616356",
    "geom:latitude": 37.616356,
    "geom:longitude": -122.386166,
    "instagram:post": {
      "caption": {
        "body": "The 1950s were the golden age of space-themed toys. Catalogs and toy stores offered a multitude of mechanized robots, rocket ships, roving vehicles, and even a robot-driven bulldozer. Robots are the most iconic, space-themed toys. Japanese manufacturers pioneered the robot toy craze in the late 1940s with Atomic Robot Man, a wind-up, tin lithograph toy that walked on its own. \"The Modern Consumer: Products and Style\" is on display, post-security, in Terminal 3. http://bit.ly/1950sConsumer",
        "excerpt": "The 1950s were the golden age of space-themed toys.",
        "hashtags": [
          "1950sConsumer",
          "1950s",
          "robots",
          "50s",
          "midcentury",
          "toys",
          "space"
        ],
        "users": []
      },
      "media_id": "fa7fef0f8bd99e02e8c4896ad3fecc93",
      "path": "media/posts/201904/56935409_601777643637511_503090185727756142_n_18039524533108420.jpg",
      "perceptual_hash": "p:9361fbeec01fa403",
      "taken": 1555604760,
      "taken_at": "Apr 18, 2019 4:26 pm"
    },
    "millsfield:similar": {
      "google/siglip2-so400m-patch16-naflex": [
        {
          "distance": 0.15252536535263062,
          "id": 1729356645
        },
        {
          "distance": 0.1592806577682495,
          "id": 1729356641
        },
        {
          "distance": 0.18729114532470703,
          "id": 1729356983
        },
        {
          "distance": 0.20234745740890503,
          "id": 1729362379
        },
        {
          "distance": 0.20568537712097168,
          "id": 1729356641
        },
        {
          "distance": 0.21164470911026,
          "id": 1729356983
        },
        {
          "distance": 0.22174370288848877,
          "id": 1729356645
        },
        {
          "distance": 0.24268728494644165,
          "id": 1729362387
        },
        {
          "distance": 0.2440076470375061,
          "id": 1729358693
        },
        {
          "distance": 0.24953854084014893,
          "id": 1947425071
        }
      ]
    },
    "sfomuseum:placetype": "instagram",
    "src:geom": "sfomuseum",
    "wof:belongsto": [
      1159160869,
      102527513,
      102191575,
      85633793,
      102087579,
      85922583,
      85688637
    ],
    "wof:country": "US",
    "wof:created": 1555604760,
    "wof:geomhash": "b6e33f47475d56bc8da457bc31afadc8",
    "wof:hierarchy": [
      {
        "building_id": 1159160869,
        "campus_id": 102527513,
        "continent_id": 102191575,
        "country_id": 85633793,
        "county_id": 102087579,
        "custom_id": 1729356637,
        "instagram_id": 1729356637,
        "locality_id": 85922583,
        "neighbourhood_id": -1,
        "region_id": 85688637
      }
    ],
    "wof:id": 1729356637,
    "wof:lastmodified": 1787777629,
    "wof:name": "The 1950s were the golden age of space-themed toys...",
    "wof:parent_id": 1159160869,
    "wof:placetype": "custom",
    "wof:placetype_alt": [
      "instagram"
    ],
    "wof:repo": "sfomuseum-data-socialmedia-instagram",
    "wof:superseded_by": [],
    "wof:supersedes": []
  },
  "bbox": [
    -122.386166,
    37.616356,
    -122.386166,
    37.616356
  ],
  "geometry": {"type":"Point","coordinates":[-122.386166,37.616356]}
}
