{
  "id": 1880151581,
  "type": "Feature",
  "properties": {
    "date:cessation_lower": "2022-07-15",
    "date:cessation_upper": "2022-07-15",
    "date:inception_lower": "2022-07-15",
    "date:inception_upper": "2022-07-15",
    "edtf:cessation": "2022-07-15T05:48:00-07:00",
    "edtf:inception": "2022-07-15T05:48:00-07:00",
    "geom:area": 0,
    "geom:bbox": "-122.386166,37.616356,-122.386166,37.616356",
    "geom:latitude": 37.616356,
    "geom:longitude": -122.386166,
    "instagram:post": {
      "caption": {
        "body": "Last month, Kari Orvik (@kariorviktintypes) visited the airport to give a short talk on her photographs displayed in “Geneva.” “Geneva” is an ongoing photography series that offers a glimpse into San Francisco’s Outer Mission neighborhood at the corner of Mission Street and Geneva Avenue. The series is a personal inquiry and a poetic interpretation of place across multiple photographic formats. Orvik uses nineteenth-century wet plate collodion processes on metal and glass plates, traditional black and white and color film, as well as digital formats. By incorporating historic photographic processes into her contemporary imagery, Orvik considers our present in relation to the city’s past.   See “Geneva” by Kari Orvik on display in the Ruth Kadish Gallery, which is located in the post-security connector between Terminal 2 and Terminal 3, and online at: https://bit.ly/3MjrKM8",
        "excerpt": "Last month, Kari Orvik (@kariorviktintypes) visited the airport to give a short talk on her photographs displayed in “Geneva.” “Geneva” is an ongoing photography series that offers a glimpse into San Francisco’s Outer Mission neighborhood at the corner of Mission Street and Geneva Avenue.",
        "hashtags": [
          "Photography",
          "KariOrvik",
          "Geneva",
          "SFHistory"
        ],
        "users": []
      },
      "media_id": "bdeb5576551390ef436a0322b1ea1bd123f66030",
      "path": "media/posts/202207/293875986_5497971556916044_374441886108310885_n_17996530663482794.jpg",
      "perceptual_hash": "p:dda4b20a80c9b6f7",
      "taken": 1657889280,
      "taken_at": "Jul 15, 2022 12:48 pm"
    },
    "millsfield:similar": {
      "google/siglip2-so400m-patch16-naflex": [
        {
          "distance": 0.00045478343963623047,
          "id": 1880151395
        },
        {
          "distance": 0.1394229531288147,
          "id": 1880151395
        },
        {
          "distance": 0.2379370927810669,
          "id": 1880151199
        },
        {
          "distance": 0.2751597762107849,
          "id": 1880151199
        },
        {
          "distance": 0.2863306999206543,
          "id": 1729360625
        },
        {
          "distance": 0.2875463366508484,
          "id": 1880151009
        },
        {
          "distance": 0.2901475429534912,
          "id": 1729355617
        },
        {
          "distance": 0.29507505893707275,
          "id": 1880151259
        },
        {
          "distance": 0.2980659008026123,
          "id": 1947424927
        },
        {
          "distance": 0.30029159784317017,
          "id": 1763559341
        }
      ]
    },
    "sfomuseum:placetype": "instagram",
    "src:geom": "sfomuseum",
    "wof:belongsto": [
      1159160869,
      102527513,
      102191575,
      85633793,
      102087579,
      85922583,
      85688637
    ],
    "wof:country": "US",
    "wof:created": 1657889280,
    "wof:geomhash": "b6e33f47475d56bc8da457bc31afadc8",
    "wof:hierarchy": [
      {
        "building_id": 1159160869,
        "campus_id": 102527513,
        "continent_id": 102191575,
        "country_id": 85633793,
        "county_id": 102087579,
        "custom_id": 1880151581,
        "instagram_id": 1880151581,
        "locality_id": 85922583,
        "neighbourhood_id": -1,
        "region_id": 85688637
      }
    ],
    "wof:id": 1880151581,
    "wof:lastmodified": 1787777662,
    "wof:name": "Last month, Kari Orvik (@kariorviktintypes) visited the airport to give a short talk on her photographs displayed in “Geneva.” “Geneva” is an ongoing photography series that offers a glimpse into San Francisco’s Outer Mission neighborhood at the corner of Mission Street and Geneva Avenue...",
    "wof:parent_id": 1159160869,
    "wof:placetype": "custom",
    "wof:placetype_alt": [
      "instagram"
    ],
    "wof:repo": "sfomuseum-data-socialmedia-instagram",
    "wof:superseded_by": [],
    "wof:supersedes": []
  },
  "bbox": [
    -122.386166,
    37.616356,
    -122.386166,
    37.616356
  ],
  "geometry": {"type":"Point","coordinates":[-122.386166,37.616356]}
}
