{
  "id": 1729362041,
  "type": "Feature",
  "properties": {
    "date:cessation_lower": "2014-11-18",
    "date:cessation_upper": "2014-11-18",
    "date:inception_lower": "2014-11-18",
    "date:inception_upper": "2014-11-18",
    "edtf:cessation": "2014-11-18T08:26:00-08:00",
    "edtf:inception": "2014-11-18T08:26:00-08:00",
    "geom:area": 0,
    "geom:bbox": "-122.386166,37.616356,-122.386166,37.616356",
    "geom:latitude": 37.616356,
    "geom:longitude": -122.386166,
    "instagram:post": {
      "caption": {
        "body": "",
        "excerpt": "",
        "hashtags": [
          "modelplane",
          "NutTree",
          "avgeek",
          "aviation"
        ],
        "users": []
      },
      "media_id": "e6215cad7c523299c7e3edbd310da90d",
      "path": "media/other/10369448_620224638103212_233413691_n_17841721660062499.jpg",
      "perceptual_hash": "p:849f254a11e76e79",
      "taken": 1416327960,
      "taken_at": "Nov 18, 2014 4:26 pm"
    },
    "millsfield:similar": {
      "google/siglip2-so400m-patch16-naflex": [
        {
          "distance": 0.11952430009841919,
          "id": 1729362201
        },
        {
          "distance": 0.1440916657447815,
          "id": 1729362201
        },
        {
          "distance": 0.18902772665023804,
          "id": 1729362905
        },
        {
          "distance": 0.21271800994873047,
          "id": 1729362997
        },
        {
          "distance": 0.21451973915100098,
          "id": 1729363061
        },
        {
          "distance": 0.2165757417678833,
          "id": 1729362905
        },
        {
          "distance": 0.22594749927520752,
          "id": 1729362415
        },
        {
          "distance": 0.2279931902885437,
          "id": 1729361585
        },
        {
          "distance": 0.23618537187576294,
          "id": 1729357601
        },
        {
          "distance": 0.23937970399856567,
          "id": 1729362993
        }
      ]
    },
    "sfomuseum:placetype": "instagram",
    "src:geom": "sfomuseum",
    "wof:belongsto": [
      1159160869,
      102527513,
      102191575,
      85633793,
      102087579,
      85922583,
      85688637
    ],
    "wof:country": "US",
    "wof:created": 1416327960,
    "wof:geomhash": "b6e33f47475d56bc8da457bc31afadc8",
    "wof:hierarchy": [
      {
        "building_id": 1159160869,
        "campus_id": 102527513,
        "continent_id": 102191575,
        "country_id": 85633793,
        "county_id": 102087579,
        "custom_id": 1729362041,
        "instagram_id": 1729362041,
        "locality_id": 85922583,
        "neighbourhood_id": -1,
        "region_id": 85688637
      }
    ],
    "wof:id": 1729362041,
    "wof:lastmodified": 1787777646,
    "wof:name": "..",
    "wof:parent_id": 1159160869,
    "wof:placetype": "custom",
    "wof:placetype_alt": [
      "instagram"
    ],
    "wof:repo": "sfomuseum-data-socialmedia-instagram",
    "wof:superseded_by": [],
    "wof:supersedes": []
  },
  "bbox": [
    -122.386166,
    37.616356,
    -122.386166,
    37.616356
  ],
  "geometry": {"type":"Point","coordinates":[-122.386166,37.616356]}
}
