{
  "id": 1729358081,
  "type": "Feature",
  "properties": {
    "date:cessation_lower": "2018-06-24",
    "date:cessation_upper": "2018-06-24",
    "date:inception_lower": "2018-06-24",
    "date:inception_upper": "2018-06-24",
    "edtf:cessation": "2018-06-24T04:28:00-07:00",
    "edtf:inception": "2018-06-24T04:28:00-07:00",
    "geom:area": 0,
    "geom:bbox": "-122.386166,37.616356,-122.386166,37.616356",
    "geom:latitude": 37.616356,
    "geom:longitude": -122.386166,
    "instagram:post": {
      "caption": {
        "body": "We hope you are having a fabulous Pride weekend! SFO Museum is celebrating 2018 LGBT Pride month in two special ways. Our Video Arts screening room is dedicated to LGBT films this month and don't miss our exhibition on Gilbert Baker, the creator of the #rainbowflag. One of the photo featured in our exhibition is from San Francisco Pride forty years ago featuring Harvey Milk, the first openly gay official elected in California, with the first rainbow flags visible in the distance. Have a happy and safe Pride weekend!  Photograph by Mick Hicks. See \"#ALegacyOfPride: #GilbertBaker and the 40th Anniversary of the #RainbowFlag\" on view pre-security in the International Terminal. http://bit.ly/RainbowFlagSFO",
        "excerpt": "We hope you are having a fabulous Pride weekend!",
        "hashtags": [
          "harveymilk",
          "gilbertbaker",
          "gaypride",
          "alegacyofpride",
          "lgbtpride",
          "pride",
          "SFpride",
          "prideweekend",
          "LGBT",
          "🏳️🌈",
          "👭",
          "👬",
          "👩❤️👩",
          "👩❤️💋👩",
          "👨❤️👨",
          "👨❤️💋👨"
        ],
        "users": []
      },
      "media_id": "45b99a7d81f414d6f2b79795affc792b",
      "path": "media/other/35415935_1098333960319031_4909544182248374272_n_17928033931192521.jpg",
      "perceptual_hash": "p:9063e4ebda6d4c1a",
      "taken": 1529839680,
      "taken_at": "Jun 24, 2018 11:28 am"
    },
    "millsfield:similar": {
      "google/siglip2-so400m-patch16-naflex": [
        {
          "distance": 0.3145664930343628,
          "id": 1729356843
        },
        {
          "distance": 0.3254673480987549,
          "id": 1729357423
        },
        {
          "distance": 0.33010292053222656,
          "id": 1729357303
        },
        {
          "distance": 0.3380422592163086,
          "id": 1729358321
        },
        {
          "distance": 0.34220224618911743,
          "id": 1729357285
        },
        {
          "distance": 0.349256694316864,
          "id": 1729355235
        },
        {
          "distance": 0.3497920036315918,
          "id": 1729359149
        },
        {
          "distance": 0.35133838653564453,
          "id": 1729356477
        },
        {
          "distance": 0.3570047616958618,
          "id": 1729357285
        },
        {
          "distance": 0.36045336723327637,
          "id": 1729358321
        }
      ]
    },
    "sfomuseum:placetype": "instagram",
    "src:geom": "sfomuseum",
    "wof:belongsto": [
      1159160869,
      102527513,
      102191575,
      85633793,
      102087579,
      85922583,
      85688637
    ],
    "wof:country": "US",
    "wof:created": 1529839680,
    "wof:geomhash": "b6e33f47475d56bc8da457bc31afadc8",
    "wof:hierarchy": [
      {
        "building_id": 1159160869,
        "campus_id": 102527513,
        "continent_id": 102191575,
        "country_id": 85633793,
        "county_id": 102087579,
        "custom_id": 1729358081,
        "instagram_id": 1729358081,
        "locality_id": 85922583,
        "neighbourhood_id": -1,
        "region_id": 85688637
      }
    ],
    "wof:id": 1729358081,
    "wof:lastmodified": 1787777632,
    "wof:name": "We hope you are having a fabulous Pride weekend!..",
    "wof:parent_id": 1159160869,
    "wof:placetype": "custom",
    "wof:placetype_alt": [
      "instagram"
    ],
    "wof:repo": "sfomuseum-data-socialmedia-instagram",
    "wof:superseded_by": [],
    "wof:supersedes": []
  },
  "bbox": [
    -122.386166,
    37.616356,
    -122.386166,
    37.616356
  ],
  "geometry": {"type":"Point","coordinates":[-122.386166,37.616356]}
}
