{
  "id": 1729363009,
  "type": "Feature",
  "properties": {
    "date:cessation_lower": "2012-05-18",
    "date:cessation_upper": "2012-05-18",
    "date:inception_lower": "2012-05-18",
    "date:inception_upper": "2012-05-18",
    "edtf:cessation": "2012-05-18T08:27:00-07:00",
    "edtf:inception": "2012-05-18T08:27:00-07:00",
    "geom:area": 0,
    "geom:bbox": "-122.386166,37.616356,-122.386166,37.616356",
    "geom:latitude": 37.616356,
    "geom:longitude": -122.386166,
    "instagram:post": {
      "caption": {
        "body": "If you're not an #aviation engineer or #AVgeek, this could look modern. But really, this baby is from 1927!",
        "excerpt": "If you're not an #aviation engineer or #AVgeek, this could look modern.",
        "hashtags": [],
        "users": []
      },
      "media_id": "cc04337b95f61ecc9acb4ae1df2c1f63",
      "path": "media/other/11187072_1584423578498630_1282033000_n_17842250680062499.jpg",
      "perceptual_hash": "p:bf3dc3409c869e85",
      "taken": 1337354820,
      "taken_at": "May 18, 2012 3:27 pm"
    },
    "millsfield:similar": {
      "google/siglip2-so400m-patch16-naflex": [
        {
          "distance": 0.13589775562286377,
          "id": 1729362905
        },
        {
          "distance": 0.1438584327697754,
          "id": 1729356403
        },
        {
          "distance": 0.14864587783813477,
          "id": 1729361535
        },
        {
          "distance": 0.15348201990127563,
          "id": 1729356403
        },
        {
          "distance": 0.15643930435180664,
          "id": 1729356411
        },
        {
          "distance": 0.17401498556137085,
          "id": 1729356411
        },
        {
          "distance": 0.18293023109436035,
          "id": 1729362905
        },
        {
          "distance": 0.18730688095092773,
          "id": 1729362737
        },
        {
          "distance": 0.19367432594299316,
          "id": 1729361535
        },
        {
          "distance": 0.19389700889587402,
          "id": 1729362527
        }
      ]
    },
    "sfomuseum:placetype": "instagram",
    "src:geom": "sfomuseum",
    "wof:belongsto": [
      1159160869,
      102527513,
      102191575,
      85633793,
      102087579,
      85922583,
      85688637
    ],
    "wof:country": "US",
    "wof:created": 1337354820,
    "wof:geomhash": "b6e33f47475d56bc8da457bc31afadc8",
    "wof:hierarchy": [
      {
        "building_id": 1159160869,
        "campus_id": 102527513,
        "continent_id": 102191575,
        "country_id": 85633793,
        "county_id": 102087579,
        "custom_id": 1729363009,
        "instagram_id": 1729363009,
        "locality_id": 85922583,
        "neighbourhood_id": -1,
        "region_id": 85688637
      }
    ],
    "wof:id": 1729363009,
    "wof:lastmodified": 1787777657,
    "wof:name": "If you're not an #aviation engineer or #AVgeek, this could look modern...",
    "wof:parent_id": 1159160869,
    "wof:placetype": "custom",
    "wof:placetype_alt": [
      "instagram"
    ],
    "wof:repo": "sfomuseum-data-socialmedia-instagram",
    "wof:superseded_by": [],
    "wof:supersedes": []
  },
  "bbox": [
    -122.386166,
    37.616356,
    -122.386166,
    37.616356
  ],
  "geometry": {"type":"Point","coordinates":[-122.386166,37.616356]}
}
