{
  "id": 1729360325,
  "type": "Feature",
  "properties": {
    "date:cessation_lower": "2016-09-14",
    "date:cessation_upper": "2016-09-14",
    "date:inception_lower": "2016-09-14",
    "date:inception_upper": "2016-09-14",
    "edtf:cessation": "2016-09-14T10:06:00-07:00",
    "edtf:inception": "2016-09-14T10:06:00-07:00",
    "geom:area": 0,
    "geom:bbox": "-122.386166,37.616356,-122.386166,37.616356",
    "geom:latitude": 37.616356,
    "geom:longitude": -122.386166,
    "instagram:post": {
      "caption": {
        "body": "Air West was branded with an ultramodern service mark in bright interchangeable color combinations of lime green, royal blue, orange, pink, and bronze. Like the multi-color “jelly bean” airplanes of Braniff, Air West’s aircraft liveries featured various combinations of two of these colors. Their stewardesses were outfitted in futuristic, slim-cut, high-fashion ensembles created by Oleg Cassini and reminiscent of uniforms worn in the original Star Trek television series, which was popular at the time. An A-line mini-dress was complemented by a double-breasted jacket that fastened on the side with large buttons. Dark brown boots finished off the outfit. The dress and jacket came in the same two-color combinations as the carrier’s aircraft. #WomenInAviation  See more uniforms from the 1960s in \"#FashionInFlight: A History of Airline Uniform Design\", pre-security, in the Aviation Museum and Library and in the Main Hall of the International Terminal. The Aviation Museum and Library is open daily from 10am to 4:30pm. http://bit.ly/fashioninflight",
        "excerpt": "Air West was branded with an ultramodern service mark in bright interchangeable color combinations of lime green, royal blue, orange, pink, and bronze.",
        "hashtags": [
          "OlegCassini",
          "AirWest",
          "fashion",
          "design",
          "avgeek"
        ],
        "users": []
      },
      "media_id": "6694550cb1b5c71d9ff735261eba34c0",
      "path": "media/other/14276423_1054761307977885_1410426265_n_17862850273003038.jpg",
      "perceptual_hash": "p:b496ece363b89505",
      "taken": 1473872760,
      "taken_at": "Sep 14, 2016 5:06 pm"
    },
    "millsfield:similar": {
      "google/siglip2-so400m-patch16-naflex": [
        {
          "distance": 0.17743772268295288,
          "id": 1729359743
        },
        {
          "distance": 0.1915290355682373,
          "id": 1729360211
        },
        {
          "distance": 0.20311778783798218,
          "id": 1729358221
        },
        {
          "distance": 0.2163926362991333,
          "id": 1729359113
        },
        {
          "distance": 0.22000306844711304,
          "id": 1729360907
        },
        {
          "distance": 0.22000378370285034,
          "id": 1729360211
        },
        {
          "distance": 0.22243523597717285,
          "id": 1729360253
        },
        {
          "distance": 0.22362816333770752,
          "id": 1729360981
        },
        {
          "distance": 0.22972434759140015,
          "id": 1729359985
        },
        {
          "distance": 0.23555642366409302,
          "id": 1729357873
        }
      ]
    },
    "sfomuseum:placetype": "instagram",
    "src:geom": "sfomuseum",
    "wof:belongsto": [
      1159160869,
      102527513,
      102191575,
      85633793,
      102087579,
      85922583,
      85688637
    ],
    "wof:country": "US",
    "wof:created": 1473872760,
    "wof:geomhash": "b6e33f47475d56bc8da457bc31afadc8",
    "wof:hierarchy": [
      {
        "building_id": 1159160869,
        "campus_id": 102527513,
        "continent_id": 102191575,
        "country_id": 85633793,
        "county_id": 102087579,
        "custom_id": 1729360325,
        "instagram_id": 1729360325,
        "locality_id": 85922583,
        "neighbourhood_id": -1,
        "region_id": 85688637
      }
    ],
    "wof:id": 1729360325,
    "wof:lastmodified": 1787777639,
    "wof:name": "Air West was branded with an ultramodern service mark in bright interchangeable color combinations of lime green, royal blue, orange, pink, and bronze...",
    "wof:parent_id": 1159160869,
    "wof:placetype": "custom",
    "wof:placetype_alt": [
      "instagram"
    ],
    "wof:repo": "sfomuseum-data-socialmedia-instagram",
    "wof:superseded_by": [],
    "wof:supersedes": []
  },
  "bbox": [
    -122.386166,
    37.616356,
    -122.386166,
    37.616356
  ],
  "geometry": {"type":"Point","coordinates":[-122.386166,37.616356]}
}
