{
  "id": 1729358835,
  "type": "Feature",
  "properties": {
    "date:cessation_lower": "2017-12-08",
    "date:cessation_upper": "2017-12-08",
    "date:inception_lower": "2017-12-08",
    "date:inception_upper": "2017-12-08",
    "edtf:cessation": "2017-12-07T16:52:57-08:00",
    "edtf:inception": "2017-12-07T16:52:57-08:00",
    "geom:area": 0,
    "geom:bbox": "-122.386166,37.616356,-122.386166,37.616356",
    "geom:latitude": 37.616356,
    "geom:longitude": -122.386166,
    "instagram:post": {
      "caption": {
        "body": "Art found in ancient sites throughout the Chiapas highlands preserves images of early attire and the oldest symbols utilized in contemporary Mayan weaving. A stone carving from a lintel at the Bonampak temple complex shows one of the most common ancient designs, known today as the cruz or feathered cross. The symbol decorates a long and elaborate huipil worn by Lady K'ab'al Xook, queen of Yaxchilán, who is performing a bloodletting ritual with her husband, Shield Jaguar II in the year 709CE. Glyphs on the lintel identify dates along with the king and queen, yet do not give a name or interpretation of the cruz symbol. While the true meaning of the feathered cross is lost to time, its design survives in weaving as a representation of Mayan antiquity.  Learn more about \"Empowering Threads: Textiles of Jolom Mayaetik\" on display, pre-security, in the International Terminal. http://bit.ly/EmpoweringThreads",
        "excerpt": "Art found in ancient sites throughout the Chiapas highlands preserves images of early attire and the oldest symbols utilized in contemporary Mayan weaving.",
        "hashtags": [
          "EmpoweringThreads",
          "mayantextiles",
          "textile",
          "textiles",
          "mayan",
          "mexico",
          "mexican",
          "mexicanhistory",
          "mayanhistory",
          "JolomMayaetik",
          "weavers",
          "weaving",
          "blouses",
          "huipiles",
          "looms",
          "backstraploom",
          "mayanculture",
          "handwoven",
          "sewing",
          "cooperativa",
          "artesanaschiapanecas",
          "chiapas",
          "cojinesartesanales",
          "artesanias",
          "empoweringwomen"
        ],
        "users": []
      },
      "location": "",
      "media_id": "16cebd469deac510302eb37de0dc0bf8",
      "path": "photos/201712/16cebd469deac510302eb37de0dc0bf8.jpg",
      "perceptual_hash": "p:8a2b60532db39aed",
      "taken": 1512665520,
      "taken_at": "Dec 7, 2017, 4:52 PM"
    },
    "millsfield:similar": {
      "google/siglip2-so400m-patch16-naflex": [
        {
          "distance": 0.09293299913406372,
          "id": 1729358527
        },
        {
          "distance": 0.09999114274978638,
          "id": 1729358515
        },
        {
          "distance": 0.10092699527740479,
          "id": 1729358521
        },
        {
          "distance": 0.11994391679763794,
          "id": 1729358581
        },
        {
          "distance": 0.1261615753173828,
          "id": 1729358443
        },
        {
          "distance": 0.13092637062072754,
          "id": 1729358545
        },
        {
          "distance": 0.13134747743606567,
          "id": 1729358917
        },
        {
          "distance": 0.13334298133850098,
          "id": 1729358619
        },
        {
          "distance": 0.1399822235107422,
          "id": 1729358555
        },
        {
          "distance": 0.14257609844207764,
          "id": 1729358521
        }
      ]
    },
    "sfomuseum:placetype": "instagram",
    "src:geom": "sfomuseum",
    "wof:belongsto": [
      1159160869,
      102527513,
      102191575,
      85633793,
      102087579,
      85922583,
      85688637
    ],
    "wof:country": "US",
    "wof:created": 1512694377,
    "wof:geomhash": "b6e33f47475d56bc8da457bc31afadc8",
    "wof:hierarchy": [
      {
        "building_id": 1159160869,
        "campus_id": 102527513,
        "continent_id": 102191575,
        "country_id": 85633793,
        "county_id": 102087579,
        "custom_id": 1729358835,
        "instagram_id": 1729358835,
        "locality_id": 85922583,
        "neighbourhood_id": -1,
        "region_id": 85688637
      }
    ],
    "wof:id": 1729358835,
    "wof:lastmodified": 1787777634,
    "wof:name": "Art found in ancient sites throughout the Chiapas highlands preserves images of early attire and the oldest symbols utilized in contemporary Mayan weaving...",
    "wof:parent_id": 1159160869,
    "wof:placetype": "custom",
    "wof:placetype_alt": [
      "instagram"
    ],
    "wof:repo": "sfomuseum-data-socialmedia-instagram",
    "wof:superseded_by": [],
    "wof:supersedes": []
  },
  "bbox": [
    -122.386166,
    37.616356,
    -122.386166,
    37.616356
  ],
  "geometry": {"type":"Point","coordinates":[-122.386166,37.616356]}
}
