{
  "id": 1729360797,
  "type": "Feature",
  "properties": {
    "date:cessation_lower": "2016-04-20",
    "date:cessation_upper": "2016-04-20",
    "date:inception_lower": "2016-04-20",
    "date:inception_upper": "2016-04-20",
    "edtf:cessation": "2016-04-20T01:55:00-07:00",
    "edtf:inception": "2016-04-20T01:55:00-07:00",
    "geom:area": 0,
    "geom:bbox": "-122.386166,37.616356,-122.386166,37.616356",
    "geom:latitude": 37.616356,
    "geom:longitude": -122.386166,
    "instagram:post": {
      "caption": {
        "body": "Douglas DC-3s are legendary in the aviation industry for their durability. This particular DC-3, N136PB, was acquired by Provincetown-Boston Airlines (PBA) in 1974 and operated until the company was bought in the late 1980s; the aircraft was manufactured in 1937 and is currently lovingly maintained and operated by Aerometal International in Aurora, Oregon. N136PB has reportedly more than 90,000 hours flying, the equivalent to more than 10 years in the air!  PBA Airlines postcard, Douglas DC-3 c. 1975 SFO Museum Collection Gift of the William Hough Collection 2008.055.509",
        "excerpt": "Douglas DC-3s are legendary in the aviation industry for their durability.",
        "hashtags": [],
        "users": []
      },
      "media_id": "2cf6d0dfe4d62b45c3f3c3526b5a80d5",
      "path": "media/other/12976233_681121788707055_1872927542_n_17846839141100146.jpg",
      "perceptual_hash": "p:cf12f0f48c09b3f4",
      "taken": 1461142500,
      "taken_at": "Apr 20, 2016 8:55 am"
    },
    "millsfield:similar": {
      "google/siglip2-so400m-patch16-naflex": [
        {
          "distance": 0.1740160584449768,
          "id": 1729356623
        },
        {
          "distance": 0.1775510311126709,
          "id": 1729355245
        },
        {
          "distance": 0.18589389324188232,
          "id": 1729356043
        },
        {
          "distance": 0.1976916790008545,
          "id": 1763558807
        },
        {
          "distance": 0.1976916790008545,
          "id": 1729357179
        },
        {
          "distance": 0.20203840732574463,
          "id": 1729355245
        },
        {
          "distance": 0.2084437608718872,
          "id": 1763559293
        },
        {
          "distance": 0.21219205856323242,
          "id": 1729357367
        },
        {
          "distance": 0.21268850564956665,
          "id": 1763559547
        },
        {
          "distance": 0.21391373872756958,
          "id": 1763559167
        }
      ]
    },
    "sfomuseum:placetype": "instagram",
    "src:geom": "sfomuseum",
    "wof:belongsto": [
      1159160869,
      102527513,
      102191575,
      85633793,
      102087579,
      85922583,
      85688637
    ],
    "wof:country": "US",
    "wof:created": 1461142500,
    "wof:geomhash": "b6e33f47475d56bc8da457bc31afadc8",
    "wof:hierarchy": [
      {
        "building_id": 1159160869,
        "campus_id": 102527513,
        "continent_id": 102191575,
        "country_id": 85633793,
        "county_id": 102087579,
        "custom_id": 1729360797,
        "instagram_id": 1729360797,
        "locality_id": 85922583,
        "neighbourhood_id": -1,
        "region_id": 85688637
      }
    ],
    "wof:id": 1729360797,
    "wof:lastmodified": 1787777640,
    "wof:name": "Douglas DC-3s are legendary in the aviation industry for their durability...",
    "wof:parent_id": 1159160869,
    "wof:placetype": "custom",
    "wof:placetype_alt": [
      "instagram"
    ],
    "wof:repo": "sfomuseum-data-socialmedia-instagram",
    "wof:superseded_by": [],
    "wof:supersedes": []
  },
  "bbox": [
    -122.386166,
    37.616356,
    -122.386166,
    37.616356
  ],
  "geometry": {"type":"Point","coordinates":[-122.386166,37.616356]}
}
