{
  "id": 1947425117,
  "type": "Feature",
  "properties": {
    "date:cessation_lower": "2024-02-16",
    "date:cessation_upper": "2024-02-16",
    "date:inception_lower": "2024-02-16",
    "date:inception_upper": "2024-02-16",
    "edtf:cessation": "2024-02-16T08:23:00-08:00",
    "edtf:inception": "2024-02-16T08:23:00-08:00",
    "geom:area": 0,
    "geom:bbox": "-122.386166,37.616356,-122.386166,37.616356",
    "geom:latitude": 37.616356,
    "geom:longitude": -122.386166,
    "instagram:post": {
      "caption": {
        "body": "This year, in tandem with our forthcoming airline poster artist exhibition, we will be highlighting posters from our collection every week. Our poster collection, comprised of over one thousand posters, demonstrates the breadth and the width of airline posters across the 20th century. Used to promote airline destinations in ticket offices, travel agencies, and airports, travel posters were typically flashy and eye catching, advertising the destination's most notable tourist attractions.   One noteworthy airline poster in our collection, showcasing San Francisco and our many hills, is this United Air Lines poster from the 1950s. This scene looking down California Street, highlights many iconic San Francisco landmarks including the distinctive Sing Fat and Sing Chong buildings, the Bay Bridge, and cable cars. A Douglas DC-6B flies across the sky advertising United service.    Have you ever ridden on a cable car?  poster: United Air Lines, San Francisco; 1951 Purchase 1994.09.02 https://ow.ly/1qep50QEkWi",
        "excerpt": "This year, in tandem with our forthcoming airline poster artist exhibition, we will be highlighting posters from our collection every week.",
        "hashtags": [
          "AvGeek",
          "52Posters",
          "United"
        ],
        "users": []
      },
      "media_id": "627df6fbd4954908631706fc6fe16681b87e7732",
      "path": "media/other/427571724_7374717765925958_6113168946006370297_n_18059094724518439.jpg",
      "perceptual_hash": "p:ccb8c3ef98b25146",
      "taken": 1708100580,
      "taken_at": "Feb 16, 2024 4:23 pm"
    },
    "millsfield:similar": {
      "google/siglip2-so400m-patch16-naflex": [
        {
          "distance": 0.04922950267791748,
          "id": 1763559327
        },
        {
          "distance": 0.055963873863220215,
          "id": 1763559487
        },
        {
          "distance": 0.09808290004730225,
          "id": 1763559327
        },
        {
          "distance": 0.1059638261795044,
          "id": 1763559487
        },
        {
          "distance": 0.16575276851654053,
          "id": 1729359455
        },
        {
          "distance": 0.17107832431793213,
          "id": 1729359455
        },
        {
          "distance": 0.1773967146873474,
          "id": 1729356319
        },
        {
          "distance": 0.18785136938095093,
          "id": 1729361549
        },
        {
          "distance": 0.19143539667129517,
          "id": 1729356319
        },
        {
          "distance": 0.20142912864685059,
          "id": 1729359167
        }
      ]
    },
    "sfomuseum:placetype": "instagram",
    "src:geom": "sfomuseum",
    "wof:belongsto": [
      1159160869,
      102527513,
      102191575,
      85633793,
      102087579,
      85922583,
      85688637
    ],
    "wof:country": "US",
    "wof:created": 1708100580,
    "wof:geomhash": "b6e33f47475d56bc8da457bc31afadc8",
    "wof:hierarchy": [
      {
        "building_id": 1159160869,
        "campus_id": 102527513,
        "continent_id": 102191575,
        "country_id": 85633793,
        "county_id": 102087579,
        "custom_id": 1947425117,
        "locality_id": 85922583,
        "neighbourhood_id": -1,
        "region_id": 85688637
      }
    ],
    "wof:id": 1947425117,
    "wof:lastmodified": 1787777664,
    "wof:name": "This year, in tandem with our forthcoming airline poster artist exhibition, we will be highlighting posters from our collection every week...",
    "wof:parent_id": 1159160869,
    "wof:placetype": "custom",
    "wof:repo": "sfomuseum-data-socialmedia-instagram",
    "wof:superseded_by": [],
    "wof:supersedes": []
  },
  "bbox": [
    -122.386166,
    37.616356,
    -122.386166,
    37.616356
  ],
  "geometry": {"type":"Point","coordinates":[-122.386166,37.616356]}
}
