{
  "id": 1729358291,
  "type": "Feature",
  "properties": {
    "date:cessation_lower": "2018-05-04",
    "date:cessation_upper": "2018-05-04",
    "date:inception_lower": "2018-05-04",
    "date:inception_upper": "2018-05-04",
    "edtf:cessation": "2018-05-04T11:13:22-07:00",
    "edtf:inception": "2018-05-04T11:13:22-07:00",
    "geom:area": 0,
    "geom:bbox": "-122.386166,37.616356,-122.386166,37.616356",
    "geom:latitude": 37.616356,
    "geom:longitude": -122.386166,
    "instagram:post": {
      "caption": {
        "body": "Many amateur craftsmen created unique folk houses and other architectural buildings from the mid-1800s to the early-1900s. The one displayed here evokes something from a fairy tale. This fanciful house has decorative wooden shingles with an elaborate rooftop and entryway finials. The house's wooden front and back façades mimic bricks, while a small side addition appears to be a chapel attached to the house.  Folk house is courtesy of the collection of Ian Berke. See \"#AmericanFolkArt: An Enduring Legacy\", on display, pre-security, in the International Terminal. http://bit.ly/AmericanFolkArt",
        "excerpt": "Many amateur craftsmen created unique folk houses and other architectural buildings from the mid-1800s to the early-1900s.",
        "hashtags": [
          "AmericanFolkArt",
          "folkart",
          "american",
          "history",
          "americana",
          "antique",
          "vintage",
          "design",
          "folkarts",
          "architecture",
          "fairytale",
          "house"
        ],
        "users": []
      },
      "location": "",
      "media_id": "e3b4df2dff3f5ff4ff8a79c31ace61da",
      "path": "photos/201805/e3b4df2dff3f5ff4ff8a79c31ace61da.jpg",
      "perceptual_hash": "p:ef1dd245b028e54b",
      "taken": 1525428780,
      "taken_at": "May 4, 2018, 10:13 AM"
    },
    "millsfield:similar": {
      "google/siglip2-so400m-patch16-naflex": [
        {
          "distance": 0.1215522289276123,
          "id": 1729358287
        },
        {
          "distance": 0.17270654439926147,
          "id": 1729358281
        },
        {
          "distance": 0.17549854516983032,
          "id": 1729358277
        },
        {
          "distance": 0.1988733410835266,
          "id": 1729358287
        },
        {
          "distance": 0.22496193647384644,
          "id": 1729358281
        },
        {
          "distance": 0.2408921718597412,
          "id": 1729358277
        },
        {
          "distance": 0.275801420211792,
          "id": 1729361519
        },
        {
          "distance": 0.298109769821167,
          "id": 1729356369
        },
        {
          "distance": 0.31063830852508545,
          "id": 1729356415
        },
        {
          "distance": 0.3163509964942932,
          "id": 1729357793
        }
      ]
    },
    "sfomuseum:placetype": "instagram",
    "src:geom": "sfomuseum",
    "wof:belongsto": [
      1159160869,
      102527513,
      102191575,
      85633793,
      102087579,
      85922583,
      85688637
    ],
    "wof:country": "US",
    "wof:created": 1525457602,
    "wof:geomhash": "b6e33f47475d56bc8da457bc31afadc8",
    "wof:hierarchy": [
      {
        "building_id": 1159160869,
        "campus_id": 102527513,
        "continent_id": 102191575,
        "country_id": 85633793,
        "county_id": 102087579,
        "custom_id": 1729358291,
        "instagram_id": 1729358291,
        "locality_id": 85922583,
        "neighbourhood_id": -1,
        "region_id": 85688637
      }
    ],
    "wof:id": 1729358291,
    "wof:lastmodified": 1787777633,
    "wof:name": "Many amateur craftsmen created unique folk houses and other architectural buildings from the mid-1800s to the early-1900s...",
    "wof:parent_id": 1159160869,
    "wof:placetype": "custom",
    "wof:placetype_alt": [
      "instagram"
    ],
    "wof:repo": "sfomuseum-data-socialmedia-instagram",
    "wof:superseded_by": [],
    "wof:supersedes": []
  },
  "bbox": [
    -122.386166,
    37.616356,
    -122.386166,
    37.616356
  ],
  "geometry": {"type":"Point","coordinates":[-122.386166,37.616356]}
}
