{
  "id": 1880151667,
  "type": "Feature",
  "properties": {
    "date:cessation_lower": "2022-06-07",
    "date:cessation_upper": "2022-06-07",
    "date:inception_lower": "2022-06-07",
    "date:inception_upper": "2022-06-07",
    "edtf:cessation": "2022-06-07T09:43:00-07:00",
    "edtf:inception": "2022-06-07T09:43:00-07:00",
    "geom:area": 0,
    "geom:bbox": "-122.386166,37.616356,-122.386166,37.616356",
    "geom:latitude": 37.616356,
    "geom:longitude": -122.386166,
    "instagram:post": {
      "caption": {
        "body": "#OnThisDay in 1927, the Mills Field Municipal Airport of San Francisco officially began operations. The first graded airstrip was 4,950 feet long and surfaced in rolled rock fill covered with two inches of earth. In its first full month of operation, the airport registered nineteen airplane landings and nineteen passengers. Today the airport has four runways with the shortest measuring at 7,650 feet long and the longest at 11,870 feet long.",
        "excerpt": "#OnThisDay in 1927, the Mills Field Municipal Airport of San Francisco officially began operations.",
        "hashtags": [
          "AvGeek",
          "AviationHistory",
          "SFHistory",
          "SFOHistory"
        ],
        "users": []
      },
      "media_id": "70b19d4ca0b3a8e5f6be19d05d382d8177e4e58a",
      "path": "media/posts/202206/286974414_731195634699863_4780163605253724138_n_17943083519027860.jpg",
      "perceptual_hash": "p:c9f48679c9a48e71",
      "taken": 1654620180,
      "taken_at": "Jun 07, 2022 4:43 pm"
    },
    "millsfield:similar": {
      "google/siglip2-so400m-patch16-naflex": [
        {
          "distance": 0.33126455545425415,
          "id": 1763559161
        },
        {
          "distance": 0.3414573669433594,
          "id": 1729361363
        },
        {
          "distance": 0.3426520824432373,
          "id": 1729361029
        },
        {
          "distance": 0.3472321629524231,
          "id": 1763558839
        },
        {
          "distance": 0.3509276509284973,
          "id": 1729359577
        },
        {
          "distance": 0.35137033462524414,
          "id": 1729355287
        },
        {
          "distance": 0.3517373204231262,
          "id": 1729360319
        },
        {
          "distance": 0.3519880771636963,
          "id": 1729356859
        },
        {
          "distance": 0.3532026410102844,
          "id": 1729359515
        },
        {
          "distance": 0.353399395942688,
          "id": 1763559233
        }
      ]
    },
    "sfomuseum:placetype": "instagram",
    "src:geom": "sfomuseum",
    "wof:belongsto": [
      1159160869,
      102527513,
      102191575,
      85633793,
      102087579,
      85922583,
      85688637
    ],
    "wof:country": "US",
    "wof:created": 1654620180,
    "wof:geomhash": "b6e33f47475d56bc8da457bc31afadc8",
    "wof:hierarchy": [
      {
        "building_id": 1159160869,
        "campus_id": 102527513,
        "continent_id": 102191575,
        "country_id": 85633793,
        "county_id": 102087579,
        "custom_id": 1880151667,
        "instagram_id": 1880151667,
        "locality_id": 85922583,
        "neighbourhood_id": -1,
        "region_id": 85688637
      }
    ],
    "wof:id": 1880151667,
    "wof:lastmodified": 1787777662,
    "wof:name": "#OnThisDay in 1927, the Mills Field Municipal Airport of San Francisco officially began operations...",
    "wof:parent_id": 1159160869,
    "wof:placetype": "custom",
    "wof:placetype_alt": [
      "instagram"
    ],
    "wof:repo": "sfomuseum-data-socialmedia-instagram",
    "wof:superseded_by": [],
    "wof:supersedes": []
  },
  "bbox": [
    -122.386166,
    37.616356,
    -122.386166,
    37.616356
  ],
  "geometry": {"type":"Point","coordinates":[-122.386166,37.616356]}
}
