{
  "id": 1729355869,
  "type": "Feature",
  "properties": {
    "date:cessation_lower": "2019-11-21",
    "date:cessation_upper": "2019-11-21",
    "date:inception_lower": "2019-11-21",
    "date:inception_upper": "2019-11-21",
    "edtf:cessation": "2019-11-21T05:48:00-08:00",
    "edtf:inception": "2019-11-21T05:48:00-08:00",
    "geom:area": 0,
    "geom:bbox": "-122.386166,37.616356,-122.386166,37.616356",
    "geom:latitude": 37.616356,
    "geom:longitude": -122.386166,
    "instagram:post": {
      "caption": {
        "body": "#Onthisday in 1789, North Carolina became the 12th State to be admitted into the union of the United States. One of the original 13 British Colonies to be established on the East Coast of North America, North Carolina was also the location of the first English Colony in North America, established in 1585. The birth of powered, controlled, heavier-than-air flight also occurred here when the Wright brothers successfully flew their “Wright Flyer” at Kitty Hawk, North Carolina on December 17, 1903. Have you ever been to North Carolina?  Image: Piedmont Airlines poster, North Carolina, 1980s. Gift of Thomas G. Dragges. 2001.135.019",
        "excerpt": "#Onthisday in 1789, North Carolina became the 12th State to be admitted into the union of the United States.",
        "hashtags": [
          "avgeek",
          "NorthCarolina",
          "KittyHawk",
          "Wright",
          "WrightBrothers",
          "Piedmont",
          "PiedmontAirlines"
        ],
        "users": []
      },
      "media_id": "ed7264e9830078db3b97378e10d16b5f",
      "path": "media/other/72276511_180484806463624_9117431329757818432_n_18066037876196559.jpg",
      "perceptual_hash": "p:ebc19360c6842f7b",
      "taken": 1574344080,
      "taken_at": "Nov 21, 2019 1:48 pm"
    },
    "millsfield:similar": {
      "google/siglip2-so400m-patch16-naflex": [
        {
          "distance": 0.394001305103302,
          "id": 1729361095
        },
        {
          "distance": 0.4288780093193054,
          "id": 1729360933
        },
        {
          "distance": 0.43435966968536377,
          "id": 1729360883
        },
        {
          "distance": 0.4362447261810303,
          "id": 1729360933
        },
        {
          "distance": 0.4440261125564575,
          "id": 1947424877
        },
        {
          "distance": 0.4473400115966797,
          "id": 1729357473
        },
        {
          "distance": 0.452193021774292,
          "id": 1729360649
        },
        {
          "distance": 0.45434457063674927,
          "id": 1763559533
        },
        {
          "distance": 0.4563683867454529,
          "id": 1729361095
        },
        {
          "distance": 0.459622323513031,
          "id": 1729360883
        }
      ]
    },
    "sfomuseum:placetype": "instagram",
    "src:geom": "sfomuseum",
    "wof:belongsto": [
      1159160869,
      102527513,
      102191575,
      85633793,
      102087579,
      85922583,
      85688637
    ],
    "wof:country": "US",
    "wof:created": 1574344080,
    "wof:geomhash": "b6e33f47475d56bc8da457bc31afadc8",
    "wof:hierarchy": [
      {
        "building_id": 1159160869,
        "campus_id": 102527513,
        "continent_id": 102191575,
        "country_id": 85633793,
        "county_id": 102087579,
        "custom_id": 1729355869,
        "instagram_id": 1729355869,
        "locality_id": 85922583,
        "neighbourhood_id": -1,
        "region_id": 85688637
      }
    ],
    "wof:id": 1729355869,
    "wof:lastmodified": 1787777627,
    "wof:name": "#Onthisday in 1789, North Carolina became the 12th State to be admitted into the union of the United States...",
    "wof:parent_id": 1159160869,
    "wof:placetype": "custom",
    "wof:placetype_alt": [
      "instagram"
    ],
    "wof:repo": "sfomuseum-data-socialmedia-instagram",
    "wof:superseded_by": [],
    "wof:supersedes": []
  },
  "bbox": [
    -122.386166,
    37.616356,
    -122.386166,
    37.616356
  ],
  "geometry": {"type":"Point","coordinates":[-122.386166,37.616356]}
}
