{
  "id": 1729362867,
  "type": "Feature",
  "properties": {
    "date:cessation_lower": "2012-10-15",
    "date:cessation_upper": "2012-10-15",
    "date:inception_lower": "2012-10-15",
    "date:inception_upper": "2012-10-15",
    "edtf:cessation": "2012-10-15T05:13:00-07:00",
    "edtf:inception": "2012-10-15T05:13:00-07:00",
    "geom:area": 0,
    "geom:bbox": "-122.386166,37.616356,-122.386166,37.616356",
    "geom:latitude": 37.616356,
    "geom:longitude": -122.386166,
    "instagram:post": {
      "caption": {
        "body": "Each of the 5,400 tiles in Ik-Joong Kang's \"Gateway\" is unique! Do you have a favorite?",
        "excerpt": "Each of the 5,400 tiles in Ik-Joong Kang's \"Gateway\" is unique!",
        "hashtags": [],
        "users": []
      },
      "media_id": "f73aec98531a69e13261f2762c2bf650",
      "path": "media/other/11208592_873311586040759_743367076_n_17842275667062499.jpg",
      "perceptual_hash": "p:ddf97be15a40a428",
      "taken": 1350303180,
      "taken_at": "Oct 15, 2012 12:13 pm"
    },
    "millsfield:similar": {
      "google/siglip2-so400m-patch16-naflex": [
        {
          "distance": 0.20156234502792358,
          "id": 1729360283
        },
        {
          "distance": 0.26572930812835693,
          "id": 1880150905
        },
        {
          "distance": 0.2679089307785034,
          "id": 1880150905
        },
        {
          "distance": 0.2764347791671753,
          "id": 1729360283
        },
        {
          "distance": 0.29450738430023193,
          "id": 1729362647
        },
        {
          "distance": 0.30633246898651123,
          "id": 1729363033
        },
        {
          "distance": 0.31382042169570923,
          "id": 1729362019
        },
        {
          "distance": 0.3202487826347351,
          "id": 1729358879
        },
        {
          "distance": 0.3233133554458618,
          "id": 1729358879
        },
        {
          "distance": 0.33096057176589966,
          "id": 1729362739
        }
      ]
    },
    "sfomuseum:placetype": "instagram",
    "src:geom": "sfomuseum",
    "wof:belongsto": [
      1159160869,
      102527513,
      102191575,
      85633793,
      102087579,
      85922583,
      85688637
    ],
    "wof:country": "US",
    "wof:created": 1350303180,
    "wof:geomhash": "b6e33f47475d56bc8da457bc31afadc8",
    "wof:hierarchy": [
      {
        "building_id": 1159160869,
        "campus_id": 102527513,
        "continent_id": 102191575,
        "country_id": 85633793,
        "county_id": 102087579,
        "custom_id": 1729362867,
        "instagram_id": 1729362867,
        "locality_id": 85922583,
        "neighbourhood_id": -1,
        "region_id": 85688637
      }
    ],
    "wof:id": 1729362867,
    "wof:lastmodified": 1787777654,
    "wof:name": "Each of the 5,400 tiles in Ik-Joong Kang's \"Gateway\" is unique!..",
    "wof:parent_id": 1159160869,
    "wof:placetype": "custom",
    "wof:placetype_alt": [
      "instagram"
    ],
    "wof:repo": "sfomuseum-data-socialmedia-instagram",
    "wof:superseded_by": [],
    "wof:supersedes": []
  },
  "bbox": [
    -122.386166,
    37.616356,
    -122.386166,
    37.616356
  ],
  "geometry": {"type":"Point","coordinates":[-122.386166,37.616356]}
}
