{
  "id": 1880151351,
  "type": "Feature",
  "properties": {
    "date:cessation_lower": "2022-11-08",
    "date:cessation_upper": "2022-11-08",
    "date:inception_lower": "2022-11-08",
    "date:inception_upper": "2022-11-08",
    "edtf:cessation": "2022-11-08T08:30:00-08:00",
    "edtf:inception": "2022-11-08T08:30:00-08:00",
    "geom:area": 0,
    "geom:bbox": "-122.386166,37.616356,-122.386166,37.616356",
    "geom:latitude": 37.616356,
    "geom:longitude": -122.386166,
    "instagram:post": {
      "caption": {
        "body": "For this suite of prints, Shaun O’Dell uses simplified icons of American history—liberty bells and silhouettes of the founding fathers—to depict the complexity of the past. In “Beyond When the Golden Portal Can Come,” O’Dell maps American genealogy, beginning with the pilgrims’ desire for liberty and the Mayflower’s voyage across the Atlantic, which led to contact with Native Americans. The artist goes on to complicate the American family tree in “Ghost Extraction Dialogue for the Followers of Blood,” highlighting that history is full of overlapping stories of individuals, who slip into obscurity.  “Beyond When the Golden Portal Can Come” and “Ghost Extraction Dialogue for the Followers of Blood” by Shaun O’Dell are on display, post-security, in Harvey Milk Terminal 1. https://bit.ly/31YWbB7",
        "excerpt": "For this suite of prints, Shaun O’Dell uses simplified icons of American history—liberty bells and silhouettes of the founding fathers—to depict the complexity of the past.",
        "hashtags": [
          "PublicArt",
          "ShaunODell",
          "SFAC",
          "genealogy",
          "americanhistory"
        ],
        "users": [
          "sf_arts_commission"
        ]
      },
      "media_id": "576cc482fed65655895ffb57ed5d2455895d00e9",
      "path": "media/posts/202211/314704530_2451502188348913_5636990073352673624_n_17917736333526120.jpg",
      "perceptual_hash": "p:8c93836cb3a4ec73",
      "taken": 1667925000,
      "taken_at": "Nov 08, 2022 4:30 pm"
    },
    "millsfield:similar": {
      "google/siglip2-so400m-patch16-naflex": [
        {
          "distance": 0.003087460994720459,
          "id": 1763559341
        },
        {
          "distance": 0.12659072875976562,
          "id": 1763559341
        },
        {
          "distance": 0.15311795473098755,
          "id": 1729355617
        },
        {
          "distance": 0.17870885133743286,
          "id": 1880151081
        },
        {
          "distance": 0.2035512924194336,
          "id": 1880151081
        },
        {
          "distance": 0.22816234827041626,
          "id": 1729355617
        },
        {
          "distance": 0.23270857334136963,
          "id": 1763559355
        },
        {
          "distance": 0.2367187738418579,
          "id": 1947425105
        },
        {
          "distance": 0.2367759346961975,
          "id": 1880151657
        },
        {
          "distance": 0.24387085437774658,
          "id": 1729357891
        }
      ]
    },
    "sfomuseum:placetype": "instagram",
    "src:geom": "sfomuseum",
    "wof:belongsto": [
      1159160869,
      102527513,
      102191575,
      85633793,
      102087579,
      85922583,
      85688637
    ],
    "wof:country": "US",
    "wof:created": 1667925000,
    "wof:geomhash": "b6e33f47475d56bc8da457bc31afadc8",
    "wof:hierarchy": [
      {
        "building_id": 1159160869,
        "campus_id": 102527513,
        "continent_id": 102191575,
        "country_id": 85633793,
        "county_id": 102087579,
        "custom_id": 1880151351,
        "instagram_id": 1880151351,
        "locality_id": 85922583,
        "neighbourhood_id": -1,
        "region_id": 85688637
      }
    ],
    "wof:id": 1880151351,
    "wof:lastmodified": 1787777662,
    "wof:name": "For this suite of prints, Shaun O’Dell uses simplified icons of American history—liberty bells and silhouettes of the founding fathers—to depict the complexity of the past...",
    "wof:parent_id": 1159160869,
    "wof:placetype": "custom",
    "wof:placetype_alt": [
      "instagram"
    ],
    "wof:repo": "sfomuseum-data-socialmedia-instagram",
    "wof:superseded_by": [],
    "wof:supersedes": []
  },
  "bbox": [
    -122.386166,
    37.616356,
    -122.386166,
    37.616356
  ],
  "geometry": {"type":"Point","coordinates":[-122.386166,37.616356]}
}
