{
  "id": 1729358313,
  "type": "Feature",
  "properties": {
    "date:cessation_lower": "2018-04-26",
    "date:cessation_upper": "2018-04-26",
    "date:inception_lower": "2018-04-26",
    "date:inception_upper": "2018-04-26",
    "edtf:cessation": "2018-04-26T02:44:00-07:00",
    "edtf:inception": "2018-04-26T02:44:00-07:00",
    "geom:area": 0,
    "geom:bbox": "-122.386166,37.616356,-122.386166,37.616356",
    "geom:latitude": 37.616356,
    "geom:longitude": -122.386166,
    "instagram:post": {
      "caption": {
        "body": "The Lockheed Model 12 Electra was similar to the Model 10 Electra in design, but smaller and faster. Most airlines rejected the aircraft, primarily because of its low capacity of only six passengers. The few exceptions were Continental Air Lines, which operated a fleet of three Model 12 types, and British West Indian Airways. However, the aircraft was successful as a fast company and government transport, and as a military transport and bomber trainer.  See \"Aviation Evolutions: The Jim Lund 1:72 Scale Model Airplane Collection\", which features more than 200 models on display, pre-security in the Aviation Museum. http://bit.ly/AviationEvolutions",
        "excerpt": "The Lockheed Model 12 Electra was similar to the Model 10 Electra in design, but smaller and faster.",
        "hashtags": [
          "AviationEvolutions",
          "JimLund",
          "Lockheed",
          "Electra",
          "Continental",
          "avgeek",
          "avationgeek",
          "aviation",
          "aviationhistory",
          "aviationlovers",
          "vintageaviation",
          "history",
          "avhistory",
          "aviationgeeks",
          "instaplane",
          "flying",
          "modelplane",
          "flight",
          "airline",
          "avgeeks",
          "aviation4u",
          "aviationdaily",
          "modelaircraft",
          "airplane",
          "aircraft"
        ],
        "users": []
      },
      "media_id": "d16973bf45e36bf941205b10d66bf640",
      "path": "media/posts/201804/30603761_893039144209193_7880190146824372224_n_17927891998111791.jpg",
      "perceptual_hash": "p:90c1acf63bd06de2",
      "taken": 1524735840,
      "taken_at": "Apr 26, 2018 9:44 am"
    },
    "millsfield:similar": {
      "google/siglip2-so400m-patch16-naflex": [
        {
          "distance": 0.058505237102508545,
          "id": 1729357609
        },
        {
          "distance": 0.06159830093383789,
          "id": 1729357733
        },
        {
          "distance": 0.0663864016532898,
          "id": 1729357275
        },
        {
          "distance": 0.06697505712509155,
          "id": 1729357069
        },
        {
          "distance": 0.0765758752822876,
          "id": 1729357959
        },
        {
          "distance": 0.08420997858047485,
          "id": 1729358211
        },
        {
          "distance": 0.0851941704750061,
          "id": 1763558763
        },
        {
          "distance": 0.08627766370773315,
          "id": 1729357033
        },
        {
          "distance": 0.08675086498260498,
          "id": 1729356977
        },
        {
          "distance": 0.08793091773986816,
          "id": 1729357993
        }
      ]
    },
    "sfomuseum:placetype": "instagram",
    "src:geom": "sfomuseum",
    "wof:belongsto": [
      1159160869,
      102527513,
      102191575,
      85633793,
      102087579,
      85922583,
      85688637
    ],
    "wof:country": "US",
    "wof:created": 1524735840,
    "wof:geomhash": "b6e33f47475d56bc8da457bc31afadc8",
    "wof:hierarchy": [
      {
        "building_id": 1159160869,
        "campus_id": 102527513,
        "continent_id": 102191575,
        "country_id": 85633793,
        "county_id": 102087579,
        "custom_id": 1729358313,
        "instagram_id": 1729358313,
        "locality_id": 85922583,
        "neighbourhood_id": -1,
        "region_id": 85688637
      }
    ],
    "wof:id": 1729358313,
    "wof:lastmodified": 1787777633,
    "wof:name": "The Lockheed Model 12 Electra was similar to the Model 10 Electra in design, but smaller and faster...",
    "wof:parent_id": 1159160869,
    "wof:placetype": "custom",
    "wof:placetype_alt": [
      "instagram"
    ],
    "wof:repo": "sfomuseum-data-socialmedia-instagram",
    "wof:superseded_by": [],
    "wof:supersedes": []
  },
  "bbox": [
    -122.386166,
    37.616356,
    -122.386166,
    37.616356
  ],
  "geometry": {"type":"Point","coordinates":[-122.386166,37.616356]}
}
