{
  "id": 1729361211,
  "type": "Feature",
  "properties": {
    "date:cessation_lower": "2016-01-02",
    "date:cessation_upper": "2016-01-02",
    "date:inception_lower": "2016-01-02",
    "date:inception_upper": "2016-01-02",
    "edtf:cessation": "2016-01-02T03:38:00-08:00",
    "edtf:inception": "2016-01-02T03:38:00-08:00",
    "geom:area": 0,
    "geom:bbox": "-122.386166,37.616356,-122.386166,37.616356",
    "geom:latitude": 37.616356,
    "geom:longitude": -122.386166,
    "instagram:post": {
      "caption": {
        "body": "Stuart Rome has worked as a photographer since the 1970s. His Oculus series is composed of images taken from within giant redwoods and sequoias. Rome places himself within the trees and uses the openings at the top as apertures, framing the sky.  Check out Stuart Rome’s Oculus, post-security, in Terminal 3.",
        "excerpt": "Stuart Rome has worked as a photographer since the 1970s.",
        "hashtags": [],
        "users": []
      },
      "media_id": "6fda6c0a6b0d22d9be1bb955ef374d25",
      "path": "media/other/10727576_1684581295121744_812821859_n_17853633907029861.jpg",
      "perceptual_hash": "p:cccc333191decec4",
      "taken": 1451734680,
      "taken_at": "Jan 02, 2016 11:38 am"
    },
    "millsfield:similar": {
      "google/siglip2-so400m-patch16-naflex": [
        {
          "distance": 0.28224295377731323,
          "id": 1729357097
        },
        {
          "distance": 0.29900693893432617,
          "id": 1729355023
        },
        {
          "distance": 0.3005586862564087,
          "id": 1729359427
        },
        {
          "distance": 0.3130369186401367,
          "id": 1729361875
        },
        {
          "distance": 0.32308441400527954,
          "id": 1729357429
        },
        {
          "distance": 0.33133572340011597,
          "id": 1729359681
        },
        {
          "distance": 0.3370269536972046,
          "id": 1729357545
        },
        {
          "distance": 0.35114556550979614,
          "id": 1729356549
        },
        {
          "distance": 0.3527500629425049,
          "id": 1729356001
        },
        {
          "distance": 0.353238582611084,
          "id": 1729358233
        }
      ]
    },
    "sfomuseum:placetype": "instagram",
    "src:geom": "sfomuseum",
    "wof:belongsto": [
      1159160869,
      102527513,
      102191575,
      85633793,
      102087579,
      85922583,
      85688637
    ],
    "wof:country": "US",
    "wof:created": 1451734680,
    "wof:geomhash": "b6e33f47475d56bc8da457bc31afadc8",
    "wof:hierarchy": [
      {
        "building_id": 1159160869,
        "campus_id": 102527513,
        "continent_id": 102191575,
        "country_id": 85633793,
        "county_id": 102087579,
        "custom_id": 1729361211,
        "instagram_id": 1729361211,
        "locality_id": 85922583,
        "neighbourhood_id": -1,
        "region_id": 85688637
      }
    ],
    "wof:id": 1729361211,
    "wof:lastmodified": 1787777645,
    "wof:name": "Stuart Rome has worked as a photographer since the 1970s...",
    "wof:parent_id": 1159160869,
    "wof:placetype": "custom",
    "wof:placetype_alt": [
      "instagram"
    ],
    "wof:repo": "sfomuseum-data-socialmedia-instagram",
    "wof:superseded_by": [],
    "wof:supersedes": []
  },
  "bbox": [
    -122.386166,
    37.616356,
    -122.386166,
    37.616356
  ],
  "geometry": {"type":"Point","coordinates":[-122.386166,37.616356]}
}
