{
  "id": 1729360385,
  "type": "Feature",
  "properties": {
    "date:cessation_lower": "2016-08-29",
    "date:cessation_upper": "2016-08-29",
    "date:inception_lower": "2016-08-29",
    "date:inception_upper": "2016-08-29",
    "edtf:cessation": "2016-08-29T09:26:00-07:00",
    "edtf:inception": "2016-08-29T09:26:00-07:00",
    "geom:area": 0,
    "geom:bbox": "-122.386166,37.616356,-122.386166,37.616356",
    "geom:latitude": 37.616356,
    "geom:longitude": -122.386166,
    "instagram:post": {
      "caption": {
        "body": "Incorporating images from his birthplace in the Philippines or his abiding interest in Native American culture, Peter Cordova produces detailed glimpses into aspects of these cultures in his drawings, paintings, and ceramics. Everything is included, from carefully delineated tools and instruments to accurate yet stylized depictions of topography. The completed piece emulates an eyewitness account.  Cordova is also an accomplished ceramicist. The carefully incised marks that adorn his clay forms–often elaborately worked masks or vessels–echo the precise qualities found in his drawings, while the forms themselves add an element of abstraction to his otherwise representational art.  See more art from Peter Cordova in \"Celebrating a Vision: #ArtAndDisability\" on display, post-security, in the Terminal 3. http://bit.ly/ArtAndDisability",
        "excerpt": "Incorporating images from his birthplace in the Philippines or his abiding interest in Native American culture, Peter Cordova produces detailed glimpses into aspects of these cultures in his drawings, paintings, and ceramics.",
        "hashtags": [],
        "users": []
      },
      "media_id": "d09fb051e9ac2959a59d9cc6fcefc03b",
      "path": "media/other/14134833_1803712299843880_1085515695_n_17852805580078631.jpg",
      "perceptual_hash": "p:b9e0e63193fa08f4",
      "taken": 1472487960,
      "taken_at": "Aug 29, 2016 4:26 pm"
    },
    "millsfield:similar": {
      "google/siglip2-so400m-patch16-naflex": [
        {
          "distance": 0.24684643745422363,
          "id": 1729360295
        },
        {
          "distance": 0.2494463324546814,
          "id": 1729360659
        },
        {
          "distance": 0.27477526664733887,
          "id": 1729360763
        },
        {
          "distance": 0.2765672206878662,
          "id": 1729360661
        },
        {
          "distance": 0.2806243300437927,
          "id": 1729360447
        },
        {
          "distance": 0.2875105142593384,
          "id": 1729360659
        },
        {
          "distance": 0.2916763424873352,
          "id": 1729360735
        },
        {
          "distance": 0.29729539155960083,
          "id": 1729360157
        },
        {
          "distance": 0.29798442125320435,
          "id": 1729362063
        },
        {
          "distance": 0.302024245262146,
          "id": 1729360691
        }
      ]
    },
    "sfomuseum:placetype": "instagram",
    "src:geom": "sfomuseum",
    "wof:belongsto": [
      1159160869,
      102527513,
      102191575,
      85633793,
      102087579,
      85922583,
      85688637
    ],
    "wof:country": "US",
    "wof:created": 1472487960,
    "wof:geomhash": "b6e33f47475d56bc8da457bc31afadc8",
    "wof:hierarchy": [
      {
        "building_id": 1159160869,
        "campus_id": 102527513,
        "continent_id": 102191575,
        "country_id": 85633793,
        "county_id": 102087579,
        "custom_id": 1729360385,
        "instagram_id": 1729360385,
        "locality_id": 85922583,
        "neighbourhood_id": -1,
        "region_id": 85688637
      }
    ],
    "wof:id": 1729360385,
    "wof:lastmodified": 1787777639,
    "wof:name": "Incorporating images from his birthplace in the Philippines or his abiding interest in Native American culture, Peter Cordova produces detailed glimpses into aspects of these cultures in his drawings, paintings, and ceramics...",
    "wof:parent_id": 1159160869,
    "wof:placetype": "custom",
    "wof:placetype_alt": [
      "instagram"
    ],
    "wof:repo": "sfomuseum-data-socialmedia-instagram",
    "wof:superseded_by": [],
    "wof:supersedes": []
  },
  "bbox": [
    -122.386166,
    37.616356,
    -122.386166,
    37.616356
  ],
  "geometry": {"type":"Point","coordinates":[-122.386166,37.616356]}
}
