{
  "id": 1729355071,
  "type": "Feature",
  "properties": {
    "date:cessation_lower": "2020-09-14",
    "date:cessation_upper": "2020-09-14",
    "date:inception_lower": "2020-09-14",
    "date:inception_upper": "2020-09-14",
    "edtf:cessation": "2020-09-14T09:50:00-07:00",
    "edtf:inception": "2020-09-14T09:50:00-07:00",
    "geom:area": 0,
    "geom:bbox": "-122.386166,37.616356,-122.386166,37.616356",
    "geom:latitude": 37.616356,
    "geom:longitude": -122.386166,
    "instagram:post": {
      "caption": {
        "body": "A big thank you to the maintenance workers, past and present, who keep the airport safe and running smoothly. Your work is essential, and we appreciate you!  Image: San Francisco International Airport (SFO), worker driving forklift, Maintenance Department, c. 1970. SFO Museum Collection. 2011.032.2424",
        "excerpt": "A big thank you to the maintenance workers, past and present, who keep the airport safe and running smoothly.",
        "hashtags": [
          "MuseumFromHome",
          "SFOHistory"
        ],
        "users": []
      },
      "media_id": "ca48d16a2d35530cb83892cc17686223",
      "path": "media/other/119526465_238751887554052_1304320705995544898_n_17864462918048157.jpg",
      "perceptual_hash": "p:b3ca88687e85719e",
      "taken": 1600102200,
      "taken_at": "Sep 14, 2020 4:50 pm"
    },
    "millsfield:similar": {
      "google/siglip2-so400m-patch16-naflex": [
        {
          "distance": 0.30642539262771606,
          "id": 1729356113
        },
        {
          "distance": 0.32031792402267456,
          "id": 1729361085
        },
        {
          "distance": 0.32067304849624634,
          "id": 1729355161
        },
        {
          "distance": 0.3280651569366455,
          "id": 1729357059
        },
        {
          "distance": 0.33272784948349,
          "id": 1729357711
        },
        {
          "distance": 0.3340199589729309,
          "id": 1729357717
        },
        {
          "distance": 0.33499735593795776,
          "id": 1763559677
        },
        {
          "distance": 0.3387976288795471,
          "id": 1729355041
        },
        {
          "distance": 0.3388119339942932,
          "id": 1729355165
        },
        {
          "distance": 0.3389196991920471,
          "id": 1729356113
        }
      ]
    },
    "sfomuseum:placetype": "instagram",
    "src:geom": "sfomuseum",
    "wof:belongsto": [
      1159160869,
      102527513,
      102191575,
      85633793,
      102087579,
      85922583,
      85688637
    ],
    "wof:country": "US",
    "wof:created": 1600102200,
    "wof:geomhash": "b6e33f47475d56bc8da457bc31afadc8",
    "wof:hierarchy": [
      {
        "building_id": 1159160869,
        "campus_id": 102527513,
        "continent_id": 102191575,
        "country_id": 85633793,
        "county_id": 102087579,
        "custom_id": 1729355071,
        "instagram_id": 1729355071,
        "locality_id": 85922583,
        "neighbourhood_id": -1,
        "region_id": 85688637
      }
    ],
    "wof:id": 1729355071,
    "wof:lastmodified": 1787777615,
    "wof:name": "A big thank you to the maintenance workers, past and present, who keep the airport safe and running smoothly...",
    "wof:parent_id": 1159160869,
    "wof:placetype": "custom",
    "wof:placetype_alt": [
      "instagram"
    ],
    "wof:repo": "sfomuseum-data-socialmedia-instagram",
    "wof:superseded_by": [],
    "wof:supersedes": []
  },
  "bbox": [
    -122.386166,
    37.616356,
    -122.386166,
    37.616356
  ],
  "geometry": {"type":"Point","coordinates":[-122.386166,37.616356]}
}
