{
  "id": 1763558929,
  "type": "Feature",
  "properties": {
    "date:cessation_lower": "2021-01-05",
    "date:cessation_upper": "2021-01-05",
    "date:inception_lower": "2021-01-05",
    "date:inception_upper": "2021-01-05",
    "edtf:cessation": "2021-01-05T09:24:00-08:00",
    "edtf:inception": "2021-01-05T09:24:00-08:00",
    "geom:area": 0,
    "geom:bbox": "-122.386166,37.616356,-122.386166,37.616356",
    "geom:latitude": 37.616356,
    "geom:longitude": -122.386166,
    "instagram:post": {
      "caption": {
        "body": "#Onthisday in 1933 construction on the Golden Gate Bridge began. The Golden Gate Bridge, an internationally recognized symbol of San Francisco, is painted in \"International Orange\" color to provide enhanced visibility for passing ships. Did you know that the Golden Gate Bridge is not named for its color but for the body of water it crosses, the Golden Gate strait? Have you visited this popular tourist destination?  Image: Golden Gate Bridge construction, 1935. SFO Museum Collection. 2013.117.018",
        "excerpt": "#Onthisday in 1933 construction on the Golden Gate Bridge began.",
        "hashtags": [
          "GoldenGateBridge",
          "MuseumFromHome"
        ],
        "users": []
      },
      "media_id": "a32112bf9bd88402d1cd5df92a538fe8ab182630",
      "path": "media/other/135389289_431077988087746_6229314848232264695_n_17880405254054746.jpg",
      "perceptual_hash": "p:82c75619f8cd873c",
      "taken": 1609867440,
      "taken_at": "Jan 05, 2021 5:24 pm"
    },
    "millsfield:similar": {
      "google/siglip2-so400m-patch16-naflex": [
        {
          "distance": 0.01878255605697632,
          "id": 1729355227
        },
        {
          "distance": 0.0455593466758728,
          "id": 1729357125
        },
        {
          "distance": 0.051402390003204346,
          "id": 1880151215
        },
        {
          "distance": 0.07959610223770142,
          "id": 1729358177
        },
        {
          "distance": 0.09719133377075195,
          "id": 1729355227
        },
        {
          "distance": 0.13437706232070923,
          "id": 1729357125
        },
        {
          "distance": 0.1472707986831665,
          "id": 1729358177
        },
        {
          "distance": 0.15410608053207397,
          "id": 1880151215
        },
        {
          "distance": 0.15562063455581665,
          "id": 1729355899
        },
        {
          "distance": 0.1592198610305786,
          "id": 1729359877
        }
      ]
    },
    "sfomuseum:placetype": "instagram",
    "src:geom": "sfomuseum",
    "wof:belongsto": [
      1159160869,
      102527513,
      102191575,
      85633793,
      102087579,
      85922583,
      85688637
    ],
    "wof:country": "US",
    "wof:created": 1609867440,
    "wof:geomhash": "b6e33f47475d56bc8da457bc31afadc8",
    "wof:hierarchy": [
      {
        "building_id": 1159160869,
        "campus_id": 102527513,
        "continent_id": 102191575,
        "country_id": 85633793,
        "county_id": 102087579,
        "custom_id": 1763558929,
        "instagram_id": 1763558929,
        "locality_id": 85922583,
        "neighbourhood_id": -1,
        "region_id": 85688637
      }
    ],
    "wof:id": 1763558929,
    "wof:lastmodified": 1787777660,
    "wof:name": "#Onthisday in 1933 construction on the Golden Gate Bridge began...",
    "wof:parent_id": 1159160869,
    "wof:placetype": "custom",
    "wof:placetype_alt": [
      "instagram"
    ],
    "wof:repo": "sfomuseum-data-socialmedia-instagram",
    "wof:superseded_by": [],
    "wof:supersedes": []
  },
  "bbox": [
    -122.386166,
    37.616356,
    -122.386166,
    37.616356
  ],
  "geometry": {"type":"Point","coordinates":[-122.386166,37.616356]}
}
