{
  "id": 1729361931,
  "type": "Feature",
  "properties": {
    "date:cessation_lower": "2015-02-09",
    "date:cessation_upper": "2015-02-09",
    "date:inception_lower": "2015-02-09",
    "date:inception_upper": "2015-02-09",
    "edtf:cessation": "2015-02-09T08:42:00-08:00",
    "edtf:inception": "2015-02-09T08:42:00-08:00",
    "geom:area": 0,
    "geom:bbox": "-122.386166,37.616356,-122.386166,37.616356",
    "geom:latitude": 37.616356,
    "geom:longitude": -122.386166,
    "instagram:post": {
      "caption": {
        "body": "",
        "excerpt": "",
        "hashtags": [
          "EgyptianRevival",
          "architecture",
          "HaroldAllen"
        ],
        "users": []
      },
      "media_id": "403b97d1d25f3689ff409fed336dbf88",
      "path": "media/other/10899531_649056825220930_1782771301_n_17843067118062499.jpg",
      "perceptual_hash": "p:93a9ec16e4c4eae4",
      "taken": 1423500120,
      "taken_at": "Feb 09, 2015 4:42 pm"
    },
    "millsfield:similar": {
      "google/siglip2-so400m-patch16-naflex": [
        {
          "distance": 0.195379376411438,
          "id": 1729357693
        },
        {
          "distance": 0.20701026916503906,
          "id": 1729357325
        },
        {
          "distance": 0.20840215682983398,
          "id": 1729357325
        },
        {
          "distance": 0.21501672267913818,
          "id": 1729357693
        },
        {
          "distance": 0.21727079153060913,
          "id": 1947425199
        },
        {
          "distance": 0.22284150123596191,
          "id": 1729356193
        },
        {
          "distance": 0.22953402996063232,
          "id": 1729355059
        },
        {
          "distance": 0.2343640923500061,
          "id": 1947424919
        },
        {
          "distance": 0.23454880714416504,
          "id": 1763558835
        },
        {
          "distance": 0.23648345470428467,
          "id": 1880151575
        }
      ]
    },
    "sfomuseum:placetype": "instagram",
    "src:geom": "sfomuseum",
    "wof:belongsto": [
      1159160869,
      102527513,
      102191575,
      85633793,
      102087579,
      85922583,
      85688637
    ],
    "wof:country": "US",
    "wof:created": 1423500120,
    "wof:geomhash": "b6e33f47475d56bc8da457bc31afadc8",
    "wof:hierarchy": [
      {
        "building_id": 1159160869,
        "campus_id": 102527513,
        "continent_id": 102191575,
        "country_id": 85633793,
        "county_id": 102087579,
        "custom_id": 1729361931,
        "instagram_id": 1729361931,
        "locality_id": 85922583,
        "neighbourhood_id": -1,
        "region_id": 85688637
      }
    ],
    "wof:id": 1729361931,
    "wof:lastmodified": 1787777646,
    "wof:name": "..",
    "wof:parent_id": 1159160869,
    "wof:placetype": "custom",
    "wof:placetype_alt": [
      "instagram"
    ],
    "wof:repo": "sfomuseum-data-socialmedia-instagram",
    "wof:superseded_by": [],
    "wof:supersedes": []
  },
  "bbox": [
    -122.386166,
    37.616356,
    -122.386166,
    37.616356
  ],
  "geometry": {"type":"Point","coordinates":[-122.386166,37.616356]}
}
