{
  "id": 1947425185,
  "type": "Feature",
  "properties": {
    "date:cessation_lower": "2023-12-19",
    "date:cessation_upper": "2023-12-19",
    "date:inception_lower": "2023-12-19",
    "date:inception_upper": "2023-12-19",
    "edtf:cessation": "2023-12-19T06:24:00-08:00",
    "edtf:inception": "2023-12-19T06:24:00-08:00",
    "geom:area": 0,
    "geom:bbox": "-122.386166,37.616356,-122.386166,37.616356",
    "geom:latitude": 37.616356,
    "geom:longitude": -122.386166,
    "instagram:post": {
      "caption": {
        "body": "For “Long Arc of Day,” by Kim Anno, Anno combined historical scenes of the San Francisco Bay and the surrounding California landscape into one image. Anno created the tableaux by collaging and layering glass with pigment color drawings that were based on historical engravings. The image begins with a view of the bay and a Ramaytush Ohlone fisherman pulling a tule boat leading to agricultural scenes, then to the wilderness of the headwaters in the California Sierra Mountains. This work is emblematic of Kim Anno's artistic practice, which reimagines the study of nature in the face of climate change.   See “Long Arc of Day” by Kim Anno, in the post-security connector between Terminal 2 and Terminal 3 and online at: https://bit.ly/3VW3ofw",
        "excerpt": "For “Long Arc of Day,” by Kim Anno, Anno combined historical scenes of the San Francisco Bay and the surrounding California landscape into one image.",
        "hashtags": [
          "publicart",
          "SanFranciscoArtsCommission"
        ],
        "users": [
          "sf_arts_commission"
        ]
      },
      "media_id": "649fdb98d8da68170e3917a04ac0609f7af85731",
      "path": "media/posts/202312/411404982_834562025347395_4410013337722667631_n_17892635378878490.jpg",
      "perceptual_hash": "p:cb8e74d50acbd434",
      "taken": 1702995840,
      "taken_at": "Dec 19, 2023 2:24 pm"
    },
    "millsfield:similar": {
      "google/siglip2-so400m-patch16-naflex": [
        {
          "distance": 0.09255540370941162,
          "id": 1880151253
        },
        {
          "distance": 0.13291674852371216,
          "id": 1880151253
        },
        {
          "distance": 0.14222586154937744,
          "id": 1880151069
        },
        {
          "distance": 0.14412915706634521,
          "id": 1729359429
        },
        {
          "distance": 0.14664041996002197,
          "id": 1729357871
        },
        {
          "distance": 0.16899502277374268,
          "id": 1729355723
        },
        {
          "distance": 0.1790299415588379,
          "id": 1880151299
        },
        {
          "distance": 0.17927628755569458,
          "id": 1729355703
        },
        {
          "distance": 0.18300271034240723,
          "id": 1880151137
        },
        {
          "distance": 0.18302392959594727,
          "id": 1947425089
        }
      ]
    },
    "sfomuseum:placetype": "instagram",
    "src:geom": "sfomuseum",
    "wof:belongsto": [
      1159160869,
      102527513,
      102191575,
      85633793,
      102087579,
      85922583,
      85688637
    ],
    "wof:country": "US",
    "wof:created": 1702995840,
    "wof:geomhash": "b6e33f47475d56bc8da457bc31afadc8",
    "wof:hierarchy": [
      {
        "building_id": 1159160869,
        "campus_id": 102527513,
        "continent_id": 102191575,
        "country_id": 85633793,
        "county_id": 102087579,
        "custom_id": 1947425185,
        "locality_id": 85922583,
        "neighbourhood_id": -1,
        "region_id": 85688637
      }
    ],
    "wof:id": 1947425185,
    "wof:lastmodified": 1787777664,
    "wof:name": "For “Long Arc of Day,” by Kim Anno, Anno combined historical scenes of the San Francisco Bay and the surrounding California landscape into one image...",
    "wof:parent_id": 1159160869,
    "wof:placetype": "custom",
    "wof:repo": "sfomuseum-data-socialmedia-instagram",
    "wof:superseded_by": [],
    "wof:supersedes": []
  },
  "bbox": [
    -122.386166,
    37.616356,
    -122.386166,
    37.616356
  ],
  "geometry": {"type":"Point","coordinates":[-122.386166,37.616356]}
}
