{
  "id": 1729360933,
  "type": "Feature",
  "properties": {
    "date:cessation_lower": "2016-03-15",
    "date:cessation_upper": "2016-03-15",
    "date:inception_lower": "2016-03-15",
    "date:inception_upper": "2016-03-15",
    "edtf:cessation": "2016-03-15T11:03:00-07:00",
    "edtf:inception": "2016-03-15T11:03:00-07:00",
    "geom:area": 0,
    "geom:bbox": "-122.386166,37.616356,-122.386166,37.616356",
    "geom:latitude": 37.616356,
    "geom:longitude": -122.386166,
    "instagram:post": {
      "caption": {
        "body": "This month, Virgin America will start daily flights from SFO to Denver, Colorado. Denver is known for its proximity to popular skiing destinations. Have you ever been skiing or been to Denver?  #TravelTuesday  Piedmont Airlines, Denver poster mid 1980s SFO Museum Collection Gift of Thomas G. Dragges  2014.071.010",
        "excerpt": "This month, Virgin America will start daily flights from SFO to Denver, Colorado.",
        "hashtags": [],
        "users": []
      },
      "media_id": "8e50caa76ddd902eaa9fa464c9e6675c",
      "path": "media/other/12825906_1092022340861813_1388946577_n_17854367929010052.jpg",
      "perceptual_hash": "p:90cac369613b9f69",
      "taken": 1458064980,
      "taken_at": "Mar 15, 2016 6:03 pm"
    },
    "millsfield:similar": {
      "google/siglip2-so400m-patch16-naflex": [
        {
          "distance": 0.33286184072494507,
          "id": 1729355083
        },
        {
          "distance": 0.33839505910873413,
          "id": 1947425129
        },
        {
          "distance": 0.3460882902145386,
          "id": 1729360409
        },
        {
          "distance": 0.3536456227302551,
          "id": 1729358727
        },
        {
          "distance": 0.360002338886261,
          "id": 1947425129
        },
        {
          "distance": 0.3647427558898926,
          "id": 1729360409
        },
        {
          "distance": 0.3656684160232544,
          "id": 1729355083
        },
        {
          "distance": 0.36950039863586426,
          "id": 1947424831
        },
        {
          "distance": 0.36956262588500977,
          "id": 1729358571
        },
        {
          "distance": 0.3709866404533386,
          "id": 1729355735
        }
      ]
    },
    "sfomuseum:placetype": "instagram",
    "src:geom": "sfomuseum",
    "wof:belongsto": [
      1159160869,
      102527513,
      102191575,
      85633793,
      102087579,
      85922583,
      85688637
    ],
    "wof:country": "US",
    "wof:created": 1458064980,
    "wof:geomhash": "b6e33f47475d56bc8da457bc31afadc8",
    "wof:hierarchy": [
      {
        "building_id": 1159160869,
        "campus_id": 102527513,
        "continent_id": 102191575,
        "country_id": 85633793,
        "county_id": 102087579,
        "custom_id": 1729360933,
        "instagram_id": 1729360933,
        "locality_id": 85922583,
        "neighbourhood_id": -1,
        "region_id": 85688637
      }
    ],
    "wof:id": 1729360933,
    "wof:lastmodified": 1787777640,
    "wof:name": "This month, Virgin America will start daily flights from SFO to Denver, Colorado...",
    "wof:parent_id": 1159160869,
    "wof:placetype": "custom",
    "wof:placetype_alt": [
      "instagram"
    ],
    "wof:repo": "sfomuseum-data-socialmedia-instagram",
    "wof:superseded_by": [],
    "wof:supersedes": []
  },
  "bbox": [
    -122.386166,
    37.616356,
    -122.386166,
    37.616356
  ],
  "geometry": {"type":"Point","coordinates":[-122.386166,37.616356]}
}
