{
  "id": 1729361895,
  "type": "Feature",
  "properties": {
    "date:cessation_lower": "2015-03-04",
    "date:cessation_upper": "2015-03-04",
    "date:inception_lower": "2015-03-04",
    "date:inception_upper": "2015-03-04",
    "edtf:cessation": "2015-03-04T07:27:00-08:00",
    "edtf:inception": "2015-03-04T07:27:00-08:00",
    "geom:area": 0,
    "geom:bbox": "-122.386166,37.616356,-122.386166,37.616356",
    "geom:latitude": 37.616356,
    "geom:longitude": -122.386166,
    "instagram:post": {
      "caption": {
        "body": "",
        "excerpt": "",
        "hashtags": [
          "WallpaperWednesday",
          "EgyptianRevival",
          "sphinx",
          "sarcophagus",
          "wallpaper"
        ],
        "users": []
      },
      "media_id": "c8698ad212a52ca36c8b498fdf1ae29b",
      "path": "media/other/10986032_807836765918737_264327699_n_17843072164062499.jpg",
      "perceptual_hash": "p:ee33320ccf9932c6",
      "taken": 1425482820,
      "taken_at": "Mar 04, 2015 3:27 pm"
    },
    "millsfield:similar": {
      "google/siglip2-so400m-patch16-naflex": [
        {
          "distance": 0.30542147159576416,
          "id": 1729356465
        },
        {
          "distance": 0.3163655996322632,
          "id": 1729356551
        },
        {
          "distance": 0.3228989839553833,
          "id": 1729357745
        },
        {
          "distance": 0.3266522288322449,
          "id": 1729357757
        },
        {
          "distance": 0.32774490118026733,
          "id": 1729356457
        },
        {
          "distance": 0.33799904584884644,
          "id": 1729356539
        },
        {
          "distance": 0.3381004333496094,
          "id": 1729356469
        },
        {
          "distance": 0.341330885887146,
          "id": 1729361761
        },
        {
          "distance": 0.34672093391418457,
          "id": 1729359331
        },
        {
          "distance": 0.35265052318573,
          "id": 1729361927
        }
      ]
    },
    "sfomuseum:placetype": "instagram",
    "src:geom": "sfomuseum",
    "wof:belongsto": [
      1159160869,
      102527513,
      102191575,
      85633793,
      102087579,
      85922583,
      85688637
    ],
    "wof:country": "US",
    "wof:created": 1425482820,
    "wof:geomhash": "b6e33f47475d56bc8da457bc31afadc8",
    "wof:hierarchy": [
      {
        "building_id": 1159160869,
        "campus_id": 102527513,
        "continent_id": 102191575,
        "country_id": 85633793,
        "county_id": 102087579,
        "custom_id": 1729361895,
        "instagram_id": 1729361895,
        "locality_id": 85922583,
        "neighbourhood_id": -1,
        "region_id": 85688637
      }
    ],
    "wof:id": 1729361895,
    "wof:lastmodified": 1787777646,
    "wof:name": "..",
    "wof:parent_id": 1159160869,
    "wof:placetype": "custom",
    "wof:placetype_alt": [
      "instagram"
    ],
    "wof:repo": "sfomuseum-data-socialmedia-instagram",
    "wof:superseded_by": [],
    "wof:supersedes": []
  },
  "bbox": [
    -122.386166,
    37.616356,
    -122.386166,
    37.616356
  ],
  "geometry": {"type":"Point","coordinates":[-122.386166,37.616356]}
}
