{
  "id": 1729355115,
  "type": "Feature",
  "properties": {
    "date:cessation_lower": "2020-08-19",
    "date:cessation_upper": "2020-08-19",
    "date:inception_lower": "2020-08-19",
    "date:inception_upper": "2020-08-19",
    "edtf:cessation": "2020-08-19T05:24:00-07:00",
    "edtf:inception": "2020-08-19T05:24:00-07:00",
    "geom:area": 0,
    "geom:bbox": "-122.386166,37.616356,-122.386166,37.616356",
    "geom:latitude": 37.616356,
    "geom:longitude": -122.386166,
    "instagram:post": {
      "caption": {
        "body": "It is #NationalAviationDay. What's your favorite aviation memory?  San Francisco International Airport (SFO) postcard c. 1954 SFO Museum Collection Gift of the Elizabeth Clancy Beamish Trust 2013.060.035",
        "excerpt": "It is #NationalAviationDay.",
        "hashtags": [],
        "users": []
      },
      "media_id": "f89c2f64519332a5df4b80ec3acf372d",
      "path": "media/other/117821203_1137310216662525_228124635490031339_n_17909277241488190.jpg",
      "perceptual_hash": "p:c1e03f7e7a0296d4",
      "taken": 1597839840,
      "taken_at": "Aug 19, 2020 12:24 pm"
    },
    "millsfield:similar": {
      "google/siglip2-so400m-patch16-naflex": [
        {
          "distance": 0.15168482065200806,
          "id": 1729356439
        },
        {
          "distance": 0.15459668636322021,
          "id": 1729357789
        },
        {
          "distance": 0.16595715284347534,
          "id": 1729360411
        },
        {
          "distance": 0.1671728491783142,
          "id": 1880151675
        },
        {
          "distance": 0.17240983247756958,
          "id": 1729359071
        },
        {
          "distance": 0.17760354280471802,
          "id": 1729361735
        },
        {
          "distance": 0.1818827986717224,
          "id": 1729361577
        },
        {
          "distance": 0.18528616428375244,
          "id": 1729361577
        },
        {
          "distance": 0.18808770179748535,
          "id": 1729356439
        },
        {
          "distance": 0.18902885913848877,
          "id": 1729357593
        }
      ]
    },
    "sfomuseum:placetype": "instagram",
    "src:geom": "sfomuseum",
    "wof:belongsto": [
      1159160869,
      102527513,
      102191575,
      85633793,
      102087579,
      85922583,
      85688637
    ],
    "wof:country": "US",
    "wof:created": 1597839840,
    "wof:geomhash": "b6e33f47475d56bc8da457bc31afadc8",
    "wof:hierarchy": [
      {
        "building_id": 1159160869,
        "campus_id": 102527513,
        "continent_id": 102191575,
        "country_id": 85633793,
        "county_id": 102087579,
        "custom_id": 1729355115,
        "instagram_id": 1729355115,
        "locality_id": 85922583,
        "neighbourhood_id": -1,
        "region_id": 85688637
      }
    ],
    "wof:id": 1729355115,
    "wof:lastmodified": 1787777617,
    "wof:name": "It is #NationalAviationDay...",
    "wof:parent_id": 1159160869,
    "wof:placetype": "custom",
    "wof:placetype_alt": [
      "instagram"
    ],
    "wof:repo": "sfomuseum-data-socialmedia-instagram",
    "wof:superseded_by": [],
    "wof:supersedes": []
  },
  "bbox": [
    -122.386166,
    37.616356,
    -122.386166,
    37.616356
  ],
  "geometry": {"type":"Point","coordinates":[-122.386166,37.616356]}
}
