{
  "id": 1729355363,
  "type": "Feature",
  "properties": {
    "date:cessation_lower": "2020-04-08",
    "date:cessation_upper": "2020-04-08",
    "date:inception_lower": "2020-04-08",
    "date:inception_upper": "2020-04-08",
    "edtf:cessation": "2020-04-08T05:01:00-07:00",
    "edtf:inception": "2020-04-08T05:01:00-07:00",
    "geom:area": 0,
    "geom:bbox": "-122.386166,37.616356,-122.386166,37.616356",
    "geom:latitude": 37.616356,
    "geom:longitude": -122.386166,
    "instagram:post": {
      "caption": {
        "body": "Hand painted signs for barbershops and hairdressers have a rich history in Africa. Barbers and hairdressers are responsible for most of the intricately braided women’s hairstyles. Barbershops and hair salons may consist of a simple structure with a hand-painted sign nailed to its exterior. Female hairstylists often hang several signs depicting dozens of different braided hairstyles for clients to consider with clever titles.  See more hand painted signs for barber shops and hairdressers from all over West Africa and Kenya in “Extra ‘O”! African Barbershop and Hairdressing Signs,” online at: http://bit.ly/Extrao",
        "excerpt": "Hand painted signs for barbershops and hairdressers have a rich history in Africa.",
        "hashtags": [
          "ExtraO",
          "Africa",
          "AfricanBarbershop",
          "AfricanHairdessing",
          "hair",
          "MuseumFromHome"
        ],
        "users": [
          "handpaintedkenya",
          "andrewesiebo",
          "indigoartsgallery",
          "erniewolfegallery",
          "thenigerbend"
        ]
      },
      "media_id": "7337caf513e7eab118d330e4ddd2eee0",
      "path": "media/posts/202004/92272062_1101026450253030_2063611896979385520_n_17878866370566782.jpg",
      "perceptual_hash": "p:9a4e07d5dcb2b225",
      "taken": 1586347260,
      "taken_at": "Apr 08, 2020 12:01 pm"
    },
    "millsfield:similar": {
      "google/siglip2-so400m-patch16-naflex": [
        {
          "distance": 0.152654767036438,
          "id": 1729355297
        },
        {
          "distance": 0.16763198375701904,
          "id": 1729355297
        },
        {
          "distance": 0.16975247859954834,
          "id": 1763559025
        },
        {
          "distance": 0.1761114001274109,
          "id": 1763559025
        },
        {
          "distance": 0.18960785865783691,
          "id": 1763559569
        },
        {
          "distance": 0.19907426834106445,
          "id": 1729355785
        },
        {
          "distance": 0.21713769435882568,
          "id": 1729356071
        },
        {
          "distance": 0.21817290782928467,
          "id": 1880151475
        },
        {
          "distance": 0.2204715609550476,
          "id": 1763558907
        },
        {
          "distance": 0.22220379114151,
          "id": 1763559105
        }
      ]
    },
    "sfomuseum:placetype": "instagram",
    "src:geom": "sfomuseum",
    "wof:belongsto": [
      1159160869,
      102527513,
      102191575,
      85633793,
      102087579,
      85922583,
      85688637
    ],
    "wof:country": "US",
    "wof:created": 1586347260,
    "wof:geomhash": "b6e33f47475d56bc8da457bc31afadc8",
    "wof:hierarchy": [
      {
        "building_id": 1159160869,
        "campus_id": 102527513,
        "continent_id": 102191575,
        "country_id": 85633793,
        "county_id": 102087579,
        "custom_id": 1729355363,
        "instagram_id": 1729355363,
        "locality_id": 85922583,
        "neighbourhood_id": -1,
        "region_id": 85688637
      }
    ],
    "wof:id": 1729355363,
    "wof:lastmodified": 1787777624,
    "wof:name": "Hand painted signs for barbershops and hairdressers have a rich history in Africa...",
    "wof:parent_id": 1159160869,
    "wof:placetype": "custom",
    "wof:placetype_alt": [
      "instagram"
    ],
    "wof:repo": "sfomuseum-data-socialmedia-instagram",
    "wof:superseded_by": [],
    "wof:supersedes": []
  },
  "bbox": [
    -122.386166,
    37.616356,
    -122.386166,
    37.616356
  ],
  "geometry": {"type":"Point","coordinates":[-122.386166,37.616356]}
}
