{
  "id": 1729362297,
  "type": "Feature",
  "properties": {
    "date:cessation_lower": "2014-05-01",
    "date:cessation_upper": "2014-05-01",
    "date:inception_lower": "2014-05-01",
    "date:inception_upper": "2014-05-01",
    "edtf:cessation": "2014-05-01T08:40:00-07:00",
    "edtf:inception": "2014-05-01T08:40:00-07:00",
    "geom:area": 0,
    "geom:bbox": "-122.386166,37.616356,-122.386166,37.616356",
    "geom:latitude": 37.616356,
    "geom:longitude": -122.386166,
    "instagram:post": {
      "caption": {
        "body": "",
        "excerpt": "",
        "hashtags": [
          "vessels",
          "fiberart"
        ],
        "users": []
      },
      "media_id": "66b69ad8d40b79556e005b0f547efda4",
      "path": "media/other/929074_692041230855003_1730391227_n_17842425217062499.jpg",
      "perceptual_hash": "p:c08c326a4db35eed",
      "taken": 1398958800,
      "taken_at": "May 01, 2014 3:40 pm"
    },
    "millsfield:similar": {
      "google/siglip2-so400m-patch16-naflex": [
        {
          "distance": 0.13587206602096558,
          "id": 1729362377
        },
        {
          "distance": 0.1762923002243042,
          "id": 1729362377
        },
        {
          "distance": 0.19341188669204712,
          "id": 1729362401
        },
        {
          "distance": 0.205547034740448,
          "id": 1729362401
        },
        {
          "distance": 0.22110122442245483,
          "id": 1729362343
        },
        {
          "distance": 0.22531312704086304,
          "id": 1729362343
        },
        {
          "distance": 0.2279239296913147,
          "id": 1729362453
        },
        {
          "distance": 0.23409277200698853,
          "id": 1729362395
        },
        {
          "distance": 0.23997557163238525,
          "id": 1729361967
        },
        {
          "distance": 0.24449151754379272,
          "id": 1729362453
        }
      ]
    },
    "sfomuseum:placetype": "instagram",
    "src:geom": "sfomuseum",
    "wof:belongsto": [
      1159160869,
      102527513,
      102191575,
      85633793,
      102087579,
      85922583,
      85688637
    ],
    "wof:country": "US",
    "wof:created": 1398958800,
    "wof:geomhash": "b6e33f47475d56bc8da457bc31afadc8",
    "wof:hierarchy": [
      {
        "building_id": 1159160869,
        "campus_id": 102527513,
        "continent_id": 102191575,
        "country_id": 85633793,
        "county_id": 102087579,
        "custom_id": 1729362297,
        "instagram_id": 1729362297,
        "locality_id": 85922583,
        "neighbourhood_id": -1,
        "region_id": 85688637
      }
    ],
    "wof:id": 1729362297,
    "wof:lastmodified": 1787777646,
    "wof:name": "..",
    "wof:parent_id": 1159160869,
    "wof:placetype": "custom",
    "wof:placetype_alt": [
      "instagram"
    ],
    "wof:repo": "sfomuseum-data-socialmedia-instagram",
    "wof:superseded_by": [],
    "wof:supersedes": []
  },
  "bbox": [
    -122.386166,
    37.616356,
    -122.386166,
    37.616356
  ],
  "geometry": {"type":"Point","coordinates":[-122.386166,37.616356]}
}
