{
  "id": 1729357075,
  "type": "Feature",
  "properties": {
    "date:cessation_lower": "2019-01-16",
    "date:cessation_upper": "2019-01-16",
    "date:inception_lower": "2019-01-16",
    "date:inception_upper": "2019-01-16",
    "edtf:cessation": "2019-01-16T11:55:00-08:00",
    "edtf:inception": "2019-01-16T11:55:00-08:00",
    "geom:area": 0,
    "geom:bbox": "-122.386166,37.616356,-122.386166,37.616356",
    "geom:latitude": 37.616356,
    "geom:longitude": -122.386166,
    "instagram:post": {
      "caption": {
        "body": "The eight-passenger Fokker F-VIIa/3m inaugurated Pan American Airways’ first scheduled passenger flight on January 16, 1928. Flying from Key West, Florida, to Havana, Cuba, the three-engine plane made the 90-mile trip in just under 90 minutes. This flight opened the global air service that Pan Am would soon develop throughout the Caribbean to South America and across the Pacific and the Atlantic.  Image: Pan American Airways, Fokker F.VIIa/3m, boarding passengers at Key West, Florida for Havana, Cuba, 1928. Gift of the Captain John B. Russell Family. 2012.149.0864 ",
        "excerpt": "The eight-passenger Fokker F-VIIa/3m inaugurated Pan American Airways’ first scheduled passenger flight on January 16, 1928.",
        "hashtags": [
          "Onthisday",
          "PanAmerican",
          "Fokker",
          "PAA",
          "KeyWest",
          "Florida",
          "Havana",
          "avgeek",
          "avgeeks",
          "aviationhistory",
          "Caribbean"
        ],
        "users": []
      },
      "media_id": "c7d22bd650405a02d9bcb6a37f56ec1b",
      "path": "media/other/49858196_539193123244362_1165518391404477194_n_18022464538036111.jpg",
      "perceptual_hash": "p:c9d2dc9fa1305ea4",
      "taken": 1547668500,
      "taken_at": "Jan 16, 2019 7:55 pm"
    },
    "millsfield:similar": {
      "google/siglip2-so400m-patch16-naflex": [
        {
          "distance": 0.012935400009155273,
          "id": 1729358701
        },
        {
          "distance": 0.01818084716796875,
          "id": 1729355657
        },
        {
          "distance": 0.020961642265319824,
          "id": 1763558607
        },
        {
          "distance": 0.026871442794799805,
          "id": 1729361159
        },
        {
          "distance": 0.034612834453582764,
          "id": 1880151189
        },
        {
          "distance": 0.07622271776199341,
          "id": 1729358701
        },
        {
          "distance": 0.0767441987991333,
          "id": 1880151387
        },
        {
          "distance": 0.07765388488769531,
          "id": 1729355657
        },
        {
          "distance": 0.08343017101287842,
          "id": 1880151189
        },
        {
          "distance": 0.08519697189331055,
          "id": 1729361159
        }
      ]
    },
    "sfomuseum:placetype": "instagram",
    "src:geom": "sfomuseum",
    "wof:belongsto": [
      1159160869,
      102527513,
      102191575,
      85633793,
      102087579,
      85922583,
      85688637
    ],
    "wof:country": "US",
    "wof:created": 1547668500,
    "wof:geomhash": "b6e33f47475d56bc8da457bc31afadc8",
    "wof:hierarchy": [
      {
        "building_id": 1159160869,
        "campus_id": 102527513,
        "continent_id": 102191575,
        "country_id": 85633793,
        "county_id": 102087579,
        "custom_id": 1729357075,
        "instagram_id": 1729357075,
        "locality_id": 85922583,
        "neighbourhood_id": -1,
        "region_id": 85688637
      }
    ],
    "wof:id": 1729357075,
    "wof:lastmodified": 1787777630,
    "wof:name": "The eight-passenger Fokker F-VIIa/3m inaugurated Pan American Airways’ first scheduled passenger flight on January 16, 1928...",
    "wof:parent_id": 1159160869,
    "wof:placetype": "custom",
    "wof:placetype_alt": [
      "instagram"
    ],
    "wof:repo": "sfomuseum-data-socialmedia-instagram",
    "wof:superseded_by": [],
    "wof:supersedes": []
  },
  "bbox": [
    -122.386166,
    37.616356,
    -122.386166,
    37.616356
  ],
  "geometry": {"type":"Point","coordinates":[-122.386166,37.616356]}
}
