{
  "id": 1729362135,
  "type": "Feature",
  "properties": {
    "date:cessation_lower": "2014-09-16",
    "date:cessation_upper": "2014-09-16",
    "date:inception_lower": "2014-09-16",
    "date:inception_upper": "2014-09-16",
    "edtf:cessation": "2014-09-16T08:26:00-07:00",
    "edtf:inception": "2014-09-16T08:26:00-07:00",
    "geom:area": 0,
    "geom:bbox": "-122.386166,37.616356,-122.386166,37.616356",
    "geom:latitude": 37.616356,
    "geom:longitude": -122.386166,
    "instagram:post": {
      "caption": {
        "body": "",
        "excerpt": "",
        "hashtags": [
          "sfmaps",
          "maps",
          "sfhistory",
          "accordion"
        ],
        "users": []
      },
      "media_id": "1006051c78cd27d9c5a48f26917acc5c",
      "path": "media/other/10666142_687383968012801_641594343_n_17841823405062499.jpg",
      "perceptual_hash": "p:8b4ab5b5744a64cd",
      "taken": 1410881160,
      "taken_at": "Sep 16, 2014 3:26 pm"
    },
    "millsfield:similar": {
      "google/siglip2-so400m-patch16-naflex": [
        {
          "distance": 0.34141308069229126,
          "id": 1729362629
        },
        {
          "distance": 0.35316407680511475,
          "id": 1729358761
        },
        {
          "distance": 0.35316407680511475,
          "id": 1763558727
        },
        {
          "distance": 0.3561675548553467,
          "id": 1729359485
        },
        {
          "distance": 0.3663358688354492,
          "id": 1729356331
        },
        {
          "distance": 0.3682919144630432,
          "id": 1729359179
        },
        {
          "distance": 0.37225645780563354,
          "id": 1763558727
        },
        {
          "distance": 0.37225645780563354,
          "id": 1729358761
        },
        {
          "distance": 0.3758660554885864,
          "id": 1729362427
        },
        {
          "distance": 0.3860601782798767,
          "id": 1729359439
        }
      ]
    },
    "sfomuseum:placetype": "instagram",
    "src:geom": "sfomuseum",
    "wof:belongsto": [
      1159160869,
      102527513,
      102191575,
      85633793,
      102087579,
      85922583,
      85688637
    ],
    "wof:country": "US",
    "wof:created": 1410881160,
    "wof:geomhash": "b6e33f47475d56bc8da457bc31afadc8",
    "wof:hierarchy": [
      {
        "building_id": 1159160869,
        "campus_id": 102527513,
        "continent_id": 102191575,
        "country_id": 85633793,
        "county_id": 102087579,
        "custom_id": 1729362135,
        "instagram_id": 1729362135,
        "locality_id": 85922583,
        "neighbourhood_id": -1,
        "region_id": 85688637
      }
    ],
    "wof:id": 1729362135,
    "wof:lastmodified": 1787777646,
    "wof:name": "..",
    "wof:parent_id": 1159160869,
    "wof:placetype": "custom",
    "wof:placetype_alt": [
      "instagram"
    ],
    "wof:repo": "sfomuseum-data-socialmedia-instagram",
    "wof:superseded_by": [],
    "wof:supersedes": []
  },
  "bbox": [
    -122.386166,
    37.616356,
    -122.386166,
    37.616356
  ],
  "geometry": {"type":"Point","coordinates":[-122.386166,37.616356]}
}
