{
  "id": 1729355217,
  "type": "Feature",
  "properties": {
    "date:cessation_lower": "2020-07-02",
    "date:cessation_upper": "2020-07-02",
    "date:inception_lower": "2020-07-02",
    "date:inception_upper": "2020-07-02",
    "edtf:cessation": "2020-07-02T13:08:58-07:00",
    "edtf:inception": "2020-07-02T13:08:58-07:00",
    "geom:area": 0,
    "geom:bbox": "-122.386166,37.616356,-122.386166,37.616356",
    "geom:latitude": 37.616356,
    "geom:longitude": -122.386166,
    "instagram:post": {
      "caption": {
        "body": "SFO Museum has taken a break from social media to reflect on the police killing of unarmed people of color across the U.S. We stand in solidarity with the Black community and pledge to do better. Read more: https://sfomuseum.org/blacklivesmatter #BlackLivesMatter, now and always.",
        "excerpt": "SFO Museum has taken a break from social media to reflect on the police killing of unarmed people of color across the U.S. We stand in solidarity with the Black community and pledge to do better.",
        "hashtags": [],
        "users": []
      },
      "location": "",
      "media_id": "d4d0979240537f64adefb1462a550f1e",
      "path": "photos/202007/d4d0979240537f64adefb1462a550f1e.jpg",
      "perceptual_hash": "p:d4aa55a56b952a95",
      "taken": 1593691680,
      "taken_at": "Jul 2, 2020, 12:08 PM"
    },
    "millsfield:similar": {
      "google/siglip2-so400m-patch16-naflex": [
        {
          "distance": 0.34788060188293457,
          "id": 1729355219
        },
        {
          "distance": 0.3649536371231079,
          "id": 1729357097
        },
        {
          "distance": 0.3671037554740906,
          "id": 1729355209
        },
        {
          "distance": 0.3813191056251526,
          "id": 1729359425
        },
        {
          "distance": 0.381528377532959,
          "id": 1729357037
        },
        {
          "distance": 0.3837435841560364,
          "id": 1729355209
        },
        {
          "distance": 0.3850586414337158,
          "id": 1947424891
        },
        {
          "distance": 0.3859900236129761,
          "id": 1729355213
        },
        {
          "distance": 0.38846224546432495,
          "id": 1729356263
        },
        {
          "distance": 0.3895924687385559,
          "id": 1729356955
        }
      ]
    },
    "sfomuseum:placetype": "instagram",
    "src:geom": "sfomuseum",
    "wof:belongsto": [
      1159160869,
      102527513,
      102191575,
      85633793,
      102087579,
      85922583,
      85688637
    ],
    "wof:country": "US",
    "wof:created": 1593720538,
    "wof:geomhash": "b6e33f47475d56bc8da457bc31afadc8",
    "wof:hierarchy": [
      {
        "building_id": 1159160869,
        "campus_id": 102527513,
        "continent_id": 102191575,
        "country_id": 85633793,
        "county_id": 102087579,
        "custom_id": 1729355217,
        "instagram_id": 1729355217,
        "locality_id": 85922583,
        "neighbourhood_id": -1,
        "region_id": 85688637
      }
    ],
    "wof:id": 1729355217,
    "wof:lastmodified": 1787777619,
    "wof:name": "SFO Museum has taken a break from social media to reflect on the police killing of unarmed people of color across the U.S. We stand in solidarity with the Black community and pledge to do better...",
    "wof:parent_id": 1159160869,
    "wof:placetype": "custom",
    "wof:placetype_alt": [
      "instagram"
    ],
    "wof:repo": "sfomuseum-data-socialmedia-instagram",
    "wof:superseded_by": [],
    "wof:supersedes": []
  },
  "bbox": [
    -122.386166,
    37.616356,
    -122.386166,
    37.616356
  ],
  "geometry": {"type":"Point","coordinates":[-122.386166,37.616356]}
}
