{
  "id": 1947424991,
  "type": "Feature",
  "properties": {
    "date:cessation_lower": "2024-06-17",
    "date:cessation_upper": "2024-06-17",
    "date:inception_lower": "2024-06-17",
    "date:inception_upper": "2024-06-17",
    "edtf:cessation": "2024-06-17T01:20:00-07:00",
    "edtf:inception": "2024-06-17T01:20:00-07:00",
    "geom:area": 0,
    "geom:bbox": "-122.386166,37.616356,-122.386166,37.616356",
    "geom:latitude": 37.616356,
    "geom:longitude": -122.386166,
    "instagram:post": {
      "caption": {
        "body": "Today is the grand opening of Harvey Milk Terminal 1's new north check-in lobby! The world’s first airport terminal named for an LGBTQ leader, the new areas opening in Harvey Milk Terminal 1 will include, four new concessions, two new boarding gates, a new security check point and connect HMT1 to Terminal 2.",
        "excerpt": "Today is the grand opening of Harvey Milk Terminal 1's new north check-in lobby!",
        "hashtags": [],
        "users": []
      },
      "media_id": "7a378d8241a3992d9213e8f076ace020b81e7864",
      "path": "media/other/448511359_998121905357646_651176340157240659_n_18036797512811348.jpg",
      "perceptual_hash": "p:c897813d3ccb343d",
      "taken": 1718612400,
      "taken_at": "Jun 17, 2024 8:20 am"
    },
    "millsfield:similar": {
      "google/siglip2-so400m-patch16-naflex": [
        {
          "distance": 0.2968313694000244,
          "id": 1729355777
        },
        {
          "distance": 0.29771900177001953,
          "id": 1729355707
        },
        {
          "distance": 0.3033527731895447,
          "id": 1729355777
        },
        {
          "distance": 0.3079577088356018,
          "id": 1880151053
        },
        {
          "distance": 0.3085085153579712,
          "id": 1880151607
        },
        {
          "distance": 0.31192320585250854,
          "id": 1763559521
        },
        {
          "distance": 0.31241440773010254,
          "id": 1763559521
        },
        {
          "distance": 0.31473201513290405,
          "id": 1880150947
        },
        {
          "distance": 0.3156161308288574,
          "id": 1729358533
        },
        {
          "distance": 0.3158576488494873,
          "id": 1947424913
        }
      ]
    },
    "sfomuseum:placetype": "instagram",
    "src:geom": "sfomuseum",
    "wof:belongsto": [
      1159160869,
      102527513,
      102191575,
      85633793,
      102087579,
      85922583,
      85688637
    ],
    "wof:country": "US",
    "wof:created": 1718612400,
    "wof:geomhash": "b6e33f47475d56bc8da457bc31afadc8",
    "wof:hierarchy": [
      {
        "building_id": 1159160869,
        "campus_id": 102527513,
        "continent_id": 102191575,
        "country_id": 85633793,
        "county_id": 102087579,
        "custom_id": 1947424991,
        "locality_id": 85922583,
        "neighbourhood_id": -1,
        "region_id": 85688637
      }
    ],
    "wof:id": 1947424991,
    "wof:lastmodified": 1787777664,
    "wof:name": "Today is the grand opening of Harvey Milk Terminal 1's new north check-in lobby!..",
    "wof:parent_id": 1159160869,
    "wof:placetype": "custom",
    "wof:repo": "sfomuseum-data-socialmedia-instagram",
    "wof:superseded_by": [],
    "wof:supersedes": []
  },
  "bbox": [
    -122.386166,
    37.616356,
    -122.386166,
    37.616356
  ],
  "geometry": {"type":"Point","coordinates":[-122.386166,37.616356]}
}
