{
  "id": 1763558599,
  "type": "Feature",
  "properties": {
    "date:cessation_lower": "2015-03-02",
    "date:cessation_upper": "2015-03-02",
    "date:inception_lower": "2015-03-02",
    "date:inception_upper": "2015-03-02",
    "edtf:cessation": "2015-03-02T06:09:00-08:00",
    "edtf:inception": "2015-03-02T06:09:00-08:00",
    "geom:area": 0,
    "geom:bbox": "-122.386166,37.616356,-122.386166,37.616356",
    "geom:latitude": 37.616356,
    "geom:longitude": -122.386166,
    "instagram:post": {
      "caption": {
        "body": "",
        "excerpt": "",
        "hashtags": [
          "TushanwanPagodas",
          "pagodas",
          "PPIE100",
          "SneakPeek"
        ],
        "users": []
      },
      "media_id": "5045cd9215141012f7966d08761206cf55fd957e",
      "path": "media/other/10995209_326641254196064_535787476_n_17841724255062499.jpg",
      "perceptual_hash": "p:856a0f6d1cc66997",
      "taken": 1425305340,
      "taken_at": "Mar 02, 2015 2:09 pm"
    },
    "millsfield:similar": {
      "google/siglip2-so400m-patch16-naflex": [
        {
          "distance": 0.00006747245788574219,
          "id": 1729361901
        },
        {
          "distance": 0.13580381870269775,
          "id": 1729361901
        },
        {
          "distance": 0.1663902997970581,
          "id": 1729361755
        },
        {
          "distance": 0.1667313575744629,
          "id": 1729361671
        },
        {
          "distance": 0.1784987449645996,
          "id": 1729361705
        },
        {
          "distance": 0.20641911029815674,
          "id": 1729361753
        },
        {
          "distance": 0.20850080251693726,
          "id": 1729361807
        },
        {
          "distance": 0.21070390939712524,
          "id": 1729361771
        },
        {
          "distance": 0.23162537813186646,
          "id": 1729361755
        },
        {
          "distance": 0.23231399059295654,
          "id": 1729361671
        }
      ]
    },
    "sfomuseum:placetype": "instagram",
    "src:geom": "sfomuseum",
    "wof:belongsto": [
      1159160869,
      102527513,
      102191575,
      85633793,
      102087579,
      85922583,
      85688637
    ],
    "wof:country": "US",
    "wof:created": 1425305340,
    "wof:geomhash": "b6e33f47475d56bc8da457bc31afadc8",
    "wof:hierarchy": [
      {
        "building_id": 1159160869,
        "campus_id": 102527513,
        "continent_id": 102191575,
        "country_id": 85633793,
        "county_id": 102087579,
        "custom_id": 1763558599,
        "instagram_id": 1763558599,
        "locality_id": 85922583,
        "neighbourhood_id": -1,
        "region_id": 85688637
      }
    ],
    "wof:id": 1763558599,
    "wof:lastmodified": 1787777658,
    "wof:name": "..",
    "wof:parent_id": 1159160869,
    "wof:placetype": "custom",
    "wof:placetype_alt": [
      "instagram"
    ],
    "wof:repo": "sfomuseum-data-socialmedia-instagram",
    "wof:superseded_by": [],
    "wof:supersedes": []
  },
  "bbox": [
    -122.386166,
    37.616356,
    -122.386166,
    37.616356
  ],
  "geometry": {"type":"Point","coordinates":[-122.386166,37.616356]}
}
