{
  "id": 1729359803,
  "type": "Feature",
  "properties": {
    "date:cessation_lower": "2017-02-21",
    "date:cessation_upper": "2017-02-21",
    "date:inception_lower": "2017-02-21",
    "date:inception_upper": "2017-02-21",
    "edtf:cessation": "2017-02-21T10:33:00-08:00",
    "edtf:inception": "2017-02-21T10:33:00-08:00",
    "geom:area": 0,
    "geom:bbox": "-122.386166,37.616356,-122.386166,37.616356",
    "geom:latitude": 37.616356,
    "geom:longitude": -122.386166,
    "instagram:post": {
      "caption": {
        "body": "This 1950s Pan American World Airways poster advertising Paris, France, features the Arc de Triomphe at the end of the Champs-Élysées with a Boeing 377 Stratocruiser. Have you ever been to Paris? #TravelTuesday #Paris #France #PanAm #ArcdeTriomphe #ChampsÉlysées  Image: Pan American World Airways poster, Paris, 1950s. Gift of Constance Ogilvie. 2002.073.021",
        "excerpt": "This 1950s Pan American World Airways poster advertising Paris, France, features the Arc de Triomphe at the end of the Champs-Élysées with a Boeing 377 Stratocruiser.",
        "hashtags": [],
        "users": []
      },
      "media_id": "9970d5064d023c3ff8be86b30c256318",
      "path": "media/posts/201702/16789037_978746322258526_421685661557325824_n_17861979880113704.jpg",
      "perceptual_hash": "p:e992866cc6649b67",
      "taken": 1487701980,
      "taken_at": "Feb 21, 2017 6:33 pm"
    },
    "millsfield:similar": {
      "google/siglip2-so400m-patch16-naflex": [
        {
          "distance": 0.24197649955749512,
          "id": 1729355197
        },
        {
          "distance": 0.24446934461593628,
          "id": 1729357961
        },
        {
          "distance": 0.24471086263656616,
          "id": 1729359319
        },
        {
          "distance": 0.24720442295074463,
          "id": 1729360867
        },
        {
          "distance": 0.25673145055770874,
          "id": 1947424967
        },
        {
          "distance": 0.27679699659347534,
          "id": 1729360987
        },
        {
          "distance": 0.3297514319419861,
          "id": 1947425097
        },
        {
          "distance": 0.3309256434440613,
          "id": 1947424967
        },
        {
          "distance": 0.33472180366516113,
          "id": 1729359015
        },
        {
          "distance": 0.33529651165008545,
          "id": 1729360867
        }
      ]
    },
    "sfomuseum:placetype": "instagram",
    "src:geom": "sfomuseum",
    "wof:belongsto": [
      1159160869,
      102527513,
      102191575,
      85633793,
      102087579,
      85922583,
      85688637
    ],
    "wof:country": "US",
    "wof:created": 1487701980,
    "wof:geomhash": "b6e33f47475d56bc8da457bc31afadc8",
    "wof:hierarchy": [
      {
        "building_id": 1159160869,
        "campus_id": 102527513,
        "continent_id": 102191575,
        "country_id": 85633793,
        "county_id": 102087579,
        "custom_id": 1729359803,
        "instagram_id": 1729359803,
        "locality_id": 85922583,
        "neighbourhood_id": -1,
        "region_id": 85688637
      }
    ],
    "wof:id": 1729359803,
    "wof:lastmodified": 1787777637,
    "wof:name": "This 1950s Pan American World Airways poster advertising Paris, France, features the Arc de Triomphe at the end of the Champs-Élysées with a Boeing 377 Stratocruiser...",
    "wof:parent_id": 1159160869,
    "wof:placetype": "custom",
    "wof:placetype_alt": [
      "instagram"
    ],
    "wof:repo": "sfomuseum-data-socialmedia-instagram",
    "wof:superseded_by": [],
    "wof:supersedes": []
  },
  "bbox": [
    -122.386166,
    37.616356,
    -122.386166,
    37.616356
  ],
  "geometry": {"type":"Point","coordinates":[-122.386166,37.616356]}
}
