{
  "id": 1763559575,
  "type": "Feature",
  "properties": {
    "date:cessation_lower": "2022-03-02",
    "date:cessation_upper": "2022-03-02",
    "date:inception_lower": "2022-03-02",
    "date:inception_upper": "2022-03-02",
    "edtf:cessation": "2022-03-02T09:59:00-08:00",
    "edtf:inception": "2022-03-02T09:59:00-08:00",
    "geom:area": 0,
    "geom:bbox": "-122.386166,37.616356,-122.386166,37.616356",
    "geom:latitude": 37.616356,
    "geom:longitude": -122.386166,
    "instagram:post": {
      "caption": {
        "body": "#Onthisday in 1969, the first Concorde prototype took off on its maiden flight departing from Toulouse, France. Developed as a joint endeavor between the governments of Great Britain and France, the aircraft that made this flight, Concorde 001, was built in France. Concorde commercial service was launched in 1976. A supersonic transatlantic flight between Paris and Washington D.C. lasted on average just three and one-half hours at 1,350 miles per hour, faster than the speed of the Earth's rotation. All Concorde SSTs were retired in 2003.",
        "excerpt": "#Onthisday in 1969, the first Concorde prototype took off on its maiden flight departing from Toulouse, France.",
        "hashtags": [
          "Concorde",
          "GreatBritain",
          "France",
          "AvGeek",
          "airplane"
        ],
        "users": []
      },
      "media_id": "65f9fa3a0f5933bc19662d1e13224bdb255968aa",
      "path": "media/posts/202203/274921606_1438260549963724_244478205333386334_n_17949954496694764.jpg",
      "perceptual_hash": "p:8532ea9d90e4ebb1",
      "taken": 1646243940,
      "taken_at": "Mar 02, 2022 5:59 pm"
    },
    "millsfield:similar": {
      "google/siglip2-so400m-patch16-naflex": [
        {
          "distance": 0.1283617615699768,
          "id": 1729355945
        },
        {
          "distance": 0.13581502437591553,
          "id": 1763559435
        },
        {
          "distance": 0.13911420106887817,
          "id": 1729356065
        },
        {
          "distance": 0.1408635973930359,
          "id": 1880151261
        },
        {
          "distance": 0.14243346452713013,
          "id": 1729355495
        },
        {
          "distance": 0.14325398206710815,
          "id": 1947424997
        },
        {
          "distance": 0.14782100915908813,
          "id": 1729355945
        },
        {
          "distance": 0.1538105010986328,
          "id": 1729360209
        },
        {
          "distance": 0.15400362014770508,
          "id": 1763559419
        },
        {
          "distance": 0.15680408477783203,
          "id": 1729355495
        }
      ]
    },
    "sfomuseum:placetype": "instagram",
    "src:geom": "sfomuseum",
    "wof:belongsto": [
      1159160869,
      102527513,
      102191575,
      85633793,
      102087579,
      85922583,
      85688637
    ],
    "wof:country": "US",
    "wof:created": 1646243940,
    "wof:geomhash": "b6e33f47475d56bc8da457bc31afadc8",
    "wof:hierarchy": [
      {
        "building_id": 1159160869,
        "campus_id": 102527513,
        "continent_id": 102191575,
        "country_id": 85633793,
        "county_id": 102087579,
        "custom_id": 1763559575,
        "instagram_id": 1763559575,
        "locality_id": 85922583,
        "neighbourhood_id": -1,
        "region_id": 85688637
      }
    ],
    "wof:id": 1763559575,
    "wof:lastmodified": 1787777660,
    "wof:name": "#Onthisday in 1969, the first Concorde prototype took off on its maiden flight departing from Toulouse, France...",
    "wof:parent_id": 1159160869,
    "wof:placetype": "custom",
    "wof:placetype_alt": [
      "instagram"
    ],
    "wof:repo": "sfomuseum-data-socialmedia-instagram",
    "wof:superseded_by": [],
    "wof:supersedes": []
  },
  "bbox": [
    -122.386166,
    37.616356,
    -122.386166,
    37.616356
  ],
  "geometry": {"type":"Point","coordinates":[-122.386166,37.616356]}
}
