{
  "id": 1763559541,
  "type": "Feature",
  "properties": {
    "date:cessation_lower": "2022-03-21",
    "date:cessation_upper": "2022-03-21",
    "date:inception_lower": "2022-03-21",
    "date:inception_upper": "2022-03-21",
    "edtf:cessation": "2022-03-21T09:00:00-07:00",
    "edtf:inception": "2022-03-21T09:00:00-07:00",
    "geom:area": 0,
    "geom:bbox": "-122.386166,37.616356,-122.386166,37.616356",
    "geom:latitude": 37.616356,
    "geom:longitude": -122.386166,
    "instagram:post": {
      "caption": {
        "body": "In her series, “Surface Tension”, Tabitha Soren (b.1967) examines our complex relationship with technology and draws focus on our increasingly tactile connection to visual information. Using a large-format film camera, Soren photographs tablet screens to reveal the marks left behind—the fingerprints, smudges, and oily residue of our engagement with the images below the surface. Exposed by the artist’s use of raking light, the otherwise invisible marks come alive with color and texture. Organic, gestural, and almost primal, these swipe marks stand in stark contrast to the smooth curves and cool indifference of the device itself. Brought together, Soren’s images serve as a poignant meditation on the role of digital devices in society and offer a reminder of the traces, both physical and digital, that we leave behind when using them.  See “Surface Tension” by Tabitha Soren, on display, post-security, in Terminal 3. https://bit.ly/3F4WBYN",
        "excerpt": "In her series, “Surface Tension”, Tabitha Soren (b.1967) examines our complex relationship with technology and draws focus on our increasingly tactile connection to visual information.",
        "hashtags": [
          "TabithaSoren",
          "Photography",
          "Techonology",
          "WomensHistoryMonth",
          "5WomenArtists"
        ],
        "users": [
          "tabithasoren"
        ]
      },
      "media_id": "f41f9cfeb59a5a080fc88b0b7c126f08122e4a04",
      "path": "media/posts/202203/276219386_142436948299026_8394339652852077947_n_18197493829199998.jpg",
      "perceptual_hash": "p:ee1d0fe11473ea14",
      "taken": 1647878400,
      "taken_at": "Mar 21, 2022 4:00 pm"
    },
    "millsfield:similar": {
      "google/siglip2-so400m-patch16-naflex": [
        {
          "distance": 0.000023126602172851562,
          "id": 1763559301
        },
        {
          "distance": 0.08667045831680298,
          "id": 1763559301
        },
        {
          "distance": 0.2367745041847229,
          "id": 1729356409
        },
        {
          "distance": 0.23770737648010254,
          "id": 1729355141
        },
        {
          "distance": 0.25198620557785034,
          "id": 1729355141
        },
        {
          "distance": 0.26367121934890747,
          "id": 1763558943
        },
        {
          "distance": 0.2741849422454834,
          "id": 1729356409
        },
        {
          "distance": 0.27541857957839966,
          "id": 1729356933
        },
        {
          "distance": 0.2855480909347534,
          "id": 1729356931
        },
        {
          "distance": 0.28615009784698486,
          "id": 1729358175
        }
      ]
    },
    "sfomuseum:placetype": "instagram",
    "src:geom": "sfomuseum",
    "wof:belongsto": [
      1159160869,
      102527513,
      102191575,
      85633793,
      102087579,
      85922583,
      85688637
    ],
    "wof:country": "US",
    "wof:created": 1647878400,
    "wof:geomhash": "b6e33f47475d56bc8da457bc31afadc8",
    "wof:hierarchy": [
      {
        "building_id": 1159160869,
        "campus_id": 102527513,
        "continent_id": 102191575,
        "country_id": 85633793,
        "county_id": 102087579,
        "custom_id": 1763559541,
        "instagram_id": 1763559541,
        "locality_id": 85922583,
        "neighbourhood_id": -1,
        "region_id": 85688637
      }
    ],
    "wof:id": 1763559541,
    "wof:lastmodified": 1787777660,
    "wof:name": "In her series, “Surface Tension”, Tabitha Soren (b.1967) examines our complex relationship with technology and draws focus on our increasingly tactile connection to visual information...",
    "wof:parent_id": 1159160869,
    "wof:placetype": "custom",
    "wof:placetype_alt": [
      "instagram"
    ],
    "wof:repo": "sfomuseum-data-socialmedia-instagram",
    "wof:superseded_by": [],
    "wof:supersedes": []
  },
  "bbox": [
    -122.386166,
    37.616356,
    -122.386166,
    37.616356
  ],
  "geometry": {"type":"Point","coordinates":[-122.386166,37.616356]}
}
