{
  "id": 1729355149,
  "type": "Feature",
  "properties": {
    "date:cessation_lower": "2020-08-06",
    "date:cessation_upper": "2020-08-06",
    "date:inception_lower": "2020-08-06",
    "date:inception_upper": "2020-08-06",
    "edtf:cessation": "2020-08-06T01:55:00-07:00",
    "edtf:inception": "2020-08-06T01:55:00-07:00",
    "geom:area": 0,
    "geom:bbox": "-122.386166,37.616356,-122.386166,37.616356",
    "geom:latitude": 37.616356,
    "geom:longitude": -122.386166,
    "instagram:post": {
      "caption": {
        "body": "In honor of our 40th anniversary, every week this year we are highlighting one of our past exhibitions. In 2015, we presented “Classic Monsters: The Kirk Hammett Collection” which featured dozens of objects from Universal’s monster movies from the 1920s to the 1950s. From The Mummy to Dracula, Kirk Hammett has collected a jaw dropping collection of movie memorabilia. Do you remember this exhibition?  See “Classic Monsters: The Kirk Hammett Collection” online at: http://bit.ly/31iJVd1",
        "excerpt": "In honor of our 40th anniversary, every week this year we are highlighting one of our past exhibitions.",
        "hashtags": [
          "KirksMonsters",
          "KirkHammett",
          "moviemonster",
          "MuseumFromHome"
        ],
        "users": []
      },
      "media_id": "503149b0196b631ddee8583f2486bc98",
      "path": "media/other/117275744_236055177473638_2907464775663425291_n_18158563318056316.jpg",
      "perceptual_hash": "p:8a7b566927a6e0c5",
      "taken": 1596704100,
      "taken_at": "Aug 06, 2020 8:55 am"
    },
    "millsfield:similar": {
      "google/siglip2-so400m-patch16-naflex": [
        {
          "distance": 0.2501753568649292,
          "id": 1763558917
        },
        {
          "distance": 0.2657458186149597,
          "id": 1729357693
        },
        {
          "distance": 0.26659607887268066,
          "id": 1729357325
        },
        {
          "distance": 0.28329986333847046,
          "id": 1947425115
        },
        {
          "distance": 0.29288285970687866,
          "id": 1763558835
        },
        {
          "distance": 0.29413896799087524,
          "id": 1729355297
        },
        {
          "distance": 0.29557734727859497,
          "id": 1729355249
        },
        {
          "distance": 0.29689550399780273,
          "id": 1947424987
        },
        {
          "distance": 0.29846012592315674,
          "id": 1729355363
        },
        {
          "distance": 0.2986333966255188,
          "id": 1880151401
        }
      ]
    },
    "sfomuseum:placetype": "instagram",
    "src:geom": "sfomuseum",
    "wof:belongsto": [
      1159160869,
      102527513,
      102191575,
      85633793,
      102087579,
      85922583,
      85688637
    ],
    "wof:country": "US",
    "wof:created": 1596704100,
    "wof:geomhash": "b6e33f47475d56bc8da457bc31afadc8",
    "wof:hierarchy": [
      {
        "building_id": 1159160869,
        "campus_id": 102527513,
        "continent_id": 102191575,
        "country_id": 85633793,
        "county_id": 102087579,
        "custom_id": 1729355149,
        "instagram_id": 1729355149,
        "locality_id": 85922583,
        "neighbourhood_id": -1,
        "region_id": 85688637
      }
    ],
    "wof:id": 1729355149,
    "wof:lastmodified": 1787777618,
    "wof:name": "In honor of our 40th anniversary, every week this year we are highlighting one of our past exhibitions...",
    "wof:parent_id": 1159160869,
    "wof:placetype": "custom",
    "wof:placetype_alt": [
      "instagram"
    ],
    "wof:repo": "sfomuseum-data-socialmedia-instagram",
    "wof:superseded_by": [],
    "wof:supersedes": []
  },
  "bbox": [
    -122.386166,
    37.616356,
    -122.386166,
    37.616356
  ],
  "geometry": {"type":"Point","coordinates":[-122.386166,37.616356]}
}
