{
  "id": 1729358561,
  "type": "Feature",
  "properties": {
    "date:cessation_lower": "2018-02-16",
    "date:cessation_upper": "2018-02-16",
    "date:inception_lower": "2018-02-16",
    "date:inception_upper": "2018-02-16",
    "edtf:cessation": "2018-02-16T11:15:00-08:00",
    "edtf:inception": "2018-02-16T11:15:00-08:00",
    "geom:area": 0,
    "geom:bbox": "-122.386166,37.616356,-122.386166,37.616356",
    "geom:latitude": 37.616356,
    "geom:longitude": -122.386166,
    "instagram:post": {
      "caption": {
        "body": "American carved stone books first appeared around 1860. Stonecutters, many of whom worked in gravestone shops, created these intriguing items in their leisure hours. Stone books, usually carved in a closed position, are small, typically three- to six-inches in height. Marble, especially white, was used most often because it was readily available and easily carved. Given to loved ones as gifts, stone books typically served as objects of remembrance. Makers embellished books with a variety of religious and secular inscriptions and imagery-both incised or carved in relief. Some recurring motifs include crosses, clasped hands, hearts, horseshoes, and lambs.  Books courtesy of the collection Ian Berke. See \"#AmericanFolkArt: An Enduring Legacy\", on display, pre-security, in the International Terminal. http://bit.ly/AmericanFolkArt",
        "excerpt": "American carved stone books first appeared around 1860.",
        "hashtags": [
          "AmericanFolkArt",
          "folkart",
          "stonebooks",
          "american",
          "history",
          "americana",
          "folkartdesign",
          "folkarts",
          "folkartantiques",
          "folkartantique",
          "marble",
          "carving",
          "stonecutters",
          "stonecutter",
          "stone",
          "book"
        ],
        "users": []
      },
      "media_id": "5c613a554585bf60bca734ff582564d4",
      "path": "media/other/27877810_393671291094311_4019641316592844800_n_17899954645133778.jpg",
      "perceptual_hash": "p:dbb1c89e334c9469",
      "taken": 1518808500,
      "taken_at": "Feb 16, 2018 7:15 pm"
    },
    "millsfield:similar": {
      "google/siglip2-so400m-patch16-naflex": [
        {
          "distance": 0.3592120409011841,
          "id": 1729358255
        },
        {
          "distance": 0.3670569062232971,
          "id": 1729355957
        },
        {
          "distance": 0.3696480989456177,
          "id": 1729358263
        },
        {
          "distance": 0.3804893493652344,
          "id": 1729360895
        },
        {
          "distance": 0.3893839716911316,
          "id": 1729358257
        },
        {
          "distance": 0.39673948287963867,
          "id": 1729356167
        },
        {
          "distance": 0.3969545364379883,
          "id": 1729358605
        },
        {
          "distance": 0.3971729278564453,
          "id": 1729356887
        },
        {
          "distance": 0.39874589443206787,
          "id": 1729357793
        },
        {
          "distance": 0.39880484342575073,
          "id": 1729358263
        }
      ]
    },
    "sfomuseum:placetype": "instagram",
    "src:geom": "sfomuseum",
    "wof:belongsto": [
      1159160869,
      102527513,
      102191575,
      85633793,
      102087579,
      85922583,
      85688637
    ],
    "wof:country": "US",
    "wof:created": 1518808500,
    "wof:geomhash": "b6e33f47475d56bc8da457bc31afadc8",
    "wof:hierarchy": [
      {
        "building_id": 1159160869,
        "campus_id": 102527513,
        "continent_id": 102191575,
        "country_id": 85633793,
        "county_id": 102087579,
        "custom_id": 1729358561,
        "instagram_id": 1729358561,
        "locality_id": 85922583,
        "neighbourhood_id": -1,
        "region_id": 85688637
      }
    ],
    "wof:id": 1729358561,
    "wof:lastmodified": 1787777634,
    "wof:name": "American carved stone books first appeared around 1860...",
    "wof:parent_id": 1159160869,
    "wof:placetype": "custom",
    "wof:placetype_alt": [
      "instagram"
    ],
    "wof:repo": "sfomuseum-data-socialmedia-instagram",
    "wof:superseded_by": [],
    "wof:supersedes": []
  },
  "bbox": [
    -122.386166,
    37.616356,
    -122.386166,
    37.616356
  ],
  "geometry": {"type":"Point","coordinates":[-122.386166,37.616356]}
}
