{
  "id": 1880151035,
  "type": "Feature",
  "properties": {
    "date:cessation_lower": "2023-03-24",
    "date:cessation_upper": "2023-03-24",
    "date:inception_lower": "2023-03-24",
    "date:inception_upper": "2023-03-24",
    "edtf:cessation": "2023-03-24T09:46:00-07:00",
    "edtf:inception": "2023-03-24T09:46:00-07:00",
    "geom:area": 0,
    "geom:bbox": "-122.386166,37.616356,-122.386166,37.616356",
    "geom:latitude": 37.616356,
    "geom:longitude": -122.386166,
    "instagram:post": {
      "caption": {
        "body": "Initially, Congress banned Concorde service to the United States due to concerns over the aircraft’s sonic boom, but five months after the Concorde’s inaugural flight, an exception was made in May 1976 for transatlantic service to Washington Dulles International Airport from London and Paris. These supersonic transatlantic flights at 1,350 mph required just three and one-half hours, faster than the sun moves across the Earth. In a promotional brochure, Air France placed the event in historical perspective by recounting Charles Lindbergh’s thirty-three-hour transatlantic flight just forty-nine years earlier. The charge for a round-trip Air France Concorde ticket from Washington, DC to Paris was $1,654 ($8,700 today when adjusted for inflation). In November 1977, Concorde service was added to New York’s John F. Kennedy International Airport.  Learn more about the Concorde in “Supersonic Time Machine: Documenting the Concorde,” on display pre-security in the Aviation Museum and Library or online at: https://bit.ly/3UB8Q6L",
        "excerpt": "Initially, Congress banned Concorde service to the United States due to concerns over the aircraft’s sonic boom, but five months after the Concorde’s inaugural flight, an exception was made in May 1976 for transatlantic service to Washington Dulles International Airport from London and Paris.",
        "hashtags": [
          "SSTTimeMachine"
        ],
        "users": []
      },
      "media_id": "66ac693fe552fc5b44a4f63e9fb3a4455f3463a7",
      "path": "media/posts/202303/337696114_765404995224520_5861182945140276478_n_17995931383743409.jpg",
      "perceptual_hash": "p:81853a7a6e6c3d93",
      "taken": 1679676360,
      "taken_at": "Mar 24, 2023 4:46 pm"
    },
    "millsfield:similar": {
      "google/siglip2-so400m-patch16-naflex": [
        {
          "distance": 0.00002372264862060547,
          "id": 1880150951
        },
        {
          "distance": 0.05813497304916382,
          "id": 1880151231
        },
        {
          "distance": 0.09411853551864624,
          "id": 1880150951
        },
        {
          "distance": 0.11984896659851074,
          "id": 1880151231
        },
        {
          "distance": 0.17839080095291138,
          "id": 1763558827
        },
        {
          "distance": 0.17861586809158325,
          "id": 1729355755
        },
        {
          "distance": 0.2009669542312622,
          "id": 1729355755
        },
        {
          "distance": 0.20119822025299072,
          "id": 1763558827
        },
        {
          "distance": 0.2155056595802307,
          "id": 1880151121
        },
        {
          "distance": 0.2195267677307129,
          "id": 1947425021
        }
      ]
    },
    "sfomuseum:placetype": "instagram",
    "src:geom": "sfomuseum",
    "wof:belongsto": [
      1159160869,
      102527513,
      102191575,
      85633793,
      102087579,
      85922583,
      85688637
    ],
    "wof:country": "US",
    "wof:created": 1679676360,
    "wof:geomhash": "b6e33f47475d56bc8da457bc31afadc8",
    "wof:hierarchy": [
      {
        "building_id": 1159160869,
        "campus_id": 102527513,
        "continent_id": 102191575,
        "country_id": 85633793,
        "county_id": 102087579,
        "custom_id": 1880151035,
        "instagram_id": 1880151035,
        "locality_id": 85922583,
        "neighbourhood_id": -1,
        "region_id": 85688637
      }
    ],
    "wof:id": 1880151035,
    "wof:lastmodified": 1787777661,
    "wof:name": "Initially, Congress banned Concorde service to the United States due to concerns over the aircraft’s sonic boom, but five months after the Concorde’s inaugural flight, an exception was made in May 1976 for transatlantic service to Washington Dulles International Airport from London and Paris...",
    "wof:parent_id": 1159160869,
    "wof:placetype": "custom",
    "wof:placetype_alt": [
      "instagram"
    ],
    "wof:repo": "sfomuseum-data-socialmedia-instagram",
    "wof:superseded_by": [],
    "wof:supersedes": []
  },
  "bbox": [
    -122.386166,
    37.616356,
    -122.386166,
    37.616356
  ],
  "geometry": {"type":"Point","coordinates":[-122.386166,37.616356]}
}
