{
  "id": 1729360639,
  "type": "Feature",
  "properties": {
    "date:cessation_lower": "2016-06-07",
    "date:cessation_upper": "2016-06-07",
    "date:inception_lower": "2016-06-07",
    "date:inception_upper": "2016-06-07",
    "edtf:cessation": "2016-06-07T01:36:00-07:00",
    "edtf:inception": "2016-06-07T01:36:00-07:00",
    "geom:area": 0,
    "geom:bbox": "-122.386166,37.616356,-122.386166,37.616356",
    "geom:latitude": 37.616356,
    "geom:longitude": -122.386166,
    "instagram:post": {
      "caption": {
        "body": "#OnThisDay in 1927, the Mills Field Municipal Airport of San Francisco began operations. The first graded airstrip was 4,950 feet long and surfaced in rolled rock fill covered with two inches of earth. In its first full month of operation, the airport registered nineteen airplane landings and nineteen passengers. Today, SFO has more than 1,200 aircraft arriving and departing everyday on runways between 7,650 and 11,870 feet in length. #SFOHistory  Mills Field Municipal Airport of San Francisco, aerial 1928 SFO Museum Collection 2011.032.0077",
        "excerpt": "#OnThisDay in 1927, the Mills Field Municipal Airport of San Francisco began operations.",
        "hashtags": [],
        "users": []
      },
      "media_id": "8df3e419203a30715e1347bbce2f2173",
      "path": "media/other/13297968_933783346767078_99184022_n_17848067794122112.jpg",
      "perceptual_hash": "p:8cb7f1ecc8d190e2",
      "taken": 1465288560,
      "taken_at": "Jun 07, 2016 8:36 am"
    },
    "millsfield:similar": {
      "google/siglip2-so400m-patch16-naflex": [
        {
          "distance": 0.16099172830581665,
          "id": 1729358457
        },
        {
          "distance": 0.1629396677017212,
          "id": 1729359713
        },
        {
          "distance": 0.16917210817337036,
          "id": 1729357323
        },
        {
          "distance": 0.17375826835632324,
          "id": 1729358457
        },
        {
          "distance": 0.17443084716796875,
          "id": 1729359933
        },
        {
          "distance": 0.17798101902008057,
          "id": 1729357323
        },
        {
          "distance": 0.17917943000793457,
          "id": 1729356859
        },
        {
          "distance": 0.18168491125106812,
          "id": 1729359145
        },
        {
          "distance": 0.1845124363899231,
          "id": 1947425255
        },
        {
          "distance": 0.1922491192817688,
          "id": 1729357545
        }
      ]
    },
    "sfomuseum:placetype": "instagram",
    "src:geom": "sfomuseum",
    "wof:belongsto": [
      1159160869,
      102527513,
      102191575,
      85633793,
      102087579,
      85922583,
      85688637
    ],
    "wof:country": "US",
    "wof:created": 1465288560,
    "wof:geomhash": "b6e33f47475d56bc8da457bc31afadc8",
    "wof:hierarchy": [
      {
        "building_id": 1159160869,
        "campus_id": 102527513,
        "continent_id": 102191575,
        "country_id": 85633793,
        "county_id": 102087579,
        "custom_id": 1729360639,
        "instagram_id": 1729360639,
        "locality_id": 85922583,
        "neighbourhood_id": -1,
        "region_id": 85688637
      }
    ],
    "wof:id": 1729360639,
    "wof:lastmodified": 1787777640,
    "wof:name": "#OnThisDay in 1927, the Mills Field Municipal Airport of San Francisco began operations...",
    "wof:parent_id": 1159160869,
    "wof:placetype": "custom",
    "wof:placetype_alt": [
      "instagram"
    ],
    "wof:repo": "sfomuseum-data-socialmedia-instagram",
    "wof:superseded_by": [],
    "wof:supersedes": []
  },
  "bbox": [
    -122.386166,
    37.616356,
    -122.386166,
    37.616356
  ],
  "geometry": {"type":"Point","coordinates":[-122.386166,37.616356]}
}
