{
  "id": 1729360201,
  "type": "Feature",
  "properties": {
    "date:cessation_lower": "2016-10-22",
    "date:cessation_upper": "2016-10-22",
    "date:inception_lower": "2016-10-22",
    "date:inception_upper": "2016-10-22",
    "edtf:cessation": "2016-10-22T05:42:00-07:00",
    "edtf:inception": "2016-10-22T05:42:00-07:00",
    "geom:area": 0,
    "geom:bbox": "-122.386166,37.616356,-122.386166,37.616356",
    "geom:latitude": 37.616356,
    "geom:longitude": -122.386166,
    "instagram:post": {
      "caption": {
        "body": "",
        "excerpt": "",
        "hashtags": [
          "OuijaAndBeyond\",",
          "ouija",
          "spoopy",
          "halloween"
        ],
        "users": []
      },
      "media_id": "535e52d2ae410646427cbd76ddd8cec8",
      "path": "media/other/14583426_303662066683361_7399782137617973248_n_17872698154044053.jpg",
      "perceptual_hash": "p:d514248f5a797b62",
      "taken": 1477140120,
      "taken_at": "Oct 22, 2016 12:42 pm"
    },
    "millsfield:similar": {
      "google/siglip2-so400m-patch16-naflex": [
        {
          "distance": 0.17692917585372925,
          "id": 1729360189
        },
        {
          "distance": 0.23959946632385254,
          "id": 1729360189
        },
        {
          "distance": 0.3075462579727173,
          "id": 1729359689
        },
        {
          "distance": 0.33663856983184814,
          "id": 1729359905
        },
        {
          "distance": 0.3663354516029358,
          "id": 1880151361
        },
        {
          "distance": 0.3693547248840332,
          "id": 1729359905
        },
        {
          "distance": 0.3858717083930969,
          "id": 1880151361
        },
        {
          "distance": 0.3960263133049011,
          "id": 1729355631
        },
        {
          "distance": 0.39769941568374634,
          "id": 1729355631
        },
        {
          "distance": 0.40188169479370117,
          "id": 1763558645
        }
      ]
    },
    "sfomuseum:placetype": "instagram",
    "src:geom": "sfomuseum",
    "wof:belongsto": [
      1159160869,
      102527513,
      102191575,
      85633793,
      102087579,
      85922583,
      85688637
    ],
    "wof:country": "US",
    "wof:created": 1477140120,
    "wof:geomhash": "b6e33f47475d56bc8da457bc31afadc8",
    "wof:hierarchy": [
      {
        "building_id": 1159160869,
        "campus_id": 102527513,
        "continent_id": 102191575,
        "country_id": 85633793,
        "county_id": 102087579,
        "custom_id": 1729360201,
        "instagram_id": 1729360201,
        "locality_id": 85922583,
        "neighbourhood_id": -1,
        "region_id": 85688637
      }
    ],
    "wof:id": 1729360201,
    "wof:lastmodified": 1787777639,
    "wof:name": "..",
    "wof:parent_id": 1159160869,
    "wof:placetype": "custom",
    "wof:placetype_alt": [
      "instagram"
    ],
    "wof:repo": "sfomuseum-data-socialmedia-instagram",
    "wof:superseded_by": [],
    "wof:supersedes": []
  },
  "bbox": [
    -122.386166,
    37.616356,
    -122.386166,
    37.616356
  ],
  "geometry": {"type":"Point","coordinates":[-122.386166,37.616356]}
}
