{
  "id": 1729361317,
  "type": "Feature",
  "properties": {
    "date:cessation_lower": "2015-12-03",
    "date:cessation_upper": "2015-12-03",
    "date:inception_lower": "2015-12-03",
    "date:inception_upper": "2015-12-03",
    "edtf:cessation": "2015-12-03T01:57:00-08:00",
    "edtf:inception": "2015-12-03T01:57:00-08:00",
    "geom:area": 0,
    "geom:bbox": "-122.386166,37.616356,-122.386166,37.616356",
    "geom:latitude": 37.616356,
    "geom:longitude": -122.386166,
    "instagram:post": {
      "caption": {
        "body": "",
        "excerpt": "",
        "hashtags": [
          "ThrowbackThursday"
        ],
        "users": []
      },
      "media_id": "8712638b5fa00efdc9fe1014f843901b",
      "path": "media/other/12327934_808208345972705_91018338_n_17850577897044303.jpg",
      "perceptual_hash": "p:c484bb9bf4c4d293",
      "taken": 1449136620,
      "taken_at": "Dec 03, 2015 9:57 am"
    },
    "millsfield:similar": {
      "google/siglip2-so400m-patch16-naflex": [
        {
          "distance": 0.12097352743148804,
          "id": 1880151041
        },
        {
          "distance": 0.1269647479057312,
          "id": 1729359933
        },
        {
          "distance": 0.13475102186203003,
          "id": 1729359145
        },
        {
          "distance": 0.17159748077392578,
          "id": 1729359537
        },
        {
          "distance": 0.17780083417892456,
          "id": 1880150909
        },
        {
          "distance": 0.17789316177368164,
          "id": 1729360531
        },
        {
          "distance": 0.18908756971359253,
          "id": 1729359537
        },
        {
          "distance": 0.19529563188552856,
          "id": 1880151041
        },
        {
          "distance": 0.19781345129013062,
          "id": 1729359713
        },
        {
          "distance": 0.19832587242126465,
          "id": 1729360937
        }
      ]
    },
    "sfomuseum:placetype": "instagram",
    "src:geom": "sfomuseum",
    "wof:belongsto": [
      1159160869,
      102527513,
      102191575,
      85633793,
      102087579,
      85922583,
      85688637
    ],
    "wof:country": "US",
    "wof:created": 1449136620,
    "wof:geomhash": "b6e33f47475d56bc8da457bc31afadc8",
    "wof:hierarchy": [
      {
        "building_id": 1159160869,
        "campus_id": 102527513,
        "continent_id": 102191575,
        "country_id": 85633793,
        "county_id": 102087579,
        "custom_id": 1729361317,
        "instagram_id": 1729361317,
        "locality_id": 85922583,
        "neighbourhood_id": -1,
        "region_id": 85688637
      }
    ],
    "wof:id": 1729361317,
    "wof:lastmodified": 1787777645,
    "wof:name": "..",
    "wof:parent_id": 1159160869,
    "wof:placetype": "custom",
    "wof:placetype_alt": [
      "instagram"
    ],
    "wof:repo": "sfomuseum-data-socialmedia-instagram",
    "wof:superseded_by": [],
    "wof:supersedes": []
  },
  "bbox": [
    -122.386166,
    37.616356,
    -122.386166,
    37.616356
  ],
  "geometry": {"type":"Point","coordinates":[-122.386166,37.616356]}
}
