{
  "id": 1947424999,
  "type": "Feature",
  "properties": {
    "date:cessation_lower": "2024-05-27",
    "date:cessation_upper": "2024-05-27",
    "date:inception_lower": "2024-05-27",
    "date:inception_upper": "2024-05-27",
    "edtf:cessation": "2024-05-27T06:48:00-07:00",
    "edtf:inception": "2024-05-27T06:48:00-07:00",
    "geom:area": 0,
    "geom:bbox": "-122.386166,37.616356,-122.386166,37.616356",
    "geom:latitude": 37.616356,
    "geom:longitude": -122.386166,
    "instagram:post": {
      "caption": {
        "body": "The Aviation Museum and Library will be closed today to observe Memorial Day and will reopen tomorrow, May 28th at 10am. All other exhibitions are available to view around the airport. https://bit.ly/SFOMExhibits",
        "excerpt": "The Aviation Museum and Library will be closed today to observe Memorial Day and will reopen tomorrow, May 28th at 10am.",
        "hashtags": [
          "MemorialDay"
        ],
        "users": []
      },
      "media_id": "7714653cc3cd2ab0850b75aa0e6013ccd6d5cdfd",
      "path": "media/other/446565764_807669187957579_5133921085553597508_n_18024526328176509.jpg",
      "perceptual_hash": "p:fa24d06127daecb4",
      "taken": 1716817680,
      "taken_at": "May 27, 2024 1:48 pm"
    },
    "millsfield:similar": {
      "google/siglip2-so400m-patch16-naflex": [
        {
          "distance": 0.1296519637107849,
          "id": 1729360095
        },
        {
          "distance": 0.14407747983932495,
          "id": 1880151407
        },
        {
          "distance": 0.1534932255744934,
          "id": 1729360667
        },
        {
          "distance": 0.1799219846725464,
          "id": 1763559129
        },
        {
          "distance": 0.1919054388999939,
          "id": 1947425291
        },
        {
          "distance": 0.19289171695709229,
          "id": 1729360823
        },
        {
          "distance": 0.19432789087295532,
          "id": 1729361145
        },
        {
          "distance": 0.19501763582229614,
          "id": 1729355059
        },
        {
          "distance": 0.19549614191055298,
          "id": 1947425199
        },
        {
          "distance": 0.20205003023147583,
          "id": 1947425087
        }
      ]
    },
    "sfomuseum:placetype": "instagram",
    "src:geom": "sfomuseum",
    "wof:belongsto": [
      1159160869,
      102527513,
      102191575,
      85633793,
      102087579,
      85922583,
      85688637
    ],
    "wof:country": "US",
    "wof:created": 1716817680,
    "wof:geomhash": "b6e33f47475d56bc8da457bc31afadc8",
    "wof:hierarchy": [
      {
        "building_id": 1159160869,
        "campus_id": 102527513,
        "continent_id": 102191575,
        "country_id": 85633793,
        "county_id": 102087579,
        "custom_id": 1947424999,
        "locality_id": 85922583,
        "neighbourhood_id": -1,
        "region_id": 85688637
      }
    ],
    "wof:id": 1947424999,
    "wof:lastmodified": 1787777664,
    "wof:name": "The Aviation Museum and Library will be closed today to observe Memorial Day and will reopen tomorrow, May 28th at 10am...",
    "wof:parent_id": 1159160869,
    "wof:placetype": "custom",
    "wof:repo": "sfomuseum-data-socialmedia-instagram",
    "wof:superseded_by": [],
    "wof:supersedes": []
  },
  "bbox": [
    -122.386166,
    37.616356,
    -122.386166,
    37.616356
  ],
  "geometry": {"type":"Point","coordinates":[-122.386166,37.616356]}
}
