{
  "id": 1729358371,
  "type": "Feature",
  "properties": {
    "date:cessation_lower": "2018-04-06",
    "date:cessation_upper": "2018-04-06",
    "date:inception_lower": "2018-04-06",
    "date:inception_upper": "2018-04-06",
    "edtf:cessation": "2018-04-06T07:39:00-07:00",
    "edtf:inception": "2018-04-06T07:39:00-07:00",
    "geom:area": 0,
    "geom:bbox": "-122.386166,37.616356,-122.386166,37.616356",
    "geom:latitude": 37.616356,
    "geom:longitude": -122.386166,
    "instagram:post": {
      "caption": {
        "body": "Happy Birthday #UnitedAirlines! Did you know that United is the longest serving airline at San Francisco International Airport? Boeing Air Transport entered into an agreement with San Francisco on March 11, 1927, to make Mills Field its western terminus on the condition that the facility was completed by July 1 to the specifications of the airmail contract. However, no hangar space was available until September, so Boeing was forced to use Concord and Oakland. Later, Boeing Air Transport would merge into a company that would one day return as United Air Lines.  Image: Mills Field Municipal Airport of San Francisco, Boeing 40A, C.A.M. 18, 9/16/1927.  SFO Museum Collection. 2011.032.0031",
        "excerpt": "Happy Birthday #UnitedAirlines!",
        "hashtags": [
          "avgeek",
          "SFOHistory",
          "MillsField",
          "UnitedAirlines",
          "BoeingAirTransport",
          "avationgeek",
          "aviation",
          "aviationhistory",
          "vintageaviation",
          "history",
          "avhistory",
          "aviationgeeks",
          "avgeeks"
        ],
        "users": []
      },
      "media_id": "bba77413a8459f3995632bd6125ae30d",
      "path": "media/other/29716624_2140132412742421_2653808430468300800_n_17937991660036732.jpg",
      "perceptual_hash": "p:84edd913a42c5bb3",
      "taken": 1523025540,
      "taken_at": "Apr 06, 2018 2:39 pm"
    },
    "millsfield:similar": {
      "google/siglip2-so400m-patch16-naflex": [
        {
          "distance": 0.04326915740966797,
          "id": 1729359651
        },
        {
          "distance": 0.11126995086669922,
          "id": 1729359651
        },
        {
          "distance": 0.16119080781936646,
          "id": 1729355287
        },
        {
          "distance": 0.163016676902771,
          "id": 1763558839
        },
        {
          "distance": 0.16319626569747925,
          "id": 1880151387
        },
        {
          "distance": 0.1675894856452942,
          "id": 1880151691
        },
        {
          "distance": 0.17707735300064087,
          "id": 1729357537
        },
        {
          "distance": 0.19272691011428833,
          "id": 1729356091
        },
        {
          "distance": 0.1933484673500061,
          "id": 1729360319
        },
        {
          "distance": 0.19395864009857178,
          "id": 1880151445
        }
      ]
    },
    "sfomuseum:placetype": "instagram",
    "src:geom": "sfomuseum",
    "wof:belongsto": [
      1159160869,
      102527513,
      102191575,
      85633793,
      102087579,
      85922583,
      85688637
    ],
    "wof:country": "US",
    "wof:created": 1523025540,
    "wof:geomhash": "b6e33f47475d56bc8da457bc31afadc8",
    "wof:hierarchy": [
      {
        "building_id": 1159160869,
        "campus_id": 102527513,
        "continent_id": 102191575,
        "country_id": 85633793,
        "county_id": 102087579,
        "custom_id": 1729358371,
        "instagram_id": 1729358371,
        "locality_id": 85922583,
        "neighbourhood_id": -1,
        "region_id": 85688637
      }
    ],
    "wof:id": 1729358371,
    "wof:lastmodified": 1787777633,
    "wof:name": "Happy Birthday #UnitedAirlines!..",
    "wof:parent_id": 1159160869,
    "wof:placetype": "custom",
    "wof:placetype_alt": [
      "instagram"
    ],
    "wof:repo": "sfomuseum-data-socialmedia-instagram",
    "wof:superseded_by": [],
    "wof:supersedes": []
  },
  "bbox": [
    -122.386166,
    37.616356,
    -122.386166,
    37.616356
  ],
  "geometry": {"type":"Point","coordinates":[-122.386166,37.616356]}
}
