{
  "id": 1729356277,
  "type": "Feature",
  "properties": {
    "date:cessation_lower": "2019-07-28",
    "date:cessation_upper": "2019-07-28",
    "date:inception_lower": "2019-07-28",
    "date:inception_upper": "2019-07-28",
    "edtf:cessation": "2019-07-28T07:14:00-07:00",
    "edtf:inception": "2019-07-28T07:14:00-07:00",
    "geom:area": 0,
    "geom:bbox": "-122.386166,37.616356,-122.386166,37.616356",
    "geom:latitude": 37.616356,
    "geom:longitude": -122.386166,
    "instagram:post": {
      "caption": {
        "body": "How would you caption this 1960s publicity photo from United Airlines?  Image: United Air Lines: DC-8 Interior, 1960s. Gift of Thomas G. Dragges. 2015.098.024",
        "excerpt": "How would you caption this 1960s publicity photo from United Airlines?",
        "hashtags": [
          "united",
          "captioncontest",
          "avgeek"
        ],
        "users": []
      },
      "media_id": "26d8f51e588d9aa88c462a9544bb3bd7",
      "path": "media/other/67584272_131792598044769_6326048546774767775_n_18042149944195366.jpg",
      "perceptual_hash": "p:baac900bce9ce1dc",
      "taken": 1564323240,
      "taken_at": "Jul 28, 2019 2:14 pm"
    },
    "millsfield:similar": {
      "google/siglip2-so400m-patch16-naflex": [
        {
          "distance": 0.14734214544296265,
          "id": 1729359645
        },
        {
          "distance": 0.15288269519805908,
          "id": 1763559085
        },
        {
          "distance": 0.19721311330795288,
          "id": 1729359397
        },
        {
          "distance": 0.20378869771957397,
          "id": 1729359645
        },
        {
          "distance": 0.20796334743499756,
          "id": 1763559125
        },
        {
          "distance": 0.2084798812866211,
          "id": 1729358209
        },
        {
          "distance": 0.20926541090011597,
          "id": 1729359511
        },
        {
          "distance": 0.21070009469985962,
          "id": 1729358079
        },
        {
          "distance": 0.21656882762908936,
          "id": 1763559229
        },
        {
          "distance": 0.22063392400741577,
          "id": 1729355605
        }
      ]
    },
    "sfomuseum:placetype": "instagram",
    "src:geom": "sfomuseum",
    "wof:belongsto": [
      1159160869,
      102527513,
      102191575,
      85633793,
      102087579,
      85922583,
      85688637
    ],
    "wof:country": "US",
    "wof:created": 1564323240,
    "wof:geomhash": "b6e33f47475d56bc8da457bc31afadc8",
    "wof:hierarchy": [
      {
        "building_id": 1159160869,
        "campus_id": 102527513,
        "continent_id": 102191575,
        "country_id": 85633793,
        "county_id": 102087579,
        "custom_id": 1729356277,
        "instagram_id": 1729356277,
        "locality_id": 85922583,
        "neighbourhood_id": -1,
        "region_id": 85688637
      }
    ],
    "wof:id": 1729356277,
    "wof:lastmodified": 1787777629,
    "wof:name": "How would you caption this 1960s publicity photo from United Airlines?..",
    "wof:parent_id": 1159160869,
    "wof:placetype": "custom",
    "wof:placetype_alt": [
      "instagram"
    ],
    "wof:repo": "sfomuseum-data-socialmedia-instagram",
    "wof:superseded_by": [],
    "wof:supersedes": []
  },
  "bbox": [
    -122.386166,
    37.616356,
    -122.386166,
    37.616356
  ],
  "geometry": {"type":"Point","coordinates":[-122.386166,37.616356]}
}
