{
  "id": 1729361285,
  "type": "Feature",
  "properties": {
    "date:cessation_lower": "2015-12-12",
    "date:cessation_upper": "2015-12-12",
    "date:inception_lower": "2015-12-12",
    "date:inception_upper": "2015-12-12",
    "edtf:cessation": "2015-12-12T03:42:00-08:00",
    "edtf:inception": "2015-12-12T03:42:00-08:00",
    "geom:area": 0,
    "geom:bbox": "-122.386166,37.616356,-122.386166,37.616356",
    "geom:latitude": 37.616356,
    "geom:longitude": -122.386166,
    "instagram:post": {
      "caption": {
        "body": "“I can’t tell you that no books were harmed in the making of this project, but I can tell you that no good books were harmed.” James Henkel  See James Henkel’s photography exhibition, “Stacks”, pre-security in Terminal 2.",
        "excerpt": "“I can’t tell you that no books were harmed in the making of this project, but I can tell you that no good books were harmed.” James Henkel  See James Henkel’s photography exhibition, “Stacks”, pre-security in Terminal 2.",
        "hashtags": [],
        "users": []
      },
      "media_id": "017cbc68166a508339e86734b14affb9",
      "path": "media/other/12362050_476581012513931_461213550_n_17843575600128452.jpg",
      "perceptual_hash": "p:b991ce6693393196",
      "taken": 1449920520,
      "taken_at": "Dec 12, 2015 11:42 am"
    },
    "millsfield:similar": {
      "google/siglip2-so400m-patch16-naflex": [
        {
          "distance": 0.27708762884140015,
          "id": 1729362739
        },
        {
          "distance": 0.28486108779907227,
          "id": 1729362371
        },
        {
          "distance": 0.31384241580963135,
          "id": 1729362075
        },
        {
          "distance": 0.3341462016105652,
          "id": 1729362959
        },
        {
          "distance": 0.3373309373855591,
          "id": 1880151091
        },
        {
          "distance": 0.33926790952682495,
          "id": 1729360669
        },
        {
          "distance": 0.34293460845947266,
          "id": 1729358159
        },
        {
          "distance": 0.34469377994537354,
          "id": 1729356635
        },
        {
          "distance": 0.3463742733001709,
          "id": 1729358859
        },
        {
          "distance": 0.3500533103942871,
          "id": 1729362647
        }
      ]
    },
    "sfomuseum:placetype": "instagram",
    "src:geom": "sfomuseum",
    "wof:belongsto": [
      1159160869,
      102527513,
      102191575,
      85633793,
      102087579,
      85922583,
      85688637
    ],
    "wof:country": "US",
    "wof:created": 1449920520,
    "wof:geomhash": "b6e33f47475d56bc8da457bc31afadc8",
    "wof:hierarchy": [
      {
        "building_id": 1159160869,
        "campus_id": 102527513,
        "continent_id": 102191575,
        "country_id": 85633793,
        "county_id": 102087579,
        "custom_id": 1729361285,
        "instagram_id": 1729361285,
        "locality_id": 85922583,
        "neighbourhood_id": -1,
        "region_id": 85688637
      }
    ],
    "wof:id": 1729361285,
    "wof:lastmodified": 1787777645,
    "wof:name": "“I can’t tell you that no books were harmed in the making of this project, but I can tell you that no good books were harmed.” James Henkel  See James Henkel’s photography exhibition, “Stacks”, pre-security in Terminal 2...",
    "wof:parent_id": 1159160869,
    "wof:placetype": "custom",
    "wof:placetype_alt": [
      "instagram"
    ],
    "wof:repo": "sfomuseum-data-socialmedia-instagram",
    "wof:superseded_by": [],
    "wof:supersedes": []
  },
  "bbox": [
    -122.386166,
    37.616356,
    -122.386166,
    37.616356
  ],
  "geometry": {"type":"Point","coordinates":[-122.386166,37.616356]}
}
