{
  "id": 1729355829,
  "type": "Feature",
  "properties": {
    "date:cessation_lower": "2019-12-05",
    "date:cessation_upper": "2019-12-05",
    "date:inception_lower": "2019-12-05",
    "date:inception_upper": "2019-12-05",
    "edtf:cessation": "2019-12-05T13:59:30-08:00",
    "edtf:inception": "2019-12-05T13:59:30-08:00",
    "geom:area": 0,
    "geom:bbox": "-122.386166,37.616356,-122.386166,37.616356",
    "geom:latitude": 37.616356,
    "geom:longitude": -122.386166,
    "instagram:post": {
      "caption": {
        "body": "When McDonnell Douglas began to develop their widebody jetliner in the late 1960s, they endeavored to create an airliner that would operate in areas not served by the 747. The DC-10 was initially designed to be operated on transcontinental or regional routes (although later variants came with enhanced, transoceanic range) with fewer passengers than the 747. It was also intended to operate at airports not suitable for the 747. It would thus broaden the widebody market to more airlines and a greater proportion of the traveling public. McDonnell Douglas promoted the DC-10 as the widebody airliner for the entire family in a promotional poster by artist George Akimoto (1922–2010). “Widebody: The Launch of the Jumbojets in the Early 1970s” is on display, pre-security, in the Aviation Museum and Library. http://bit.ly/WidebodyAV",
        "excerpt": "When McDonnell Douglas began to develop their widebody jetliner in the late 1960s, they endeavored to create an airliner that would operate in areas not served by the 747.",
        "hashtags": [
          "WidebodyAV",
          "avgeek",
          "Widebody",
          "jumbojet",
          "jetage"
        ],
        "users": []
      },
      "location": "",
      "media_id": "2d3bc6d5d4cd2e8814fe59e1c4c82839",
      "path": "photos/201912/2d3bc6d5d4cd2e8814fe59e1c4c82839.jpg",
      "perceptual_hash": "p:c18b0e7c71c1c72f",
      "taken": 1575554340,
      "taken_at": "Dec 5, 2019, 1:59 PM"
    },
    "millsfield:similar": {
      "google/siglip2-so400m-patch16-naflex": [
        {
          "distance": 0.15504366159439087,
          "id": 1729356059
        },
        {
          "distance": 0.18079447746276855,
          "id": 1729356059
        },
        {
          "distance": 0.25280332565307617,
          "id": 1729361851
        },
        {
          "distance": 0.26354771852493286,
          "id": 1729355845
        },
        {
          "distance": 0.26631414890289307,
          "id": 1729358085
        },
        {
          "distance": 0.27143537998199463,
          "id": 1729355845
        },
        {
          "distance": 0.27146977186203003,
          "id": 1763559329
        },
        {
          "distance": 0.2752295136451721,
          "id": 1729355357
        },
        {
          "distance": 0.2767317295074463,
          "id": 1729362965
        },
        {
          "distance": 0.27752459049224854,
          "id": 1947425297
        }
      ]
    },
    "sfomuseum:placetype": "instagram",
    "src:geom": "sfomuseum",
    "wof:belongsto": [
      1159160869,
      102527513,
      102191575,
      85633793,
      102087579,
      85922583,
      85688637
    ],
    "wof:country": "US",
    "wof:created": 1575583170,
    "wof:geomhash": "b6e33f47475d56bc8da457bc31afadc8",
    "wof:hierarchy": [
      {
        "building_id": 1159160869,
        "campus_id": 102527513,
        "continent_id": 102191575,
        "country_id": 85633793,
        "county_id": 102087579,
        "custom_id": 1729355829,
        "instagram_id": 1729355829,
        "locality_id": 85922583,
        "neighbourhood_id": -1,
        "region_id": 85688637
      }
    ],
    "wof:id": 1729355829,
    "wof:lastmodified": 1787777627,
    "wof:name": "When McDonnell Douglas began to develop their widebody jetliner in the late 1960s, they endeavored to create an airliner that would operate in areas not served by the 747...",
    "wof:parent_id": 1159160869,
    "wof:placetype": "custom",
    "wof:placetype_alt": [
      "instagram"
    ],
    "wof:repo": "sfomuseum-data-socialmedia-instagram",
    "wof:superseded_by": [],
    "wof:supersedes": []
  },
  "bbox": [
    -122.386166,
    37.616356,
    -122.386166,
    37.616356
  ],
  "geometry": {"type":"Point","coordinates":[-122.386166,37.616356]}
}
