{
  "id": 1729359127,
  "type": "Feature",
  "properties": {
    "date:cessation_lower": "2017-08-31",
    "date:cessation_upper": "2017-08-31",
    "date:inception_lower": "2017-08-31",
    "date:inception_upper": "2017-08-31",
    "edtf:cessation": "2017-08-31T07:16:00-07:00",
    "edtf:inception": "2017-08-31T07:16:00-07:00",
    "geom:area": 0,
    "geom:bbox": "-122.386166,37.616356,-122.386166,37.616356",
    "geom:latitude": 37.616356,
    "geom:longitude": -122.386166,
    "instagram:post": {
      "caption": {
        "body": "In 1961, San Francisco and Oakland (SFO) Helicopter Airlines commenced operations with local helicopter flights between San Francisco and Oakland. By the end of 1962, the service grew to 100 flights a day. Did you ever fly on SFO Helicopter Airlines?  Image: SFO Helicopter Airlines timetable, 1970. Gift of the William Hough Collection. 2005.132.046.017",
        "excerpt": "In 1961, San Francisco and Oakland (SFO) Helicopter Airlines commenced operations with local helicopter flights between San Francisco and Oakland.",
        "hashtags": [
          "ThrowbackThursday",
          "SFOHistory",
          "SFO",
          "SFHistory",
          "SanFrancsico",
          "oakland",
          "oak",
          "Helicopter",
          "avgeek",
          "avationgeek",
          "aviation",
          "aviationhistory",
          "aviationlovers",
          "vintageaviation",
          "history",
          "avhistory",
          "aviationgeeks",
          "flying",
          "flight",
          "airline",
          "avgeeks",
          "aviation4u",
          "aviationdaily"
        ],
        "users": []
      },
      "media_id": "504b9ceca8664c82df83622d55df711c",
      "path": "media/posts/201708/21149785_1919849918041903_1798836379212316672_n_17881056310087622.jpg",
      "perceptual_hash": "p:a893f168962f7934",
      "taken": 1504188960,
      "taken_at": "Aug 31, 2017 2:16 pm"
    },
    "millsfield:similar": {
      "google/siglip2-so400m-patch16-naflex": [
        {
          "distance": 0.26361894607543945,
          "id": 1880151333
        },
        {
          "distance": 0.2762795090675354,
          "id": 1729360673
        },
        {
          "distance": 0.28875571489334106,
          "id": 1729359877
        },
        {
          "distance": 0.2927020788192749,
          "id": 1880151431
        },
        {
          "distance": 0.2944459915161133,
          "id": 1729360673
        },
        {
          "distance": 0.29666924476623535,
          "id": 1880151333
        },
        {
          "distance": 0.30663448572158813,
          "id": 1729360779
        },
        {
          "distance": 0.3078584671020508,
          "id": 1729359877
        },
        {
          "distance": 0.31517136096954346,
          "id": 1729356319
        },
        {
          "distance": 0.3153564929962158,
          "id": 1763558629
        }
      ]
    },
    "sfomuseum:placetype": "instagram",
    "src:geom": "sfomuseum",
    "wof:belongsto": [
      1159160869,
      102527513,
      102191575,
      85633793,
      102087579,
      85922583,
      85688637
    ],
    "wof:country": "US",
    "wof:created": 1504188960,
    "wof:geomhash": "b6e33f47475d56bc8da457bc31afadc8",
    "wof:hierarchy": [
      {
        "building_id": 1159160869,
        "campus_id": 102527513,
        "continent_id": 102191575,
        "country_id": 85633793,
        "county_id": 102087579,
        "custom_id": 1729359127,
        "instagram_id": 1729359127,
        "locality_id": 85922583,
        "neighbourhood_id": -1,
        "region_id": 85688637
      }
    ],
    "wof:id": 1729359127,
    "wof:lastmodified": 1787777635,
    "wof:name": "In 1961, San Francisco and Oakland (SFO) Helicopter Airlines commenced operations with local helicopter flights between San Francisco and Oakland...",
    "wof:parent_id": 1159160869,
    "wof:placetype": "custom",
    "wof:placetype_alt": [
      "instagram"
    ],
    "wof:repo": "sfomuseum-data-socialmedia-instagram",
    "wof:superseded_by": [],
    "wof:supersedes": []
  },
  "bbox": [
    -122.386166,
    37.616356,
    -122.386166,
    37.616356
  ],
  "geometry": {"type":"Point","coordinates":[-122.386166,37.616356]}
}
