{
  "id": 1729359007,
  "type": "Feature",
  "properties": {
    "date:cessation_lower": "2017-10-07",
    "date:cessation_upper": "2017-10-07",
    "date:inception_lower": "2017-10-07",
    "date:inception_upper": "2017-10-07",
    "edtf:cessation": "2017-10-07T03:52:00-07:00",
    "edtf:inception": "2017-10-07T03:52:00-07:00",
    "geom:area": 0,
    "geom:bbox": "-122.386166,37.616356,-122.386166,37.616356",
    "geom:latitude": 37.616356,
    "geom:longitude": -122.386166,
    "instagram:post": {
      "caption": {
        "body": "#Onthisday in 1919, KLM (Koninklijke Luchtvaart Maatschappij N.V., or KLM Royal Dutch Airlines) was founded. The company is the oldest airline in the world still operating under its original name. On May 17, 1920, KLM operated its first flight from London to Amsterdam. Now, KLM services over 145 destinations world wide. Have you ever flown on KLM?  Image: KLM (Royal Dutch Airlines) poster, 30th anniversary, 1949. Gift of Thomas G. Dragges. 2014.110.085",
        "excerpt": "#Onthisday in 1919, KLM (Koninklijke Luchtvaart Maatschappij N.V., or KLM Royal Dutch Airlines) was founded.",
        "hashtags": [
          "klm",
          "dutch",
          "holland",
          "netherlands",
          "avgeek",
          "avationgeek",
          "aviation",
          "aviationhistory",
          "aviationlovers",
          "vintageaviation",
          "history",
          "avhistory",
          "aviationgeeks",
          "instaplane",
          "flying",
          "plane",
          "flight",
          "airline",
          "avgeeks",
          "aviation4u",
          "aviationdaily"
        ],
        "users": []
      },
      "media_id": "a2b382cadd84ba048553ea051b73bf59",
      "path": "media/posts/201710/22221011_1780616458903160_2568068144367140864_n_17902292434054783.jpg",
      "perceptual_hash": "p:fb90866f9810778d",
      "taken": 1507373520,
      "taken_at": "Oct 07, 2017 10:52 am"
    },
    "millsfield:similar": {
      "google/siglip2-so400m-patch16-naflex": [
        {
          "distance": 0.21231305599212646,
          "id": 1729356023
        },
        {
          "distance": 0.21957755088806152,
          "id": 1763558821
        },
        {
          "distance": 0.2530074715614319,
          "id": 1729360175
        },
        {
          "distance": 0.2530122995376587,
          "id": 1729356053
        },
        {
          "distance": 0.2542543411254883,
          "id": 1763558821
        },
        {
          "distance": 0.2555076479911804,
          "id": 1729356023
        },
        {
          "distance": 0.26030731201171875,
          "id": 1729356053
        },
        {
          "distance": 0.2604351043701172,
          "id": 1729359301
        },
        {
          "distance": 0.2771347165107727,
          "id": 1729356495
        },
        {
          "distance": 0.2822039723396301,
          "id": 1729358403
        }
      ]
    },
    "sfomuseum:placetype": "instagram",
    "src:geom": "sfomuseum",
    "wof:belongsto": [
      1159160869,
      102527513,
      102191575,
      85633793,
      102087579,
      85922583,
      85688637
    ],
    "wof:country": "US",
    "wof:created": 1507373520,
    "wof:geomhash": "b6e33f47475d56bc8da457bc31afadc8",
    "wof:hierarchy": [
      {
        "building_id": 1159160869,
        "campus_id": 102527513,
        "continent_id": 102191575,
        "country_id": 85633793,
        "county_id": 102087579,
        "custom_id": 1729359007,
        "instagram_id": 1729359007,
        "locality_id": 85922583,
        "neighbourhood_id": -1,
        "region_id": 85688637
      }
    ],
    "wof:id": 1729359007,
    "wof:lastmodified": 1787777634,
    "wof:name": "#Onthisday in 1919, KLM (Koninklijke Luchtvaart Maatschappij N.V., or KLM Royal Dutch Airlines) was founded...",
    "wof:parent_id": 1159160869,
    "wof:placetype": "custom",
    "wof:placetype_alt": [
      "instagram"
    ],
    "wof:repo": "sfomuseum-data-socialmedia-instagram",
    "wof:superseded_by": [],
    "wof:supersedes": []
  },
  "bbox": [
    -122.386166,
    37.616356,
    -122.386166,
    37.616356
  ],
  "geometry": {"type":"Point","coordinates":[-122.386166,37.616356]}
}
