{
  "id": 1729361055,
  "type": "Feature",
  "properties": {
    "date:cessation_lower": "2016-02-10",
    "date:cessation_upper": "2016-02-10",
    "date:inception_lower": "2016-02-10",
    "date:inception_upper": "2016-02-10",
    "edtf:cessation": "2016-02-10T10:42:00-08:00",
    "edtf:inception": "2016-02-10T10:42:00-08:00",
    "geom:area": 0,
    "geom:bbox": "-122.386166,37.616356,-122.386166,37.616356",
    "geom:latitude": 37.616356,
    "geom:longitude": -122.386166,
    "instagram:post": {
      "caption": {
        "body": "This rare view of the interior of the United Air Lines’ San Francisco Ticket Office is from circa 1933. In the 1930s, only one class of tickets were offered on flights and everyone paid the same fare, though a round trip ticket had a 10% discount. Also in the background on the right side is general manager, Steve Stimpson who hired Ellen Church, United’s first female flight attendant. Do you remember purchasing flight tickets at a ticket office? #WomenInAviation  United Air Lines San Francisco ticket office c. 1933 SFO Museum Collection Gift of United Airlines Archives 1999.047.239",
        "excerpt": "This rare view of the interior of the United Air Lines’ San Francisco Ticket Office is from circa 1933.",
        "hashtags": [],
        "users": []
      },
      "media_id": "670aaac1e3e8f94fe9faddcda3406ffd",
      "path": "media/other/12424581_1571602343129804_105538229_n_17853481570030185.jpg",
      "perceptual_hash": "p:f9b4365b6564a443",
      "taken": 1455129720,
      "taken_at": "Feb 10, 2016 6:42 pm"
    },
    "millsfield:similar": {
      "google/siglip2-so400m-patch16-naflex": [
        {
          "distance": 0.023312091827392578,
          "id": 1729356987
        },
        {
          "distance": 0.1451338529586792,
          "id": 1729359983
        },
        {
          "distance": 0.15761733055114746,
          "id": 1729356987
        },
        {
          "distance": 0.1604490876197815,
          "id": 1729359615
        },
        {
          "distance": 0.16347628831863403,
          "id": 1729359845
        },
        {
          "distance": 0.16566729545593262,
          "id": 1729359983
        },
        {
          "distance": 0.17844289541244507,
          "id": 1729359421
        },
        {
          "distance": 0.18138056993484497,
          "id": 1729359587
        },
        {
          "distance": 0.18927502632141113,
          "id": 1729359615
        },
        {
          "distance": 0.1918768286705017,
          "id": 1729359587
        }
      ]
    },
    "sfomuseum:placetype": "instagram",
    "src:geom": "sfomuseum",
    "wof:belongsto": [
      1159160869,
      102527513,
      102191575,
      85633793,
      102087579,
      85922583,
      85688637
    ],
    "wof:country": "US",
    "wof:created": 1455129720,
    "wof:geomhash": "b6e33f47475d56bc8da457bc31afadc8",
    "wof:hierarchy": [
      {
        "building_id": 1159160869,
        "campus_id": 102527513,
        "continent_id": 102191575,
        "country_id": 85633793,
        "county_id": 102087579,
        "custom_id": 1729361055,
        "instagram_id": 1729361055,
        "locality_id": 85922583,
        "neighbourhood_id": -1,
        "region_id": 85688637
      }
    ],
    "wof:id": 1729361055,
    "wof:lastmodified": 1787777643,
    "wof:name": "This rare view of the interior of the United Air Lines’ San Francisco Ticket Office is from circa 1933...",
    "wof:parent_id": 1159160869,
    "wof:placetype": "custom",
    "wof:placetype_alt": [
      "instagram"
    ],
    "wof:repo": "sfomuseum-data-socialmedia-instagram",
    "wof:superseded_by": [],
    "wof:supersedes": []
  },
  "bbox": [
    -122.386166,
    37.616356,
    -122.386166,
    37.616356
  ],
  "geometry": {"type":"Point","coordinates":[-122.386166,37.616356]}
}
