{
  "id": 1729362263,
  "type": "Feature",
  "properties": {
    "date:cessation_lower": "2014-06-09",
    "date:cessation_upper": "2014-06-09",
    "date:inception_lower": "2014-06-09",
    "date:inception_upper": "2014-06-09",
    "edtf:cessation": "2014-06-09T08:46:00-07:00",
    "edtf:inception": "2014-06-09T08:46:00-07:00",
    "geom:area": 0,
    "geom:bbox": "-122.386166,37.616356,-122.386166,37.616356",
    "geom:latitude": 37.616356,
    "geom:longitude": -122.386166,
    "instagram:post": {
      "caption": {
        "body": "",
        "excerpt": "",
        "hashtags": [
          "lace",
          "fashion"
        ],
        "users": []
      },
      "media_id": "060a204b419d0c35d3bfcc527ae8fe29",
      "path": "media/other/10448981_655214424566875_1439858192_n_17842437769062499.jpg",
      "perceptual_hash": "p:e6655965500f1abd",
      "taken": 1402328760,
      "taken_at": "Jun 09, 2014 3:46 pm"
    },
    "millsfield:similar": {
      "google/siglip2-so400m-patch16-naflex": [
        {
          "distance": 0.16571563482284546,
          "id": 1729362233
        },
        {
          "distance": 0.18254166841506958,
          "id": 1729362413
        },
        {
          "distance": 0.19137036800384521,
          "id": 1729362413
        },
        {
          "distance": 0.20815420150756836,
          "id": 1729362233
        },
        {
          "distance": 0.2149013876914978,
          "id": 1729362335
        },
        {
          "distance": 0.21633285284042358,
          "id": 1729362335
        },
        {
          "distance": 0.21725618839263916,
          "id": 1729362281
        },
        {
          "distance": 0.22175824642181396,
          "id": 1729362365
        },
        {
          "distance": 0.23167747259140015,
          "id": 1729362403
        },
        {
          "distance": 0.23625385761260986,
          "id": 1729359091
        }
      ]
    },
    "sfomuseum:placetype": "instagram",
    "src:geom": "sfomuseum",
    "wof:belongsto": [
      1159160869,
      102527513,
      102191575,
      85633793,
      102087579,
      85922583,
      85688637
    ],
    "wof:country": "US",
    "wof:created": 1402328760,
    "wof:geomhash": "b6e33f47475d56bc8da457bc31afadc8",
    "wof:hierarchy": [
      {
        "building_id": 1159160869,
        "campus_id": 102527513,
        "continent_id": 102191575,
        "country_id": 85633793,
        "county_id": 102087579,
        "custom_id": 1729362263,
        "instagram_id": 1729362263,
        "locality_id": 85922583,
        "neighbourhood_id": -1,
        "region_id": 85688637
      }
    ],
    "wof:id": 1729362263,
    "wof:lastmodified": 1787777646,
    "wof:name": "..",
    "wof:parent_id": 1159160869,
    "wof:placetype": "custom",
    "wof:placetype_alt": [
      "instagram"
    ],
    "wof:repo": "sfomuseum-data-socialmedia-instagram",
    "wof:superseded_by": [],
    "wof:supersedes": []
  },
  "bbox": [
    -122.386166,
    37.616356,
    -122.386166,
    37.616356
  ],
  "geometry": {"type":"Point","coordinates":[-122.386166,37.616356]}
}
