{
  "id": 1729361687,
  "type": "Feature",
  "properties": {
    "date:cessation_lower": "2015-07-22",
    "date:cessation_upper": "2015-07-22",
    "date:inception_lower": "2015-07-22",
    "date:inception_upper": "2015-07-22",
    "edtf:cessation": "2015-07-22T02:27:00-07:00",
    "edtf:inception": "2015-07-22T02:27:00-07:00",
    "geom:area": 0,
    "geom:bbox": "-122.386166,37.616356,-122.386166,37.616356",
    "geom:latitude": 37.616356,
    "geom:longitude": -122.386166,
    "instagram:post": {
      "caption": {
        "body": "Love this awesome photo by @lapinvintage! What an interesting angle! Catch Our Style is free and in our Aviation Museum and Library in International Terminal side A.  #Repost #Regram @lapinvintage with @repostapp. ・・・",
        "excerpt": "Love this awesome photo by @lapinvintage!",
        "hashtags": [
          "sfo",
          "sfomuseum",
          "aviation",
          "airlines",
          "uniform",
          "vintagefashion",
          "art",
          "history",
          "free",
          "museum",
          "library",
          "sanfrancisco",
          "1915panamapacific"
        ],
        "users": [
          "sfomuseum",
          "lisakramervintage..."
        ]
      },
      "media_id": "12a84977e5eadbf7809855861718737e",
      "path": "media/other/11275388_964852616871235_1643171047_n_17842027306062499.jpg",
      "perceptual_hash": "p:fb7a761db3068812",
      "taken": 1437557220,
      "taken_at": "Jul 22, 2015 9:27 am"
    },
    "millsfield:similar": {
      "google/siglip2-so400m-patch16-naflex": [
        {
          "distance": 0.33780211210250854,
          "id": 1729362935
        },
        {
          "distance": 0.36571502685546875,
          "id": 1729361681
        },
        {
          "distance": 0.37339848279953003,
          "id": 1729362935
        },
        {
          "distance": 0.40340083837509155,
          "id": 1729361681
        },
        {
          "distance": 0.40436071157455444,
          "id": 1729361651
        },
        {
          "distance": 0.4056727886199951,
          "id": 1729361657
        },
        {
          "distance": 0.40663349628448486,
          "id": 1729362719
        },
        {
          "distance": 0.40981870889663696,
          "id": 1880151179
        },
        {
          "distance": 0.4131612181663513,
          "id": 1729361585
        },
        {
          "distance": 0.41646116971969604,
          "id": 1729361685
        }
      ]
    },
    "sfomuseum:placetype": "instagram",
    "src:geom": "sfomuseum",
    "wof:belongsto": [
      1159160869,
      102527513,
      102191575,
      85633793,
      102087579,
      85922583,
      85688637
    ],
    "wof:country": "US",
    "wof:created": 1437557220,
    "wof:geomhash": "b6e33f47475d56bc8da457bc31afadc8",
    "wof:hierarchy": [
      {
        "building_id": 1159160869,
        "campus_id": 102527513,
        "continent_id": 102191575,
        "country_id": 85633793,
        "county_id": 102087579,
        "custom_id": 1729361687,
        "instagram_id": 1729361687,
        "locality_id": 85922583,
        "neighbourhood_id": -1,
        "region_id": 85688637
      }
    ],
    "wof:id": 1729361687,
    "wof:lastmodified": 1787777646,
    "wof:name": "Love this awesome photo by @lapinvintage!..",
    "wof:parent_id": 1159160869,
    "wof:placetype": "custom",
    "wof:placetype_alt": [
      "instagram"
    ],
    "wof:repo": "sfomuseum-data-socialmedia-instagram",
    "wof:superseded_by": [],
    "wof:supersedes": []
  },
  "bbox": [
    -122.386166,
    37.616356,
    -122.386166,
    37.616356
  ],
  "geometry": {"type":"Point","coordinates":[-122.386166,37.616356]}
}
