{
  "id": 1729361039,
  "type": "Feature",
  "properties": {
    "date:cessation_lower": "2016-02-17",
    "date:cessation_upper": "2016-02-17",
    "date:inception_lower": "2016-02-17",
    "date:inception_upper": "2016-02-17",
    "edtf:cessation": "2016-02-16T18:37:34-08:00",
    "edtf:inception": "2016-02-16T18:37:34-08:00",
    "geom:area": 0,
    "geom:bbox": "-122.386166,37.616356,-122.386166,37.616356",
    "geom:latitude": 37.616356,
    "geom:longitude": -122.386166,
    "instagram:post": {
      "caption": {
        "body": "Lufthansa has been one of the longest continually serving airlines at SFO. The first flight to SFO departed from Frankfurt on May 13, 1960. This photo was taken in May 1960 in front of SFO’s central terminal. Have you ever flown Lufthansa or been to Germany? #TravelTuesday  Lufthansa German Airlines 1990 brochure cover photograph, Boeing 707-120, San Francisco International Airport (SFO) 1960 SFO Museum Collection Gift of Lufthansa German Airlines 1995.83.01",
        "excerpt": "Lufthansa has been one of the longest continually serving airlines at SFO.",
        "hashtags": [],
        "users": []
      },
      "location": "San Francisco International Airport (SFO)",
      "media_id": "89fdeddb6943caae905048a49912a021",
      "path": "photos/201602/89fdeddb6943caae905048a49912a021.jpg",
      "perceptual_hash": "p:a19f2f60c03fcf90",
      "taken": 1455647820,
      "taken_at": "Feb 16, 2016, 6:37 PM"
    },
    "millsfield:similar": {
      "google/siglip2-so400m-patch16-naflex": [
        {
          "distance": 0.010383427143096924,
          "id": 1763558623
        },
        {
          "distance": 0.10698169469833374,
          "id": 1763558623
        },
        {
          "distance": 0.13216745853424072,
          "id": 1729358231
        },
        {
          "distance": 0.1633816361427307,
          "id": 1729356567
        },
        {
          "distance": 0.16659265756607056,
          "id": 1729358231
        },
        {
          "distance": 0.17872780561447144,
          "id": 1729357215
        },
        {
          "distance": 0.17982542514801025,
          "id": 1729355743
        },
        {
          "distance": 0.1823398470878601,
          "id": 1729358437
        },
        {
          "distance": 0.18630683422088623,
          "id": 1729357769
        },
        {
          "distance": 0.18632346391677856,
          "id": 1729358437
        }
      ]
    },
    "sfomuseum:placetype": "instagram",
    "src:geom": "sfomuseum",
    "wof:belongsto": [
      1159160869,
      102527513,
      102191575,
      85633793,
      102087579,
      85922583,
      85688637
    ],
    "wof:country": "US",
    "wof:created": 1455676654,
    "wof:geomhash": "b6e33f47475d56bc8da457bc31afadc8",
    "wof:hierarchy": [
      {
        "building_id": 1159160869,
        "campus_id": 102527513,
        "continent_id": 102191575,
        "country_id": 85633793,
        "county_id": 102087579,
        "custom_id": 1729361039,
        "instagram_id": 1729361039,
        "locality_id": 85922583,
        "neighbourhood_id": -1,
        "region_id": 85688637
      }
    ],
    "wof:id": 1729361039,
    "wof:lastmodified": 1787777643,
    "wof:name": "Lufthansa has been one of the longest continually serving airlines at SFO...",
    "wof:parent_id": 1159160869,
    "wof:placetype": "custom",
    "wof:placetype_alt": [
      "instagram"
    ],
    "wof:repo": "sfomuseum-data-socialmedia-instagram",
    "wof:superseded_by": [],
    "wof:supersedes": []
  },
  "bbox": [
    -122.386166,
    37.616356,
    -122.386166,
    37.616356
  ],
  "geometry": {"type":"Point","coordinates":[-122.386166,37.616356]}
}
