{
  "id": 1729362467,
  "type": "Feature",
  "properties": {
    "date:cessation_lower": "2013-11-20",
    "date:cessation_upper": "2013-11-20",
    "date:inception_lower": "2013-11-20",
    "date:inception_upper": "2013-11-20",
    "edtf:cessation": "2013-11-20T06:08:00-08:00",
    "edtf:inception": "2013-11-20T06:08:00-08:00",
    "geom:area": 0,
    "geom:bbox": "-122.386166,37.616356,-122.386166,37.616356",
    "geom:latitude": 37.616356,
    "geom:longitude": -122.386166,
    "instagram:post": {
      "caption": {
        "body": "",
        "excerpt": "",
        "hashtags": [
          "avgeek",
          "circlingtheglobe"
        ],
        "users": []
      },
      "media_id": "90a314bca840ea4725938400c54e22fe",
      "path": "media/other/1389402_235092076657198_1909570976_n_17842377316062499.jpg",
      "perceptual_hash": "p:c8683e92b497da2d",
      "taken": 1384956480,
      "taken_at": "Nov 20, 2013 2:08 pm"
    },
    "millsfield:similar": {
      "google/siglip2-so400m-patch16-naflex": [
        {
          "distance": 0.2352486252784729,
          "id": 1729362229
        },
        {
          "distance": 0.24454307556152344,
          "id": 1729362817
        },
        {
          "distance": 0.2465267777442932,
          "id": 1729362817
        },
        {
          "distance": 0.25848668813705444,
          "id": 1729362993
        },
        {
          "distance": 0.26707392930984497,
          "id": 1729362373
        },
        {
          "distance": 0.2684299349784851,
          "id": 1729362083
        },
        {
          "distance": 0.2718966007232666,
          "id": 1729362793
        },
        {
          "distance": 0.27560997009277344,
          "id": 1729362997
        },
        {
          "distance": 0.2834097146987915,
          "id": 1729362721
        },
        {
          "distance": 0.28421229124069214,
          "id": 1729362993
        }
      ]
    },
    "sfomuseum:placetype": "instagram",
    "src:geom": "sfomuseum",
    "wof:belongsto": [
      1159160869,
      102527513,
      102191575,
      85633793,
      102087579,
      85922583,
      85688637
    ],
    "wof:country": "US",
    "wof:created": 1384956480,
    "wof:geomhash": "b6e33f47475d56bc8da457bc31afadc8",
    "wof:hierarchy": [
      {
        "building_id": 1159160869,
        "campus_id": 102527513,
        "continent_id": 102191575,
        "country_id": 85633793,
        "county_id": 102087579,
        "custom_id": 1729362467,
        "instagram_id": 1729362467,
        "locality_id": 85922583,
        "neighbourhood_id": -1,
        "region_id": 85688637
      }
    ],
    "wof:id": 1729362467,
    "wof:lastmodified": 1787777647,
    "wof:name": "..",
    "wof:parent_id": 1159160869,
    "wof:placetype": "custom",
    "wof:placetype_alt": [
      "instagram"
    ],
    "wof:repo": "sfomuseum-data-socialmedia-instagram",
    "wof:superseded_by": [],
    "wof:supersedes": []
  },
  "bbox": [
    -122.386166,
    37.616356,
    -122.386166,
    37.616356
  ],
  "geometry": {"type":"Point","coordinates":[-122.386166,37.616356]}
}
