{
  "id": 1729355259,
  "type": "Feature",
  "properties": {
    "date:cessation_lower": "2020-05-12",
    "date:cessation_upper": "2020-05-12",
    "date:inception_lower": "2020-05-12",
    "date:inception_upper": "2020-05-12",
    "edtf:cessation": "2020-05-12T04:00:00-07:00",
    "edtf:inception": "2020-05-12T04:00:00-07:00",
    "geom:area": 0,
    "geom:bbox": "-122.386166,37.616356,-122.386166,37.616356",
    "geom:latitude": 37.616356,
    "geom:longitude": -122.386166,
    "instagram:post": {
      "caption": {
        "body": "Happy #InternationalNursesDay! Many stewardesses and air hostesses hired before World War II were registered nurses. In the early days of aviation, aircraft were unpressurised and flew at low altitudes through turbulent weather formations, which often created very bumpy rides. Passengers were often sick on flights, and the cabin crew nurses were there to ease the journey as much as they could.  SFO Museum would like to thank nurses everywhere for all of your hard work and dedication.  Image:  Transcontinental \u0026 Western Air (TWA), air hostesses, 1935. Gift of TWA Clipped Wings International. 2002.113.394",
        "excerpt": "Happy #InternationalNursesDay!",
        "hashtags": [
          "avgeek",
          "MuseumFromHome"
        ],
        "users": []
      },
      "media_id": "44170d37509040c89dceb2c8da5de78f",
      "path": "media/other/96793257_673034336831308_7210360501695758892_n_17861651653866524.jpg",
      "perceptual_hash": "p:fedce8caa9248929",
      "taken": 1589281200,
      "taken_at": "May 12, 2020 11:00 am"
    },
    "millsfield:similar": {
      "google/siglip2-so400m-patch16-naflex": [
        {
          "distance": 0.0021927356719970703,
          "id": 1729361131
        },
        {
          "distance": 0.15464788675308228,
          "id": 1729361131
        },
        {
          "distance": 0.15630847215652466,
          "id": 1729356563
        },
        {
          "distance": 0.1650211215019226,
          "id": 1947425081
        },
        {
          "distance": 0.17142528295516968,
          "id": 1729355587
        },
        {
          "distance": 0.1794980764389038,
          "id": 1729359251
        },
        {
          "distance": 0.18430829048156738,
          "id": 1729359841
        },
        {
          "distance": 0.18609899282455444,
          "id": 1947425081
        },
        {
          "distance": 0.187411367893219,
          "id": 1729361245
        },
        {
          "distance": 0.1911296248435974,
          "id": 1729360843
        }
      ]
    },
    "sfomuseum:placetype": "instagram",
    "src:geom": "sfomuseum",
    "wof:belongsto": [
      1159160869,
      102527513,
      102191575,
      85633793,
      102087579,
      85922583,
      85688637
    ],
    "wof:country": "US",
    "wof:created": 1589281200,
    "wof:geomhash": "b6e33f47475d56bc8da457bc31afadc8",
    "wof:hierarchy": [
      {
        "building_id": 1159160869,
        "campus_id": 102527513,
        "continent_id": 102191575,
        "country_id": 85633793,
        "county_id": 102087579,
        "custom_id": 1729355259,
        "instagram_id": 1729355259,
        "locality_id": 85922583,
        "neighbourhood_id": -1,
        "region_id": 85688637
      }
    ],
    "wof:id": 1729355259,
    "wof:lastmodified": 1787777621,
    "wof:name": "Happy #InternationalNursesDay!..",
    "wof:parent_id": 1159160869,
    "wof:placetype": "custom",
    "wof:placetype_alt": [
      "instagram"
    ],
    "wof:repo": "sfomuseum-data-socialmedia-instagram",
    "wof:superseded_by": [],
    "wof:supersedes": []
  },
  "bbox": [
    -122.386166,
    37.616356,
    -122.386166,
    37.616356
  ],
  "geometry": {"type":"Point","coordinates":[-122.386166,37.616356]}
}
