{
  "id": 1729361993,
  "type": "Feature",
  "properties": {
    "date:cessation_lower": "2014-12-17",
    "date:cessation_upper": "2014-12-17",
    "date:inception_lower": "2014-12-17",
    "date:inception_upper": "2014-12-17",
    "edtf:cessation": "2014-12-17T06:34:00-08:00",
    "edtf:inception": "2014-12-17T06:34:00-08:00",
    "geom:area": 0,
    "geom:bbox": "-122.386166,37.616356,-122.386166,37.616356",
    "geom:latitude": 37.616356,
    "geom:longitude": -122.386166,
    "instagram:post": {
      "caption": {
        "body": "",
        "excerpt": "",
        "hashtags": [
          "CNAC",
          "aviation"
        ],
        "users": []
      },
      "media_id": "11ed1ffd0cd48220b0c989cb847ea866",
      "path": "media/other/10838555_1582863955278997_86148531_n_17842503613062499.jpg",
      "perceptual_hash": "p:80923acd2ec73ecb",
      "taken": 1418826840,
      "taken_at": "Dec 17, 2014 2:34 pm"
    },
    "millsfield:similar": {
      "google/siglip2-so400m-patch16-naflex": [
        {
          "distance": 0.28984880447387695,
          "id": 1729359331
        },
        {
          "distance": 0.30259639024734497,
          "id": 1729362391
        },
        {
          "distance": 0.30748140811920166,
          "id": 1729360115
        },
        {
          "distance": 0.3270474076271057,
          "id": 1729362335
        },
        {
          "distance": 0.32761359214782715,
          "id": 1729362451
        },
        {
          "distance": 0.3287869691848755,
          "id": 1729362335
        },
        {
          "distance": 0.33371472358703613,
          "id": 1763559515
        },
        {
          "distance": 0.3380519151687622,
          "id": 1729362233
        },
        {
          "distance": 0.3461986184120178,
          "id": 1729359331
        },
        {
          "distance": 0.34674394130706787,
          "id": 1729362441
        }
      ]
    },
    "sfomuseum:placetype": "instagram",
    "src:geom": "sfomuseum",
    "wof:belongsto": [
      1159160869,
      102527513,
      102191575,
      85633793,
      102087579,
      85922583,
      85688637
    ],
    "wof:country": "US",
    "wof:created": 1418826840,
    "wof:geomhash": "b6e33f47475d56bc8da457bc31afadc8",
    "wof:hierarchy": [
      {
        "building_id": 1159160869,
        "campus_id": 102527513,
        "continent_id": 102191575,
        "country_id": 85633793,
        "county_id": 102087579,
        "custom_id": 1729361993,
        "instagram_id": 1729361993,
        "locality_id": 85922583,
        "neighbourhood_id": -1,
        "region_id": 85688637
      }
    ],
    "wof:id": 1729361993,
    "wof:lastmodified": 1787777646,
    "wof:name": "..",
    "wof:parent_id": 1159160869,
    "wof:placetype": "custom",
    "wof:placetype_alt": [
      "instagram"
    ],
    "wof:repo": "sfomuseum-data-socialmedia-instagram",
    "wof:superseded_by": [],
    "wof:supersedes": []
  },
  "bbox": [
    -122.386166,
    37.616356,
    -122.386166,
    37.616356
  ],
  "geometry": {"type":"Point","coordinates":[-122.386166,37.616356]}
}
