{
  "id": 1729358463,
  "type": "Feature",
  "properties": {
    "date:cessation_lower": "2018-03-14",
    "date:cessation_upper": "2018-03-14",
    "date:inception_lower": "2018-03-14",
    "date:inception_upper": "2018-03-14",
    "edtf:cessation": "2018-03-14T08:50:00-07:00",
    "edtf:inception": "2018-03-14T08:50:00-07:00",
    "geom:area": 0,
    "geom:bbox": "-122.386166,37.616356,-122.386166,37.616356",
    "geom:latitude": 37.616356,
    "geom:longitude": -122.386166,
    "instagram:post": {
      "caption": {
        "body": "Ida Staggers was first hired by TWA (Transcontinental \u0026 Western Air) as a hostess in 1936. She initially made her mark within the airline during a high-profile cross-country business charter with the Guinness Company of Ireland. The captain of the charter commended her on making \"a lasting impression on the quality and efficiency of TWA service.\" As a result, she was promoted to instructor at the TWA hostess training school. By the 1940s, she had attained the position of Eastern Division Chief Hostess, which placed her in charge of hostess hiring, training, and working standards. She instructed TWA hostesses to be \"feminine,\" conduct themselves \"to gain respect for the uniform,\" and to always \"smile, your biggest, brightest smile.\" Ida Staggers remained with TWA for thirty-six years before retiring in 1972. #WomenInAviation  Image: Transcontinental \u0026 Western Air (TWA), Ida Staggers, 1941. Gift of TWA Clipped Wings International, Inc. 2002.113.365",
        "excerpt": "Ida Staggers was first hired by TWA (Transcontinental \u0026 Western Air) as a hostess in 1936.",
        "hashtags": [
          "WomeninAviation",
          "womenshistorymonth",
          "avgeek",
          "avationgeek",
          "aviation",
          "aviationhistory",
          "vintageaviation",
          "history",
          "avhistory",
          "aviationgeeks",
          "avgeeks"
        ],
        "users": []
      },
      "media_id": "cea5be1b3b4eaca79ed6488e7a247c87",
      "path": "media/other/28764592_2161296214098737_3213194321243144192_n_17917468309105173.jpg",
      "perceptual_hash": "p:dff0c126c22d3933",
      "taken": 1521042600,
      "taken_at": "Mar 14, 2018 3:50 pm"
    },
    "millsfield:similar": {
      "google/siglip2-so400m-patch16-naflex": [
        {
          "distance": 0.03898012638092041,
          "id": 1729361355
        },
        {
          "distance": 0.13852936029434204,
          "id": 1729358225
        },
        {
          "distance": 0.1548316478729248,
          "id": 1729359503
        },
        {
          "distance": 0.1551768183708191,
          "id": 1880151765
        },
        {
          "distance": 0.16298460960388184,
          "id": 1729357679
        },
        {
          "distance": 0.17245978116989136,
          "id": 1729361355
        },
        {
          "distance": 0.18833684921264648,
          "id": 1729360785
        },
        {
          "distance": 0.2001279592514038,
          "id": 1729357679
        },
        {
          "distance": 0.2174561619758606,
          "id": 1729358945
        },
        {
          "distance": 0.21854311227798462,
          "id": 1729359503
        }
      ]
    },
    "sfomuseum:placetype": "instagram",
    "src:geom": "sfomuseum",
    "wof:belongsto": [
      1159160869,
      102527513,
      102191575,
      85633793,
      102087579,
      85922583,
      85688637
    ],
    "wof:country": "US",
    "wof:created": 1521042600,
    "wof:geomhash": "b6e33f47475d56bc8da457bc31afadc8",
    "wof:hierarchy": [
      {
        "building_id": 1159160869,
        "campus_id": 102527513,
        "continent_id": 102191575,
        "country_id": 85633793,
        "county_id": 102087579,
        "custom_id": 1729358463,
        "instagram_id": 1729358463,
        "locality_id": 85922583,
        "neighbourhood_id": -1,
        "region_id": 85688637
      }
    ],
    "wof:id": 1729358463,
    "wof:lastmodified": 1787777633,
    "wof:name": "Ida Staggers was first hired by TWA (Transcontinental \u0026 Western Air) as a hostess in 1936...",
    "wof:parent_id": 1159160869,
    "wof:placetype": "custom",
    "wof:placetype_alt": [
      "instagram"
    ],
    "wof:repo": "sfomuseum-data-socialmedia-instagram",
    "wof:superseded_by": [],
    "wof:supersedes": []
  },
  "bbox": [
    -122.386166,
    37.616356,
    -122.386166,
    37.616356
  ],
  "geometry": {"type":"Point","coordinates":[-122.386166,37.616356]}
}
