{
  "id": 1729362341,
  "type": "Feature",
  "properties": {
    "date:cessation_lower": "2014-04-08",
    "date:cessation_upper": "2014-04-08",
    "date:inception_lower": "2014-04-08",
    "date:inception_upper": "2014-04-08",
    "edtf:cessation": "2014-04-08T05:43:00-07:00",
    "edtf:inception": "2014-04-08T05:43:00-07:00",
    "geom:area": 0,
    "geom:bbox": "-122.386166,37.616356,-122.386166,37.616356",
    "geom:latitude": 37.616356,
    "geom:longitude": -122.386166,
    "instagram:post": {
      "caption": {
        "body": "",
        "excerpt": "",
        "hashtags": [
          "ourinternsROCK"
        ],
        "users": []
      },
      "media_id": "5fd591c8d7c2e9b4c687c5f1f8a4bc14",
      "path": "media/other/1538512_858160960877432_1108940114_n_17842418086062499.jpg",
      "perceptual_hash": "p:812f3bc9bd906d70",
      "taken": 1396960980,
      "taken_at": "Apr 08, 2014 12:43 pm"
    },
    "millsfield:similar": {
      "google/siglip2-so400m-patch16-naflex": [
        {
          "distance": 0.25794512033462524,
          "id": 1729362635
        },
        {
          "distance": 0.27717357873916626,
          "id": 1729362139
        },
        {
          "distance": 0.29569733142852783,
          "id": 1729362431
        },
        {
          "distance": 0.29768651723861694,
          "id": 1729362635
        },
        {
          "distance": 0.3008943200111389,
          "id": 1880151383
        },
        {
          "distance": 0.3162718415260315,
          "id": 1729362651
        },
        {
          "distance": 0.3248961567878723,
          "id": 1729363039
        },
        {
          "distance": 0.32997626066207886,
          "id": 1729362317
        },
        {
          "distance": 0.3325762152671814,
          "id": 1729362991
        },
        {
          "distance": 0.33462613821029663,
          "id": 1729362229
        }
      ]
    },
    "sfomuseum:placetype": "instagram",
    "src:geom": "sfomuseum",
    "wof:belongsto": [
      1159160869,
      102527513,
      102191575,
      85633793,
      102087579,
      85922583,
      85688637
    ],
    "wof:country": "US",
    "wof:created": 1396960980,
    "wof:geomhash": "b6e33f47475d56bc8da457bc31afadc8",
    "wof:hierarchy": [
      {
        "building_id": 1159160869,
        "campus_id": 102527513,
        "continent_id": 102191575,
        "country_id": 85633793,
        "county_id": 102087579,
        "custom_id": 1729362341,
        "instagram_id": 1729362341,
        "locality_id": 85922583,
        "neighbourhood_id": -1,
        "region_id": 85688637
      }
    ],
    "wof:id": 1729362341,
    "wof:lastmodified": 1787777647,
    "wof:name": "..",
    "wof:parent_id": 1159160869,
    "wof:placetype": "custom",
    "wof:placetype_alt": [
      "instagram"
    ],
    "wof:repo": "sfomuseum-data-socialmedia-instagram",
    "wof:superseded_by": [],
    "wof:supersedes": []
  },
  "bbox": [
    -122.386166,
    37.616356,
    -122.386166,
    37.616356
  ],
  "geometry": {"type":"Point","coordinates":[-122.386166,37.616356]}
}
