{
  "id": 1729361401,
  "type": "Feature",
  "properties": {
    "date:cessation_lower": "2015-11-02",
    "date:cessation_upper": "2015-11-02",
    "date:inception_lower": "2015-11-02",
    "date:inception_upper": "2015-11-02",
    "edtf:cessation": "2015-11-02T02:11:00-08:00",
    "edtf:inception": "2015-11-02T02:11:00-08:00",
    "geom:area": 0,
    "geom:bbox": "-122.386166,37.616356,-122.386166,37.616356",
    "geom:latitude": 37.616356,
    "geom:longitude": -122.386166,
    "instagram:post": {
      "caption": {
        "body": "",
        "excerpt": "",
        "hashtags": [
          "MuseumMonday"
        ],
        "users": []
      },
      "media_id": "2ef94e0b61e8836fc422b915f08d333a",
      "path": "media/other/1971351_544266382403618_46195806_n_17844709621062499.jpg",
      "perceptual_hash": "p:98ad67523d7d82c8",
      "taken": 1446459060,
      "taken_at": "Nov 02, 2015 10:11 am"
    },
    "millsfield:similar": {
      "google/siglip2-so400m-patch16-naflex": [
        {
          "distance": 0.1923043131828308,
          "id": 1729361221
        },
        {
          "distance": 0.24906319379806519,
          "id": 1729361221
        },
        {
          "distance": 0.24968445301055908,
          "id": 1729355541
        },
        {
          "distance": 0.2609843611717224,
          "id": 1763559213
        },
        {
          "distance": 0.2737885117530823,
          "id": 1729355483
        },
        {
          "distance": 0.2833055257797241,
          "id": 1880151555
        },
        {
          "distance": 0.28472137451171875,
          "id": 1763559193
        },
        {
          "distance": 0.28886842727661133,
          "id": 1729360715
        },
        {
          "distance": 0.29313915967941284,
          "id": 1729357337
        },
        {
          "distance": 0.2964910864830017,
          "id": 1729359363
        }
      ]
    },
    "sfomuseum:placetype": "instagram",
    "src:geom": "sfomuseum",
    "wof:belongsto": [
      1159160869,
      102527513,
      102191575,
      85633793,
      102087579,
      85922583,
      85688637
    ],
    "wof:country": "US",
    "wof:created": 1446459060,
    "wof:geomhash": "b6e33f47475d56bc8da457bc31afadc8",
    "wof:hierarchy": [
      {
        "building_id": 1159160869,
        "campus_id": 102527513,
        "continent_id": 102191575,
        "country_id": 85633793,
        "county_id": 102087579,
        "custom_id": 1729361401,
        "instagram_id": 1729361401,
        "locality_id": 85922583,
        "neighbourhood_id": -1,
        "region_id": 85688637
      }
    ],
    "wof:id": 1729361401,
    "wof:lastmodified": 1787777645,
    "wof:name": "..",
    "wof:parent_id": 1159160869,
    "wof:placetype": "custom",
    "wof:placetype_alt": [
      "instagram"
    ],
    "wof:repo": "sfomuseum-data-socialmedia-instagram",
    "wof:superseded_by": [],
    "wof:supersedes": []
  },
  "bbox": [
    -122.386166,
    37.616356,
    -122.386166,
    37.616356
  ],
  "geometry": {"type":"Point","coordinates":[-122.386166,37.616356]}
}
