{
  "id": 1729357607,
  "type": "Feature",
  "properties": {
    "date:cessation_lower": "2018-10-04",
    "date:cessation_upper": "2018-10-04",
    "date:inception_lower": "2018-10-04",
    "date:inception_upper": "2018-10-04",
    "edtf:cessation": "2018-10-04T06:25:00-07:00",
    "edtf:inception": "2018-10-04T06:25:00-07:00",
    "geom:area": 0,
    "geom:bbox": "-122.386166,37.616356,-122.386166,37.616356",
    "geom:latitude": 37.616356,
    "geom:longitude": -122.386166,
    "instagram:post": {
      "caption": {
        "body": "A barbershop opened at San Francisco International Airport in the 1970s. At the opening ceremony, airport Director William J. Dwyer received a haircut from barber Joseph Dias. Do you remember this barber shop at SFO?  Image: Barber shop at San Francisco International Airport, c. 1975. SFO Museum Collection. 2011.032.2331",
        "excerpt": "A barbershop opened at San Francisco International Airport in the 1970s.",
        "hashtags": [
          "SFOHistory",
          "ThrowbackThursday",
          "SFO",
          "haircut",
          "barber",
          "history",
          "barbershop",
          "haircut",
          "1970s",
          "airportstyle"
        ],
        "users": []
      },
      "media_id": "fbdefc662bf5cc15010e8d90dc2034bb",
      "path": "media/other/42739305_362322904509465_2050904743964086664_n_17985346831009727.jpg",
      "perceptual_hash": "p:9683483469f37f1c",
      "taken": 1538659500,
      "taken_at": "Oct 04, 2018 1:25 pm"
    },
    "millsfield:similar": {
      "google/siglip2-so400m-patch16-naflex": [
        {
          "distance": 0.045861244201660156,
          "id": 1729360445
        },
        {
          "distance": 0.0885733962059021,
          "id": 1729360445
        },
        {
          "distance": 0.2690870761871338,
          "id": 1729359587
        },
        {
          "distance": 0.2858467102050781,
          "id": 1729359587
        },
        {
          "distance": 0.3077559471130371,
          "id": 1729359845
        },
        {
          "distance": 0.3119691014289856,
          "id": 1729359421
        },
        {
          "distance": 0.3138337731361389,
          "id": 1729359615
        },
        {
          "distance": 0.31456679105758667,
          "id": 1729357969
        },
        {
          "distance": 0.3149746060371399,
          "id": 1729359983
        },
        {
          "distance": 0.320453941822052,
          "id": 1729359421
        }
      ]
    },
    "sfomuseum:placetype": "instagram",
    "src:geom": "sfomuseum",
    "wof:belongsto": [
      1159160869,
      102527513,
      102191575,
      85633793,
      102087579,
      85922583,
      85688637
    ],
    "wof:country": "US",
    "wof:created": 1538659500,
    "wof:geomhash": "b6e33f47475d56bc8da457bc31afadc8",
    "wof:hierarchy": [
      {
        "building_id": 1159160869,
        "campus_id": 102527513,
        "continent_id": 102191575,
        "country_id": 85633793,
        "county_id": 102087579,
        "custom_id": 1729357607,
        "instagram_id": 1729357607,
        "locality_id": 85922583,
        "neighbourhood_id": -1,
        "region_id": 85688637
      }
    ],
    "wof:id": 1729357607,
    "wof:lastmodified": 1787777632,
    "wof:name": "A barbershop opened at San Francisco International Airport in the 1970s...",
    "wof:parent_id": 1159160869,
    "wof:placetype": "custom",
    "wof:placetype_alt": [
      "instagram"
    ],
    "wof:repo": "sfomuseum-data-socialmedia-instagram",
    "wof:superseded_by": [],
    "wof:supersedes": []
  },
  "bbox": [
    -122.386166,
    37.616356,
    -122.386166,
    37.616356
  ],
  "geometry": {"type":"Point","coordinates":[-122.386166,37.616356]}
}
