{
  "id": 1880151339,
  "type": "Feature",
  "properties": {
    "date:cessation_lower": "2022-11-11",
    "date:cessation_upper": "2022-11-11",
    "date:inception_lower": "2022-11-11",
    "date:inception_upper": "2022-11-11",
    "edtf:cessation": "2022-11-11T00:18:00-08:00",
    "edtf:inception": "2022-11-11T00:18:00-08:00",
    "geom:area": 0,
    "geom:bbox": "-122.386166,37.616356,-122.386166,37.616356",
    "geom:latitude": 37.616356,
    "geom:longitude": -122.386166,
    "instagram:post": {
      "caption": {
        "body": "The Aviation Museum and Library is closed to honor Veteran’s Day. It will reopen tomorrow at 10am. All other exhibitions around the airport are available to view. http://bit.ly/SFOMExhibitions",
        "excerpt": "The Aviation Museum and Library is closed to honor Veteran’s Day.",
        "hashtags": [],
        "users": []
      },
      "media_id": "20a2b71eb70fe1af8a7f01db484d03e70308694c",
      "path": "media/other/315201754_870903973912575_9000469919520387259_n_17969866210821976.jpg",
      "perceptual_hash": "p:8a912d5a57b6ad46",
      "taken": 1668154680,
      "taken_at": "Nov 11, 2022 8:18 am"
    },
    "millsfield:similar": {
      "google/siglip2-so400m-patch16-naflex": [
        {
          "distance": 0.17725515365600586,
          "id": 1763559407
        },
        {
          "distance": 0.21776646375656128,
          "id": 1763559407
        },
        {
          "distance": 0.23340582847595215,
          "id": 1729357499
        },
        {
          "distance": 0.23551642894744873,
          "id": 1763559129
        },
        {
          "distance": 0.2483115792274475,
          "id": 1880151401
        },
        {
          "distance": 0.25062936544418335,
          "id": 1729357499
        },
        {
          "distance": 0.2509445548057556,
          "id": 1947424999
        },
        {
          "distance": 0.25341320037841797,
          "id": 1947425115
        },
        {
          "distance": 0.2577829957008362,
          "id": 1729355059
        },
        {
          "distance": 0.25855839252471924,
          "id": 1947425199
        }
      ]
    },
    "sfomuseum:placetype": "instagram",
    "src:geom": "sfomuseum",
    "wof:belongsto": [
      1159160869,
      102527513,
      102191575,
      85633793,
      102087579,
      85922583,
      85688637
    ],
    "wof:country": "US",
    "wof:created": 1668154680,
    "wof:geomhash": "b6e33f47475d56bc8da457bc31afadc8",
    "wof:hierarchy": [
      {
        "building_id": 1159160869,
        "campus_id": 102527513,
        "continent_id": 102191575,
        "country_id": 85633793,
        "county_id": 102087579,
        "custom_id": 1880151339,
        "instagram_id": 1880151339,
        "locality_id": 85922583,
        "neighbourhood_id": -1,
        "region_id": 85688637
      }
    ],
    "wof:id": 1880151339,
    "wof:lastmodified": 1787777662,
    "wof:name": "The Aviation Museum and Library is closed to honor Veteran’s Day...",
    "wof:parent_id": 1159160869,
    "wof:placetype": "custom",
    "wof:placetype_alt": [
      "instagram"
    ],
    "wof:repo": "sfomuseum-data-socialmedia-instagram",
    "wof:superseded_by": [],
    "wof:supersedes": []
  },
  "bbox": [
    -122.386166,
    37.616356,
    -122.386166,
    37.616356
  ],
  "geometry": {"type":"Point","coordinates":[-122.386166,37.616356]}
}
