{
  "id": 1729361467,
  "type": "Feature",
  "properties": {
    "date:cessation_lower": "2015-10-08",
    "date:cessation_upper": "2015-10-08",
    "date:inception_lower": "2015-10-08",
    "date:inception_upper": "2015-10-08",
    "edtf:cessation": "2015-10-08T11:38:00-07:00",
    "edtf:inception": "2015-10-08T11:38:00-07:00",
    "geom:area": 0,
    "geom:bbox": "-122.386166,37.616356,-122.386166,37.616356",
    "geom:latitude": 37.616356,
    "geom:longitude": -122.386166,
    "instagram:post": {
      "caption": {
        "body": "",
        "excerpt": "",
        "hashtags": [
          "ThrowbackThursday"
        ],
        "users": []
      },
      "media_id": "467d3ee2d1c1a23478ffaf187d184626",
      "path": "media/other/12093755_1477992382530274_250150909_n_17844094174062499.jpg",
      "perceptual_hash": "p:c64d9b336d66cc28",
      "taken": 1444329480,
      "taken_at": "Oct 08, 2015 6:38 pm"
    },
    "millsfield:similar": {
      "google/siglip2-so400m-patch16-naflex": [
        {
          "distance": 0.11612802743911743,
          "id": 1763559643
        },
        {
          "distance": 0.12233704328536987,
          "id": 1729360135
        },
        {
          "distance": 0.13225167989730835,
          "id": 1729357403
        },
        {
          "distance": 0.13630378246307373,
          "id": 1729360519
        },
        {
          "distance": 0.1407734751701355,
          "id": 1763559643
        },
        {
          "distance": 0.1499144434928894,
          "id": 1729360257
        },
        {
          "distance": 0.15586310625076294,
          "id": 1729359139
        },
        {
          "distance": 0.1644003987312317,
          "id": 1763559499
        },
        {
          "distance": 0.168268620967865,
          "id": 1729360519
        },
        {
          "distance": 0.17140662670135498,
          "id": 1729360205
        }
      ]
    },
    "sfomuseum:placetype": "instagram",
    "src:geom": "sfomuseum",
    "wof:belongsto": [
      1159160869,
      102527513,
      102191575,
      85633793,
      102087579,
      85922583,
      85688637
    ],
    "wof:country": "US",
    "wof:created": 1444329480,
    "wof:geomhash": "b6e33f47475d56bc8da457bc31afadc8",
    "wof:hierarchy": [
      {
        "building_id": 1159160869,
        "campus_id": 102527513,
        "continent_id": 102191575,
        "country_id": 85633793,
        "county_id": 102087579,
        "custom_id": 1729361467,
        "instagram_id": 1729361467,
        "locality_id": 85922583,
        "neighbourhood_id": -1,
        "region_id": 85688637
      }
    ],
    "wof:id": 1729361467,
    "wof:lastmodified": 1787777645,
    "wof:name": "..",
    "wof:parent_id": 1159160869,
    "wof:placetype": "custom",
    "wof:placetype_alt": [
      "instagram"
    ],
    "wof:repo": "sfomuseum-data-socialmedia-instagram",
    "wof:superseded_by": [],
    "wof:supersedes": []
  },
  "bbox": [
    -122.386166,
    37.616356,
    -122.386166,
    37.616356
  ],
  "geometry": {"type":"Point","coordinates":[-122.386166,37.616356]}
}
