{
  "id": 1729359313,
  "type": "Feature",
  "properties": {
    "date:cessation_lower": "2017-07-14",
    "date:cessation_upper": "2017-07-14",
    "date:inception_lower": "2017-07-14",
    "date:inception_upper": "2017-07-14",
    "edtf:cessation": "2017-07-13T18:39:54-07:00",
    "edtf:inception": "2017-07-13T18:39:54-07:00",
    "geom:area": 0,
    "geom:bbox": "-122.386166,37.616356,-122.386166,37.616356",
    "geom:latitude": 37.616356,
    "geom:longitude": -122.386166,
    "instagram:post": {
      "caption": {
        "body": "What was SFO like back in the 1960s? This brochure maps out all the airlines and amenities available at the airport at the time. Did you ever visit the Aztec Bar or the Pancake Palace? How about flying on Pacific Airlines or SF\u0026O Helicopter Airlines?  Image: San Francisco International Airport (SFO) airport information, c. 1965. Gift of David A. Abercrombie, in memory of Stanley A. Abercrombie. 2001.039.697",
        "excerpt": "What was SFO like back in the 1960s?",
        "hashtags": [
          "avgeek",
          "airportmaps",
          "aviationhistory",
          "SFOHistory",
          "TBT",
          "ThrowbackThursday"
        ],
        "users": []
      },
      "location": "",
      "media_id": "2f176d577e97af8f4f66ba725449190f",
      "path": "photos/201707/2f176d577e97af8f4f66ba725449190f.jpg",
      "perceptual_hash": "p:bbc4876fa0c26974",
      "taken": 1499967540,
      "taken_at": "Jul 13, 2017, 5:39 PM"
    },
    "millsfield:similar": {
      "google/siglip2-so400m-patch16-naflex": [
        {
          "distance": 0.000023245811462402344,
          "id": 1763558669
        },
        {
          "distance": 0.06112581491470337,
          "id": 1729359323
        },
        {
          "distance": 0.104453444480896,
          "id": 1763558669
        },
        {
          "distance": 0.1453925371170044,
          "id": 1729359323
        },
        {
          "distance": 0.20628881454467773,
          "id": 1729357941
        },
        {
          "distance": 0.2367457151412964,
          "id": 1729357941
        },
        {
          "distance": 0.24762219190597534,
          "id": 1729357667
        },
        {
          "distance": 0.2527781128883362,
          "id": 1729360259
        },
        {
          "distance": 0.25293290615081787,
          "id": 1729361615
        },
        {
          "distance": 0.2534582018852234,
          "id": 1729360213
        }
      ]
    },
    "sfomuseum:placetype": "instagram",
    "src:geom": "sfomuseum",
    "wof:belongsto": [
      1159160869,
      102527513,
      102191575,
      85633793,
      102087579,
      85922583,
      85688637
    ],
    "wof:country": "US",
    "wof:created": 1499996394,
    "wof:geomhash": "b6e33f47475d56bc8da457bc31afadc8",
    "wof:hierarchy": [
      {
        "building_id": 1159160869,
        "campus_id": 102527513,
        "continent_id": 102191575,
        "country_id": 85633793,
        "county_id": 102087579,
        "custom_id": 1729359313,
        "instagram_id": 1729359313,
        "locality_id": 85922583,
        "neighbourhood_id": -1,
        "region_id": 85688637
      }
    ],
    "wof:id": 1729359313,
    "wof:lastmodified": 1787777635,
    "wof:name": "What was SFO like back in the 1960s?..",
    "wof:parent_id": 1159160869,
    "wof:placetype": "custom",
    "wof:placetype_alt": [
      "instagram"
    ],
    "wof:repo": "sfomuseum-data-socialmedia-instagram",
    "wof:superseded_by": [],
    "wof:supersedes": []
  },
  "bbox": [
    -122.386166,
    37.616356,
    -122.386166,
    37.616356
  ],
  "geometry": {"type":"Point","coordinates":[-122.386166,37.616356]}
}
