{
  "id": 1729361057,
  "type": "Feature",
  "properties": {
    "date:cessation_lower": "2016-02-12",
    "date:cessation_upper": "2016-02-12",
    "date:inception_lower": "2016-02-12",
    "date:inception_upper": "2016-02-12",
    "edtf:cessation": "2016-02-12T12:27:00-08:00",
    "edtf:inception": "2016-02-12T12:27:00-08:00",
    "geom:area": 0,
    "geom:bbox": "-122.386166,37.616356,-122.386166,37.616356",
    "geom:latitude": 37.616356,
    "geom:longitude": -122.386166,
    "instagram:post": {
      "caption": {
        "body": "Featuring the Pan American Airways Martin M-130 China Clipper, this colorful postcard from circa 1935 is missing two distinctive Bay Area landmarks, for which construction was underway but not complete. Can you name them? #SFHistory #PanAm  Pan American Airways, Martin M-130 China Clipper c. 1935 SFO Museum Collection Gift of the Captain John B. Russell Family 2012.149.0482",
        "excerpt": "Featuring the Pan American Airways Martin M-130 China Clipper, this colorful postcard from circa 1935 is missing two distinctive Bay Area landmarks, for which construction was underway but not complete.",
        "hashtags": [],
        "users": []
      },
      "media_id": "9b48a60b651c9bb720ef61224eadc7ef",
      "path": "media/other/12628027_184460335254546_1229885616_n_17857230724030729.jpg",
      "perceptual_hash": "p:eb8dd4c18d72c10f",
      "taken": 1455308820,
      "taken_at": "Feb 12, 2016 8:27 pm"
    },
    "millsfield:similar": {
      "google/siglip2-so400m-patch16-naflex": [
        {
          "distance": 0.14663273096084595,
          "id": 1729357581
        },
        {
          "distance": 0.15261077880859375,
          "id": 1729360243
        },
        {
          "distance": 0.16856682300567627,
          "id": 1880151313
        },
        {
          "distance": 0.16967034339904785,
          "id": 1880151313
        },
        {
          "distance": 0.17534655332565308,
          "id": 1729361173
        },
        {
          "distance": 0.18205136060714722,
          "id": 1729357581
        },
        {
          "distance": 0.18542444705963135,
          "id": 1729359597
        },
        {
          "distance": 0.18593353033065796,
          "id": 1729360243
        },
        {
          "distance": 0.18713831901550293,
          "id": 1729355993
        },
        {
          "distance": 0.19614535570144653,
          "id": 1729361173
        }
      ]
    },
    "sfomuseum:placetype": "instagram",
    "src:geom": "sfomuseum",
    "wof:belongsto": [
      1159160869,
      102527513,
      102191575,
      85633793,
      102087579,
      85922583,
      85688637
    ],
    "wof:country": "US",
    "wof:created": 1455308820,
    "wof:geomhash": "b6e33f47475d56bc8da457bc31afadc8",
    "wof:hierarchy": [
      {
        "building_id": 1159160869,
        "campus_id": 102527513,
        "continent_id": 102191575,
        "country_id": 85633793,
        "county_id": 102087579,
        "custom_id": 1729361057,
        "instagram_id": 1729361057,
        "locality_id": 85922583,
        "neighbourhood_id": -1,
        "region_id": 85688637
      }
    ],
    "wof:id": 1729361057,
    "wof:lastmodified": 1787777643,
    "wof:name": "Featuring the Pan American Airways Martin M-130 China Clipper, this colorful postcard from circa 1935 is missing two distinctive Bay Area landmarks, for which construction was underway but not complete...",
    "wof:parent_id": 1159160869,
    "wof:placetype": "custom",
    "wof:placetype_alt": [
      "instagram"
    ],
    "wof:repo": "sfomuseum-data-socialmedia-instagram",
    "wof:superseded_by": [],
    "wof:supersedes": []
  },
  "bbox": [
    -122.386166,
    37.616356,
    -122.386166,
    37.616356
  ],
  "geometry": {"type":"Point","coordinates":[-122.386166,37.616356]}
}
