{
  "id": 1729358737,
  "type": "Feature",
  "properties": {
    "date:cessation_lower": "2018-01-08",
    "date:cessation_upper": "2018-01-08",
    "date:inception_lower": "2018-01-08",
    "date:inception_upper": "2018-01-08",
    "edtf:cessation": "2018-01-08T09:02:00-08:00",
    "edtf:inception": "2018-01-08T09:02:00-08:00",
    "geom:area": 0,
    "geom:bbox": "-122.386166,37.616356,-122.386166,37.616356",
    "geom:latitude": 37.616356,
    "geom:longitude": -122.386166,
    "instagram:post": {
      "caption": {
        "body": "Prior to Prohibition and the Volstead Act of 1919, gambling was a mainstay of the saloon. Patrons played card games such as poker, wagered on bagatelle and billiard games, and bet on the outcome of coin-operated, mechanical horse racing and strength testing devices. Payout slot machines simplified gambling and functioned automatically. Played by an individual or in a group, slot machines dispensed rewards for winning bets with minimal oversight by the owner. Early slot machines incorporated a vertically mounted gaming wheel marked by segmented colors. Freestanding models in ornately carved oak and walnut cabinets stood over five feet high and were aesthetically impressive devices. When space was at a premium, saloon owners installed machines similar to the larger slots atop their bars. This countertop model by Watling features an optional music box and is decorated with characters from the Brownies cartoon series by Palmer Cox (1840–1924). \"The Automatic Age: Coin-Operated Machines\" is on display, pre-security, in the International Terminal. http://bit.ly/CoinOperated",
        "excerpt": "Prior to Prohibition and the Volstead Act of 1919, gambling was a mainstay of the saloon.",
        "hashtags": [
          "coinoperated",
          "TheAutomaticAge",
          "coinop",
          "vintage",
          "antique",
          "gamemachines",
          "slotmachine",
          "slotmachines"
        ],
        "users": []
      },
      "media_id": "9b40d1e1229338f66a7bd025b291b363",
      "path": "media/posts/201801/26269055_1405279182931806_5046769405262823424_n_17892637525135631.jpg",
      "perceptual_hash": "p:fe8283d4267957a8",
      "taken": 1515430920,
      "taken_at": "Jan 08, 2018 5:02 pm"
    },
    "millsfield:similar": {
      "google/siglip2-so400m-patch16-naflex": [
        {
          "distance": 0.09634596109390259,
          "id": 1729358735
        },
        {
          "distance": 0.16233617067337036,
          "id": 1729357723
        },
        {
          "distance": 0.16336625814437866,
          "id": 1729358147
        },
        {
          "distance": 0.1678009033203125,
          "id": 1729359887
        },
        {
          "distance": 0.1685459017753601,
          "id": 1729358693
        },
        {
          "distance": 0.16918039321899414,
          "id": 1729358417
        },
        {
          "distance": 0.16918039321899414,
          "id": 1763558737
        },
        {
          "distance": 0.17290157079696655,
          "id": 1729357723
        },
        {
          "distance": 0.18247848749160767,
          "id": 1729360031
        },
        {
          "distance": 0.19163304567337036,
          "id": 1729358725
        }
      ]
    },
    "sfomuseum:placetype": "instagram",
    "src:geom": "sfomuseum",
    "wof:belongsto": [
      1159160869,
      102527513,
      102191575,
      85633793,
      102087579,
      85922583,
      85688637
    ],
    "wof:country": "US",
    "wof:created": 1515430920,
    "wof:geomhash": "b6e33f47475d56bc8da457bc31afadc8",
    "wof:hierarchy": [
      {
        "building_id": 1159160869,
        "campus_id": 102527513,
        "continent_id": 102191575,
        "country_id": 85633793,
        "county_id": 102087579,
        "custom_id": 1729358737,
        "instagram_id": 1729358737,
        "locality_id": 85922583,
        "neighbourhood_id": -1,
        "region_id": 85688637
      }
    ],
    "wof:id": 1729358737,
    "wof:lastmodified": 1787777634,
    "wof:name": "Prior to Prohibition and the Volstead Act of 1919, gambling was a mainstay of the saloon...",
    "wof:parent_id": 1159160869,
    "wof:placetype": "custom",
    "wof:placetype_alt": [
      "instagram"
    ],
    "wof:repo": "sfomuseum-data-socialmedia-instagram",
    "wof:superseded_by": [],
    "wof:supersedes": []
  },
  "bbox": [
    -122.386166,
    37.616356,
    -122.386166,
    37.616356
  ],
  "geometry": {"type":"Point","coordinates":[-122.386166,37.616356]}
}
