{
  "id": 1729357963,
  "type": "Feature",
  "properties": {
    "date:cessation_lower": "2018-07-13",
    "date:cessation_upper": "2018-07-13",
    "date:inception_lower": "2018-07-13",
    "date:inception_upper": "2018-07-13",
    "edtf:cessation": "2018-07-13T16:08:52-07:00",
    "edtf:inception": "2018-07-13T16:08:52-07:00",
    "geom:area": 0,
    "geom:bbox": "-122.386166,37.616356,-122.386166,37.616356",
    "geom:latitude": 37.616356,
    "geom:longitude": -122.386166,
    "instagram:post": {
      "caption": {
        "body": "From the late 1920s to the 1940s, new airports were built and aviation records were broken on a regular basis. Game manufacturers saw an opportunity to meet the public’s demand for family activities that shared in the excitement of this major technological transformation and societal change of the coming air age. These games included Air Mail Pilot and the card game Wings: The Air Mail Game, which allowed players to experience aspects of operating air mail service. Do you own any vintage aviation games?",
        "excerpt": "From the late 1920s to the 1940s, new airports were built and aviation records were broken on a regular basis.",
        "hashtags": [
          "airmail",
          "boardgames",
          "games",
          "avgeek",
          "avationgeek",
          "aviation",
          "aviationhistory",
          "vintageaviation",
          "history",
          "avhistory",
          "aviationgeeks",
          "avgeeks"
        ],
        "users": []
      },
      "location": "",
      "media_id": "70b59ba50237fb9291d016912b232705",
      "path": "photos/201807/70b59ba50237fb9291d016912b232705.jpg",
      "perceptual_hash": "p:ee66c29c95c16b92",
      "taken": 1531494480,
      "taken_at": "Jul 13, 2018, 3:08 PM"
    },
    "millsfield:similar": {
      "google/siglip2-so400m-patch16-naflex": [
        {
          "distance": 0.17327767610549927,
          "id": 1729357981
        },
        {
          "distance": 0.17454004287719727,
          "id": 1763558755
        },
        {
          "distance": 0.18544310331344604,
          "id": 1763558755
        },
        {
          "distance": 0.2001436948776245,
          "id": 1729357981
        },
        {
          "distance": 0.3028072118759155,
          "id": 1729358513
        },
        {
          "distance": 0.3132133483886719,
          "id": 1729359733
        },
        {
          "distance": 0.32274335622787476,
          "id": 1729358513
        },
        {
          "distance": 0.32474440336227417,
          "id": 1729359733
        },
        {
          "distance": 0.33643215894699097,
          "id": 1729356949
        },
        {
          "distance": 0.34444451332092285,
          "id": 1729360897
        }
      ]
    },
    "sfomuseum:placetype": "instagram",
    "src:geom": "sfomuseum",
    "wof:belongsto": [
      1159160869,
      102527513,
      102191575,
      85633793,
      102087579,
      85922583,
      85688637
    ],
    "wof:country": "US",
    "wof:created": 1531523332,
    "wof:geomhash": "b6e33f47475d56bc8da457bc31afadc8",
    "wof:hierarchy": [
      {
        "building_id": 1159160869,
        "campus_id": 102527513,
        "continent_id": 102191575,
        "country_id": 85633793,
        "county_id": 102087579,
        "custom_id": 1729357963,
        "instagram_id": 1729357963,
        "locality_id": 85922583,
        "neighbourhood_id": -1,
        "region_id": 85688637
      }
    ],
    "wof:id": 1729357963,
    "wof:lastmodified": 1787777632,
    "wof:name": "From the late 1920s to the 1940s, new airports were built and aviation records were broken on a regular basis...",
    "wof:parent_id": 1159160869,
    "wof:placetype": "custom",
    "wof:placetype_alt": [
      "instagram"
    ],
    "wof:repo": "sfomuseum-data-socialmedia-instagram",
    "wof:superseded_by": [],
    "wof:supersedes": []
  },
  "bbox": [
    -122.386166,
    37.616356,
    -122.386166,
    37.616356
  ],
  "geometry": {"type":"Point","coordinates":[-122.386166,37.616356]}
}
