{
  "id": 1729361605,
  "type": "Feature",
  "properties": {
    "date:cessation_lower": "2015-08-14",
    "date:cessation_upper": "2015-08-14",
    "date:inception_lower": "2015-08-14",
    "date:inception_upper": "2015-08-14",
    "edtf:cessation": "2015-08-14T12:03:00-07:00",
    "edtf:inception": "2015-08-14T12:03:00-07:00",
    "geom:area": 0,
    "geom:bbox": "-122.386166,37.616356,-122.386166,37.616356",
    "geom:latitude": 37.616356,
    "geom:longitude": -122.386166,
    "instagram:post": {
      "caption": {
        "body": "",
        "excerpt": "",
        "hashtags": [
          "avgeek"
        ],
        "users": []
      },
      "media_id": "81e2bfd67e6ede47ca0e47cbebeb5d0e",
      "path": "media/other/11820441_1638970699720006_573218754_n_17842126660062499.jpg",
      "perceptual_hash": "p:e1b73e7840053dda",
      "taken": 1439578980,
      "taken_at": "Aug 14, 2015 7:03 pm"
    },
    "millsfield:similar": {
      "google/siglip2-so400m-patch16-naflex": [
        {
          "distance": 0.11640691757202148,
          "id": 1763558983
        },
        {
          "distance": 0.16003090143203735,
          "id": 1729355377
        },
        {
          "distance": 0.16851842403411865,
          "id": 1729359611
        },
        {
          "distance": 0.17348170280456543,
          "id": 1880151263
        },
        {
          "distance": 0.17629492282867432,
          "id": 1729360207
        },
        {
          "distance": 0.17932277917861938,
          "id": 1729359611
        },
        {
          "distance": 0.17986589670181274,
          "id": 1729361109
        },
        {
          "distance": 0.1880563497543335,
          "id": 1763558983
        },
        {
          "distance": 0.19068694114685059,
          "id": 1729355377
        },
        {
          "distance": 0.1916825771331787,
          "id": 1729361109
        }
      ]
    },
    "sfomuseum:placetype": "instagram",
    "src:geom": "sfomuseum",
    "wof:belongsto": [
      1159160869,
      102527513,
      102191575,
      85633793,
      102087579,
      85922583,
      85688637
    ],
    "wof:country": "US",
    "wof:created": 1439578980,
    "wof:geomhash": "b6e33f47475d56bc8da457bc31afadc8",
    "wof:hierarchy": [
      {
        "building_id": 1159160869,
        "campus_id": 102527513,
        "continent_id": 102191575,
        "country_id": 85633793,
        "county_id": 102087579,
        "custom_id": 1729361605,
        "instagram_id": 1729361605,
        "locality_id": 85922583,
        "neighbourhood_id": -1,
        "region_id": 85688637
      }
    ],
    "wof:id": 1729361605,
    "wof:lastmodified": 1787777646,
    "wof:name": "..",
    "wof:parent_id": 1159160869,
    "wof:placetype": "custom",
    "wof:placetype_alt": [
      "instagram"
    ],
    "wof:repo": "sfomuseum-data-socialmedia-instagram",
    "wof:superseded_by": [],
    "wof:supersedes": []
  },
  "bbox": [
    -122.386166,
    37.616356,
    -122.386166,
    37.616356
  ],
  "geometry": {"type":"Point","coordinates":[-122.386166,37.616356]}
}
