{
  "id": 1729362351,
  "type": "Feature",
  "properties": {
    "date:cessation_lower": "2014-03-28",
    "date:cessation_upper": "2014-03-28",
    "date:inception_lower": "2014-03-28",
    "date:inception_upper": "2014-03-28",
    "edtf:cessation": "2014-03-28T07:06:00-07:00",
    "edtf:inception": "2014-03-28T07:06:00-07:00",
    "geom:area": 0,
    "geom:bbox": "-122.386166,37.616356,-122.386166,37.616356",
    "geom:latitude": 37.616356,
    "geom:longitude": -122.386166,
    "instagram:post": {
      "caption": {
        "body": "",
        "excerpt": "",
        "hashtags": [
          "ron",
          "remainovernight",
          "design"
        ],
        "users": []
      },
      "media_id": "71e67e541221b7bc1d04c930478481c0",
      "path": "media/other/10009420_267296450098130_1556032344_n_17842414924062499.jpg",
      "perceptual_hash": "p:c4d22f25b90fd25a",
      "taken": 1396015560,
      "taken_at": "Mar 28, 2014 2:06 pm"
    },
    "millsfield:similar": {
      "google/siglip2-so400m-patch16-naflex": [
        {
          "distance": 0.2443239688873291,
          "id": 1729362259
        },
        {
          "distance": 0.269889771938324,
          "id": 1729362131
        },
        {
          "distance": 0.2779332399368286,
          "id": 1729362259
        },
        {
          "distance": 0.2805718779563904,
          "id": 1729362219
        },
        {
          "distance": 0.28840315341949463,
          "id": 1729362203
        },
        {
          "distance": 0.2984301447868347,
          "id": 1729360759
        },
        {
          "distance": 0.3022644519805908,
          "id": 1729362479
        },
        {
          "distance": 0.3038891553878784,
          "id": 1729356937
        },
        {
          "distance": 0.3066021203994751,
          "id": 1729362957
        },
        {
          "distance": 0.30743056535720825,
          "id": 1729362475
        }
      ]
    },
    "sfomuseum:placetype": "instagram",
    "src:geom": "sfomuseum",
    "wof:belongsto": [
      1159160869,
      102527513,
      102191575,
      85633793,
      102087579,
      85922583,
      85688637
    ],
    "wof:country": "US",
    "wof:created": 1396015560,
    "wof:geomhash": "b6e33f47475d56bc8da457bc31afadc8",
    "wof:hierarchy": [
      {
        "building_id": 1159160869,
        "campus_id": 102527513,
        "continent_id": 102191575,
        "country_id": 85633793,
        "county_id": 102087579,
        "custom_id": 1729362351,
        "instagram_id": 1729362351,
        "locality_id": 85922583,
        "neighbourhood_id": -1,
        "region_id": 85688637
      }
    ],
    "wof:id": 1729362351,
    "wof:lastmodified": 1787777647,
    "wof:name": "..",
    "wof:parent_id": 1159160869,
    "wof:placetype": "custom",
    "wof:placetype_alt": [
      "instagram"
    ],
    "wof:repo": "sfomuseum-data-socialmedia-instagram",
    "wof:superseded_by": [],
    "wof:supersedes": []
  },
  "bbox": [
    -122.386166,
    37.616356,
    -122.386166,
    37.616356
  ],
  "geometry": {"type":"Point","coordinates":[-122.386166,37.616356]}
}
