{
  "id": 1729362365,
  "type": "Feature",
  "properties": {
    "date:cessation_lower": "2014-03-17",
    "date:cessation_upper": "2014-03-17",
    "date:inception_lower": "2014-03-17",
    "date:inception_upper": "2014-03-17",
    "edtf:cessation": "2014-03-17T08:34:00-07:00",
    "edtf:inception": "2014-03-17T08:34:00-07:00",
    "geom:area": 0,
    "geom:bbox": "-122.386166,37.616356,-122.386166,37.616356",
    "geom:latitude": 37.616356,
    "geom:longitude": -122.386166,
    "instagram:post": {
      "caption": {
        "body": "",
        "excerpt": "",
        "hashtags": [
          "lace"
        ],
        "users": []
      },
      "media_id": "445553ffaa058524ddc7f1fe95186d7c",
      "path": "media/other/11324330_1591666721083636_2119141442_n_17842411786062499.jpg",
      "perceptual_hash": "p:d1ca3ba535926237",
      "taken": 1395070440,
      "taken_at": "Mar 17, 2014 3:34 pm"
    },
    "millsfield:similar": {
      "google/siglip2-so400m-patch16-naflex": [
        {
          "distance": 0.22125238180160522,
          "id": 1729362263
        },
        {
          "distance": 0.2886815071105957,
          "id": 1729362233
        },
        {
          "distance": 0.3023642301559448,
          "id": 1729362335
        },
        {
          "distance": 0.30390751361846924,
          "id": 1729357093
        },
        {
          "distance": 0.3041030764579773,
          "id": 1729358681
        },
        {
          "distance": 0.30891722440719604,
          "id": 1729359091
        },
        {
          "distance": 0.31478244066238403,
          "id": 1729358521
        },
        {
          "distance": 0.31733888387680054,
          "id": 1729358443
        },
        {
          "distance": 0.3187512159347534,
          "id": 1729362281
        },
        {
          "distance": 0.319400429725647,
          "id": 1729358673
        }
      ]
    },
    "sfomuseum:placetype": "instagram",
    "src:geom": "sfomuseum",
    "wof:belongsto": [
      1159160869,
      102527513,
      102191575,
      85633793,
      102087579,
      85922583,
      85688637
    ],
    "wof:country": "US",
    "wof:created": 1395070440,
    "wof:geomhash": "b6e33f47475d56bc8da457bc31afadc8",
    "wof:hierarchy": [
      {
        "building_id": 1159160869,
        "campus_id": 102527513,
        "continent_id": 102191575,
        "country_id": 85633793,
        "county_id": 102087579,
        "custom_id": 1729362365,
        "instagram_id": 1729362365,
        "locality_id": 85922583,
        "neighbourhood_id": -1,
        "region_id": 85688637
      }
    ],
    "wof:id": 1729362365,
    "wof:lastmodified": 1787777647,
    "wof:name": "..",
    "wof:parent_id": 1159160869,
    "wof:placetype": "custom",
    "wof:placetype_alt": [
      "instagram"
    ],
    "wof:repo": "sfomuseum-data-socialmedia-instagram",
    "wof:superseded_by": [],
    "wof:supersedes": []
  },
  "bbox": [
    -122.386166,
    37.616356,
    -122.386166,
    37.616356
  ],
  "geometry": {"type":"Point","coordinates":[-122.386166,37.616356]}
}
