{
  "id": 1729361983,
  "type": "Feature",
  "properties": {
    "date:cessation_lower": "2015-01-02",
    "date:cessation_upper": "2015-01-02",
    "date:inception_lower": "2015-01-02",
    "date:inception_upper": "2015-01-02",
    "edtf:cessation": "2015-01-02T07:39:00-08:00",
    "edtf:inception": "2015-01-02T07:39:00-08:00",
    "geom:area": 0,
    "geom:bbox": "-122.386166,37.616356,-122.386166,37.616356",
    "geom:latitude": 37.616356,
    "geom:longitude": -122.386166,
    "instagram:post": {
      "caption": {
        "body": "",
        "excerpt": "",
        "hashtags": [
          "StudioGlass",
          "glass",
          "Lipofsky",
          "innovation"
        ],
        "users": []
      },
      "media_id": "4381bcf015f85deac1300a5464b53be0",
      "path": "media/other/10895151_870732019613764_189213703_n_17841769468062499.jpg",
      "perceptual_hash": "p:d064614f9ecb0f99",
      "taken": 1420213140,
      "taken_at": "Jan 02, 2015 3:39 pm"
    },
    "millsfield:similar": {
      "google/siglip2-so400m-patch16-naflex": [
        {
          "distance": 0.21505701541900635,
          "id": 1729362079
        },
        {
          "distance": 0.21808552742004395,
          "id": 1729362175
        },
        {
          "distance": 0.22515851259231567,
          "id": 1729362225
        },
        {
          "distance": 0.22571098804473877,
          "id": 1729362175
        },
        {
          "distance": 0.2269154191017151,
          "id": 1729361917
        },
        {
          "distance": 0.24477356672286987,
          "id": 1729362063
        },
        {
          "distance": 0.24591106176376343,
          "id": 1729361917
        },
        {
          "distance": 0.2500614523887634,
          "id": 1729362419
        },
        {
          "distance": 0.2501217722892761,
          "id": 1729362079
        },
        {
          "distance": 0.2549794316291809,
          "id": 1729361967
        }
      ]
    },
    "sfomuseum:placetype": "instagram",
    "src:geom": "sfomuseum",
    "wof:belongsto": [
      1159160869,
      102527513,
      102191575,
      85633793,
      102087579,
      85922583,
      85688637
    ],
    "wof:country": "US",
    "wof:created": 1420213140,
    "wof:geomhash": "b6e33f47475d56bc8da457bc31afadc8",
    "wof:hierarchy": [
      {
        "building_id": 1159160869,
        "campus_id": 102527513,
        "continent_id": 102191575,
        "country_id": 85633793,
        "county_id": 102087579,
        "custom_id": 1729361983,
        "instagram_id": 1729361983,
        "locality_id": 85922583,
        "neighbourhood_id": -1,
        "region_id": 85688637
      }
    ],
    "wof:id": 1729361983,
    "wof:lastmodified": 1787777646,
    "wof:name": "..",
    "wof:parent_id": 1159160869,
    "wof:placetype": "custom",
    "wof:placetype_alt": [
      "instagram"
    ],
    "wof:repo": "sfomuseum-data-socialmedia-instagram",
    "wof:superseded_by": [],
    "wof:supersedes": []
  },
  "bbox": [
    -122.386166,
    37.616356,
    -122.386166,
    37.616356
  ],
  "geometry": {"type":"Point","coordinates":[-122.386166,37.616356]}
}
