{
  "id": 1729358961,
  "type": "Feature",
  "properties": {
    "date:cessation_lower": "2017-10-28",
    "date:cessation_upper": "2017-10-28",
    "date:inception_lower": "2017-10-28",
    "date:inception_upper": "2017-10-28",
    "edtf:cessation": "2017-10-28T07:28:00-07:00",
    "edtf:inception": "2017-10-28T07:28:00-07:00",
    "geom:area": 0,
    "geom:bbox": "-122.386166,37.616356,-122.386166,37.616356",
    "geom:latitude": 37.616356,
    "geom:longitude": -122.386166,
    "instagram:post": {
      "caption": {
        "body": "#OnThisDay in 1927, the first scheduled Pan American Airways mail service departed from Key West, Florida, to Havana, Cuba. Pan American's first aircraft, a Fokker F-VIIa/3m. The Fokker, registration number NC 53, shown here, inaugurated Pan Am's first scheduled flight carrying airmail from the United States to Cuba. The airplane was subsequently christened the “General Machado,” in honor of Cuba’s president.  Image: Pan American Airways, Fokker Trimotor, 1927. Gift of the Captain John B. Russell Family. 2012.149.0861",
        "excerpt": "#OnThisDay in 1927, the first scheduled Pan American Airways mail service departed from Key West, Florida, to Havana, Cuba.",
        "hashtags": [
          "PanAm",
          "Fokker",
          "avgeek",
          "avationgeek",
          "aviation",
          "aviationhistory",
          "aviationlovers",
          "vintageaviation",
          "history",
          "avhistory",
          "aviationgeeks",
          "instaplane",
          "flying",
          "plane",
          "flight",
          "airline",
          "avgeeks",
          "aviation4u",
          "aviationdaily"
        ],
        "users": []
      },
      "media_id": "1988bb10796ac32b5ce9ea46d7a60953",
      "path": "media/other/22802139_136007627122397_7430608054204235776_n_17904190963046707.jpg",
      "perceptual_hash": "p:e8f0b01a9bcc4d8f",
      "taken": 1509200880,
      "taken_at": "Oct 28, 2017 2:28 pm"
    },
    "millsfield:similar": {
      "google/siglip2-so400m-patch16-naflex": [
        {
          "distance": 0.06715738773345947,
          "id": 1763559017
        },
        {
          "distance": 0.09398317337036133,
          "id": 1729355953
        },
        {
          "distance": 0.11054670810699463,
          "id": 1880151387
        },
        {
          "distance": 0.12023329734802246,
          "id": 1763559017
        },
        {
          "distance": 0.1256079077720642,
          "id": 1729357075
        },
        {
          "distance": 0.1290804147720337,
          "id": 1880151189
        },
        {
          "distance": 0.1368080973625183,
          "id": 1729355657
        },
        {
          "distance": 0.1372295618057251,
          "id": 1729355953
        },
        {
          "distance": 0.1382303237915039,
          "id": 1729358701
        },
        {
          "distance": 0.14531594514846802,
          "id": 1763558607
        }
      ]
    },
    "sfomuseum:placetype": "instagram",
    "src:geom": "sfomuseum",
    "wof:belongsto": [
      1159160869,
      102527513,
      102191575,
      85633793,
      102087579,
      85922583,
      85688637
    ],
    "wof:country": "US",
    "wof:created": 1509200880,
    "wof:geomhash": "b6e33f47475d56bc8da457bc31afadc8",
    "wof:hierarchy": [
      {
        "building_id": 1159160869,
        "campus_id": 102527513,
        "continent_id": 102191575,
        "country_id": 85633793,
        "county_id": 102087579,
        "custom_id": 1729358961,
        "instagram_id": 1729358961,
        "locality_id": 85922583,
        "neighbourhood_id": -1,
        "region_id": 85688637
      }
    ],
    "wof:id": 1729358961,
    "wof:lastmodified": 1787777634,
    "wof:name": "#OnThisDay in 1927, the first scheduled Pan American Airways mail service departed from Key West, Florida, to Havana, Cuba...",
    "wof:parent_id": 1159160869,
    "wof:placetype": "custom",
    "wof:placetype_alt": [
      "instagram"
    ],
    "wof:repo": "sfomuseum-data-socialmedia-instagram",
    "wof:superseded_by": [],
    "wof:supersedes": []
  },
  "bbox": [
    -122.386166,
    37.616356,
    -122.386166,
    37.616356
  ],
  "geometry": {"type":"Point","coordinates":[-122.386166,37.616356]}
}
