{
  "id": 1763559673,
  "type": "Feature",
  "properties": {
    "date:cessation_lower": "2021-12-31",
    "date:cessation_upper": "2021-12-31",
    "date:inception_lower": "2021-12-31",
    "date:inception_upper": "2021-12-31",
    "edtf:cessation": "2021-12-31T05:32:00-08:00",
    "edtf:inception": "2021-12-31T05:32:00-08:00",
    "geom:area": 0,
    "geom:bbox": "-122.386166,37.616356,-122.386166,37.616356",
    "geom:latitude": 37.616356,
    "geom:longitude": -122.386166,
    "instagram:post": {
      "caption": {
        "body": "Wishing everyone the happiest, healthiest, and most joyful of New Years! May your dreams take flight in 2022.  #HappyNewYear #2022 #PacificSouthwestAirlines  📸: Pacific Southwest Airlines (PSA), holiday greeting Gift of the William Hough Collection 2006.010.705",
        "excerpt": "Wishing everyone the happiest, healthiest, and most joyful of New Years!",
        "hashtags": [],
        "users": []
      },
      "media_id": "e6ba1dca1725cef2ae4a47158ecb92b4f10d6298",
      "path": "media/other/270938245_1413188409100921_5922202440679339302_n_17902659860417996.jpg",
      "perceptual_hash": "p:af17f0f0950eca91",
      "taken": 1640957520,
      "taken_at": "Dec 31, 2021 1:32 pm"
    },
    "millsfield:similar": {
      "google/siglip2-so400m-patch16-naflex": [
        {
          "distance": 0.4007744789123535,
          "id": 1880151413
        },
        {
          "distance": 0.41832953691482544,
          "id": 1729360343
        },
        {
          "distance": 0.4331427216529846,
          "id": 1729360535
        },
        {
          "distance": 0.43425995111465454,
          "id": 1729356623
        },
        {
          "distance": 0.43533360958099365,
          "id": 1729358365
        },
        {
          "distance": 0.43781548738479614,
          "id": 1729357769
        },
        {
          "distance": 0.4420894980430603,
          "id": 1763558997
        },
        {
          "distance": 0.44250553846359253,
          "id": 1729360781
        },
        {
          "distance": 0.44310784339904785,
          "id": 1729357475
        },
        {
          "distance": 0.44376033544540405,
          "id": 1729360815
        }
      ]
    },
    "sfomuseum:placetype": "instagram",
    "src:geom": "sfomuseum",
    "wof:belongsto": [
      1159160869,
      102527513,
      102191575,
      85633793,
      102087579,
      85922583,
      85688637
    ],
    "wof:country": "US",
    "wof:created": 1640957520,
    "wof:geomhash": "b6e33f47475d56bc8da457bc31afadc8",
    "wof:hierarchy": [
      {
        "building_id": 1159160869,
        "campus_id": 102527513,
        "continent_id": 102191575,
        "country_id": 85633793,
        "county_id": 102087579,
        "custom_id": 1763559673,
        "instagram_id": 1763559673,
        "locality_id": 85922583,
        "neighbourhood_id": -1,
        "region_id": 85688637
      }
    ],
    "wof:id": 1763559673,
    "wof:lastmodified": 1787777660,
    "wof:name": "Wishing everyone the happiest, healthiest, and most joyful of New Years!..",
    "wof:parent_id": 1159160869,
    "wof:placetype": "custom",
    "wof:placetype_alt": [
      "instagram"
    ],
    "wof:repo": "sfomuseum-data-socialmedia-instagram",
    "wof:superseded_by": [],
    "wof:supersedes": []
  },
  "bbox": [
    -122.386166,
    37.616356,
    -122.386166,
    37.616356
  ],
  "geometry": {"type":"Point","coordinates":[-122.386166,37.616356]}
}
