{
  "id": 1729361557,
  "type": "Feature",
  "properties": {
    "date:cessation_lower": "2015-09-16",
    "date:cessation_upper": "2015-09-16",
    "date:inception_lower": "2015-09-16",
    "date:inception_upper": "2015-09-16",
    "edtf:cessation": "2015-09-16T01:48:00-07:00",
    "edtf:inception": "2015-09-16T01:48:00-07:00",
    "geom:area": 0,
    "geom:bbox": "-122.386166,37.616356,-122.386166,37.616356",
    "geom:latitude": 37.616356,
    "geom:longitude": -122.386166,
    "instagram:post": {
      "caption": {
        "body": "Ian van Coller’s The Last Glacier project captures the fading majesty of the remaining glaciers in Glacier National Park in Montana. In 1910, Glacier National Park contained more than 150 glaciers; today only twenty-five remain. Van Coller documented how rapidly the glaciers were retreating during the summers between 2012–14. Van Coller’s photographic goal was to situate the viewer within the terrain. See Ian van Coller’s The Last Glacier located post-security in Terminal 3.",
        "excerpt": "Ian van Coller’s The Last Glacier project captures the fading majesty of the remaining glaciers in Glacier National Park in Montana.",
        "hashtags": [],
        "users": []
      },
      "media_id": "2ef51da0e8f35a4b5bf498ad0a87899f",
      "path": "media/other/11910225_1638146189790449_696692592_n_17843795878062499.jpg",
      "perceptual_hash": "p:d34d0cf3f30c4c93",
      "taken": 1442393280,
      "taken_at": "Sep 16, 2015 8:48 am"
    },
    "millsfield:similar": {
      "google/siglip2-so400m-patch16-naflex": [
        {
          "distance": 0.37218189239501953,
          "id": 1763559473
        },
        {
          "distance": 0.384152352809906,
          "id": 1729362959
        },
        {
          "distance": 0.38660669326782227,
          "id": 1729362579
        },
        {
          "distance": 0.38855957984924316,
          "id": 1729355097
        },
        {
          "distance": 0.38925498723983765,
          "id": 1947424917
        },
        {
          "distance": 0.39146387577056885,
          "id": 1729361797
        },
        {
          "distance": 0.3990684747695923,
          "id": 1947425039
        },
        {
          "distance": 0.40104901790618896,
          "id": 1763559281
        },
        {
          "distance": 0.40210509300231934,
          "id": 1729362959
        },
        {
          "distance": 0.4021654725074768,
          "id": 1947424927
        }
      ]
    },
    "sfomuseum:placetype": "instagram",
    "src:geom": "sfomuseum",
    "wof:belongsto": [
      1159160869,
      102527513,
      102191575,
      85633793,
      102087579,
      85922583,
      85688637
    ],
    "wof:country": "US",
    "wof:created": 1442393280,
    "wof:geomhash": "b6e33f47475d56bc8da457bc31afadc8",
    "wof:hierarchy": [
      {
        "building_id": 1159160869,
        "campus_id": 102527513,
        "continent_id": 102191575,
        "country_id": 85633793,
        "county_id": 102087579,
        "custom_id": 1729361557,
        "instagram_id": 1729361557,
        "locality_id": 85922583,
        "neighbourhood_id": -1,
        "region_id": 85688637
      }
    ],
    "wof:id": 1729361557,
    "wof:lastmodified": 1787777645,
    "wof:name": "Ian van Coller’s The Last Glacier project captures the fading majesty of the remaining glaciers in Glacier National Park in Montana...",
    "wof:parent_id": 1159160869,
    "wof:placetype": "custom",
    "wof:placetype_alt": [
      "instagram"
    ],
    "wof:repo": "sfomuseum-data-socialmedia-instagram",
    "wof:superseded_by": [],
    "wof:supersedes": []
  },
  "bbox": [
    -122.386166,
    37.616356,
    -122.386166,
    37.616356
  ],
  "geometry": {"type":"Point","coordinates":[-122.386166,37.616356]}
}
