{
  "id": 1729355207,
  "type": "Feature",
  "properties": {
    "date:cessation_lower": "2020-07-13",
    "date:cessation_upper": "2020-07-13",
    "date:inception_lower": "2020-07-13",
    "date:inception_upper": "2020-07-13",
    "edtf:cessation": "2020-07-13T10:20:00-07:00",
    "edtf:inception": "2020-07-13T10:20:00-07:00",
    "geom:area": 0,
    "geom:bbox": "-122.386166,37.616356,-122.386166,37.616356",
    "geom:latitude": 37.616356,
    "geom:longitude": -122.386166,
    "instagram:post": {
      "caption": {
        "body": "#Onthisday in 1983, Central Terminal was rededicated as the International Terminal. Constructed between 1951 and 1954, the Central Terminal ushered SFO into the jet age. It served as the International Terminal until the current IT opened in 2000. ",
        "excerpt": "#Onthisday in 1983, Central Terminal was rededicated as the International Terminal.",
        "hashtags": [
          "MuseumfromHome",
          "SFOHistory",
          "SFO"
        ],
        "users": []
      },
      "media_id": "81b81328d5f0495ad211c40dea7216ff",
      "path": "media/other/107422647_718183762335651_3746546821579836244_n_17858493446023902.jpg",
      "perceptual_hash": "p:d9c2267ad1a52a5b",
      "taken": 1594660800,
      "taken_at": "Jul 13, 2020 5:20 pm"
    },
    "millsfield:similar": {
      "google/siglip2-so400m-patch16-naflex": [
        {
          "distance": 0.14618384838104248,
          "id": 1729356897
        },
        {
          "distance": 0.154302716255188,
          "id": 1729357103
        },
        {
          "distance": 0.15703541040420532,
          "id": 1880151243
        },
        {
          "distance": 0.17096441984176636,
          "id": 1729360337
        },
        {
          "distance": 0.17451411485671997,
          "id": 1729359159
        },
        {
          "distance": 0.17869901657104492,
          "id": 1729360607
        },
        {
          "distance": 0.17980355024337769,
          "id": 1729357057
        },
        {
          "distance": 0.18269222974777222,
          "id": 1729356895
        },
        {
          "distance": 0.18415915966033936,
          "id": 1880151675
        },
        {
          "distance": 0.18979787826538086,
          "id": 1729358985
        }
      ]
    },
    "sfomuseum:placetype": "instagram",
    "src:geom": "sfomuseum",
    "wof:belongsto": [
      1159160869,
      102527513,
      102191575,
      85633793,
      102087579,
      85922583,
      85688637
    ],
    "wof:country": "US",
    "wof:created": 1594660800,
    "wof:geomhash": "b6e33f47475d56bc8da457bc31afadc8",
    "wof:hierarchy": [
      {
        "building_id": 1159160869,
        "campus_id": 102527513,
        "continent_id": 102191575,
        "country_id": 85633793,
        "county_id": 102087579,
        "custom_id": 1729355207,
        "instagram_id": 1729355207,
        "locality_id": 85922583,
        "neighbourhood_id": -1,
        "region_id": 85688637
      }
    ],
    "wof:id": 1729355207,
    "wof:lastmodified": 1787777619,
    "wof:name": "#Onthisday in 1983, Central Terminal was rededicated as the International Terminal...",
    "wof:parent_id": 1159160869,
    "wof:placetype": "custom",
    "wof:placetype_alt": [
      "instagram"
    ],
    "wof:repo": "sfomuseum-data-socialmedia-instagram",
    "wof:superseded_by": [],
    "wof:supersedes": []
  },
  "bbox": [
    -122.386166,
    37.616356,
    -122.386166,
    37.616356
  ],
  "geometry": {"type":"Point","coordinates":[-122.386166,37.616356]}
}
