{
  "id": 1729361741,
  "type": "Feature",
  "properties": {
    "date:cessation_lower": "2015-06-05",
    "date:cessation_upper": "2015-06-05",
    "date:inception_lower": "2015-06-05",
    "date:inception_upper": "2015-06-05",
    "edtf:cessation": "2015-06-05T06:59:00-07:00",
    "edtf:inception": "2015-06-05T06:59:00-07:00",
    "geom:area": 0,
    "geom:bbox": "-122.386166,37.616356,-122.386166,37.616356",
    "geom:latitude": 37.616356,
    "geom:longitude": -122.386166,
    "instagram:post": {
      "caption": {
        "body": "",
        "excerpt": "",
        "hashtags": [
          "HaroldAllen",
          "EgyptianRevival",
          "architecture",
          "pyramid"
        ],
        "users": []
      },
      "media_id": "c9c52e1d1b7b52a499432a32da8a6521",
      "path": "media/other/11325912_1658053494428377_1800107353_n_17841574213062499.jpg",
      "perceptual_hash": "p:a438d867a790f167",
      "taken": 1433512740,
      "taken_at": "Jun 05, 2015 1:59 pm"
    },
    "millsfield:similar": {
      "google/siglip2-so400m-patch16-naflex": [
        {
          "distance": 0.32489919662475586,
          "id": 1729358239
        },
        {
          "distance": 0.34459322690963745,
          "id": 1729361697
        },
        {
          "distance": 0.3555492162704468,
          "id": 1763559677
        },
        {
          "distance": 0.356223464012146,
          "id": 1729358239
        },
        {
          "distance": 0.35677772760391235,
          "id": 1729355041
        },
        {
          "distance": 0.35893410444259644,
          "id": 1729361261
        },
        {
          "distance": 0.3617261052131653,
          "id": 1729357599
        },
        {
          "distance": 0.3641622066497803,
          "id": 1729355161
        },
        {
          "distance": 0.3671033978462219,
          "id": 1729356895
        },
        {
          "distance": 0.3700888752937317,
          "id": 1729360689
        }
      ]
    },
    "sfomuseum:placetype": "instagram",
    "src:geom": "sfomuseum",
    "wof:belongsto": [
      1159160869,
      102527513,
      102191575,
      85633793,
      102087579,
      85922583,
      85688637
    ],
    "wof:country": "US",
    "wof:created": 1433512740,
    "wof:geomhash": "b6e33f47475d56bc8da457bc31afadc8",
    "wof:hierarchy": [
      {
        "building_id": 1159160869,
        "campus_id": 102527513,
        "continent_id": 102191575,
        "country_id": 85633793,
        "county_id": 102087579,
        "custom_id": 1729361741,
        "instagram_id": 1729361741,
        "locality_id": 85922583,
        "neighbourhood_id": -1,
        "region_id": 85688637
      }
    ],
    "wof:id": 1729361741,
    "wof:lastmodified": 1787777646,
    "wof:name": "..",
    "wof:parent_id": 1159160869,
    "wof:placetype": "custom",
    "wof:placetype_alt": [
      "instagram"
    ],
    "wof:repo": "sfomuseum-data-socialmedia-instagram",
    "wof:superseded_by": [],
    "wof:supersedes": []
  },
  "bbox": [
    -122.386166,
    37.616356,
    -122.386166,
    37.616356
  ],
  "geometry": {"type":"Point","coordinates":[-122.386166,37.616356]}
}
