{
  "id": 1947425221,
  "type": "Feature",
  "properties": {
    "date:cessation_lower": "2023-11-27",
    "date:cessation_upper": "2023-11-27",
    "date:inception_lower": "2023-11-27",
    "date:inception_upper": "2023-11-27",
    "edtf:cessation": "2023-11-27T06:40:00-08:00",
    "edtf:inception": "2023-11-27T06:40:00-08:00",
    "geom:area": 0,
    "geom:bbox": "-122.386166,37.616356,-122.386166,37.616356",
    "geom:latitude": 37.616356,
    "geom:longitude": -122.386166,
    "instagram:post": {
      "caption": {
        "body": "“I ask for the movement to continue, for the movement to grow, …because last week I got a phone call from Altoona, Pennsylvania, and my election gave somebody else, one more person, hope. And after all, that's what this is all about. It's not about personal gain, not about ego, not about power — it's about giving those young people out there in the Altoona, Pennsylvanias, hope. You gotta give them hope.”  Harvey Bernard Milk (1930–78) was a visionary human rights leader, a groundbreaking political luminary, and a seminal figure of the LGBTQ rights movement. Due to his high public profile as the first openly gay elected official in California, Milk attracted a torrent of hate mail, including threats on his life. In a chilling forecast, Milk recorded a living will on November 18, 1978, proclaiming, “If a bullet should enter my brain, let that bullet destroy every closet door.” Milk was assassinated shortly after, 45 years ago today, on November 27, 1978.  In June 2020, SFO Museum presented “My Name is Harvey Milk,” a film by Leo Herrera. A haunting elegy featuring an excerpt of the audio will Harvey Milk recorded in the event of his assassination, the suit he wore on the day of his murder in 1978 provides a poignant background image.  https://www.sfomuseum.org/video-arts/my-name-harvey-milk",
        "excerpt": "“I ask for the movement to continue, for the movement to grow, …because last week I got a phone call from Altoona, Pennsylvania, and my election gave somebody else, one more person, hope.",
        "hashtags": [],
        "users": []
      },
      "media_id": "d8a5ed30122504383690b328c7e9be142ec9713a",
      "path": "media/other/406108308_819079446895653_4288550984367409559_n_17905515320852035.jpg",
      "perceptual_hash": "p:8b07277c180c3bfb",
      "taken": 1701096000,
      "taken_at": "Nov 27, 2023 2:40 pm"
    },
    "millsfield:similar": {
      "google/siglip2-so400m-patch16-naflex": [
        {
          "distance": 0.326765775680542,
          "id": 1729360727
        },
        {
          "distance": 0.32934439182281494,
          "id": 1729359941
        },
        {
          "distance": 0.34280532598495483,
          "id": 1729355749
        },
        {
          "distance": 0.3435210585594177,
          "id": 1729355997
        },
        {
          "distance": 0.34434497356414795,
          "id": 1729359425
        },
        {
          "distance": 0.34759414196014404,
          "id": 1729357097
        },
        {
          "distance": 0.3533685803413391,
          "id": 1729360727
        },
        {
          "distance": 0.3610054850578308,
          "id": 1729362423
        },
        {
          "distance": 0.36166244745254517,
          "id": 1729363035
        },
        {
          "distance": 0.364105761051178,
          "id": 1729362707
        }
      ]
    },
    "sfomuseum:placetype": "instagram",
    "src:geom": "sfomuseum",
    "wof:belongsto": [
      1159160869,
      102527513,
      102191575,
      85633793,
      102087579,
      85922583,
      85688637
    ],
    "wof:country": "US",
    "wof:created": 1701096000,
    "wof:geomhash": "b6e33f47475d56bc8da457bc31afadc8",
    "wof:hierarchy": [
      {
        "building_id": 1159160869,
        "campus_id": 102527513,
        "continent_id": 102191575,
        "country_id": 85633793,
        "county_id": 102087579,
        "custom_id": 1947425221,
        "locality_id": 85922583,
        "neighbourhood_id": -1,
        "region_id": 85688637
      }
    ],
    "wof:id": 1947425221,
    "wof:lastmodified": 1787777664,
    "wof:name": "“I ask for the movement to continue, for the movement to grow, …because last week I got a phone call from Altoona, Pennsylvania, and my election gave somebody else, one more person, hope...",
    "wof:parent_id": 1159160869,
    "wof:placetype": "custom",
    "wof:repo": "sfomuseum-data-socialmedia-instagram",
    "wof:superseded_by": [],
    "wof:supersedes": []
  },
  "bbox": [
    -122.386166,
    37.616356,
    -122.386166,
    37.616356
  ],
  "geometry": {"type":"Point","coordinates":[-122.386166,37.616356]}
}
