{
  "id": 1729360661,
  "type": "Feature",
  "properties": {
    "date:cessation_lower": "2016-05-31",
    "date:cessation_upper": "2016-05-31",
    "date:inception_lower": "2016-05-31",
    "date:inception_upper": "2016-05-31",
    "edtf:cessation": "2016-05-31T02:52:00-07:00",
    "edtf:inception": "2016-05-31T02:52:00-07:00",
    "geom:area": 0,
    "geom:bbox": "-122.386166,37.616356,-122.386166,37.616356",
    "geom:latitude": 37.616356,
    "geom:longitude": -122.386166,
    "instagram:post": {
      "caption": {
        "body": "Karen May’s work seeks to recapture an idyllic past. For more than fifty years, May lived with her mother and father, and memories of this time haunt her work. Her paintings are often depictions of the home they shared. Her sculptures are recreations of her family and the town in which she lived. May is also an avid fan of popular music, and frequently incorporates lyrics of hit songs and standards into her work.  See more artwork by Karen May and other artist from NIAD Art Center(@niadartcenter) in \"Celebrating a Vision: #ArtAndDisability\", post-security, in Terminal 3. http://bit.ly/ArtAndDisability",
        "excerpt": "Karen May’s work seeks to recapture an idyllic past.",
        "hashtags": [],
        "users": []
      },
      "media_id": "a9ee5322a16635b58266f0bd8f1b631a",
      "path": "media/other/13260836_615648128599837_1297658353_n_17850793900069533.jpg",
      "perceptual_hash": "p:ed23c98ee0c9b3c1",
      "taken": 1464688320,
      "taken_at": "May 31, 2016 9:52 am"
    },
    "millsfield:similar": {
      "google/siglip2-so400m-patch16-naflex": [
        {
          "distance": 0.19385701417922974,
          "id": 1729360659
        },
        {
          "distance": 0.22132736444473267,
          "id": 1729360763
        },
        {
          "distance": 0.2318793535232544,
          "id": 1729360157
        },
        {
          "distance": 0.23455685377120972,
          "id": 1729360659
        },
        {
          "distance": 0.23549622297286987,
          "id": 1729360219
        },
        {
          "distance": 0.25163137912750244,
          "id": 1729360735
        },
        {
          "distance": 0.2554919123649597,
          "id": 1729361339
        },
        {
          "distance": 0.2558750510215759,
          "id": 1729360295
        },
        {
          "distance": 0.2616308927536011,
          "id": 1729356063
        },
        {
          "distance": 0.26293736696243286,
          "id": 1729360447
        }
      ]
    },
    "sfomuseum:placetype": "instagram",
    "src:geom": "sfomuseum",
    "wof:belongsto": [
      1159160869,
      102527513,
      102191575,
      85633793,
      102087579,
      85922583,
      85688637
    ],
    "wof:country": "US",
    "wof:created": 1464688320,
    "wof:geomhash": "b6e33f47475d56bc8da457bc31afadc8",
    "wof:hierarchy": [
      {
        "building_id": 1159160869,
        "campus_id": 102527513,
        "continent_id": 102191575,
        "country_id": 85633793,
        "county_id": 102087579,
        "custom_id": 1729360661,
        "instagram_id": 1729360661,
        "locality_id": 85922583,
        "neighbourhood_id": -1,
        "region_id": 85688637
      }
    ],
    "wof:id": 1729360661,
    "wof:lastmodified": 1787777640,
    "wof:name": "Karen May’s work seeks to recapture an idyllic past...",
    "wof:parent_id": 1159160869,
    "wof:placetype": "custom",
    "wof:placetype_alt": [
      "instagram"
    ],
    "wof:repo": "sfomuseum-data-socialmedia-instagram",
    "wof:superseded_by": [],
    "wof:supersedes": []
  },
  "bbox": [
    -122.386166,
    37.616356,
    -122.386166,
    37.616356
  ],
  "geometry": {"type":"Point","coordinates":[-122.386166,37.616356]}
}
