{
  "id": 1729361333,
  "type": "Feature",
  "properties": {
    "date:cessation_lower": "2015-12-02",
    "date:cessation_upper": "2015-12-02",
    "date:inception_lower": "2015-12-02",
    "date:inception_upper": "2015-12-02",
    "edtf:cessation": "2015-12-02T11:05:00-08:00",
    "edtf:inception": "2015-12-02T11:05:00-08:00",
    "geom:area": 0,
    "geom:bbox": "-122.386166,37.616356,-122.386166,37.616356",
    "geom:latitude": 37.616356,
    "geom:longitude": -122.386166,
    "instagram:post": {
      "caption": {
        "body": "",
        "excerpt": "",
        "hashtags": [
          "WomenInAviation"
        ],
        "users": []
      },
      "media_id": "7b1b6ac2713b88554311200d17a32176",
      "path": "media/other/12269727_1667205016866731_1966266750_n_17848946551013347.jpg",
      "perceptual_hash": "p:c0959dc097f1cd4e",
      "taken": 1449083100,
      "taken_at": "Dec 02, 2015 7:05 pm"
    },
    "millsfield:similar": {
      "google/siglip2-so400m-patch16-naflex": [
        {
          "distance": 0.048500895500183105,
          "id": 1729359419
        },
        {
          "distance": 0.09374886751174927,
          "id": 1763559319
        },
        {
          "distance": 0.13521724939346313,
          "id": 1729359419
        },
        {
          "distance": 0.17259061336517334,
          "id": 1763559319
        },
        {
          "distance": 0.19309961795806885,
          "id": 1729361391
        },
        {
          "distance": 0.19569987058639526,
          "id": 1729362189
        },
        {
          "distance": 0.19599121809005737,
          "id": 1729359667
        },
        {
          "distance": 0.20067185163497925,
          "id": 1729356707
        },
        {
          "distance": 0.2027948498725891,
          "id": 1729361677
        },
        {
          "distance": 0.20982205867767334,
          "id": 1729361271
        }
      ]
    },
    "sfomuseum:placetype": "instagram",
    "src:geom": "sfomuseum",
    "wof:belongsto": [
      1159160869,
      102527513,
      102191575,
      85633793,
      102087579,
      85922583,
      85688637
    ],
    "wof:country": "US",
    "wof:created": 1449083100,
    "wof:geomhash": "b6e33f47475d56bc8da457bc31afadc8",
    "wof:hierarchy": [
      {
        "building_id": 1159160869,
        "campus_id": 102527513,
        "continent_id": 102191575,
        "country_id": 85633793,
        "county_id": 102087579,
        "custom_id": 1729361333,
        "instagram_id": 1729361333,
        "locality_id": 85922583,
        "neighbourhood_id": -1,
        "region_id": 85688637
      }
    ],
    "wof:id": 1729361333,
    "wof:lastmodified": 1787777645,
    "wof:name": "..",
    "wof:parent_id": 1159160869,
    "wof:placetype": "custom",
    "wof:placetype_alt": [
      "instagram"
    ],
    "wof:repo": "sfomuseum-data-socialmedia-instagram",
    "wof:superseded_by": [],
    "wof:supersedes": []
  },
  "bbox": [
    -122.386166,
    37.616356,
    -122.386166,
    37.616356
  ],
  "geometry": {"type":"Point","coordinates":[-122.386166,37.616356]}
}
