{
  "id": 1729361389,
  "type": "Feature",
  "properties": {
    "date:cessation_lower": "2015-11-09",
    "date:cessation_upper": "2015-11-09",
    "date:inception_lower": "2015-11-09",
    "date:inception_upper": "2015-11-09",
    "edtf:cessation": "2015-11-09T02:40:00-08:00",
    "edtf:inception": "2015-11-09T02:40:00-08:00",
    "geom:area": 0,
    "geom:bbox": "-122.386166,37.616356,-122.386166,37.616356",
    "geom:latitude": 37.616356,
    "geom:longitude": -122.386166,
    "instagram:post": {
      "caption": {
        "body": "",
        "excerpt": "",
        "hashtags": [
          "KirksMonsters",
          "KirkHammett"
        ],
        "users": [
          "KirkHammett"
        ]
      },
      "media_id": "dc613d025565191641b944aa02e9a736",
      "path": "media/other/11906295_1649514555289070_1300953650_n_17842037977100759.jpg",
      "perceptual_hash": "p:8e26db21299653fa",
      "taken": 1447065600,
      "taken_at": "Nov 09, 2015 10:40 am"
    },
    "millsfield:similar": {
      "google/siglip2-so400m-patch16-naflex": [
        {
          "distance": 0.29486924409866333,
          "id": 1729361829
        },
        {
          "distance": 0.3100627660751343,
          "id": 1729361765
        },
        {
          "distance": 0.3157947063446045,
          "id": 1729361579
        },
        {
          "distance": 0.31599199771881104,
          "id": 1729361765
        },
        {
          "distance": 0.32354527711868286,
          "id": 1729361829
        },
        {
          "distance": 0.32702410221099854,
          "id": 1729361669
        },
        {
          "distance": 0.33072060346603394,
          "id": 1729361669
        },
        {
          "distance": 0.3311116099357605,
          "id": 1729361813
        },
        {
          "distance": 0.3311540484428406,
          "id": 1729361813
        },
        {
          "distance": 0.3338046669960022,
          "id": 1729361789
        }
      ]
    },
    "sfomuseum:placetype": "instagram",
    "src:geom": "sfomuseum",
    "wof:belongsto": [
      1159160869,
      102527513,
      102191575,
      85633793,
      102087579,
      85922583,
      85688637
    ],
    "wof:country": "US",
    "wof:created": 1447065600,
    "wof:geomhash": "b6e33f47475d56bc8da457bc31afadc8",
    "wof:hierarchy": [
      {
        "building_id": 1159160869,
        "campus_id": 102527513,
        "continent_id": 102191575,
        "country_id": 85633793,
        "county_id": 102087579,
        "custom_id": 1729361389,
        "instagram_id": 1729361389,
        "locality_id": 85922583,
        "neighbourhood_id": -1,
        "region_id": 85688637
      }
    ],
    "wof:id": 1729361389,
    "wof:lastmodified": 1787777645,
    "wof:name": "..",
    "wof:parent_id": 1159160869,
    "wof:placetype": "custom",
    "wof:placetype_alt": [
      "instagram"
    ],
    "wof:repo": "sfomuseum-data-socialmedia-instagram",
    "wof:superseded_by": [],
    "wof:supersedes": []
  },
  "bbox": [
    -122.386166,
    37.616356,
    -122.386166,
    37.616356
  ],
  "geometry": {"type":"Point","coordinates":[-122.386166,37.616356]}
}
