{
  "id": 1729362613,
  "type": "Feature",
  "properties": {
    "date:cessation_lower": "2013-07-12",
    "date:cessation_upper": "2013-07-12",
    "date:inception_lower": "2013-07-12",
    "date:inception_upper": "2013-07-12",
    "edtf:cessation": "2013-07-12T02:55:00-07:00",
    "edtf:inception": "2013-07-12T02:55:00-07:00",
    "geom:area": 0,
    "geom:bbox": "-122.386166,37.616356,-122.386166,37.616356",
    "geom:latitude": 37.616356,
    "geom:longitude": -122.386166,
    "instagram:post": {
      "caption": {
        "body": "A peek inside the Great Exhibition #souvenir reveals a bustling scene!",
        "excerpt": "A peek inside the Great Exhibition #souvenir reveals a bustling scene!",
        "hashtags": [],
        "users": []
      },
      "media_id": "4e85bdb76a83cfdcb17d4ee6bc042b73",
      "path": "media/other/11335162_650184181748916_1611827642_n_17842340632062499.jpg",
      "perceptual_hash": "p:92a52f6236cde49c",
      "taken": 1373622900,
      "taken_at": "Jul 12, 2013 9:55 am"
    },
    "millsfield:similar": {
      "google/siglip2-so400m-patch16-naflex": [
        {
          "distance": 0.23126351833343506,
          "id": 1729359425
        },
        {
          "distance": 0.24439489841461182,
          "id": 1729357097
        },
        {
          "distance": 0.25798338651657104,
          "id": 1729359681
        },
        {
          "distance": 0.26820147037506104,
          "id": 1729355997
        },
        {
          "distance": 0.2700713276863098,
          "id": 1729359635
        },
        {
          "distance": 0.2747742533683777,
          "id": 1729359223
        },
        {
          "distance": 0.27648764848709106,
          "id": 1729362885
        },
        {
          "distance": 0.2775537967681885,
          "id": 1729356955
        },
        {
          "distance": 0.27847427129745483,
          "id": 1729362929
        },
        {
          "distance": 0.2833595275878906,
          "id": 1729361305
        }
      ]
    },
    "sfomuseum:placetype": "instagram",
    "src:geom": "sfomuseum",
    "wof:belongsto": [
      1159160869,
      102527513,
      102191575,
      85633793,
      102087579,
      85922583,
      85688637
    ],
    "wof:country": "US",
    "wof:created": 1373622900,
    "wof:geomhash": "b6e33f47475d56bc8da457bc31afadc8",
    "wof:hierarchy": [
      {
        "building_id": 1159160869,
        "campus_id": 102527513,
        "continent_id": 102191575,
        "country_id": 85633793,
        "county_id": 102087579,
        "custom_id": 1729362613,
        "instagram_id": 1729362613,
        "locality_id": 85922583,
        "neighbourhood_id": -1,
        "region_id": 85688637
      }
    ],
    "wof:id": 1729362613,
    "wof:lastmodified": 1787777647,
    "wof:name": "A peek inside the Great Exhibition #souvenir reveals a bustling scene!..",
    "wof:parent_id": 1159160869,
    "wof:placetype": "custom",
    "wof:placetype_alt": [
      "instagram"
    ],
    "wof:repo": "sfomuseum-data-socialmedia-instagram",
    "wof:superseded_by": [],
    "wof:supersedes": []
  },
  "bbox": [
    -122.386166,
    37.616356,
    -122.386166,
    37.616356
  ],
  "geometry": {"type":"Point","coordinates":[-122.386166,37.616356]}
}
