{
  "id": 1729356743,
  "type": "Feature",
  "properties": {
    "date:cessation_lower": "2019-03-30",
    "date:cessation_upper": "2019-03-30",
    "date:inception_lower": "2019-03-30",
    "date:inception_upper": "2019-03-30",
    "edtf:cessation": "2019-03-30T14:56:00-07:00",
    "edtf:inception": "2019-03-30T14:56:00-07:00",
    "geom:area": 0,
    "geom:bbox": "-122.386166,37.616356,-122.386166,37.616356",
    "geom:latitude": 37.616356,
    "geom:longitude": -122.386166,
    "instagram:post": {
      "caption": {
        "body": "Cats are the most independent domesticated animals. With their characteristically nonchalant personalities and keen abilities to hunt and fend for themselves, cats do not necessarily need humans to survive. Cats are both mysterious and honest, and many people find the unique friendships offered by their feline companions to be quite rewarding. Numerous artists have also fallen under the cat’s spell and have made felines the subject of their work. French animalier Charles Valton (1851–1918), who was known for his sculpture of lions and other big cats, likely modeled this clock featuring a small, domesticated cat lovingly rubbing against its base. While working in Paris, the bohemian painter Gwen John (1876–1939) kept numerous cats and described her beloved tortoiseshell cat Edgar Quinet, who appears in these two sketches, as “an enigmatic little soul.” A very special thank you to Sandy Lerner for making this exhibition possible. See \"Caticons: The Cat in Art\" is on display, pre-security, in the International Terminal. http://bit.ly/Caticons",
        "excerpt": "Cats are the most independent domesticated animals.",
        "hashtags": [
          "caticons",
          "catsofinstagram",
          "cats",
          "mewseum",
          "caticon",
          "cat",
          "clock"
        ],
        "users": []
      },
      "media_id": "ffb89d2bf09e8f66e1e8255b2ea8000e",
      "path": "media/other/54510883_299264000744319_604692578694704472_n_17873454397327585.jpg",
      "perceptual_hash": "p:f096ca65cc6c9678",
      "taken": 1553982960,
      "taken_at": "Mar 30, 2019 9:56 pm"
    },
    "millsfield:similar": {
      "google/siglip2-so400m-patch16-naflex": [
        {
          "distance": 0.2575148940086365,
          "id": 1729357457
        },
        {
          "distance": 0.25854265689849854,
          "id": 1729360775
        },
        {
          "distance": 0.26135027408599854,
          "id": 1729357451
        },
        {
          "distance": 0.2668015956878662,
          "id": 1729357005
        },
        {
          "distance": 0.27307432889938354,
          "id": 1729357453
        },
        {
          "distance": 0.2741018533706665,
          "id": 1729357451
        },
        {
          "distance": 0.2803826928138733,
          "id": 1729358301
        },
        {
          "distance": 0.28443193435668945,
          "id": 1729356889
        },
        {
          "distance": 0.28535157442092896,
          "id": 1729357583
        },
        {
          "distance": 0.2873362898826599,
          "id": 1729357457
        }
      ]
    },
    "sfomuseum:placetype": "instagram",
    "src:geom": "sfomuseum",
    "wof:belongsto": [
      1159160869,
      102527513,
      102191575,
      85633793,
      102087579,
      85922583,
      85688637
    ],
    "wof:country": "US",
    "wof:created": 1553982960,
    "wof:geomhash": "b6e33f47475d56bc8da457bc31afadc8",
    "wof:hierarchy": [
      {
        "building_id": 1159160869,
        "campus_id": 102527513,
        "continent_id": 102191575,
        "country_id": 85633793,
        "county_id": 102087579,
        "custom_id": 1729356743,
        "instagram_id": 1729356743,
        "locality_id": 85922583,
        "neighbourhood_id": -1,
        "region_id": 85688637
      }
    ],
    "wof:id": 1729356743,
    "wof:lastmodified": 1787777629,
    "wof:name": "Cats are the most independent domesticated animals...",
    "wof:parent_id": 1159160869,
    "wof:placetype": "custom",
    "wof:placetype_alt": [
      "instagram"
    ],
    "wof:repo": "sfomuseum-data-socialmedia-instagram",
    "wof:superseded_by": [],
    "wof:supersedes": []
  },
  "bbox": [
    -122.386166,
    37.616356,
    -122.386166,
    37.616356
  ],
  "geometry": {"type":"Point","coordinates":[-122.386166,37.616356]}
}
