{
  "id": 1763559347,
  "type": "Feature",
  "properties": {
    "date:cessation_lower": "2021-11-01",
    "date:cessation_upper": "2021-11-01",
    "date:inception_lower": "2021-11-01",
    "date:inception_upper": "2021-11-01",
    "edtf:cessation": "2021-11-01T08:53:00-07:00",
    "edtf:inception": "2021-11-01T08:53:00-07:00",
    "geom:area": 0,
    "geom:bbox": "-122.386166,37.616356,-122.386166,37.616356",
    "geom:latitude": 37.616356,
    "geom:longitude": -122.386166,
    "instagram:post": {
      "caption": {
        "body": "Pan American Airways pioneered commercial airline service to Latin America and the Caribbean in the late 1920s and early 1930s, when air travel was first developing into a viable form of transportation. Pan American Airways began service in Central America with the Ford 5-AT Tri-Motor, a robust, three-engine, twelve-passenger airliner affectionately known as the “Tin Goose.”  “Pan American Airways in Central America” is on display pre-security on the departures level of Terminal 3 and online at: http://bit.ly/PAAinCA",
        "excerpt": "Pan American Airways pioneered commercial airline service to Latin America and the Caribbean in the late 1920s and early 1930s, when air travel was first developing into a viable form of transportation.",
        "hashtags": [
          "PAAinCA",
          "PanAm",
          "avgeek",
          "earlyaviation"
        ],
        "users": []
      },
      "media_id": "5f57f4f5a3271647419bc9216609fed344871185",
      "path": "media/posts/202111/251382509_173041755029329_3119586460515190151_n_17926306123794105.jpg",
      "perceptual_hash": "p:fbac802e349eca65",
      "taken": 1635781980,
      "taken_at": "Nov 01, 2021 3:53 pm"
    },
    "millsfield:similar": {
      "google/siglip2-so400m-patch16-naflex": [
        {
          "distance": 0.015438079833984375,
          "id": 1729355791
        },
        {
          "distance": 0.025094926357269287,
          "id": 1763558913
        },
        {
          "distance": 0.07148003578186035,
          "id": 1729355791
        },
        {
          "distance": 0.07474195957183838,
          "id": 1763558913
        },
        {
          "distance": 0.12601059675216675,
          "id": 1729355811
        },
        {
          "distance": 0.13879108428955078,
          "id": 1729355811
        },
        {
          "distance": 0.18656933307647705,
          "id": 1763558839
        },
        {
          "distance": 0.1868705153465271,
          "id": 1729355287
        },
        {
          "distance": 0.20583105087280273,
          "id": 1729357841
        },
        {
          "distance": 0.20833265781402588,
          "id": 1729360319
        }
      ]
    },
    "sfomuseum:placetype": "instagram",
    "src:geom": "sfomuseum",
    "wof:belongsto": [
      1159160869,
      102527513,
      102191575,
      85633793,
      102087579,
      85922583,
      85688637
    ],
    "wof:country": "US",
    "wof:created": 1635781980,
    "wof:geomhash": "b6e33f47475d56bc8da457bc31afadc8",
    "wof:hierarchy": [
      {
        "building_id": 1159160869,
        "campus_id": 102527513,
        "continent_id": 102191575,
        "country_id": 85633793,
        "county_id": 102087579,
        "custom_id": 1763559347,
        "instagram_id": 1763559347,
        "locality_id": 85922583,
        "neighbourhood_id": -1,
        "region_id": 85688637
      }
    ],
    "wof:id": 1763559347,
    "wof:lastmodified": 1787777660,
    "wof:name": "Pan American Airways pioneered commercial airline service to Latin America and the Caribbean in the late 1920s and early 1930s, when air travel was first developing into a viable form of transportation...",
    "wof:parent_id": 1159160869,
    "wof:placetype": "custom",
    "wof:placetype_alt": [
      "instagram"
    ],
    "wof:repo": "sfomuseum-data-socialmedia-instagram",
    "wof:superseded_by": [],
    "wof:supersedes": []
  },
  "bbox": [
    -122.386166,
    37.616356,
    -122.386166,
    37.616356
  ],
  "geometry": {"type":"Point","coordinates":[-122.386166,37.616356]}
}
