{
  "id": 1729359743,
  "type": "Feature",
  "properties": {
    "date:cessation_lower": "2017-03-08",
    "date:cessation_upper": "2017-03-08",
    "date:inception_lower": "2017-03-08",
    "date:inception_upper": "2017-03-08",
    "edtf:cessation": "2017-03-08T11:16:00-08:00",
    "edtf:inception": "2017-03-08T11:16:00-08:00",
    "geom:area": 0,
    "geom:bbox": "-122.386166,37.616356,-122.386166,37.616356",
    "geom:latitude": 37.616356,
    "geom:longitude": -122.386166,
    "instagram:post": {
      "caption": {
        "body": "",
        "excerpt": "",
        "hashtags": [
          "crewlife",
          "flightattandant",
          "avgeek",
          "aviationhistory",
          "womeninaviation",
          "fashion",
          "internationalwomensday",
          "iwd2017",
          "womensday2017",
          "womenshistorymonth",
          "IWD",
          "womensday"
        ],
        "users": []
      },
      "media_id": "efb713d1da1e85e9f9c85f40bee8c3e3",
      "path": "media/posts/201703/17075893_1825797337670650_6420194457831866368_n_17863297429128752.jpg",
      "perceptual_hash": "p:e6bbd8ecec494244",
      "taken": 1489000560,
      "taken_at": "Mar 08, 2017 7:16 pm"
    },
    "millsfield:similar": {
      "google/siglip2-so400m-patch16-naflex": [
        {
          "distance": 0.038772642612457275,
          "id": 1729359113
        },
        {
          "distance": 0.07755863666534424,
          "id": 1729359113
        },
        {
          "distance": 0.11625128984451294,
          "id": 1729360551
        },
        {
          "distance": 0.12160754203796387,
          "id": 1729358221
        },
        {
          "distance": 0.1378501057624817,
          "id": 1729360253
        },
        {
          "distance": 0.1444200873374939,
          "id": 1729360365
        },
        {
          "distance": 0.14576464891433716,
          "id": 1729360211
        },
        {
          "distance": 0.15187090635299683,
          "id": 1729360211
        },
        {
          "distance": 0.15871930122375488,
          "id": 1729355261
        },
        {
          "distance": 0.1592237949371338,
          "id": 1729360261
        }
      ]
    },
    "sfomuseum:placetype": "instagram",
    "src:geom": "sfomuseum",
    "wof:belongsto": [
      1159160869,
      102527513,
      102191575,
      85633793,
      102087579,
      85922583,
      85688637
    ],
    "wof:country": "US",
    "wof:created": 1489000560,
    "wof:geomhash": "b6e33f47475d56bc8da457bc31afadc8",
    "wof:hierarchy": [
      {
        "building_id": 1159160869,
        "campus_id": 102527513,
        "continent_id": 102191575,
        "country_id": 85633793,
        "county_id": 102087579,
        "custom_id": 1729359743,
        "instagram_id": 1729359743,
        "locality_id": 85922583,
        "neighbourhood_id": -1,
        "region_id": 85688637
      }
    ],
    "wof:id": 1729359743,
    "wof:lastmodified": 1787777636,
    "wof:name": "..",
    "wof:parent_id": 1159160869,
    "wof:placetype": "custom",
    "wof:placetype_alt": [
      "instagram"
    ],
    "wof:repo": "sfomuseum-data-socialmedia-instagram",
    "wof:superseded_by": [],
    "wof:supersedes": []
  },
  "bbox": [
    -122.386166,
    37.616356,
    -122.386166,
    37.616356
  ],
  "geometry": {"type":"Point","coordinates":[-122.386166,37.616356]}
}
