{
  "id": 1729355011,
  "type": "Feature",
  "properties": {
    "date:cessation_lower": "2020-10-07",
    "date:cessation_upper": "2020-10-07",
    "date:inception_lower": "2020-10-07",
    "date:inception_upper": "2020-10-07",
    "edtf:cessation": "2020-10-06T17:34:36-07:00",
    "edtf:inception": "2020-10-06T17:34:36-07:00",
    "geom:area": 0,
    "geom:bbox": "-122.386166,37.616356,-122.386166,37.616356",
    "geom:latitude": 37.616356,
    "geom:longitude": -122.386166,
    "instagram:post": {
      "caption": {
        "body": "James Chronister approached making “California (1)” by first hiking in the Bodega Bay area of Northern California and taking hundreds of color photos of the terrain. Back at the studio, he searched the many photos to find an image with the perfect balance of movement, rhythm, space, and “an energy akin to music.” Chronister then digitally changed the source photo into black and white, bumped up the contrast, and projected the image onto the canvas. Using a very small brush, he painted with black oil paint directly from the projection, and over the course of a few months, the completed landscape emerged.  See “California (1)” by #JamesChronister online at: https://bit.ly/34gIb6S",
        "excerpt": "James Chronister approached making “California (1)” by first hiking in the Bodega Bay area of Northern California and taking hundreds of color photos of the terrain.",
        "hashtags": [
          "publicart",
          "painting",
          "MuseumFromHome"
        ],
        "users": []
      },
      "location": "",
      "media_id": "f0e21f42dd11adef91e8cbc6eb622609",
      "path": "photos/202010/f0e21f42dd11adef91e8cbc6eb622609.jpg",
      "perceptual_hash": "p:868a32df294f61ec",
      "taken": 1602002040,
      "taken_at": "Oct 6, 2020, 4:34 PM"
    },
    "millsfield:similar": {
      "google/siglip2-so400m-patch16-naflex": [
        {
          "distance": 0.1340172290802002,
          "id": 1729355023
        },
        {
          "distance": 0.19821131229400635,
          "id": 1729355023
        },
        {
          "distance": 0.22758537530899048,
          "id": 1729355145
        },
        {
          "distance": 0.23884481191635132,
          "id": 1729360563
        },
        {
          "distance": 0.24134069681167603,
          "id": 1729355493
        },
        {
          "distance": 0.24600636959075928,
          "id": 1729359425
        },
        {
          "distance": 0.2502097487449646,
          "id": 1729356547
        },
        {
          "distance": 0.25183558464050293,
          "id": 1729356191
        },
        {
          "distance": 0.2569783329963684,
          "id": 1729356811
        },
        {
          "distance": 0.258958637714386,
          "id": 1729357657
        }
      ]
    },
    "sfomuseum:placetype": "instagram",
    "src:geom": "sfomuseum",
    "wof:belongsto": [
      1159160869,
      102527513,
      102191575,
      85633793,
      102087579,
      85922583,
      85688637
    ],
    "wof:country": "US",
    "wof:created": 1602030876,
    "wof:geomhash": "b6e33f47475d56bc8da457bc31afadc8",
    "wof:hierarchy": [
      {
        "building_id": 1159160869,
        "campus_id": 102527513,
        "continent_id": 102191575,
        "country_id": 85633793,
        "county_id": 102087579,
        "custom_id": 1729355011,
        "instagram_id": 1729355011,
        "locality_id": 85922583,
        "neighbourhood_id": -1,
        "region_id": 85688637
      }
    ],
    "wof:id": 1729355011,
    "wof:lastmodified": 1787777613,
    "wof:name": "James Chronister approached making “California (1)” by first hiking in the Bodega Bay area of Northern California and taking hundreds of color photos of the terrain...",
    "wof:parent_id": 1159160869,
    "wof:placetype": "custom",
    "wof:placetype_alt": [
      "instagram"
    ],
    "wof:repo": "sfomuseum-data-socialmedia-instagram",
    "wof:superseded_by": [],
    "wof:supersedes": []
  },
  "bbox": [
    -122.386166,
    37.616356,
    -122.386166,
    37.616356
  ],
  "geometry": {"type":"Point","coordinates":[-122.386166,37.616356]}
}
