{
  "id": 1763559633,
  "type": "Feature",
  "properties": {
    "date:cessation_lower": "2022-01-27",
    "date:cessation_upper": "2022-01-27",
    "date:inception_lower": "2022-01-27",
    "date:inception_upper": "2022-01-27",
    "edtf:cessation": "2022-01-27T08:26:00-08:00",
    "edtf:inception": "2022-01-27T08:26:00-08:00",
    "geom:area": 0,
    "geom:bbox": "-122.386166,37.616356,-122.386166,37.616356",
    "geom:latitude": 37.616356,
    "geom:longitude": -122.386166,
    "instagram:post": {
      "caption": {
        "body": "Ansett Airways was founded in 1935 by Sir Reginald Myles \"Reg\" Ansett in Australia. Service between Hamilton and Melbourne was inaugurated in 1936 with a Fokker F XI Universal monoplane. By the late 1930s, the airline was flying the swift Lockheed L10A Electra. Following World War II, Ansett acquired war-surplus C-47s and converted them to passenger carrying DC-3s. It continued operating as a low-price domestic airline during the early 1950s. In 1957, Ansett acquired its major competitor ANA (Australian National Airways) and assumed the name Ansett-ANA.   Over the next three decades, the carrier operated domestic routes in competition with TAA (Trans-Australia Airlines). In 1964, Ansett-ANA received delivery of its first pure turbojet, the Boeing 727. The airline introduced a new corporate look in 1968 with bright reddish-orange liveries and a stylized “A” logo, while dropping “ANA” from its name. Several chic cabin crew uniforms were introduced during the 1970s that incorporated this orange palette. Over-expansion into international markets eventually led to Ansett’s financial demise in 2001. Shortly after, a brief effort to revive the airline with limited services was unsuccessful, and in March 2002, the airline ceased operations.",
        "excerpt": "Ansett Airways was founded in 1935 by Sir Reginald Myles \"Reg\" Ansett in Australia.",
        "hashtags": [
          "Australia",
          "DefunctThursday",
          "avgeek",
          "aviationhistory"
        ],
        "users": []
      },
      "media_id": "f0e03452d1a0c7ddf53ea7104853a1692a9bc025",
      "path": "media/posts/202201/272691883_1112698589559395_1784283300735885231_n_18202258762120801.jpg",
      "perceptual_hash": "p:f3308ccf53586e25",
      "taken": 1643300760,
      "taken_at": "Jan 27, 2022 4:26 pm"
    },
    "millsfield:similar": {
      "google/siglip2-so400m-patch16-naflex": [
        {
          "distance": 0.29260146617889404,
          "id": 1729360861
        },
        {
          "distance": 0.3347740173339844,
          "id": 1729358023
        },
        {
          "distance": 0.33973705768585205,
          "id": 1729359991
        },
        {
          "distance": 0.34324318170547485,
          "id": 1729360029
        },
        {
          "distance": 0.34471219778060913,
          "id": 1729359411
        },
        {
          "distance": 0.3535478115081787,
          "id": 1729358015
        },
        {
          "distance": 0.35424453020095825,
          "id": 1947424831
        },
        {
          "distance": 0.3571885824203491,
          "id": 1880151281
        },
        {
          "distance": 0.36010974645614624,
          "id": 1729363027
        },
        {
          "distance": 0.3612602949142456,
          "id": 1880151505
        }
      ]
    },
    "sfomuseum:placetype": "instagram",
    "src:geom": "sfomuseum",
    "wof:belongsto": [
      1159160869,
      102527513,
      102191575,
      85633793,
      102087579,
      85922583,
      85688637
    ],
    "wof:country": "US",
    "wof:created": 1643300760,
    "wof:geomhash": "b6e33f47475d56bc8da457bc31afadc8",
    "wof:hierarchy": [
      {
        "building_id": 1159160869,
        "campus_id": 102527513,
        "continent_id": 102191575,
        "country_id": 85633793,
        "county_id": 102087579,
        "custom_id": 1763559633,
        "instagram_id": 1763559633,
        "locality_id": 85922583,
        "neighbourhood_id": -1,
        "region_id": 85688637
      }
    ],
    "wof:id": 1763559633,
    "wof:lastmodified": 1787777660,
    "wof:name": "Ansett Airways was founded in 1935 by Sir Reginald Myles \"Reg\" Ansett in Australia...",
    "wof:parent_id": 1159160869,
    "wof:placetype": "custom",
    "wof:placetype_alt": [
      "instagram"
    ],
    "wof:repo": "sfomuseum-data-socialmedia-instagram",
    "wof:superseded_by": [],
    "wof:supersedes": []
  },
  "bbox": [
    -122.386166,
    37.616356,
    -122.386166,
    37.616356
  ],
  "geometry": {"type":"Point","coordinates":[-122.386166,37.616356]}
}
