{
  "id": 1729357691,
  "type": "Feature",
  "properties": {
    "date:cessation_lower": "2018-09-12",
    "date:cessation_upper": "2018-09-12",
    "date:inception_lower": "2018-09-12",
    "date:inception_upper": "2018-09-12",
    "edtf:cessation": "2018-09-12T09:40:05-07:00",
    "edtf:inception": "2018-09-12T09:40:05-07:00",
    "geom:area": 0,
    "geom:bbox": "-122.386166,37.616356,-122.386166,37.616356",
    "geom:latitude": 37.616356,
    "geom:longitude": -122.386166,
    "instagram:post": {
      "caption": {
        "body": "It's Ask a Curator day! What would you like to know about SFO Museum?  Questions will be answered by Curators, Registrars, Conservators, and other museum staff. Reply below with your questions! ",
        "excerpt": "It's Ask a Curator day!",
        "hashtags": [
          "AskACurator",
          "Musesocial",
          "Museum",
          "Curator",
          "museumlife"
        ],
        "users": []
      },
      "location": "",
      "media_id": "4f02bbba31214ff4fff7a7060313761c",
      "path": "photos/201809/4f02bbba31214ff4fff7a7060313761c.jpg",
      "perceptual_hash": "p:d551e0f0e4397caa",
      "taken": 1536741600,
      "taken_at": "Sep 12, 2018, 8:40 AM"
    },
    "millsfield:similar": {
      "google/siglip2-so400m-patch16-naflex": [
        {
          "distance": 0.003851652145385742,
          "id": 1763558771
        },
        {
          "distance": 0.08257853984832764,
          "id": 1763558771
        },
        {
          "distance": 0.09064149856567383,
          "id": 1729360787
        },
        {
          "distance": 0.11902940273284912,
          "id": 1729360753
        },
        {
          "distance": 0.12689465284347534,
          "id": 1729360033
        },
        {
          "distance": 0.1280863881111145,
          "id": 1947425189
        },
        {
          "distance": 0.13459861278533936,
          "id": 1729360787
        },
        {
          "distance": 0.13597261905670166,
          "id": 1947425189
        },
        {
          "distance": 0.15448987483978271,
          "id": 1729355243
        },
        {
          "distance": 0.15959495306015015,
          "id": 1729355243
        }
      ]
    },
    "sfomuseum:placetype": "instagram",
    "src:geom": "sfomuseum",
    "wof:belongsto": [
      1159160869,
      102527513,
      102191575,
      85633793,
      102087579,
      85922583,
      85688637
    ],
    "wof:country": "US",
    "wof:created": 1536770405,
    "wof:geomhash": "b6e33f47475d56bc8da457bc31afadc8",
    "wof:hierarchy": [
      {
        "building_id": 1159160869,
        "campus_id": 102527513,
        "continent_id": 102191575,
        "country_id": 85633793,
        "county_id": 102087579,
        "custom_id": 1729357691,
        "instagram_id": 1729357691,
        "locality_id": 85922583,
        "neighbourhood_id": -1,
        "region_id": 85688637
      }
    ],
    "wof:id": 1729357691,
    "wof:lastmodified": 1787777632,
    "wof:name": "It's Ask a Curator day!..",
    "wof:parent_id": 1159160869,
    "wof:placetype": "custom",
    "wof:placetype_alt": [
      "instagram"
    ],
    "wof:repo": "sfomuseum-data-socialmedia-instagram",
    "wof:superseded_by": [],
    "wof:supersedes": []
  },
  "bbox": [
    -122.386166,
    37.616356,
    -122.386166,
    37.616356
  ],
  "geometry": {"type":"Point","coordinates":[-122.386166,37.616356]}
}
