{
  "id": 1729357693,
  "type": "Feature",
  "properties": {
    "date:cessation_lower": "2018-09-13",
    "date:cessation_upper": "2018-09-13",
    "date:inception_lower": "2018-09-13",
    "date:inception_upper": "2018-09-13",
    "edtf:cessation": "2018-09-13T03:00:00-07:00",
    "edtf:inception": "2018-09-13T03:00:00-07:00",
    "geom:area": 0,
    "geom:bbox": "-122.386166,37.616356,-122.386166,37.616356",
    "geom:latitude": 37.616356,
    "geom:longitude": -122.386166,
    "instagram:post": {
      "caption": {
        "body": "We want to hear from you! What do you think of SFO Museum? Give feedback on our program by filling out this survey! http://bit.ly/SFOMsurvey",
        "excerpt": "We want to hear from you!",
        "hashtags": [],
        "users": []
      },
      "media_id": "96cdfbcb47f685e6cebe3f1e99a1514e",
      "path": "media/other/41073060_224125765128599_3104788908622069093_n_17872356508278611.jpg",
      "perceptual_hash": "p:a68ac953657586cd",
      "taken": 1536832800,
      "taken_at": "Sep 13, 2018 10:00 am"
    },
    "millsfield:similar": {
      "google/siglip2-so400m-patch16-naflex": [
        {
          "distance": 0.008285820484161377,
          "id": 1729357325
        },
        {
          "distance": 0.08168065547943115,
          "id": 1729357325
        },
        {
          "distance": 0.17354929447174072,
          "id": 1729355785
        },
        {
          "distance": 0.18056893348693848,
          "id": 1729357309
        },
        {
          "distance": 0.1868652105331421,
          "id": 1763558925
        },
        {
          "distance": 0.19045037031173706,
          "id": 1947425115
        },
        {
          "distance": 0.19063520431518555,
          "id": 1729355059
        },
        {
          "distance": 0.1938483715057373,
          "id": 1880151563
        },
        {
          "distance": 0.1938483715057373,
          "id": 1880151575
        },
        {
          "distance": 0.1956661343574524,
          "id": 1729361931
        }
      ]
    },
    "sfomuseum:placetype": "instagram",
    "src:geom": "sfomuseum",
    "wof:belongsto": [
      1159160869,
      102527513,
      102191575,
      85633793,
      102087579,
      85922583,
      85688637
    ],
    "wof:country": "US",
    "wof:created": 1536832800,
    "wof:geomhash": "b6e33f47475d56bc8da457bc31afadc8",
    "wof:hierarchy": [
      {
        "building_id": 1159160869,
        "campus_id": 102527513,
        "continent_id": 102191575,
        "country_id": 85633793,
        "county_id": 102087579,
        "custom_id": 1729357693,
        "instagram_id": 1729357693,
        "locality_id": 85922583,
        "neighbourhood_id": -1,
        "region_id": 85688637
      }
    ],
    "wof:id": 1729357693,
    "wof:lastmodified": 1787777632,
    "wof:name": "We want to hear from you!..",
    "wof:parent_id": 1159160869,
    "wof:placetype": "custom",
    "wof:placetype_alt": [
      "instagram"
    ],
    "wof:repo": "sfomuseum-data-socialmedia-instagram",
    "wof:superseded_by": [],
    "wof:supersedes": []
  },
  "bbox": [
    -122.386166,
    37.616356,
    -122.386166,
    37.616356
  ],
  "geometry": {"type":"Point","coordinates":[-122.386166,37.616356]}
}
