{
  "id": 1729358797,
  "type": "Feature",
  "properties": {
    "date:cessation_lower": "2017-12-19",
    "date:cessation_upper": "2017-12-19",
    "date:inception_lower": "2017-12-19",
    "date:inception_upper": "2017-12-19",
    "edtf:cessation": "2017-12-19T12:51:00-08:00",
    "edtf:inception": "2017-12-19T12:51:00-08:00",
    "geom:area": 0,
    "geom:bbox": "-122.386166,37.616356,-122.386166,37.616356",
    "geom:latitude": 37.616356,
    "geom:longitude": -122.386166,
    "instagram:post": {
      "caption": {
        "body": "On the northern edge of Los Altos, Mexico, is the municipality of Pantelhó. With cities and villages situated in the valleys of tropical, mountainous terrain, Pantelhó is also home to communities of Tzotzil-speaking Mayan artisans who weave distinctive, backstrap-loomed textiles. Their traditional huipil design features narrow, alternating stripes of red and white, decorated by multicolored bands of embroidery around the neckline and embroidered chevrons at the sleeves. Toads, stars, and other symbols are either woven or embroidered onto the stripes in vertical columns. Weavers of contemporary Pantelhó blusas incorporate vibrant pinks, greens, purples, and other colors made possible by modern threads, creating some of the most distinctive textiles in Chiapas.  Learn more about \"Empowering Threads: Textiles of Jolom Mayaetik\" on display, pre-security, in the International Terminal. http://bit.ly/EmpoweringThreads",
        "excerpt": "On the northern edge of Los Altos, Mexico, is the municipality of Pantelhó.",
        "hashtags": [
          "EmpoweringThreads",
          "mayantextiles",
          "textile",
          "textiles",
          "mayan",
          "mexico",
          "mexican",
          "mexicanhistory",
          "mayanhistory",
          "JolomMayaetik",
          "weavers",
          "weaving",
          "blouses",
          "huipiles",
          "looms",
          "backstraploom",
          "mayanculture",
          "handwoven",
          "sewing",
          "cooperativa",
          "artesanaschiapanecas",
          "chiapas",
          "cojinesartesanales",
          "artesanias",
          "empoweringwomen"
        ],
        "users": []
      },
      "media_id": "509615a874c4bb65a81612c285443bc2",
      "path": "media/posts/201712/25021445_171983133398038_7209021173756067840_n_17900932822104542.jpg",
      "perceptual_hash": "p:c363da5d89442fd2",
      "taken": 1513716660,
      "taken_at": "Dec 19, 2017 8:51 pm"
    },
    "millsfield:similar": {
      "google/siglip2-so400m-patch16-naflex": [
        {
          "distance": 0.06976073980331421,
          "id": 1729358713
        },
        {
          "distance": 0.07617968320846558,
          "id": 1729358585
        },
        {
          "distance": 0.08079874515533447,
          "id": 1729358525
        },
        {
          "distance": 0.08218389749526978,
          "id": 1729358671
        },
        {
          "distance": 0.12442761659622192,
          "id": 1729358671
        },
        {
          "distance": 0.1291181445121765,
          "id": 1729358713
        },
        {
          "distance": 0.14310193061828613,
          "id": 1729358585
        },
        {
          "distance": 0.1476956009864807,
          "id": 1729358539
        },
        {
          "distance": 0.14808428287506104,
          "id": 1729358741
        },
        {
          "distance": 0.15370070934295654,
          "id": 1729358525
        }
      ]
    },
    "sfomuseum:placetype": "instagram",
    "src:geom": "sfomuseum",
    "wof:belongsto": [
      1159160869,
      102527513,
      102191575,
      85633793,
      102087579,
      85922583,
      85688637
    ],
    "wof:country": "US",
    "wof:created": 1513716660,
    "wof:geomhash": "b6e33f47475d56bc8da457bc31afadc8",
    "wof:hierarchy": [
      {
        "building_id": 1159160869,
        "campus_id": 102527513,
        "continent_id": 102191575,
        "country_id": 85633793,
        "county_id": 102087579,
        "custom_id": 1729358797,
        "instagram_id": 1729358797,
        "locality_id": 85922583,
        "neighbourhood_id": -1,
        "region_id": 85688637
      }
    ],
    "wof:id": 1729358797,
    "wof:lastmodified": 1787777634,
    "wof:name": "On the northern edge of Los Altos, Mexico, is the municipality of Pantelhó...",
    "wof:parent_id": 1159160869,
    "wof:placetype": "custom",
    "wof:placetype_alt": [
      "instagram"
    ],
    "wof:repo": "sfomuseum-data-socialmedia-instagram",
    "wof:superseded_by": [],
    "wof:supersedes": []
  },
  "bbox": [
    -122.386166,
    37.616356,
    -122.386166,
    37.616356
  ],
  "geometry": {"type":"Point","coordinates":[-122.386166,37.616356]}
}
