{
  "id": 1729358941,
  "type": "Feature",
  "properties": {
    "date:cessation_lower": "2017-10-31",
    "date:cessation_upper": "2017-10-31",
    "date:inception_lower": "2017-10-31",
    "date:inception_upper": "2017-10-31",
    "edtf:cessation": "2017-10-31T03:55:00-07:00",
    "edtf:inception": "2017-10-31T03:55:00-07:00",
    "geom:area": 0,
    "geom:bbox": "-122.386166,37.616356,-122.386166,37.616356",
    "geom:latitude": 37.616356,
    "geom:longitude": -122.386166,
    "instagram:post": {
      "caption": {
        "body": "“We felt the lure of Latin America the instant we boarded the Clipper.\" This 1947 Pan American advertisement shows woven textiles similar to those featured in our \"Empowering Threads\" exhibition. Have you ever been to Mexico or Guatemala?  Image: Pan American World Airways advertisement, Saturday Evening Post, 1947. Gift of Barnaby Conrad III. 2001.038.164.027",
        "excerpt": "“We felt the lure of Latin America the instant we boarded the Clipper.\"",
        "hashtags": [
          "traveltuesday",
          "mayantextiles",
          "empoweringthreads",
          "panam",
          "panamerican",
          "clipper",
          "vintagead",
          "vintage",
          "vintageadvertisement",
          "advertisement",
          "aviationlovers",
          "vintageaviation",
          "history",
          "avhistory",
          "aviationgeeks",
          "instaplane",
          "flying",
          "plane",
          "flight",
          "airline",
          "PAA",
          "avgeeks",
          "aviation4u",
          "aviationdaily",
          "PanAmericanWorldAirways",
          "SaturdayEveningPost",
          "DiadeMuertos",
          "DiadelosMuertos"
        ],
        "users": []
      },
      "media_id": "567bbe19bc1e715ad3ead7ad34cd51d3",
      "path": "media/other/23101796_373708526393299_8503501390235041792_n_17879953087180487.jpg",
      "perceptual_hash": "p:eee3b93983666481",
      "taken": 1509447300,
      "taken_at": "Oct 31, 2017 10:55 am"
    },
    "millsfield:similar": {
      "google/siglip2-so400m-patch16-naflex": [
        {
          "distance": 0.26104462146759033,
          "id": 1729357279
        },
        {
          "distance": 0.2814076542854309,
          "id": 1729360397
        },
        {
          "distance": 0.28466683626174927,
          "id": 1729357279
        },
        {
          "distance": 0.29098689556121826,
          "id": 1729359659
        },
        {
          "distance": 0.29292696714401245,
          "id": 1729360479
        },
        {
          "distance": 0.29332977533340454,
          "id": 1729359833
        },
        {
          "distance": 0.3030099868774414,
          "id": 1729359217
        },
        {
          "distance": 0.30620694160461426,
          "id": 1729361533
        },
        {
          "distance": 0.306801438331604,
          "id": 1729359659
        },
        {
          "distance": 0.309955358505249,
          "id": 1729359527
        }
      ]
    },
    "sfomuseum:placetype": "instagram",
    "src:geom": "sfomuseum",
    "wof:belongsto": [
      1159160869,
      102527513,
      102191575,
      85633793,
      102087579,
      85922583,
      85688637
    ],
    "wof:country": "US",
    "wof:created": 1509447300,
    "wof:geomhash": "b6e33f47475d56bc8da457bc31afadc8",
    "wof:hierarchy": [
      {
        "building_id": 1159160869,
        "campus_id": 102527513,
        "continent_id": 102191575,
        "country_id": 85633793,
        "county_id": 102087579,
        "custom_id": 1729358941,
        "instagram_id": 1729358941,
        "locality_id": 85922583,
        "neighbourhood_id": -1,
        "region_id": 85688637
      }
    ],
    "wof:id": 1729358941,
    "wof:lastmodified": 1787777634,
    "wof:name": "“We felt the lure of Latin America the instant we boarded the Clipper.\"..",
    "wof:parent_id": 1159160869,
    "wof:placetype": "custom",
    "wof:placetype_alt": [
      "instagram"
    ],
    "wof:repo": "sfomuseum-data-socialmedia-instagram",
    "wof:superseded_by": [],
    "wof:supersedes": []
  },
  "bbox": [
    -122.386166,
    37.616356,
    -122.386166,
    37.616356
  ],
  "geometry": {"type":"Point","coordinates":[-122.386166,37.616356]}
}
