{
  "id": 1729358283,
  "type": "Feature",
  "properties": {
    "date:cessation_lower": "2018-05-03",
    "date:cessation_upper": "2018-05-03",
    "date:inception_lower": "2018-05-03",
    "date:inception_upper": "2018-05-03",
    "edtf:cessation": "2018-05-03T07:15:00-07:00",
    "edtf:inception": "2018-05-03T07:15:00-07:00",
    "geom:area": 0,
    "geom:bbox": "-122.386166,37.616356,-122.386166,37.616356",
    "geom:latitude": 37.616356,
    "geom:longitude": -122.386166,
    "instagram:post": {
      "caption": {
        "body": "What did SFO look like in the 1940s? These postcards of the airport produced in the ‘40s give us a glimpse back into history. What do you think would be SFO's iconic postcard picture today?  Image: San Francisco Airport postcard, Douglas DC-4, c. 1946. SFO Museum Collection. 2001.108.019",
        "excerpt": "What did SFO look like in the 1940s?",
        "hashtags": [
          "SFOHistory",
          "SFO",
          "avgeek",
          "avationgeek",
          "aviation",
          "aviationhistory",
          "vintageaviation",
          "history",
          "avhistory",
          "aviationgeeks",
          "avgeeks"
        ],
        "users": []
      },
      "media_id": "f0cd7d67fd7d035c376b4be5ad6445b9",
      "path": "media/other/31098269_772029726334054_4894749810915016704_n_17934457906079761.jpg",
      "perceptual_hash": "p:b89cc7431bbcdc48",
      "taken": 1525356900,
      "taken_at": "May 03, 2018 2:15 pm"
    },
    "millsfield:similar": {
      "google/siglip2-so400m-patch16-naflex": [
        {
          "distance": 0.15297001600265503,
          "id": 1729360743
        },
        {
          "distance": 0.16773682832717896,
          "id": 1729359361
        },
        {
          "distance": 0.1680416464805603,
          "id": 1763558849
        },
        {
          "distance": 0.1773497462272644,
          "id": 1880151589
        },
        {
          "distance": 0.18283861875534058,
          "id": 1729360743
        },
        {
          "distance": 0.1875767707824707,
          "id": 1763559617
        },
        {
          "distance": 0.18782728910446167,
          "id": 1763559547
        },
        {
          "distance": 0.18920296430587769,
          "id": 1729356439
        },
        {
          "distance": 0.19321751594543457,
          "id": 1729361347
        },
        {
          "distance": 0.19494879245758057,
          "id": 1763558849
        }
      ]
    },
    "sfomuseum:placetype": "instagram",
    "src:geom": "sfomuseum",
    "wof:belongsto": [
      1159160869,
      102527513,
      102191575,
      85633793,
      102087579,
      85922583,
      85688637
    ],
    "wof:country": "US",
    "wof:created": 1525356900,
    "wof:geomhash": "b6e33f47475d56bc8da457bc31afadc8",
    "wof:hierarchy": [
      {
        "building_id": 1159160869,
        "campus_id": 102527513,
        "continent_id": 102191575,
        "country_id": 85633793,
        "county_id": 102087579,
        "custom_id": 1729358283,
        "instagram_id": 1729358283,
        "locality_id": 85922583,
        "neighbourhood_id": -1,
        "region_id": 85688637
      }
    ],
    "wof:id": 1729358283,
    "wof:lastmodified": 1787777633,
    "wof:name": "What did SFO look like in the 1940s?..",
    "wof:parent_id": 1159160869,
    "wof:placetype": "custom",
    "wof:placetype_alt": [
      "instagram"
    ],
    "wof:repo": "sfomuseum-data-socialmedia-instagram",
    "wof:superseded_by": [],
    "wof:supersedes": []
  },
  "bbox": [
    -122.386166,
    37.616356,
    -122.386166,
    37.616356
  ],
  "geometry": {"type":"Point","coordinates":[-122.386166,37.616356]}
}
