{
  "id": 1880151045,
  "type": "Feature",
  "properties": {
    "date:cessation_lower": "2023-03-20",
    "date:cessation_upper": "2023-03-20",
    "date:inception_lower": "2023-03-20",
    "date:inception_upper": "2023-03-20",
    "edtf:cessation": "2023-03-20T03:21:00-07:00",
    "edtf:inception": "2023-03-20T03:21:00-07:00",
    "geom:area": 0,
    "geom:bbox": "-122.386166,37.616356,-122.386166,37.616356",
    "geom:latitude": 37.616356,
    "geom:longitude": -122.386166,
    "instagram:post": {
      "caption": {
        "body": "The Bruton sisters — Margaret (1894–1983), Esther (1896–1992), and Helen Bruton (1898–1985) — were multidisciplinary artists who worked in painting, printmaking, mosaic, terrazzo, and bas-relief. The Brutons shared major commissions and collaborated closely, no matter who was charged with the project. Raised in Alameda, California, they attended The Art Students League of New York, where Margaret painted and Helen sculpted, while Esther transferred to the New York School of Fine and Applied Art to study commercial art.   See “California Modernist Women: Groundbreaking Creativity” on display, post-security, in Harvey Milk Terminal 1 and online at: https://bit.ly/CaliforniaModernistWomen",
        "excerpt": "The Bruton sisters — Margaret (1894–1983), Esther (1896–1992), and Helen Bruton (1898–1985) — were multidisciplinary artists who worked in painting, printmaking, mosaic, terrazzo, and bas-relief.",
        "hashtags": [
          "CaliforniaModernistWomen",
          "5WomenArtists",
          "WomensHistoryMonth",
          "TheBrutonsisters",
          "Brutonsisters",
          "MargaretBruton"
        ],
        "users": []
      },
      "media_id": "18fc5ffef179a47aacf90a158758e97f709885ea",
      "path": "media/posts/202303/337247473_914165459918140_686278455141917943_n_17959473242255833.jpg",
      "perceptual_hash": "p:fd9c53c24d4732a2",
      "taken": 1679307660,
      "taken_at": "Mar 20, 2023 10:21 am"
    },
    "millsfield:similar": {
      "google/siglip2-so400m-patch16-naflex": [
        {
          "distance": 0.000023365020751953125,
          "id": 1880151083
        },
        {
          "distance": 0.02620720863342285,
          "id": 1880151043
        },
        {
          "distance": 0.1724456548690796,
          "id": 1880151043
        },
        {
          "distance": 0.17250263690948486,
          "id": 1880151083
        },
        {
          "distance": 0.19796645641326904,
          "id": 1880150969
        },
        {
          "distance": 0.19931578636169434,
          "id": 1880151539
        },
        {
          "distance": 0.2023221254348755,
          "id": 1880151023
        },
        {
          "distance": 0.2290332317352295,
          "id": 1880151475
        },
        {
          "distance": 0.23741751909255981,
          "id": 1880150969
        },
        {
          "distance": 0.2430274486541748,
          "id": 1880151023
        }
      ]
    },
    "sfomuseum:placetype": "instagram",
    "src:geom": "sfomuseum",
    "wof:belongsto": [
      1159160869,
      102527513,
      102191575,
      85633793,
      102087579,
      85922583,
      85688637
    ],
    "wof:country": "US",
    "wof:created": 1679307660,
    "wof:geomhash": "b6e33f47475d56bc8da457bc31afadc8",
    "wof:hierarchy": [
      {
        "building_id": 1159160869,
        "campus_id": 102527513,
        "continent_id": 102191575,
        "country_id": 85633793,
        "county_id": 102087579,
        "custom_id": 1880151045,
        "instagram_id": 1880151045,
        "locality_id": 85922583,
        "neighbourhood_id": -1,
        "region_id": 85688637
      }
    ],
    "wof:id": 1880151045,
    "wof:lastmodified": 1787777661,
    "wof:name": "The Bruton sisters — Margaret (1894–1983), Esther (1896–1992), and Helen Bruton (1898–1985) — were multidisciplinary artists who worked in painting, printmaking, mosaic, terrazzo, and bas-relief...",
    "wof:parent_id": 1159160869,
    "wof:placetype": "custom",
    "wof:placetype_alt": [
      "instagram"
    ],
    "wof:repo": "sfomuseum-data-socialmedia-instagram",
    "wof:superseded_by": [],
    "wof:supersedes": []
  },
  "bbox": [
    -122.386166,
    37.616356,
    -122.386166,
    37.616356
  ],
  "geometry": {"type":"Point","coordinates":[-122.386166,37.616356]}
}
