{
  "id": 1763559337,
  "type": "Feature",
  "properties": {
    "date:cessation_lower": "2021-11-08",
    "date:cessation_upper": "2021-11-08",
    "date:inception_lower": "2021-11-08",
    "date:inception_upper": "2021-11-08",
    "edtf:cessation": "2021-11-08T08:42:00-08:00",
    "edtf:inception": "2021-11-08T08:42:00-08:00",
    "geom:area": 0,
    "geom:bbox": "-122.386166,37.616356,-122.386166,37.616356",
    "geom:latitude": 37.616356,
    "geom:longitude": -122.386166,
    "instagram:post": {
      "caption": {
        "body": "Happy Birthday, Macario Jiménez! Born #onthisday in 1967 in Guadalajara, Mexico, Jiménez studied at Milan’s Marangoni Institute and created his own clothing brand in 1994 specializing in women’s ready-to-wear. His Aeroméxico uniform, worn from 2008 to 2011, is a black polyester knit suit worn with a skirt or pants. The trim, tailored look of the jacket and skirt is highlighted with red piping, a two-tone tie belt, and dramatic kick pleat. The outfit is finished with a multicolor scarf.",
        "excerpt": "Happy Birthday, Macario Jiménez!",
        "hashtags": [
          "Fashion",
          "FlightAttendant",
          "crewlife",
          "Aeromexico",
          "MacarioJiménez",
          "avgeek"
        ],
        "users": []
      },
      "media_id": "11c4c2046c646791b12f0017753c0794e871ebf4",
      "path": "media/posts/202111/254951108_431452555019480_2844475947567537840_n_17908611848099612.jpg",
      "perceptual_hash": "p:d4588e03e3e4f2b5",
      "taken": 1636389720,
      "taken_at": "Nov 08, 2021 4:42 pm"
    },
    "millsfield:similar": {
      "google/siglip2-so400m-patch16-naflex": [
        {
          "distance": 0.3239966630935669,
          "id": 1880150891
        },
        {
          "distance": 0.33603882789611816,
          "id": 1729361499
        },
        {
          "distance": 0.3442463278770447,
          "id": 1729359919
        },
        {
          "distance": 0.36366039514541626,
          "id": 1729359919
        },
        {
          "distance": 0.3687078356742859,
          "id": 1729361895
        },
        {
          "distance": 0.3797011375427246,
          "id": 1763558975
        },
        {
          "distance": 0.3810713291168213,
          "id": 1729356263
        },
        {
          "distance": 0.3827388286590576,
          "id": 1729355599
        },
        {
          "distance": 0.3832587003707886,
          "id": 1729355597
        },
        {
          "distance": 0.389464795589447,
          "id": 1729355597
        }
      ]
    },
    "sfomuseum:placetype": "instagram",
    "src:geom": "sfomuseum",
    "wof:belongsto": [
      1159160869,
      102527513,
      102191575,
      85633793,
      102087579,
      85922583,
      85688637
    ],
    "wof:country": "US",
    "wof:created": 1636389720,
    "wof:geomhash": "b6e33f47475d56bc8da457bc31afadc8",
    "wof:hierarchy": [
      {
        "building_id": 1159160869,
        "campus_id": 102527513,
        "continent_id": 102191575,
        "country_id": 85633793,
        "county_id": 102087579,
        "custom_id": 1763559337,
        "instagram_id": 1763559337,
        "locality_id": 85922583,
        "neighbourhood_id": -1,
        "region_id": 85688637
      }
    ],
    "wof:id": 1763559337,
    "wof:lastmodified": 1787777660,
    "wof:name": "Happy Birthday, Macario Jiménez!..",
    "wof:parent_id": 1159160869,
    "wof:placetype": "custom",
    "wof:placetype_alt": [
      "instagram"
    ],
    "wof:repo": "sfomuseum-data-socialmedia-instagram",
    "wof:superseded_by": [],
    "wof:supersedes": []
  },
  "bbox": [
    -122.386166,
    37.616356,
    -122.386166,
    37.616356
  ],
  "geometry": {"type":"Point","coordinates":[-122.386166,37.616356]}
}
