{
  "id": 1729357701,
  "type": "Feature",
  "properties": {
    "date:cessation_lower": "2018-09-07",
    "date:cessation_upper": "2018-09-07",
    "date:inception_lower": "2018-09-07",
    "date:inception_upper": "2018-09-07",
    "edtf:cessation": "2018-09-07T07:53:00-07:00",
    "edtf:inception": "2018-09-07T07:53:00-07:00",
    "geom:area": 0,
    "geom:bbox": "-122.386166,37.616356,-122.386166,37.616356",
    "geom:latitude": 37.616356,
    "geom:longitude": -122.386166,
    "instagram:post": {
      "caption": {
        "body": "Known for his humorous use of puns and parody, William T. Wiley’s work defined the nucleus of the Bay Area Funk movement in the 1960s. Wiley says of his work during this time: “It suddenly became clear to me that art was what I’d heard on the radio that day, or something I saw outside. Suddenly, anything was potential.” This work was originally created and installed as an outdoor billboard prior to being purchased by the Arts Commission for the Airport. \"Void\" by William T. Wiley is located post-security, in Terminal 3. http://bit.ly/2wkT33r",
        "excerpt": "Known for his humorous use of puns and parody, William T. Wiley’s work defined the nucleus of the Bay Area Funk movement in the 1960s.",
        "hashtags": [
          "airportart",
          "art",
          "painting",
          "WilliamWiley",
          "Void",
          "BayAreaArtist",
          "BayAreaFunk",
          "billboard"
        ],
        "users": [
          "sf_arts_commission",
          "sfac_public_art_collection"
        ]
      },
      "media_id": "436478d1bf8c33dc75e184e27886d545",
      "path": "media/other/41095012_531884317253210_8581922808638067114_n_17899912210244702.jpg",
      "perceptual_hash": "p:9eea95152837499e",
      "taken": 1536331980,
      "taken_at": "Sep 07, 2018 2:53 pm"
    },
    "millsfield:similar": {
      "google/siglip2-so400m-patch16-naflex": [
        {
          "distance": 0.14986974000930786,
          "id": 1729359429
        },
        {
          "distance": 0.1699681282043457,
          "id": 1729356163
        },
        {
          "distance": 0.17921030521392822,
          "id": 1880151069
        },
        {
          "distance": 0.20035254955291748,
          "id": 1729361679
        },
        {
          "distance": 0.20175385475158691,
          "id": 1729357871
        },
        {
          "distance": 0.21067070960998535,
          "id": 1880151713
        },
        {
          "distance": 0.21844279766082764,
          "id": 1947425185
        },
        {
          "distance": 0.21947914361953735,
          "id": 1729357999
        },
        {
          "distance": 0.22378754615783691,
          "id": 1947425089
        },
        {
          "distance": 0.22498619556427002,
          "id": 1947425181
        }
      ]
    },
    "sfomuseum:placetype": "instagram",
    "src:geom": "sfomuseum",
    "wof:belongsto": [
      1159160869,
      102527513,
      102191575,
      85633793,
      102087579,
      85922583,
      85688637
    ],
    "wof:country": "US",
    "wof:created": 1536331980,
    "wof:geomhash": "b6e33f47475d56bc8da457bc31afadc8",
    "wof:hierarchy": [
      {
        "building_id": 1159160869,
        "campus_id": 102527513,
        "continent_id": 102191575,
        "country_id": 85633793,
        "county_id": 102087579,
        "custom_id": 1729357701,
        "instagram_id": 1729357701,
        "locality_id": 85922583,
        "neighbourhood_id": -1,
        "region_id": 85688637
      }
    ],
    "wof:id": 1729357701,
    "wof:lastmodified": 1787777632,
    "wof:name": "Known for his humorous use of puns and parody, William T. Wiley’s work defined the nucleus of the Bay Area Funk movement in the 1960s...",
    "wof:parent_id": 1159160869,
    "wof:placetype": "custom",
    "wof:placetype_alt": [
      "instagram"
    ],
    "wof:repo": "sfomuseum-data-socialmedia-instagram",
    "wof:superseded_by": [],
    "wof:supersedes": []
  },
  "bbox": [
    -122.386166,
    37.616356,
    -122.386166,
    37.616356
  ],
  "geometry": {"type":"Point","coordinates":[-122.386166,37.616356]}
}
