{
  "id": 1729355201,
  "type": "Feature",
  "properties": {
    "date:cessation_lower": "2020-07-13",
    "date:cessation_upper": "2020-07-13",
    "date:inception_lower": "2020-07-13",
    "date:inception_upper": "2020-07-13",
    "edtf:cessation": "2020-07-13T06:23:00-07:00",
    "edtf:inception": "2020-07-13T06:23:00-07:00",
    "geom:area": 0,
    "geom:bbox": "-122.386166,37.616356,-122.386166,37.616356",
    "geom:latitude": 37.616356,
    "geom:longitude": -122.386166,
    "instagram:post": {
      "caption": {
        "body": "While many of us at SFO Museum continue to work from home, we have started a gradual return to onsite exhibition production and collections work. A recent project was the deinstallation of the Lockheed Model G, located just outside of the Aviation Museum, which was removed in advance of nearby construction work. ",
        "excerpt": "While many of us at SFO Museum continue to work from home, we have started a gradual return to onsite exhibition production and collections work.",
        "hashtags": [
          "MuseumFromHome",
          "avgeek",
          "MuseumMonday"
        ],
        "users": []
      },
      "media_id": "2cbd9ef82ee7b9e21f43ec5cba58e29b",
      "path": "media/other/108179098_3037861816250803_4682531818547910742_n_17856971159055262.jpg",
      "perceptual_hash": "p:e39af80e00717cee",
      "taken": 1594646580,
      "taken_at": "Jul 13, 2020 1:23 pm"
    },
    "millsfield:similar": {
      "google/siglip2-so400m-patch16-naflex": [
        {
          "distance": 0.20907700061798096,
          "id": 1880151689
        },
        {
          "distance": 0.21428751945495605,
          "id": 1880151689
        },
        {
          "distance": 0.27199095487594604,
          "id": 1763559311
        },
        {
          "distance": 0.27586621046066284,
          "id": 1880151275
        },
        {
          "distance": 0.2890503406524658,
          "id": 1729356841
        },
        {
          "distance": 0.2952623963356018,
          "id": 1880151275
        },
        {
          "distance": 0.303905725479126,
          "id": 1729358393
        },
        {
          "distance": 0.30885690450668335,
          "id": 1763559311
        },
        {
          "distance": 0.3138996362686157,
          "id": 1763559095
        },
        {
          "distance": 0.3147392272949219,
          "id": 1729362949
        }
      ]
    },
    "sfomuseum:placetype": "instagram",
    "src:geom": "sfomuseum",
    "wof:belongsto": [
      1159160869,
      102527513,
      102191575,
      85633793,
      102087579,
      85922583,
      85688637
    ],
    "wof:country": "US",
    "wof:created": 1594646580,
    "wof:geomhash": "b6e33f47475d56bc8da457bc31afadc8",
    "wof:hierarchy": [
      {
        "building_id": 1159160869,
        "campus_id": 102527513,
        "continent_id": 102191575,
        "country_id": 85633793,
        "county_id": 102087579,
        "custom_id": 1729355201,
        "instagram_id": 1729355201,
        "locality_id": 85922583,
        "neighbourhood_id": -1,
        "region_id": 85688637
      }
    ],
    "wof:id": 1729355201,
    "wof:lastmodified": 1787777619,
    "wof:name": "While many of us at SFO Museum continue to work from home, we have started a gradual return to onsite exhibition production and collections work...",
    "wof:parent_id": 1159160869,
    "wof:placetype": "custom",
    "wof:placetype_alt": [
      "instagram"
    ],
    "wof:repo": "sfomuseum-data-socialmedia-instagram",
    "wof:superseded_by": [],
    "wof:supersedes": []
  },
  "bbox": [
    -122.386166,
    37.616356,
    -122.386166,
    37.616356
  ],
  "geometry": {"type":"Point","coordinates":[-122.386166,37.616356]}
}
