{
  "id": 1729359827,
  "type": "Feature",
  "properties": {
    "date:cessation_lower": "2017-02-13",
    "date:cessation_upper": "2017-02-13",
    "date:inception_lower": "2017-02-13",
    "date:inception_upper": "2017-02-13",
    "edtf:cessation": "2017-02-13T01:44:00-08:00",
    "edtf:inception": "2017-02-13T01:44:00-08:00",
    "geom:area": 0,
    "geom:bbox": "-122.386166,37.616356,-122.386166,37.616356",
    "geom:latitude": 37.616356,
    "geom:longitude": -122.386166,
    "instagram:post": {
      "caption": {
        "body": "The Turquoise Coast, in southwest Turkey, was home to the Ancient Lycians. Because Lycians lived between the Greek, Roman, and Near Eastern worlds, they intermingled with and absorbed elements from each of these cultures. Homer’s Iliad mentions the Lycians as allies of the Trojans. The Lycians left behind some truly extraordinary funerary architecture in the form of carved stone tombs and sarcophagi. Sarcophagi probably served as the predominant method of burial in the Hellenistic and Roman periods. These tombs attracted great attention after Westerners began documenting them in the early nineteenth century. Examples of their sarcophagi can be found on the plates and soup tureen displayed here. Sarcophagi consist of a base, a burial chamber, and an arched lid. The funerary art the Lycians left behind still remains in Lycia and is akin to an open-air museum today.  All objects and images are from the collection of Michael Sack. \"From #PrintToPlate: Views of the East on Transferware\" is on display, every day, 24 hours a day, pre-security, in the International Terminal. http://bit.ly/PrintToPlate",
        "excerpt": "The Turquoise Coast, in southwest Turkey, was home to the Ancient Lycians.",
        "hashtags": [],
        "users": []
      },
      "media_id": "dbeaa14ab34d1f0a302222c5e1cb68ba",
      "path": "media/posts/201702/16584810_261667934261225_335420891229847552_n_17872393582002316.jpg",
      "perceptual_hash": "p:b3b8ccc585e72343",
      "taken": 1486979040,
      "taken_at": "Feb 13, 2017 9:44 am"
    },
    "millsfield:similar": {
      "google/siglip2-so400m-patch16-naflex": [
        {
          "distance": 0.19658517837524414,
          "id": 1729355439
        },
        {
          "distance": 0.21666723489761353,
          "id": 1729355439
        },
        {
          "distance": 0.23681312799453735,
          "id": 1729360239
        },
        {
          "distance": 0.24116981029510498,
          "id": 1729359869
        },
        {
          "distance": 0.24164390563964844,
          "id": 1729359961
        },
        {
          "distance": 0.2540348768234253,
          "id": 1729359881
        },
        {
          "distance": 0.27173519134521484,
          "id": 1729359869
        },
        {
          "distance": 0.27895915508270264,
          "id": 1729360183
        },
        {
          "distance": 0.27907484769821167,
          "id": 1729359961
        },
        {
          "distance": 0.28678208589553833,
          "id": 1729360239
        }
      ]
    },
    "sfomuseum:placetype": "instagram",
    "src:geom": "sfomuseum",
    "wof:belongsto": [
      1159160869,
      102527513,
      102191575,
      85633793,
      102087579,
      85922583,
      85688637
    ],
    "wof:country": "US",
    "wof:created": 1486979040,
    "wof:geomhash": "b6e33f47475d56bc8da457bc31afadc8",
    "wof:hierarchy": [
      {
        "building_id": 1159160869,
        "campus_id": 102527513,
        "continent_id": 102191575,
        "country_id": 85633793,
        "county_id": 102087579,
        "custom_id": 1729359827,
        "instagram_id": 1729359827,
        "locality_id": 85922583,
        "neighbourhood_id": -1,
        "region_id": 85688637
      }
    ],
    "wof:id": 1729359827,
    "wof:lastmodified": 1787777637,
    "wof:name": "The Turquoise Coast, in southwest Turkey, was home to the Ancient Lycians...",
    "wof:parent_id": 1159160869,
    "wof:placetype": "custom",
    "wof:placetype_alt": [
      "instagram"
    ],
    "wof:repo": "sfomuseum-data-socialmedia-instagram",
    "wof:superseded_by": [],
    "wof:supersedes": []
  },
  "bbox": [
    -122.386166,
    37.616356,
    -122.386166,
    37.616356
  ],
  "geometry": {"type":"Point","coordinates":[-122.386166,37.616356]}
}
