{
  "id": 1729362647,
  "type": "Feature",
  "properties": {
    "date:cessation_lower": "2013-07-03",
    "date:cessation_upper": "2013-07-03",
    "date:inception_lower": "2013-07-03",
    "date:inception_upper": "2013-07-03",
    "edtf:cessation": "2013-07-03T08:00:00-07:00",
    "edtf:inception": "2013-07-03T08:00:00-07:00",
    "geom:area": 0,
    "geom:bbox": "-122.386166,37.616356,-122.386166,37.616356",
    "geom:latitude": 37.616356,
    "geom:longitude": -122.386166,
    "instagram:post": {
      "caption": {
        "body": "Using photos found in the #Recology dump, James Sansing carefully cut out any people and framed the images in electrical boxes for his 2009 'Missing Persons' series.",
        "excerpt": "Using photos found in the #Recology dump, James Sansing carefully cut out any people and framed the images in electrical boxes for his 2009 'Missing Persons' series.",
        "hashtags": [],
        "users": []
      },
      "media_id": "f624e53645848c4cdf1ebdac12ebd00d",
      "path": "media/other/11378973_1456586171302631_1786184721_n_17841652039062499.jpg",
      "perceptual_hash": "p:de32a9b4b498b943",
      "taken": 1372863600,
      "taken_at": "Jul 03, 2013 3:00 pm"
    },
    "millsfield:similar": {
      "google/siglip2-so400m-patch16-naflex": [
        {
          "distance": 0.22263866662979126,
          "id": 1729362605
        },
        {
          "distance": 0.2676941156387329,
          "id": 1729362959
        },
        {
          "distance": 0.27497774362564087,
          "id": 1729362867
        },
        {
          "distance": 0.27652227878570557,
          "id": 1729362547
        },
        {
          "distance": 0.28316301107406616,
          "id": 1729363021
        },
        {
          "distance": 0.28756600618362427,
          "id": 1729362739
        },
        {
          "distance": 0.2941138744354248,
          "id": 1729362867
        },
        {
          "distance": 0.300804078578949,
          "id": 1729362797
        },
        {
          "distance": 0.3022080659866333,
          "id": 1729362119
        },
        {
          "distance": 0.3033808469772339,
          "id": 1729362595
        }
      ]
    },
    "sfomuseum:placetype": "instagram",
    "src:geom": "sfomuseum",
    "wof:belongsto": [
      1159160869,
      102527513,
      102191575,
      85633793,
      102087579,
      85922583,
      85688637
    ],
    "wof:country": "US",
    "wof:created": 1372863600,
    "wof:geomhash": "b6e33f47475d56bc8da457bc31afadc8",
    "wof:hierarchy": [
      {
        "building_id": 1159160869,
        "campus_id": 102527513,
        "continent_id": 102191575,
        "country_id": 85633793,
        "county_id": 102087579,
        "custom_id": 1729362647,
        "instagram_id": 1729362647,
        "locality_id": 85922583,
        "neighbourhood_id": -1,
        "region_id": 85688637
      }
    ],
    "wof:id": 1729362647,
    "wof:lastmodified": 1787777647,
    "wof:name": "Using photos found in the #Recology dump, James Sansing carefully cut out any people and framed the images in electrical boxes for his 2009 'Missing Persons' series...",
    "wof:parent_id": 1159160869,
    "wof:placetype": "custom",
    "wof:placetype_alt": [
      "instagram"
    ],
    "wof:repo": "sfomuseum-data-socialmedia-instagram",
    "wof:superseded_by": [],
    "wof:supersedes": []
  },
  "bbox": [
    -122.386166,
    37.616356,
    -122.386166,
    37.616356
  ],
  "geometry": {"type":"Point","coordinates":[-122.386166,37.616356]}
}
