{
  "id": 1729356389,
  "type": "Feature",
  "properties": {
    "date:cessation_lower": "2019-06-24",
    "date:cessation_upper": "2019-06-24",
    "date:inception_lower": "2019-06-24",
    "date:inception_upper": "2019-06-24",
    "edtf:cessation": "2019-06-24T10:31:00-07:00",
    "edtf:inception": "2019-06-24T10:31:00-07:00",
    "geom:area": 0,
    "geom:bbox": "-122.386166,37.616356,-122.386166,37.616356",
    "geom:latitude": 37.616356,
    "geom:longitude": -122.386166,
    "instagram:post": {
      "caption": {
        "body": "Did you know that 2% of the budget of civic construction projects in San Francisco goes towards funding public art? The new Harvey Milk Terminal 1 will have several new works of art installed when it opens on July 23rd. This tile mosaic by Jason Jägel is located post-security in Boarding Area B. Learn more about the art in Terminal 1. http://bit.ly/2KAJciU",
        "excerpt": "Did you know that 2% of the budget of civic construction projects in San Francisco goes towards funding public art?",
        "hashtags": [
          "art",
          "airportart",
          "JasonJägel",
          "mosaic",
          "tile",
          "behindthescenes",
          "museummonday",
          "sneakpeek",
          "Terminal1"
        ],
        "users": [
          "jagel"
        ]
      },
      "media_id": "6e8fa69758594344654b5eb23fb52a68",
      "path": "media/other/62271109_612197092637422_8769417952262623407_n_18032438341196078.jpg",
      "perceptual_hash": "p:fbee116982ec1166",
      "taken": 1561397460,
      "taken_at": "Jun 24, 2019 5:31 pm"
    },
    "millsfield:similar": {
      "google/siglip2-so400m-patch16-naflex": [
        {
          "distance": 0.17964130640029907,
          "id": 1729359429
        },
        {
          "distance": 0.19012194871902466,
          "id": 1729357999
        },
        {
          "distance": 0.21622896194458008,
          "id": 1729357365
        },
        {
          "distance": 0.21868395805358887,
          "id": 1763559685
        },
        {
          "distance": 0.22068899869918823,
          "id": 1763559521
        },
        {
          "distance": 0.2213435173034668,
          "id": 1763559521
        },
        {
          "distance": 0.22747856378555298,
          "id": 1763558931
        },
        {
          "distance": 0.2279437780380249,
          "id": 1763559355
        },
        {
          "distance": 0.23044484853744507,
          "id": 1763559555
        },
        {
          "distance": 0.2305067777633667,
          "id": 1729357701
        }
      ]
    },
    "sfomuseum:placetype": "instagram",
    "src:geom": "sfomuseum",
    "wof:belongsto": [
      1159160869,
      102527513,
      102191575,
      85633793,
      102087579,
      85922583,
      85688637
    ],
    "wof:country": "US",
    "wof:created": 1561397460,
    "wof:geomhash": "b6e33f47475d56bc8da457bc31afadc8",
    "wof:hierarchy": [
      {
        "building_id": 1159160869,
        "campus_id": 102527513,
        "continent_id": 102191575,
        "country_id": 85633793,
        "county_id": 102087579,
        "custom_id": 1729356389,
        "instagram_id": 1729356389,
        "locality_id": 85922583,
        "neighbourhood_id": -1,
        "region_id": 85688637
      }
    ],
    "wof:id": 1729356389,
    "wof:lastmodified": 1787777629,
    "wof:name": "Did you know that 2% of the budget of civic construction projects in San Francisco goes towards funding public art?..",
    "wof:parent_id": 1159160869,
    "wof:placetype": "custom",
    "wof:placetype_alt": [
      "instagram"
    ],
    "wof:repo": "sfomuseum-data-socialmedia-instagram",
    "wof:superseded_by": [],
    "wof:supersedes": []
  },
  "bbox": [
    -122.386166,
    37.616356,
    -122.386166,
    37.616356
  ],
  "geometry": {"type":"Point","coordinates":[-122.386166,37.616356]}
}
