{
  "id": 1729357699,
  "type": "Feature",
  "properties": {
    "date:cessation_lower": "2018-09-10",
    "date:cessation_upper": "2018-09-10",
    "date:inception_lower": "2018-09-10",
    "date:inception_upper": "2018-09-10",
    "edtf:cessation": "2018-09-10T06:57:00-07:00",
    "edtf:inception": "2018-09-10T06:57:00-07:00",
    "geom:area": 0,
    "geom:bbox": "-122.386166,37.616356,-122.386166,37.616356",
    "geom:latitude": 37.616356,
    "geom:longitude": -122.386166,
    "instagram:post": {
      "caption": {
        "body": "Elizabeth Ito’s animated short features a soft-spoken teenage monster named T-Kesh who is forced to navigate the drama of being different in a story that addresses a commonly held fear of outsiders.  See \"Welcome to my Life\" by Elizabeth Ito, now playing in the Video Arts gallery, located pre-security in the International Terminal. http://bit.ly/2N5xCOk",
        "excerpt": "Elizabeth Ito’s animated short features a soft-spoken teenage monster named T-Kesh who is forced to navigate the drama of being different in a story that addresses a commonly held fear of outsiders.",
        "hashtags": [
          "VideoArtsSFOM",
          "video",
          "film",
          "illustration",
          "animation",
          "monster",
          "elizabethito",
          "tkesh",
          "outsider",
          "teenager",
          "highschool",
          "bullying",
          "differences"
        ],
        "users": []
      },
      "media_id": "cce2c6b1281c0e8a77310b4f88c14e64",
      "path": "media/other/40246497_543595302751151_3841900925462234101_n_17956994140081747.jpg",
      "perceptual_hash": "p:d5aaa27c922fccc8",
      "taken": 1536587820,
      "taken_at": "Sep 10, 2018 1:57 pm"
    },
    "millsfield:similar": {
      "google/siglip2-so400m-patch16-naflex": [
        {
          "distance": 0.33077871799468994,
          "id": 1729356985
        },
        {
          "distance": 0.35246890783309937,
          "id": 1729356069
        },
        {
          "distance": 0.36172550916671753,
          "id": 1729356069
        },
        {
          "distance": 0.36531639099121094,
          "id": 1729357795
        },
        {
          "distance": 0.3725929260253906,
          "id": 1729356941
        },
        {
          "distance": 0.37503910064697266,
          "id": 1729358551
        },
        {
          "distance": 0.3769247531890869,
          "id": 1729355645
        },
        {
          "distance": 0.38175398111343384,
          "id": 1729356985
        },
        {
          "distance": 0.38191646337509155,
          "id": 1947425011
        },
        {
          "distance": 0.39235347509384155,
          "id": 1729355541
        }
      ]
    },
    "sfomuseum:placetype": "instagram",
    "src:geom": "sfomuseum",
    "wof:belongsto": [
      1159160869,
      102527513,
      102191575,
      85633793,
      102087579,
      85922583,
      85688637
    ],
    "wof:country": "US",
    "wof:created": 1536587820,
    "wof:geomhash": "b6e33f47475d56bc8da457bc31afadc8",
    "wof:hierarchy": [
      {
        "building_id": 1159160869,
        "campus_id": 102527513,
        "continent_id": 102191575,
        "country_id": 85633793,
        "county_id": 102087579,
        "custom_id": 1729357699,
        "instagram_id": 1729357699,
        "locality_id": 85922583,
        "neighbourhood_id": -1,
        "region_id": 85688637
      }
    ],
    "wof:id": 1729357699,
    "wof:lastmodified": 1787777632,
    "wof:name": "Elizabeth Ito’s animated short features a soft-spoken teenage monster named T-Kesh who is forced to navigate the drama of being different in a story that addresses a commonly held fear of outsiders...",
    "wof:parent_id": 1159160869,
    "wof:placetype": "custom",
    "wof:placetype_alt": [
      "instagram"
    ],
    "wof:repo": "sfomuseum-data-socialmedia-instagram",
    "wof:superseded_by": [],
    "wof:supersedes": []
  },
  "bbox": [
    -122.386166,
    37.616356,
    -122.386166,
    37.616356
  ],
  "geometry": {"type":"Point","coordinates":[-122.386166,37.616356]}
}
