{
  "id": 1729360907,
  "type": "Feature",
  "properties": {
    "date:cessation_lower": "2016-03-23",
    "date:cessation_upper": "2016-03-23",
    "date:inception_lower": "2016-03-23",
    "date:inception_upper": "2016-03-23",
    "edtf:cessation": "2016-03-23T11:21:00-07:00",
    "edtf:inception": "2016-03-23T11:21:00-07:00",
    "geom:area": 0,
    "geom:bbox": "-122.386166,37.616356,-122.386166,37.616356",
    "geom:latitude": 37.616356,
    "geom:longitude": -122.386166,
    "instagram:post": {
      "caption": {
        "body": "These TWA (Trans World Airlines) air hostesses were the graduating class of the summer of 1960. TWA flight attendants were called air hostesses until the 1970s. Check out these hairstyles! #WomeninAviation #WomensHistoryMonth  TWA (Trans World Airlines), flight attendant 1960 SFO Museum Collection Gift of TWA Clipped Wings International, Inc. 2002.113.383",
        "excerpt": "These TWA (Trans World Airlines) air hostesses were the graduating class of the summer of 1960.",
        "hashtags": [],
        "users": []
      },
      "media_id": "e64d6d647e3d136953769bcc7afdf89c",
      "path": "media/other/12750112_101205903614041_2035033591_n_17854361326046469.jpg",
      "perceptual_hash": "p:af303827a726e758",
      "taken": 1458757260,
      "taken_at": "Mar 23, 2016 6:21 pm"
    },
    "millsfield:similar": {
      "google/siglip2-so400m-patch16-naflex": [
        {
          "distance": 0.06151413917541504,
          "id": 1763559475
        },
        {
          "distance": 0.06763052940368652,
          "id": 1729360149
        },
        {
          "distance": 0.10741573572158813,
          "id": 1729360657
        },
        {
          "distance": 0.11114901304244995,
          "id": 1729360149
        },
        {
          "distance": 0.12545883655548096,
          "id": 1763559475
        },
        {
          "distance": 0.17332637310028076,
          "id": 1729360657
        },
        {
          "distance": 0.18674695491790771,
          "id": 1729356563
        },
        {
          "distance": 0.19683021306991577,
          "id": 1729360473
        },
        {
          "distance": 0.1969701051712036,
          "id": 1729359775
        },
        {
          "distance": 0.1998903751373291,
          "id": 1729359775
        }
      ]
    },
    "sfomuseum:placetype": "instagram",
    "src:geom": "sfomuseum",
    "wof:belongsto": [
      1159160869,
      102527513,
      102191575,
      85633793,
      102087579,
      85922583,
      85688637
    ],
    "wof:country": "US",
    "wof:created": 1458757260,
    "wof:geomhash": "b6e33f47475d56bc8da457bc31afadc8",
    "wof:hierarchy": [
      {
        "building_id": 1159160869,
        "campus_id": 102527513,
        "continent_id": 102191575,
        "country_id": 85633793,
        "county_id": 102087579,
        "custom_id": 1729360907,
        "instagram_id": 1729360907,
        "locality_id": 85922583,
        "neighbourhood_id": -1,
        "region_id": 85688637
      }
    ],
    "wof:id": 1729360907,
    "wof:lastmodified": 1787777640,
    "wof:name": "These TWA (Trans World Airlines) air hostesses were the graduating class of the summer of 1960...",
    "wof:parent_id": 1159160869,
    "wof:placetype": "custom",
    "wof:placetype_alt": [
      "instagram"
    ],
    "wof:repo": "sfomuseum-data-socialmedia-instagram",
    "wof:superseded_by": [],
    "wof:supersedes": []
  },
  "bbox": [
    -122.386166,
    37.616356,
    -122.386166,
    37.616356
  ],
  "geometry": {"type":"Point","coordinates":[-122.386166,37.616356]}
}
