{
  "id": 1729361267,
  "type": "Feature",
  "properties": {
    "date:cessation_lower": "2015-12-17",
    "date:cessation_upper": "2015-12-17",
    "date:inception_lower": "2015-12-17",
    "date:inception_upper": "2015-12-17",
    "edtf:cessation": "2015-12-17T13:14:00-08:00",
    "edtf:inception": "2015-12-17T13:14:00-08:00",
    "geom:area": 0,
    "geom:bbox": "-122.386166,37.616356,-122.386166,37.616356",
    "geom:latitude": 37.616356,
    "geom:longitude": -122.386166,
    "instagram:post": {
      "caption": {
        "body": "",
        "excerpt": "",
        "hashtags": [
          "ThrowbackThursday"
        ],
        "users": []
      },
      "media_id": "538882219b4c4ca2ca33104373c0de3b",
      "path": "media/other/12345973_1535712230087381_2084239269_n_17843653924102990.jpg",
      "perceptual_hash": "p:90a16e94c7157ceb",
      "taken": 1450386840,
      "taken_at": "Dec 17, 2015 9:14 pm"
    },
    "millsfield:similar": {
      "google/siglip2-so400m-patch16-naflex": [
        {
          "distance": 0.07268637418746948,
          "id": 1729355253
        },
        {
          "distance": 0.14029622077941895,
          "id": 1729357747
        },
        {
          "distance": 0.14962929487228394,
          "id": 1729359759
        },
        {
          "distance": 0.1715022325515747,
          "id": 1729360235
        },
        {
          "distance": 0.17774462699890137,
          "id": 1729361251
        },
        {
          "distance": 0.1851065754890442,
          "id": 1729360429
        },
        {
          "distance": 0.2057793140411377,
          "id": 1729360541
        },
        {
          "distance": 0.20753133296966553,
          "id": 1729361577
        },
        {
          "distance": 0.2088349461555481,
          "id": 1947425255
        },
        {
          "distance": 0.21036118268966675,
          "id": 1729356177
        }
      ]
    },
    "sfomuseum:placetype": "instagram",
    "src:geom": "sfomuseum",
    "wof:belongsto": [
      1159160869,
      102527513,
      102191575,
      85633793,
      102087579,
      85922583,
      85688637
    ],
    "wof:country": "US",
    "wof:created": 1450386840,
    "wof:geomhash": "b6e33f47475d56bc8da457bc31afadc8",
    "wof:hierarchy": [
      {
        "building_id": 1159160869,
        "campus_id": 102527513,
        "continent_id": 102191575,
        "country_id": 85633793,
        "county_id": 102087579,
        "custom_id": 1729361267,
        "instagram_id": 1729361267,
        "locality_id": 85922583,
        "neighbourhood_id": -1,
        "region_id": 85688637
      }
    ],
    "wof:id": 1729361267,
    "wof:lastmodified": 1787777645,
    "wof:name": "..",
    "wof:parent_id": 1159160869,
    "wof:placetype": "custom",
    "wof:placetype_alt": [
      "instagram"
    ],
    "wof:repo": "sfomuseum-data-socialmedia-instagram",
    "wof:superseded_by": [],
    "wof:supersedes": []
  },
  "bbox": [
    -122.386166,
    37.616356,
    -122.386166,
    37.616356
  ],
  "geometry": {"type":"Point","coordinates":[-122.386166,37.616356]}
}
