{
  "id": 1729360277,
  "type": "Feature",
  "properties": {
    "date:cessation_lower": "2016-10-01",
    "date:cessation_upper": "2016-10-01",
    "date:inception_lower": "2016-10-01",
    "date:inception_upper": "2016-10-01",
    "edtf:cessation": "2016-10-01T12:33:00-07:00",
    "edtf:inception": "2016-10-01T12:33:00-07:00",
    "geom:area": 0,
    "geom:bbox": "-122.386166,37.616356,-122.386166,37.616356",
    "geom:latitude": 37.616356,
    "geom:longitude": -122.386166,
    "instagram:post": {
      "caption": {
        "body": "",
        "excerpt": "",
        "hashtags": [
          "PanAm",
          "onthisday",
          "AvGeek",
          "DC3"
        ],
        "users": []
      },
      "media_id": "17ac7e65f1bfe2c8c28b1181bb707070",
      "path": "media/other/14547631_1132103863548674_1344245551566159872_n_17842819582190454.jpg",
      "perceptual_hash": "p:aafad535a646d013",
      "taken": 1475350380,
      "taken_at": "Oct 01, 2016 7:33 pm"
    },
    "millsfield:similar": {
      "google/siglip2-so400m-patch16-naflex": [
        {
          "distance": 0.14269453287124634,
          "id": 1729358009
        },
        {
          "distance": 0.14593440294265747,
          "id": 1763559547
        },
        {
          "distance": 0.14648890495300293,
          "id": 1729357943
        },
        {
          "distance": 0.1490260362625122,
          "id": 1729359361
        },
        {
          "distance": 0.15184056758880615,
          "id": 1880151589
        },
        {
          "distance": 0.15805065631866455,
          "id": 1729356979
        },
        {
          "distance": 0.15814274549484253,
          "id": 1729355833
        },
        {
          "distance": 0.1644425392150879,
          "id": 1729362315
        },
        {
          "distance": 0.16835588216781616,
          "id": 1729360811
        },
        {
          "distance": 0.16897231340408325,
          "id": 1729360847
        }
      ]
    },
    "sfomuseum:placetype": "instagram",
    "src:geom": "sfomuseum",
    "wof:belongsto": [
      1159160869,
      102527513,
      102191575,
      85633793,
      102087579,
      85922583,
      85688637
    ],
    "wof:country": "US",
    "wof:created": 1475350380,
    "wof:geomhash": "b6e33f47475d56bc8da457bc31afadc8",
    "wof:hierarchy": [
      {
        "building_id": 1159160869,
        "campus_id": 102527513,
        "continent_id": 102191575,
        "country_id": 85633793,
        "county_id": 102087579,
        "custom_id": 1729360277,
        "instagram_id": 1729360277,
        "locality_id": 85922583,
        "neighbourhood_id": -1,
        "region_id": 85688637
      }
    ],
    "wof:id": 1729360277,
    "wof:lastmodified": 1787777639,
    "wof:name": "..",
    "wof:parent_id": 1159160869,
    "wof:placetype": "custom",
    "wof:placetype_alt": [
      "instagram"
    ],
    "wof:repo": "sfomuseum-data-socialmedia-instagram",
    "wof:superseded_by": [],
    "wof:supersedes": []
  },
  "bbox": [
    -122.386166,
    37.616356,
    -122.386166,
    37.616356
  ],
  "geometry": {"type":"Point","coordinates":[-122.386166,37.616356]}
}
