{
  "id": 1729359195,
  "type": "Feature",
  "properties": {
    "date:cessation_lower": "2017-08-11",
    "date:cessation_upper": "2017-08-11",
    "date:inception_lower": "2017-08-11",
    "date:inception_upper": "2017-08-11",
    "edtf:cessation": "2017-08-11T06:47:00-07:00",
    "edtf:inception": "2017-08-11T06:47:00-07:00",
    "geom:area": 0,
    "geom:bbox": "-122.386166,37.616356,-122.386166,37.616356",
    "geom:latitude": 37.616356,
    "geom:longitude": -122.386166,
    "instagram:post": {
      "caption": {
        "body": "William Howell Bull (1861–1940) moved to California from New York in the late 1800s. In 1893, Bull organized a trip with three other men to explore and sketch the south fork of Kings River. In 1901, Bull became a resident of San Mateo where he lived for the rest of his life and a year later co-founded the California Society of Artists as an alternative to the earlier established San Francisco Art Association. Around 1915, he worked as a commercial artist for the Southern Pacific Railroad, and also provided illustrations to Pacific Electric, Sunset magazine, and Stanford University. Bull’s rare landscape paintings typically feature scenic areas in Northern California.  Learn more about #ArtsandCrafts in \"At Home with Arts and Crafts\" on display pre-security, in the International Terminal. http://bit.ly/SFOArtsandCrafts",
        "excerpt": "William Howell Bull (1861–1940) moved to California from New York in the late 1800s.",
        "hashtags": [
          "sfoartsandcrafts",
          "artsandcraftsmovement",
          "artsandcraftsstyle",
          "craftsmanstyle",
          "craftsmanhome",
          "bungalowstyle",
          "painting",
          "landscape",
          "williamhowellbull",
          "williambull",
          "california",
          "newyork",
          "sanmateo",
          "localartist",
          "bayareaartist",
          "bayarea",
          "bayareaart",
          "kingsfork",
          "sunset",
          "southernpacificrailroad",
          "californiaartist",
          "californiaart"
        ],
        "users": []
      },
      "media_id": "1414be782b5ee8d779984946c1b67df0",
      "path": "media/posts/201708/20837236_1809845692366855_3882276077644546048_n_17893422211028883.jpg",
      "perceptual_hash": "p:eae2c48d9f96b890",
      "taken": 1502459220,
      "taken_at": "Aug 11, 2017 1:47 pm"
    },
    "millsfield:similar": {
      "google/siglip2-so400m-patch16-naflex": [
        {
          "distance": 0.29914480447769165,
          "id": 1729358873
        },
        {
          "distance": 0.3634796142578125,
          "id": 1729362007
        },
        {
          "distance": 0.3704710006713867,
          "id": 1880151137
        },
        {
          "distance": 0.37369972467422485,
          "id": 1729355957
        },
        {
          "distance": 0.3812260031700134,
          "id": 1763559087
        },
        {
          "distance": 0.3882564902305603,
          "id": 1729356167
        },
        {
          "distance": 0.39200472831726074,
          "id": 1729362007
        },
        {
          "distance": 0.3952317237854004,
          "id": 1729359371
        },
        {
          "distance": 0.3955134153366089,
          "id": 1947425149
        },
        {
          "distance": 0.39761507511138916,
          "id": 1729362075
        }
      ]
    },
    "sfomuseum:placetype": "instagram",
    "src:geom": "sfomuseum",
    "wof:belongsto": [
      1159160869,
      102527513,
      102191575,
      85633793,
      102087579,
      85922583,
      85688637
    ],
    "wof:country": "US",
    "wof:created": 1502459220,
    "wof:geomhash": "b6e33f47475d56bc8da457bc31afadc8",
    "wof:hierarchy": [
      {
        "building_id": 1159160869,
        "campus_id": 102527513,
        "continent_id": 102191575,
        "country_id": 85633793,
        "county_id": 102087579,
        "custom_id": 1729359195,
        "instagram_id": 1729359195,
        "locality_id": 85922583,
        "neighbourhood_id": -1,
        "region_id": 85688637
      }
    ],
    "wof:id": 1729359195,
    "wof:lastmodified": 1787777635,
    "wof:name": "William Howell Bull (1861–1940) moved to California from New York in the late 1800s...",
    "wof:parent_id": 1159160869,
    "wof:placetype": "custom",
    "wof:placetype_alt": [
      "instagram"
    ],
    "wof:repo": "sfomuseum-data-socialmedia-instagram",
    "wof:superseded_by": [],
    "wof:supersedes": []
  },
  "bbox": [
    -122.386166,
    37.616356,
    -122.386166,
    37.616356
  ],
  "geometry": {"type":"Point","coordinates":[-122.386166,37.616356]}
}
