{
  "id": 1729356937,
  "type": "Feature",
  "properties": {
    "date:cessation_lower": "2019-02-21",
    "date:cessation_upper": "2019-02-21",
    "date:inception_lower": "2019-02-21",
    "date:inception_upper": "2019-02-21",
    "edtf:cessation": "2019-02-21T10:19:00-08:00",
    "edtf:inception": "2019-02-21T10:19:00-08:00",
    "geom:area": 0,
    "geom:bbox": "-122.386166,37.616356,-122.386166,37.616356",
    "geom:latitude": 37.616356,
    "geom:longitude": -122.386166,
    "instagram:post": {
      "caption": {
        "body": "The iconic flight bag. In the 1940s, airlines offered small bags for carry-on items emblazoned with their logos and services. Foreseeing a great potential market, manufacturers secured rights to produce airline branded bags in large numbers. By the late 1950s, the “flight bag” was featured in airline advertising and promotions. This new type of hand luggage, with its vivid graphics, became a chic and desirable status symbol that identified its user as a member of the new globe-trotting jet set. Which of these bags do you like best?  Image: Boeing advertisement, Sunset magazine, 1962. SFO Museum Collection. 2017.112.041",
        "excerpt": "The iconic flight bag.",
        "hashtags": [
          "avgeek",
          "flightbags",
          "boeing",
          "graphicdesign",
          "magazine",
          "advertisement"
        ],
        "users": []
      },
      "media_id": "72944fece9a73aa728b5e647a1b07e9c",
      "path": "media/other/51205377_346349779310339_2684315140560632304_n_18035081302011650.jpg",
      "perceptual_hash": "p:ab22d8f29f07c18d",
      "taken": 1550773140,
      "taken_at": "Feb 21, 2019 6:19 pm"
    },
    "millsfield:similar": {
      "google/siglip2-so400m-patch16-naflex": [
        {
          "distance": 0.1833782196044922,
          "id": 1729360759
        },
        {
          "distance": 0.24367427825927734,
          "id": 1729361059
        },
        {
          "distance": 0.248681902885437,
          "id": 1729360759
        },
        {
          "distance": 0.2546030879020691,
          "id": 1729362755
        },
        {
          "distance": 0.25937145948410034,
          "id": 1729357809
        },
        {
          "distance": 0.26342642307281494,
          "id": 1729362755
        },
        {
          "distance": 0.2642160654067993,
          "id": 1729359415
        },
        {
          "distance": 0.27216988801956177,
          "id": 1729355737
        },
        {
          "distance": 0.2730684280395508,
          "id": 1729358965
        },
        {
          "distance": 0.27570587396621704,
          "id": 1729361153
        }
      ]
    },
    "sfomuseum:placetype": "instagram",
    "src:geom": "sfomuseum",
    "wof:belongsto": [
      1159160869,
      102527513,
      102191575,
      85633793,
      102087579,
      85922583,
      85688637
    ],
    "wof:country": "US",
    "wof:created": 1550773140,
    "wof:geomhash": "b6e33f47475d56bc8da457bc31afadc8",
    "wof:hierarchy": [
      {
        "building_id": 1159160869,
        "campus_id": 102527513,
        "continent_id": 102191575,
        "country_id": 85633793,
        "county_id": 102087579,
        "custom_id": 1729356937,
        "instagram_id": 1729356937,
        "locality_id": 85922583,
        "neighbourhood_id": -1,
        "region_id": 85688637
      }
    ],
    "wof:id": 1729356937,
    "wof:lastmodified": 1787777629,
    "wof:name": "The iconic flight bag...",
    "wof:parent_id": 1159160869,
    "wof:placetype": "custom",
    "wof:placetype_alt": [
      "instagram"
    ],
    "wof:repo": "sfomuseum-data-socialmedia-instagram",
    "wof:superseded_by": [],
    "wof:supersedes": []
  },
  "bbox": [
    -122.386166,
    37.616356,
    -122.386166,
    37.616356
  ],
  "geometry": {"type":"Point","coordinates":[-122.386166,37.616356]}
}
