{
  "id": 1729360959,
  "type": "Feature",
  "properties": {
    "date:cessation_lower": "2016-03-07",
    "date:cessation_upper": "2016-03-07",
    "date:inception_lower": "2016-03-07",
    "date:inception_upper": "2016-03-07",
    "edtf:cessation": "2016-03-07T11:20:00-08:00",
    "edtf:inception": "2016-03-07T11:20:00-08:00",
    "geom:area": 0,
    "geom:bbox": "-122.386166,37.616356,-122.386166,37.616356",
    "geom:latitude": 37.616356,
    "geom:longitude": -122.386166,
    "instagram:post": {
      "caption": {
        "body": "The flight deck on a Pan American Airways Boeing 314 provided enormous amounts of space for the operation and navigation of the aircraft, by today’s standards. The deck had room for five crewmembers including the captain and first officer, navigator, radio operator, and flight engineer. The cockpit measured 21 feet by 9 feet with a ceiling over 6 feet high. Have you ever been in an aircraft cockpit?",
        "excerpt": "The flight deck on a Pan American Airways Boeing 314 provided enormous amounts of space for the operation and navigation of the aircraft, by today’s standards.",
        "hashtags": [],
        "users": []
      },
      "media_id": "a4d3d8dfe108d9f2418069e9a7c5e9fc",
      "path": "media/other/928190_1669703843280228_1880216865_n_17845777501072954.jpg",
      "perceptual_hash": "p:9eb281b6d2ccc65a",
      "taken": 1457378400,
      "taken_at": "Mar 07, 2016 7:20 pm"
    },
    "millsfield:similar": {
      "google/siglip2-so400m-patch16-naflex": [
        {
          "distance": 0.0021560192108154297,
          "id": 1729359355
        },
        {
          "distance": 0.10912340879440308,
          "id": 1729359355
        },
        {
          "distance": 0.1406652331352234,
          "id": 1729355863
        },
        {
          "distance": 0.1481928825378418,
          "id": 1729356581
        },
        {
          "distance": 0.17099863290786743,
          "id": 1729361497
        },
        {
          "distance": 0.17272508144378662,
          "id": 1729356581
        },
        {
          "distance": 0.17286080121994019,
          "id": 1729361263
        },
        {
          "distance": 0.17342281341552734,
          "id": 1729356749
        },
        {
          "distance": 0.17476731538772583,
          "id": 1729360435
        },
        {
          "distance": 0.17927497625350952,
          "id": 1729361263
        }
      ]
    },
    "sfomuseum:placetype": "instagram",
    "src:geom": "sfomuseum",
    "wof:belongsto": [
      1159160869,
      102527513,
      102191575,
      85633793,
      102087579,
      85922583,
      85688637
    ],
    "wof:country": "US",
    "wof:created": 1457378400,
    "wof:geomhash": "b6e33f47475d56bc8da457bc31afadc8",
    "wof:hierarchy": [
      {
        "building_id": 1159160869,
        "campus_id": 102527513,
        "continent_id": 102191575,
        "country_id": 85633793,
        "county_id": 102087579,
        "custom_id": 1729360959,
        "instagram_id": 1729360959,
        "locality_id": 85922583,
        "neighbourhood_id": -1,
        "region_id": 85688637
      }
    ],
    "wof:id": 1729360959,
    "wof:lastmodified": 1787777640,
    "wof:name": "The flight deck on a Pan American Airways Boeing 314 provided enormous amounts of space for the operation and navigation of the aircraft, by today’s standards...",
    "wof:parent_id": 1159160869,
    "wof:placetype": "custom",
    "wof:placetype_alt": [
      "instagram"
    ],
    "wof:repo": "sfomuseum-data-socialmedia-instagram",
    "wof:superseded_by": [],
    "wof:supersedes": []
  },
  "bbox": [
    -122.386166,
    37.616356,
    -122.386166,
    37.616356
  ],
  "geometry": {"type":"Point","coordinates":[-122.386166,37.616356]}
}
