{
  "id": 1729362659,
  "type": "Feature",
  "properties": {
    "date:cessation_lower": "2013-06-10",
    "date:cessation_upper": "2013-06-10",
    "date:inception_lower": "2013-06-10",
    "date:inception_upper": "2013-06-10",
    "edtf:cessation": "2013-06-10T08:52:00-07:00",
    "edtf:inception": "2013-06-10T08:52:00-07:00",
    "geom:area": 0,
    "geom:bbox": "-122.386166,37.616356,-122.386166,37.616356",
    "geom:latitude": 37.616356,
    "geom:longitude": -122.386166,
    "instagram:post": {
      "caption": {
        "body": "A scene of Edinburgh graces a painted windowpane from the dining room of the Clansman, a steamship built in Scotland in 1884.",
        "excerpt": "A scene of Edinburgh graces a painted windowpane from the dining room of the Clansman, a steamship built in Scotland in 1884.",
        "hashtags": [],
        "users": []
      },
      "media_id": "28c672a43b578bba53a5b58e0601b596",
      "path": "media/other/11363850_390699731121003_1048085672_n_17842330195062499.jpg",
      "perceptual_hash": "p:92d48f4ba437bc58",
      "taken": 1370879520,
      "taken_at": "Jun 10, 2013 3:52 pm"
    },
    "millsfield:similar": {
      "google/siglip2-so400m-patch16-naflex": [
        {
          "distance": 0.3264865279197693,
          "id": 1729362637
        },
        {
          "distance": 0.3314915895462036,
          "id": 1729362623
        },
        {
          "distance": 0.3398098945617676,
          "id": 1729362309
        },
        {
          "distance": 0.3495137095451355,
          "id": 1729362613
        },
        {
          "distance": 0.351215660572052,
          "id": 1729362173
        },
        {
          "distance": 0.36840856075286865,
          "id": 1729362191
        },
        {
          "distance": 0.3779990077018738,
          "id": 1729362437
        },
        {
          "distance": 0.38035500049591064,
          "id": 1729362007
        },
        {
          "distance": 0.38319307565689087,
          "id": 1729362441
        },
        {
          "distance": 0.384559690952301,
          "id": 1729359331
        }
      ]
    },
    "sfomuseum:placetype": "instagram",
    "src:geom": "sfomuseum",
    "wof:belongsto": [
      1159160869,
      102527513,
      102191575,
      85633793,
      102087579,
      85922583,
      85688637
    ],
    "wof:country": "US",
    "wof:created": 1370879520,
    "wof:geomhash": "b6e33f47475d56bc8da457bc31afadc8",
    "wof:hierarchy": [
      {
        "building_id": 1159160869,
        "campus_id": 102527513,
        "continent_id": 102191575,
        "country_id": 85633793,
        "county_id": 102087579,
        "custom_id": 1729362659,
        "instagram_id": 1729362659,
        "locality_id": 85922583,
        "neighbourhood_id": -1,
        "region_id": 85688637
      }
    ],
    "wof:id": 1729362659,
    "wof:lastmodified": 1787777647,
    "wof:name": "A scene of Edinburgh graces a painted windowpane from the dining room of the Clansman, a steamship built in Scotland in 1884...",
    "wof:parent_id": 1159160869,
    "wof:placetype": "custom",
    "wof:placetype_alt": [
      "instagram"
    ],
    "wof:repo": "sfomuseum-data-socialmedia-instagram",
    "wof:superseded_by": [],
    "wof:supersedes": []
  },
  "bbox": [
    -122.386166,
    37.616356,
    -122.386166,
    37.616356
  ],
  "geometry": {"type":"Point","coordinates":[-122.386166,37.616356]}
}
