{
  "id": 1729356641,
  "type": "Feature",
  "properties": {
    "date:cessation_lower": "2019-04-19",
    "date:cessation_upper": "2019-04-19",
    "date:inception_lower": "2019-04-19",
    "date:inception_upper": "2019-04-19",
    "edtf:cessation": "2019-04-18T17:26:41-07:00",
    "edtf:inception": "2019-04-18T17:26:41-07:00",
    "geom:area": 0,
    "geom:bbox": "-122.386166,37.616356,-122.386166,37.616356",
    "geom:latitude": 37.616356,
    "geom:longitude": -122.386166,
    "instagram:post": {
      "caption": {
        "body": "The 1950s were the golden age of space-themed toys. Catalogs and toy stores offered a multitude of mechanized robots, rocket ships, roving vehicles, and even a robot-driven bulldozer. Robots are the most iconic, space-themed toys. Japanese manufacturers pioneered the robot toy craze in the late 1940s with Atomic Robot Man, a wind-up, tin lithograph toy that walked on its own. \"The Modern Consumer: Products and Style\" is on display, post-security, in Terminal 3. http://bit.ly/1950sConsumer",
        "excerpt": "The 1950s were the golden age of space-themed toys.",
        "hashtags": [
          "1950sConsumer",
          "1950s",
          "robots",
          "50s",
          "midcentury",
          "toys",
          "space"
        ],
        "users": []
      },
      "location": "",
      "media_id": "a3b3a41d83e494380a954855b17c7fc2",
      "path": "photos/201904/a3b3a41d83e494380a954855b17c7fc2.jpg",
      "perceptual_hash": "p:a01f9e63489d33cb",
      "taken": 1555604760,
      "taken_at": "Apr 18, 2019, 4:26 PM"
    },
    "millsfield:similar": {
      "google/siglip2-so400m-patch16-naflex": [
        {
          "distance": 0.021732807159423828,
          "id": 1729356645
        },
        {
          "distance": 0.09820067882537842,
          "id": 1729356645
        },
        {
          "distance": 0.1592416763305664,
          "id": 1729356637
        },
        {
          "distance": 0.18076986074447632,
          "id": 1729356983
        },
        {
          "distance": 0.19867092370986938,
          "id": 1729356983
        },
        {
          "distance": 0.20366668701171875,
          "id": 1729356637
        },
        {
          "distance": 0.2426815629005432,
          "id": 1729362379
        },
        {
          "distance": 0.2551397681236267,
          "id": 1729356803
        },
        {
          "distance": 0.25868719816207886,
          "id": 1729356799
        },
        {
          "distance": 0.2624284625053406,
          "id": 1729359485
        }
      ]
    },
    "sfomuseum:placetype": "instagram",
    "src:geom": "sfomuseum",
    "wof:belongsto": [
      1159160869,
      102527513,
      102191575,
      85633793,
      102087579,
      85922583,
      85688637
    ],
    "wof:country": "US",
    "wof:created": 1555633601,
    "wof:geomhash": "b6e33f47475d56bc8da457bc31afadc8",
    "wof:hierarchy": [
      {
        "building_id": 1159160869,
        "campus_id": 102527513,
        "continent_id": 102191575,
        "country_id": 85633793,
        "county_id": 102087579,
        "custom_id": 1729356641,
        "instagram_id": 1729356641,
        "locality_id": 85922583,
        "neighbourhood_id": -1,
        "region_id": 85688637
      }
    ],
    "wof:id": 1729356641,
    "wof:lastmodified": 1787777629,
    "wof:name": "The 1950s were the golden age of space-themed toys...",
    "wof:parent_id": 1159160869,
    "wof:placetype": "custom",
    "wof:placetype_alt": [
      "instagram"
    ],
    "wof:repo": "sfomuseum-data-socialmedia-instagram",
    "wof:superseded_by": [],
    "wof:supersedes": []
  },
  "bbox": [
    -122.386166,
    37.616356,
    -122.386166,
    37.616356
  ],
  "geometry": {"type":"Point","coordinates":[-122.386166,37.616356]}
}
