{
  "id": 1729357933,
  "type": "Feature",
  "properties": {
    "date:cessation_lower": "2018-07-18",
    "date:cessation_upper": "2018-07-18",
    "date:inception_lower": "2018-07-18",
    "date:inception_upper": "2018-07-18",
    "edtf:cessation": "2018-07-18T16:32:10-07:00",
    "edtf:inception": "2018-07-18T16:32:10-07:00",
    "geom:area": 0,
    "geom:bbox": "-122.386166,37.616356,-122.386166,37.616356",
    "geom:latitude": 37.616356,
    "geom:longitude": -122.386166,
    "instagram:post": {
      "caption": {
        "body": "Introduced on Valentine’s Day 1975, Pan American World Airways' new mix-and-match uniform was designed by multiple Academy Award-winning costumer Edith Head (1897–1981). This versatile uniform in polyester consists of a long-line cardigan-style jacket. Worn until 1980, it offered a slacks option, as well as a tunic with long sleeve blouse. Head incorporated Pan Am’s Universe Design motif seen on the belt buckle, scarf, and in the top-stitching on the felt slouch hat designed by Frank Olive (1929–1995). Image: Pan American World Airways flight attendants, Lora Reed Ford, Debbie Porter, and Vicky Hughes, 1978. Gift of World Wings International. 2012.155.003.019",
        "excerpt": "Introduced on Valentine’s Day 1975, Pan American World Airways' new mix-and-match uniform was designed by multiple Academy Award-winning costumer Edith Head (1897–1981).",
        "hashtags": [
          "panam",
          "EdithHead",
          "FrankOlive",
          "uniform",
          "crewlife",
          "avgeek",
          "avationgeek",
          "aviation",
          "aviationhistory",
          "vintageaviation",
          "history",
          "avhistory",
          "aviationgeeks",
          "avgeeks",
          "fashion"
        ],
        "users": []
      },
      "location": "San Francisco International Airport (SFO)",
      "media_id": "e13ada666509b840802567e018fdc2f9",
      "path": "photos/201807/e13ada666509b840802567e018fdc2f9.jpg",
      "perceptual_hash": "p:8b19345ebc2ac967",
      "taken": 1531927920,
      "taken_at": "Jul 18, 2018, 3:32 PM"
    },
    "millsfield:similar": {
      "google/siglip2-so400m-patch16-naflex": [
        {
          "distance": 0.000024080276489257812,
          "id": 1763558751
        },
        {
          "distance": 0.07133865356445312,
          "id": 1763558751
        },
        {
          "distance": 0.16437166929244995,
          "id": 1729357681
        },
        {
          "distance": 0.17418527603149414,
          "id": 1729360981
        },
        {
          "distance": 0.20262593030929565,
          "id": 1729360981
        },
        {
          "distance": 0.20793813467025757,
          "id": 1729359107
        },
        {
          "distance": 0.21224749088287354,
          "id": 1729357681
        },
        {
          "distance": 0.21856623888015747,
          "id": 1729360171
        },
        {
          "distance": 0.2331894040107727,
          "id": 1729355261
        },
        {
          "distance": 0.23901933431625366,
          "id": 1729359107
        }
      ]
    },
    "sfomuseum:placetype": "instagram",
    "src:geom": "sfomuseum",
    "wof:belongsto": [
      1159160869,
      102527513,
      102191575,
      85633793,
      102087579,
      85922583,
      85688637
    ],
    "wof:country": "US",
    "wof:created": 1531956730,
    "wof:geomhash": "b6e33f47475d56bc8da457bc31afadc8",
    "wof:hierarchy": [
      {
        "building_id": 1159160869,
        "campus_id": 102527513,
        "continent_id": 102191575,
        "country_id": 85633793,
        "county_id": 102087579,
        "custom_id": 1729357933,
        "instagram_id": 1729357933,
        "locality_id": 85922583,
        "neighbourhood_id": -1,
        "region_id": 85688637
      }
    ],
    "wof:id": 1729357933,
    "wof:lastmodified": 1787777632,
    "wof:name": "Introduced on Valentine’s Day 1975, Pan American World Airways' new mix-and-match uniform was designed by multiple Academy Award-winning costumer Edith Head (1897–1981)...",
    "wof:parent_id": 1159160869,
    "wof:placetype": "custom",
    "wof:placetype_alt": [
      "instagram"
    ],
    "wof:repo": "sfomuseum-data-socialmedia-instagram",
    "wof:superseded_by": [],
    "wof:supersedes": []
  },
  "bbox": [
    -122.386166,
    37.616356,
    -122.386166,
    37.616356
  ],
  "geometry": {"type":"Point","coordinates":[-122.386166,37.616356]}
}
