{
  "id": 1729356581,
  "type": "Feature",
  "properties": {
    "date:cessation_lower": "2019-05-13",
    "date:cessation_upper": "2019-05-13",
    "date:inception_lower": "2019-05-13",
    "date:inception_upper": "2019-05-13",
    "edtf:cessation": "2019-05-13T11:50:00-07:00",
    "edtf:inception": "2019-05-13T11:50:00-07:00",
    "geom:area": 0,
    "geom:bbox": "-122.386166,37.616356,-122.386166,37.616356",
    "geom:latitude": 37.616356,
    "geom:longitude": -122.386166,
    "instagram:post": {
      "caption": {
        "body": "Did you know our collections staff catalog each object by hand? We recently received a large donation of over one thousand photographs of modern and historic airplanes that our team is labeling, entering in our database, and scanning for preservation for future generations. Check out a selection of these new additions to the collection in our exhibition “American Airliner Cockpits”, on view in the Aviation Museum.  Shout out to our collections team!",
        "excerpt": "Did you know our collections staff catalog each object by hand?",
        "hashtags": [
          "behindthescenes",
          "museummonday",
          "museumlife"
        ],
        "users": []
      },
      "media_id": "1cc9cb55fcac126dd6f434080c7749fb",
      "path": "media/posts/201905/59887702_359595044690067_7406936569934576551_n_18039119503090013.jpg",
      "perceptual_hash": "p:f1a603999496577a",
      "taken": 1557773400,
      "taken_at": "May 13, 2019 6:50 pm"
    },
    "millsfield:similar": {
      "google/siglip2-so400m-patch16-naflex": [
        {
          "distance": 0.07841849327087402,
          "id": 1729356749
        },
        {
          "distance": 0.09726238250732422,
          "id": 1729361263
        },
        {
          "distance": 0.10308295488357544,
          "id": 1729361497
        },
        {
          "distance": 0.10971558094024658,
          "id": 1729361573
        },
        {
          "distance": 0.11129456758499146,
          "id": 1729357751
        },
        {
          "distance": 0.11394286155700684,
          "id": 1729356749
        },
        {
          "distance": 0.12619245052337646,
          "id": 1729361263
        },
        {
          "distance": 0.12684714794158936,
          "id": 1729356143
        },
        {
          "distance": 0.13145893812179565,
          "id": 1880151085
        },
        {
          "distance": 0.14380759000778198,
          "id": 1729355863
        }
      ]
    },
    "sfomuseum:placetype": "instagram",
    "src:geom": "sfomuseum",
    "wof:belongsto": [
      1159160869,
      102527513,
      102191575,
      85633793,
      102087579,
      85922583,
      85688637
    ],
    "wof:country": "US",
    "wof:created": 1557773400,
    "wof:geomhash": "b6e33f47475d56bc8da457bc31afadc8",
    "wof:hierarchy": [
      {
        "building_id": 1159160869,
        "campus_id": 102527513,
        "continent_id": 102191575,
        "country_id": 85633793,
        "county_id": 102087579,
        "custom_id": 1729356581,
        "instagram_id": 1729356581,
        "locality_id": 85922583,
        "neighbourhood_id": -1,
        "region_id": 85688637
      }
    ],
    "wof:id": 1729356581,
    "wof:lastmodified": 1787777629,
    "wof:name": "Did you know our collections staff catalog each object by hand?..",
    "wof:parent_id": 1159160869,
    "wof:placetype": "custom",
    "wof:placetype_alt": [
      "instagram"
    ],
    "wof:repo": "sfomuseum-data-socialmedia-instagram",
    "wof:superseded_by": [],
    "wof:supersedes": []
  },
  "bbox": [
    -122.386166,
    37.616356,
    -122.386166,
    37.616356
  ],
  "geometry": {"type":"Point","coordinates":[-122.386166,37.616356]}
}
