{
  "id": 1947424971,
  "type": "Feature",
  "properties": {
    "date:cessation_lower": "2024-07-01",
    "date:cessation_upper": "2024-07-01",
    "date:inception_lower": "2024-07-01",
    "date:inception_upper": "2024-07-01",
    "edtf:cessation": "2024-07-01T08:48:00-07:00",
    "edtf:inception": "2024-07-01T08:48:00-07:00",
    "geom:area": 0,
    "geom:bbox": "-122.386166,37.616356,-122.386166,37.616356",
    "geom:latitude": 37.616356,
    "geom:longitude": -122.386166,
    "instagram:post": {
      "caption": {
        "body": "Carved human or animal forms, heads, or faces in high or low relief animate instruments. For instance, the shell of a drum may display carved human forms, while a sculptural figure adorns the handle of a bell or the top of a harp lute. Many forms have symbolic or spiritual significance; others are inspired entirely by their maker’s imagination. Ornate instruments that play a role in royal, religious, or ceremonial functions are commonly made by experienced, revered craftspeople.   Special thank you to the Fowler Museum at UCLA for making this exhibition possible. See \"The Art of the African Instrument\" on display, post-security, in Harvey Milk Terminal 1 and online at: https://bit.ly/African-Instruments  📸: Bell East Nigeria Ibibio peoples wood Fowler Museum at UCLA; Gift of Helen and Dr. Robert Kuhn X86.1863  L2024.0201.010",
        "excerpt": "Carved human or animal forms, heads, or faces in high or low relief animate instruments.",
        "hashtags": [
          "ArtoftheAfricanInstrument"
        ],
        "users": []
      },
      "media_id": "171467d83f8f740bfb93537d3ef34445c5146cbe",
      "path": "media/posts/202407/449722042_1876599126184627_2551113660248614449_n_18088132948457731.jpg",
      "perceptual_hash": "p:ba944d25e29e27c9",
      "taken": 1719848880,
      "taken_at": "Jul 01, 2024 3:48 pm"
    },
    "millsfield:similar": {
      "google/siglip2-so400m-patch16-naflex": [
        {
          "distance": 0.07939594984054565,
          "id": 1947425035
        },
        {
          "distance": 0.10680419206619263,
          "id": 1947425035
        },
        {
          "distance": 0.3259648084640503,
          "id": 1763559597
        },
        {
          "distance": 0.3338834047317505,
          "id": 1947425315
        },
        {
          "distance": 0.3432226777076721,
          "id": 1947424921
        },
        {
          "distance": 0.34862709045410156,
          "id": 1880151439
        },
        {
          "distance": 0.35204142332077026,
          "id": 1729358083
        },
        {
          "distance": 0.3523058295249939,
          "id": 1729357143
        },
        {
          "distance": 0.3581274151802063,
          "id": 1729356475
        },
        {
          "distance": 0.3594834804534912,
          "id": 1947425315
        }
      ]
    },
    "sfomuseum:placetype": "instagram",
    "src:geom": "sfomuseum",
    "wof:belongsto": [
      1159160869,
      102527513,
      102191575,
      85633793,
      102087579,
      85922583,
      85688637
    ],
    "wof:country": "US",
    "wof:created": 1719848880,
    "wof:geomhash": "b6e33f47475d56bc8da457bc31afadc8",
    "wof:hierarchy": [
      {
        "building_id": 1159160869,
        "campus_id": 102527513,
        "continent_id": 102191575,
        "country_id": 85633793,
        "county_id": 102087579,
        "custom_id": 1947424971,
        "locality_id": 85922583,
        "neighbourhood_id": -1,
        "region_id": 85688637
      }
    ],
    "wof:id": 1947424971,
    "wof:lastmodified": 1787777664,
    "wof:name": "Carved human or animal forms, heads, or faces in high or low relief animate instruments...",
    "wof:parent_id": 1159160869,
    "wof:placetype": "custom",
    "wof:repo": "sfomuseum-data-socialmedia-instagram",
    "wof:superseded_by": [],
    "wof:supersedes": []
  },
  "bbox": [
    -122.386166,
    37.616356,
    -122.386166,
    37.616356
  ],
  "geometry": {"type":"Point","coordinates":[-122.386166,37.616356]}
}
