{
  "id": 1763558983,
  "type": "Feature",
  "properties": {
    "date:cessation_lower": "2020-11-23",
    "date:cessation_upper": "2020-11-23",
    "date:inception_lower": "2020-11-23",
    "date:inception_upper": "2020-11-23",
    "edtf:cessation": "2020-11-23T03:30:00-08:00",
    "edtf:inception": "2020-11-23T03:30:00-08:00",
    "geom:area": 0,
    "geom:bbox": "-122.386166,37.616356,-122.386166,37.616356",
    "geom:latitude": 37.616356,
    "geom:longitude": -122.386166,
    "instagram:post": {
      "caption": {
        "body": "On November 22, 1935, the inaugural Pan American Airways Clipper transpacific airmail service departed from California to Manila, the Philippines, carrying 110,865 letters. The Martin M-130 flying boat “China Clipper” lifted off from the waters of San Francisco Bay and strained into the sky threading its way under and over the Bay’s now iconic bridges, which were only partially built at that time. It soared through the Golden Gate and slowly disappeared from land as the airplane and its crew of seven opened the age of scheduled transpacific commercial air service. The flight covered 8,210 miles with a flying time of 59 hours and 48 minutes.   Our exhibition detailing the entire adventurous endeavor, \"China Clipper\", is online at: http://bit.ly/chinaclipper You can also read the entire exhibition catalog and watch all three segments of “Clipper Glory” there!  Image: Pan American World Airways print, 1977. Gift of the Pan Am Association. 2014.039.075",
        "excerpt": "On November 22, 1935, the inaugural Pan American Airways Clipper transpacific airmail service departed from California to Manila, the Philippines, carrying 110,865 letters.",
        "hashtags": [
          "chinaclipper",
          "PanAm",
          "avgeek",
          "MuseumFromHome"
        ],
        "users": []
      },
      "media_id": "cc8629e88e1f1b3b900da234456b25489219b6bb",
      "path": "media/other/126850330_285185569570835_6991445960623784985_n_17877626731975802.jpg",
      "perceptual_hash": "p:eab4854a95c996a7",
      "taken": 1606131000,
      "taken_at": "Nov 23, 2020 11:30 am"
    },
    "millsfield:similar": {
      "google/siglip2-so400m-patch16-naflex": [
        {
          "distance": 0.10024207830429077,
          "id": 1729359611
        },
        {
          "distance": 0.11034536361694336,
          "id": 1729355377
        },
        {
          "distance": 0.11675834655761719,
          "id": 1729361605
        },
        {
          "distance": 0.13595867156982422,
          "id": 1729359611
        },
        {
          "distance": 0.14824342727661133,
          "id": 1729355377
        },
        {
          "distance": 0.17997044324874878,
          "id": 1729361605
        },
        {
          "distance": 0.18541425466537476,
          "id": 1880151263
        },
        {
          "distance": 0.22657638788223267,
          "id": 1880151431
        },
        {
          "distance": 0.22779697179794312,
          "id": 1729361109
        },
        {
          "distance": 0.23046308755874634,
          "id": 1880151313
        }
      ]
    },
    "sfomuseum:placetype": "instagram",
    "src:geom": "sfomuseum",
    "wof:belongsto": [
      1159160869,
      102527513,
      102191575,
      85633793,
      102087579,
      85922583,
      85688637
    ],
    "wof:country": "US",
    "wof:created": 1606131000,
    "wof:geomhash": "b6e33f47475d56bc8da457bc31afadc8",
    "wof:hierarchy": [
      {
        "building_id": 1159160869,
        "campus_id": 102527513,
        "continent_id": 102191575,
        "country_id": 85633793,
        "county_id": 102087579,
        "custom_id": 1763558983,
        "instagram_id": 1763558983,
        "locality_id": 85922583,
        "neighbourhood_id": -1,
        "region_id": 85688637
      }
    ],
    "wof:id": 1763558983,
    "wof:lastmodified": 1787777660,
    "wof:name": "On November 22, 1935, the inaugural Pan American Airways Clipper transpacific airmail service departed from California to Manila, the Philippines, carrying 110,865 letters...",
    "wof:parent_id": 1159160869,
    "wof:placetype": "custom",
    "wof:placetype_alt": [
      "instagram"
    ],
    "wof:repo": "sfomuseum-data-socialmedia-instagram",
    "wof:superseded_by": [],
    "wof:supersedes": []
  },
  "bbox": [
    -122.386166,
    37.616356,
    -122.386166,
    37.616356
  ],
  "geometry": {"type":"Point","coordinates":[-122.386166,37.616356]}
}
