{
  "id": 1729355159,
  "type": "Feature",
  "properties": {
    "date:cessation_lower": "2020-08-14",
    "date:cessation_upper": "2020-08-14",
    "date:inception_lower": "2020-08-14",
    "date:inception_upper": "2020-08-14",
    "edtf:cessation": "2020-08-14T12:34:53-07:00",
    "edtf:inception": "2020-08-14T12:34:53-07:00",
    "geom:area": 0,
    "geom:bbox": "-122.386166,37.616356,-122.386166,37.616356",
    "geom:latitude": 37.616356,
    "geom:longitude": -122.386166,
    "instagram:post": {
      "caption": {
        "body": "In honor of our 40th anniversary, every week this year we are highlighting one of our past exhibitions. In 2012, we presented “Threading the Needle: Sewing in the Machine Age” which featured the development of the domestic sewing machine from the 1850s to the 1970s. Celebrating over one hundred years of sewing, the exhibition also featured pattern illustrations, sewing boxes, sewing birds, needle cases, chatelaines, and pincushions. Do you remember this exhibition?  “Threading the Needle: Sewing in the Machine Age” is online at: https://bit.ly/3fr7xmk",
        "excerpt": "In honor of our 40th anniversary, every week this year we are highlighting one of our past exhibitions.",
        "hashtags": [
          "TBTSFOM",
          "SFOMat40",
          "TBT",
          "Sewing",
          "SewingMachines",
          "MuseumFromHome"
        ],
        "users": []
      },
      "location": "",
      "media_id": "572a084c8d2f7a7308add192390b640b",
      "path": "photos/202008/572a084c8d2f7a7308add192390b640b.jpg",
      "perceptual_hash": "p:99e2720d43687bc7",
      "taken": 1597404840,
      "taken_at": "Aug 14, 2020, 11:34 AM"
    },
    "millsfield:similar": {
      "google/siglip2-so400m-patch16-naflex": [
        {
          "distance": 0.014843225479125977,
          "id": 1763558831
        },
        {
          "distance": 0.07561516761779785,
          "id": 1763558831
        },
        {
          "distance": 0.20851773023605347,
          "id": 1729360547
        },
        {
          "distance": 0.2109462022781372,
          "id": 1729360547
        },
        {
          "distance": 0.22822511196136475,
          "id": 1729360667
        },
        {
          "distance": 0.23273497819900513,
          "id": 1729361863
        },
        {
          "distance": 0.23632025718688965,
          "id": 1763558907
        },
        {
          "distance": 0.23875075578689575,
          "id": 1763559391
        },
        {
          "distance": 0.24094635248184204,
          "id": 1729357309
        },
        {
          "distance": 0.24122625589370728,
          "id": 1880151517
        }
      ]
    },
    "sfomuseum:placetype": "instagram",
    "src:geom": "sfomuseum",
    "wof:belongsto": [
      1159160869,
      102527513,
      102191575,
      85633793,
      102087579,
      85922583,
      85688637
    ],
    "wof:country": "US",
    "wof:created": 1597433693,
    "wof:geomhash": "b6e33f47475d56bc8da457bc31afadc8",
    "wof:hierarchy": [
      {
        "building_id": 1159160869,
        "campus_id": 102527513,
        "continent_id": 102191575,
        "country_id": 85633793,
        "county_id": 102087579,
        "custom_id": 1729355159,
        "instagram_id": 1729355159,
        "locality_id": 85922583,
        "neighbourhood_id": -1,
        "region_id": 85688637
      }
    ],
    "wof:id": 1729355159,
    "wof:lastmodified": 1787777618,
    "wof:name": "In honor of our 40th anniversary, every week this year we are highlighting one of our past exhibitions...",
    "wof:parent_id": 1159160869,
    "wof:placetype": "custom",
    "wof:placetype_alt": [
      "instagram"
    ],
    "wof:repo": "sfomuseum-data-socialmedia-instagram",
    "wof:superseded_by": [],
    "wof:supersedes": []
  },
  "bbox": [
    -122.386166,
    37.616356,
    -122.386166,
    37.616356
  ],
  "geometry": {"type":"Point","coordinates":[-122.386166,37.616356]}
}
