{
  "id": 1729355171,
  "type": "Feature",
  "properties": {
    "date:cessation_lower": "2020-08-05",
    "date:cessation_upper": "2020-08-05",
    "date:inception_lower": "2020-08-05",
    "date:inception_upper": "2020-08-05",
    "edtf:cessation": "2020-08-05T03:25:00-07:00",
    "edtf:inception": "2020-08-05T03:25:00-07:00",
    "geom:area": 0,
    "geom:bbox": "-122.386166,37.616356,-122.386166,37.616356",
    "geom:latitude": 37.616356,
    "geom:longitude": -122.386166,
    "instagram:post": {
      "caption": {
        "body": "The first McDonnell Douglas DC-10 entered service #onthisday in 1971 with American Airlines. American had requested a widebody aircraft similar to the Boeing 747 that could operate on shorter runaways and with long-distance range. American's inaugural DC-10 service operated from LA to Chicago. Have you ever flown on a DC-10?  Image: American Airlines postcard, McDonnell Douglas DC-10, mid 1970s. Gift of the William Hough Collection. 2008.055.801",
        "excerpt": "The first McDonnell Douglas DC-10 entered service #onthisday in 1971 with American Airlines.",
        "hashtags": [
          "MuseumFromHome",
          "DC10",
          "AmericanAirlines",
          "avgeek"
        ],
        "users": []
      },
      "media_id": "7296a09932d3a0c816aae752de2f9804",
      "path": "media/other/117293683_295219565255970_4293264969303855352_n_17877491191775052.jpg",
      "perceptual_hash": "p:9e9639e18d2cb24b",
      "taken": 1596623100,
      "taken_at": "Aug 05, 2020 10:25 am"
    },
    "millsfield:similar": {
      "google/siglip2-so400m-patch16-naflex": [
        {
          "distance": 0.004704594612121582,
          "id": 1729357817
        },
        {
          "distance": 0.00620877742767334,
          "id": 1763558745
        },
        {
          "distance": 0.05687934160232544,
          "id": 1729357817
        },
        {
          "distance": 0.06099224090576172,
          "id": 1763558745
        },
        {
          "distance": 0.1571471095085144,
          "id": 1729360469
        },
        {
          "distance": 0.17609333992004395,
          "id": 1729357345
        },
        {
          "distance": 0.18088048696517944,
          "id": 1729356033
        },
        {
          "distance": 0.19334924221038818,
          "id": 1729360469
        },
        {
          "distance": 0.1989821195602417,
          "id": 1729357769
        },
        {
          "distance": 0.20378661155700684,
          "id": 1729356059
        }
      ]
    },
    "sfomuseum:placetype": "instagram",
    "src:geom": "sfomuseum",
    "wof:belongsto": [
      1159160869,
      102527513,
      102191575,
      85633793,
      102087579,
      85922583,
      85688637
    ],
    "wof:country": "US",
    "wof:created": 1596623100,
    "wof:geomhash": "b6e33f47475d56bc8da457bc31afadc8",
    "wof:hierarchy": [
      {
        "building_id": 1159160869,
        "campus_id": 102527513,
        "continent_id": 102191575,
        "country_id": 85633793,
        "county_id": 102087579,
        "custom_id": 1729355171,
        "instagram_id": 1729355171,
        "locality_id": 85922583,
        "neighbourhood_id": -1,
        "region_id": 85688637
      }
    ],
    "wof:id": 1729355171,
    "wof:lastmodified": 1787777619,
    "wof:name": "The first McDonnell Douglas DC-10 entered service #onthisday in 1971 with American Airlines...",
    "wof:parent_id": 1159160869,
    "wof:placetype": "custom",
    "wof:placetype_alt": [
      "instagram"
    ],
    "wof:repo": "sfomuseum-data-socialmedia-instagram",
    "wof:superseded_by": [],
    "wof:supersedes": []
  },
  "bbox": [
    -122.386166,
    37.616356,
    -122.386166,
    37.616356
  ],
  "geometry": {"type":"Point","coordinates":[-122.386166,37.616356]}
}
