{
  "id": 1729355953,
  "type": "Feature",
  "properties": {
    "date:cessation_lower": "2019-10-28",
    "date:cessation_upper": "2019-10-28",
    "date:inception_lower": "2019-10-28",
    "date:inception_upper": "2019-10-28",
    "edtf:cessation": "2019-10-28T08:30:00-07:00",
    "edtf:inception": "2019-10-28T08:30:00-07:00",
    "geom:area": 0,
    "geom:bbox": "-122.386166,37.616356,-122.386166,37.616356",
    "geom:latitude": 37.616356,
    "geom:longitude": -122.386166,
    "instagram:post": {
      "caption": {
        "body": "The official inauguration of Pan American Airways’ daily airmail service from Key West to Havana, Cuba began #onthisday in 1927. The 772 pounds of airmail was carried by a Fokker F-VII a/3m tri-motor, call sign NC53. The flight took one hour and 10 minutes after the pilots encountered some heavy rain near Havana. The plane was christened “General Machado” after the Cuban President at the time. What are your favorite Pan Am memories?  Image: Pan American Airways, Fokker F-VII a/3m tri-motor, 1928.  Gift of Jon E. Krupnick. 2010.281.006.069",
        "excerpt": "The official inauguration of Pan American Airways’ daily airmail service from Key West to Havana, Cuba began #onthisday in 1927.",
        "hashtags": [
          "avgeek",
          "PanAmerican",
          "PanAm",
          "airmail",
          "inauguralflight",
          "Fokker",
          "Havana",
          "cuba",
          "keywest",
          "florida"
        ],
        "users": []
      },
      "media_id": "55a7eb18925e7dbdb241b89ab03918f0",
      "path": "media/other/71778826_3494316987275794_8622481911724584966_n_18035501035220545.jpg",
      "perceptual_hash": "p:edb412cbc5c3ac2c",
      "taken": 1572276600,
      "taken_at": "Oct 28, 2019 3:30 pm"
    },
    "millsfield:similar": {
      "google/siglip2-so400m-patch16-naflex": [
        {
          "distance": 0.09396898746490479,
          "id": 1729358961
        },
        {
          "distance": 0.09877556562423706,
          "id": 1880151387
        },
        {
          "distance": 0.1089821457862854,
          "id": 1763559017
        },
        {
          "distance": 0.11395388841629028,
          "id": 1729357075
        },
        {
          "distance": 0.11884379386901855,
          "id": 1880151189
        },
        {
          "distance": 0.1194918155670166,
          "id": 1729358961
        },
        {
          "distance": 0.12344241142272949,
          "id": 1763558607
        },
        {
          "distance": 0.12458634376525879,
          "id": 1729355657
        },
        {
          "distance": 0.12547510862350464,
          "id": 1729361159
        },
        {
          "distance": 0.12813830375671387,
          "id": 1729358701
        }
      ]
    },
    "sfomuseum:placetype": "instagram",
    "src:geom": "sfomuseum",
    "wof:belongsto": [
      1159160869,
      102527513,
      102191575,
      85633793,
      102087579,
      85922583,
      85688637
    ],
    "wof:country": "US",
    "wof:created": 1572276600,
    "wof:geomhash": "b6e33f47475d56bc8da457bc31afadc8",
    "wof:hierarchy": [
      {
        "building_id": 1159160869,
        "campus_id": 102527513,
        "continent_id": 102191575,
        "country_id": 85633793,
        "county_id": 102087579,
        "custom_id": 1729355953,
        "instagram_id": 1729355953,
        "locality_id": 85922583,
        "neighbourhood_id": -1,
        "region_id": 85688637
      }
    ],
    "wof:id": 1729355953,
    "wof:lastmodified": 1787777627,
    "wof:name": "The official inauguration of Pan American Airways’ daily airmail service from Key West to Havana, Cuba began #onthisday in 1927...",
    "wof:parent_id": 1159160869,
    "wof:placetype": "custom",
    "wof:placetype_alt": [
      "instagram"
    ],
    "wof:repo": "sfomuseum-data-socialmedia-instagram",
    "wof:superseded_by": [],
    "wof:supersedes": []
  },
  "bbox": [
    -122.386166,
    37.616356,
    -122.386166,
    37.616356
  ],
  "geometry": {"type":"Point","coordinates":[-122.386166,37.616356]}
}
