{
  "id": 1729358471,
  "type": "Feature",
  "properties": {
    "date:cessation_lower": "2018-03-14",
    "date:cessation_upper": "2018-03-14",
    "date:inception_lower": "2018-03-14",
    "date:inception_upper": "2018-03-14",
    "edtf:cessation": "2018-03-14T13:42:37-07:00",
    "edtf:inception": "2018-03-14T13:42:37-07:00",
    "geom:area": 0,
    "geom:bbox": "-122.386166,37.616356,-122.386166,37.616356",
    "geom:latitude": 37.616356,
    "geom:longitude": -122.386166,
    "instagram:post": {
      "caption": {
        "body": "Happy Pi Day! Have you ever eaten pie at an airport? In the mid-1950s, the coffee shop at San Francisco International Airport served a number of pies including chicken pot, apple, fruit, and pie a la mode or with cheddar cheese.  Image: San Francisco International Airport (SFO) menu, Coffee Shop, c. 1955. SFO Museum Collection. 2001.191.001",
        "excerpt": "Happy Pi Day!",
        "hashtags": [
          "piday",
          "SFOHistory",
          "avgeek",
          "avationgeek",
          "aviation",
          "aviationhistory",
          "vintageaviation",
          "history",
          "avhistory",
          "aviationgeeks",
          "avgeeks"
        ],
        "users": []
      },
      "location": "",
      "media_id": "30ebd1f5dfa6439abee01926abedfe8f",
      "path": "photos/201803/30ebd1f5dfa6439abee01926abedfe8f.jpg",
      "perceptual_hash": "p:fab4c9c9813e36b0",
      "taken": 1521031320,
      "taken_at": "Mar 14, 2018, 12:42 PM"
    },
    "millsfield:similar": {
      "google/siglip2-so400m-patch16-naflex": [
        {
          "distance": 0.23056423664093018,
          "id": 1729359721
        },
        {
          "distance": 0.2976086139678955,
          "id": 1729359721
        },
        {
          "distance": 0.30346983671188354,
          "id": 1729359967
        },
        {
          "distance": 0.3383377194404602,
          "id": 1763558679
        },
        {
          "distance": 0.34284859895706177,
          "id": 1729359967
        },
        {
          "distance": 0.3432716131210327,
          "id": 1729360617
        },
        {
          "distance": 0.34484153985977173,
          "id": 1729359463
        },
        {
          "distance": 0.3508971333503723,
          "id": 1729360059
        },
        {
          "distance": 0.36506253480911255,
          "id": 1729360059
        },
        {
          "distance": 0.3894769549369812,
          "id": 1763558679
        }
      ]
    },
    "sfomuseum:placetype": "instagram",
    "src:geom": "sfomuseum",
    "wof:belongsto": [
      1159160869,
      102527513,
      102191575,
      85633793,
      102087579,
      85922583,
      85688637
    ],
    "wof:country": "US",
    "wof:created": 1521060157,
    "wof:geomhash": "b6e33f47475d56bc8da457bc31afadc8",
    "wof:hierarchy": [
      {
        "building_id": 1159160869,
        "campus_id": 102527513,
        "continent_id": 102191575,
        "country_id": 85633793,
        "county_id": 102087579,
        "custom_id": 1729358471,
        "instagram_id": 1729358471,
        "locality_id": 85922583,
        "neighbourhood_id": -1,
        "region_id": 85688637
      }
    ],
    "wof:id": 1729358471,
    "wof:lastmodified": 1787777633,
    "wof:name": "Happy Pi Day!..",
    "wof:parent_id": 1159160869,
    "wof:placetype": "custom",
    "wof:placetype_alt": [
      "instagram"
    ],
    "wof:repo": "sfomuseum-data-socialmedia-instagram",
    "wof:superseded_by": [],
    "wof:supersedes": []
  },
  "bbox": [
    -122.386166,
    37.616356,
    -122.386166,
    37.616356
  ],
  "geometry": {"type":"Point","coordinates":[-122.386166,37.616356]}
}
