{
  "id": 1729360181,
  "type": "Feature",
  "properties": {
    "date:cessation_lower": "2016-10-28",
    "date:cessation_upper": "2016-10-28",
    "date:inception_lower": "2016-10-28",
    "date:inception_upper": "2016-10-28",
    "edtf:cessation": "2016-10-28T05:53:00-07:00",
    "edtf:inception": "2016-10-28T05:53:00-07:00",
    "geom:area": 0,
    "geom:bbox": "-122.386166,37.616356,-122.386166,37.616356",
    "geom:latitude": 37.616356,
    "geom:longitude": -122.386166,
    "instagram:post": {
      "caption": {
        "body": "",
        "excerpt": "",
        "hashtags": [
          "OnThisDay",
          "AVGeek",
          "AviationHistory",
          "PanAm"
        ],
        "users": []
      },
      "media_id": "b96aec6f7ec1abbbb4a3a97ce4b5ddd7",
      "path": "media/other/14733484_1147876611957494_5452106510031126528_n_17867615314006879.jpg",
      "perceptual_hash": "p:9f2706909e1e1d9b",
      "taken": 1477659180,
      "taken_at": "Oct 28, 2016 12:53 pm"
    },
    "millsfield:similar": {
      "google/siglip2-so400m-patch16-naflex": [
        {
          "distance": 0.23708993196487427,
          "id": 1729361413
        },
        {
          "distance": 0.250751256942749,
          "id": 1729361153
        },
        {
          "distance": 0.27108293771743774,
          "id": 1729361413
        },
        {
          "distance": 0.29133927822113037,
          "id": 1880151071
        },
        {
          "distance": 0.2920159101486206,
          "id": 1729361735
        },
        {
          "distance": 0.29350173473358154,
          "id": 1729361577
        },
        {
          "distance": 0.29764676094055176,
          "id": 1729359663
        },
        {
          "distance": 0.3044115900993347,
          "id": 1729361311
        },
        {
          "distance": 0.3045755624771118,
          "id": 1729361153
        },
        {
          "distance": 0.3051385283470154,
          "id": 1729360249
        }
      ]
    },
    "sfomuseum:placetype": "instagram",
    "src:geom": "sfomuseum",
    "wof:belongsto": [
      1159160869,
      102527513,
      102191575,
      85633793,
      102087579,
      85922583,
      85688637
    ],
    "wof:country": "US",
    "wof:created": 1477659180,
    "wof:geomhash": "b6e33f47475d56bc8da457bc31afadc8",
    "wof:hierarchy": [
      {
        "building_id": 1159160869,
        "campus_id": 102527513,
        "continent_id": 102191575,
        "country_id": 85633793,
        "county_id": 102087579,
        "custom_id": 1729360181,
        "instagram_id": 1729360181,
        "locality_id": 85922583,
        "neighbourhood_id": -1,
        "region_id": 85688637
      }
    ],
    "wof:id": 1729360181,
    "wof:lastmodified": 1787777639,
    "wof:name": "..",
    "wof:parent_id": 1159160869,
    "wof:placetype": "custom",
    "wof:placetype_alt": [
      "instagram"
    ],
    "wof:repo": "sfomuseum-data-socialmedia-instagram",
    "wof:superseded_by": [],
    "wof:supersedes": []
  },
  "bbox": [
    -122.386166,
    37.616356,
    -122.386166,
    37.616356
  ],
  "geometry": {"type":"Point","coordinates":[-122.386166,37.616356]}
}
