{
  "id": 1763558715,
  "type": "Feature",
  "properties": {
    "date:cessation_lower": "2018-02-23",
    "date:cessation_upper": "2018-02-23",
    "date:inception_lower": "2018-02-23",
    "date:inception_upper": "2018-02-23",
    "edtf:cessation": "2018-02-23T05:32:00-08:00",
    "edtf:inception": "2018-02-23T05:32:00-08:00",
    "geom:area": 0,
    "geom:bbox": "-122.386166,37.616356,-122.386166,37.616356",
    "geom:latitude": 37.616356,
    "geom:longitude": -122.386166,
    "instagram:post": {
      "caption": {
        "body": "Being an air traffic controller means coordinating multiple arriving and departing airplanes.  These two photos from the 1940s and 1980s of inside SFO's air traffic control tower show the changes in air traffic technology. ",
        "excerpt": "Being an air traffic controller means coordinating multiple arriving and departing airplanes.",
        "hashtags": [
          "flashbackfriday",
          "SFOHistory",
          "SFO",
          "avgeek",
          "avationgeek",
          "aviation",
          "aviationhistory",
          "vintageaviation",
          "history",
          "avhistory",
          "aviationgeeks",
          "avgeeks",
          "airtraffic",
          "airtrafficcontrol"
        ],
        "users": []
      },
      "media_id": "1b1e92c3a623bc1147a74bbea6ea28cdd75d056f",
      "path": "media/posts/201802/28153778_754916848047777_7873377512649129984_n_17911200853120037.jpg",
      "perceptual_hash": "p:b5cae6190b24f659",
      "taken": 1519392720,
      "taken_at": "Feb 23, 2018 1:32 pm"
    },
    "millsfield:similar": {
      "google/siglip2-so400m-patch16-naflex": [
        {
          "distance": 0.00007033348083496094,
          "id": 1729358511
        },
        {
          "distance": 0.07241731882095337,
          "id": 1729358511
        },
        {
          "distance": 0.1815410852432251,
          "id": 1729358519
        },
        {
          "distance": 0.18504929542541504,
          "id": 1729360559
        },
        {
          "distance": 0.209173321723938,
          "id": 1729360559
        },
        {
          "distance": 0.23741960525512695,
          "id": 1729358629
        },
        {
          "distance": 0.2397748827934265,
          "id": 1729359789
        },
        {
          "distance": 0.24196511507034302,
          "id": 1729358629
        },
        {
          "distance": 0.24360233545303345,
          "id": 1729358519
        },
        {
          "distance": 0.245435893535614,
          "id": 1729360959
        }
      ]
    },
    "sfomuseum:placetype": "instagram",
    "src:geom": "sfomuseum",
    "wof:belongsto": [
      1159160869,
      102527513,
      102191575,
      85633793,
      102087579,
      85922583,
      85688637
    ],
    "wof:country": "US",
    "wof:created": 1519392720,
    "wof:geomhash": "b6e33f47475d56bc8da457bc31afadc8",
    "wof:hierarchy": [
      {
        "building_id": 1159160869,
        "campus_id": 102527513,
        "continent_id": 102191575,
        "country_id": 85633793,
        "county_id": 102087579,
        "custom_id": 1763558715,
        "instagram_id": 1763558715,
        "locality_id": 85922583,
        "neighbourhood_id": -1,
        "region_id": 85688637
      }
    ],
    "wof:id": 1763558715,
    "wof:lastmodified": 1787777659,
    "wof:name": "Being an air traffic controller means coordinating multiple arriving and departing airplanes...",
    "wof:parent_id": 1159160869,
    "wof:placetype": "custom",
    "wof:placetype_alt": [
      "instagram"
    ],
    "wof:repo": "sfomuseum-data-socialmedia-instagram",
    "wof:superseded_by": [],
    "wof:supersedes": []
  },
  "bbox": [
    -122.386166,
    37.616356,
    -122.386166,
    37.616356
  ],
  "geometry": {"type":"Point","coordinates":[-122.386166,37.616356]}
}
