{
  "id": 1729361791,
  "type": "Feature",
  "properties": {
    "date:cessation_lower": "2015-05-08",
    "date:cessation_upper": "2015-05-08",
    "date:inception_lower": "2015-05-08",
    "date:inception_upper": "2015-05-08",
    "edtf:cessation": "2015-05-08T07:50:00-07:00",
    "edtf:inception": "2015-05-08T07:50:00-07:00",
    "geom:area": 0,
    "geom:bbox": "-122.386166,37.616356,-122.386166,37.616356",
    "geom:latitude": 37.616356,
    "geom:longitude": -122.386166,
    "instagram:post": {
      "caption": {
        "body": "",
        "excerpt": "",
        "hashtags": [
          "StudioGlass",
          "glass"
        ],
        "users": []
      },
      "media_id": "80422e6f1e685183baddab9506e86180",
      "path": "media/other/11235998_820976601309859_1785881486_n_17841612742062499.jpg",
      "perceptual_hash": "p:f30c4d3be4b6cc84",
      "taken": 1431096600,
      "taken_at": "May 08, 2015 2:50 pm"
    },
    "millsfield:similar": {
      "google/siglip2-so400m-patch16-naflex": [
        {
          "distance": 0.22041308879852295,
          "id": 1729361967
        },
        {
          "distance": 0.26364046335220337,
          "id": 1729361917
        },
        {
          "distance": 0.2652459740638733,
          "id": 1729361967
        },
        {
          "distance": 0.2892436385154724,
          "id": 1729362025
        },
        {
          "distance": 0.3023985028266907,
          "id": 1729355939
        },
        {
          "distance": 0.30518656969070435,
          "id": 1729362423
        },
        {
          "distance": 0.3114004135131836,
          "id": 1729359977
        },
        {
          "distance": 0.31296688318252563,
          "id": 1729362423
        },
        {
          "distance": 0.31351715326309204,
          "id": 1729355933
        },
        {
          "distance": 0.3153625726699829,
          "id": 1763559573
        }
      ]
    },
    "sfomuseum:placetype": "instagram",
    "src:geom": "sfomuseum",
    "wof:belongsto": [
      1159160869,
      102527513,
      102191575,
      85633793,
      102087579,
      85922583,
      85688637
    ],
    "wof:country": "US",
    "wof:created": 1431096600,
    "wof:geomhash": "b6e33f47475d56bc8da457bc31afadc8",
    "wof:hierarchy": [
      {
        "building_id": 1159160869,
        "campus_id": 102527513,
        "continent_id": 102191575,
        "country_id": 85633793,
        "county_id": 102087579,
        "custom_id": 1729361791,
        "instagram_id": 1729361791,
        "locality_id": 85922583,
        "neighbourhood_id": -1,
        "region_id": 85688637
      }
    ],
    "wof:id": 1729361791,
    "wof:lastmodified": 1787777646,
    "wof:name": "..",
    "wof:parent_id": 1159160869,
    "wof:placetype": "custom",
    "wof:placetype_alt": [
      "instagram"
    ],
    "wof:repo": "sfomuseum-data-socialmedia-instagram",
    "wof:superseded_by": [],
    "wof:supersedes": []
  },
  "bbox": [
    -122.386166,
    37.616356,
    -122.386166,
    37.616356
  ],
  "geometry": {"type":"Point","coordinates":[-122.386166,37.616356]}
}
