{
  "id": 1763558763,
  "type": "Feature",
  "properties": {
    "date:cessation_lower": "2018-06-05",
    "date:cessation_upper": "2018-06-05",
    "date:inception_lower": "2018-06-05",
    "date:inception_upper": "2018-06-05",
    "edtf:cessation": "2018-06-05T01:50:00-07:00",
    "edtf:inception": "2018-06-05T01:50:00-07:00",
    "geom:area": 0,
    "geom:bbox": "-122.386166,37.616356,-122.386166,37.616356",
    "geom:latitude": 37.616356,
    "geom:longitude": -122.386166,
    "instagram:post": {
      "caption": {
        "body": "The all-metal, twin-engine Boeing Model 247 was a revolutionary airplane when introduced in 1933. Often referred to as the first modern airliner, it featured numerous advancements including all-aluminum, semi-monocoque construction, a cantilevered wing, wing flaps, variable pitch propellers, trim tabs, autopilot, and semi-retractable landing gear. It entered service with United Air Lines in 1933. Seventy-five of the aircraft were eventually built, with most going to the United Air Lines’ fleet. The aircraft was primarily operated on United’s “Mainline” transcontinental route until the mid 1930s. Although advanced for its time, the Model 247 accommodated only ten passengers, which made it less economical to operate than larger capacity airliners, particularly the more fuel-efficient, fourteen-seat Douglas DC-2, introduced a year later.  See \"Aviation Evolutions: The Jim Lund 1:72 Scale Model Airplane Collection\", which features more than 200 models, on display, pre-security, in the Aviation Museum. http://bit.ly/AviationEvolutions",
        "excerpt": "The all-metal, twin-engine Boeing Model 247 was a revolutionary airplane when introduced in 1933.",
        "hashtags": [
          "jimlund",
          "avgeek",
          "avationgeek",
          "aviation",
          "aviationhistory",
          "vintageaviation",
          "history",
          "avhistory",
          "aviationgeeks",
          "modelplane",
          "avgeeks",
          "modelaircraft",
          "airplane",
          "aircraft"
        ],
        "users": []
      },
      "media_id": "e6fbed415af83b4e6370b26244cc53067589acdc",
      "path": "media/posts/201806/33423241_200132613945291_258931741345972224_n_17941542769079835.jpg",
      "perceptual_hash": "p:95c0c51ae13ff552",
      "taken": 1528188600,
      "taken_at": "Jun 05, 2018 8:50 am"
    },
    "millsfield:similar": {
      "google/siglip2-so400m-patch16-naflex": [
        {
          "distance": 0.032546281814575195,
          "id": 1729358143
        },
        {
          "distance": 0.04503142833709717,
          "id": 1729357033
        },
        {
          "distance": 0.04653352499008179,
          "id": 1729358383
        },
        {
          "distance": 0.0600590705871582,
          "id": 1729357733
        },
        {
          "distance": 0.06621438264846802,
          "id": 1729356977
        },
        {
          "distance": 0.06926405429840088,
          "id": 1729357275
        },
        {
          "distance": 0.07311296463012695,
          "id": 1729358143
        },
        {
          "distance": 0.08331841230392456,
          "id": 1729357993
        },
        {
          "distance": 0.08525055646896362,
          "id": 1729358313
        },
        {
          "distance": 0.09314137697219849,
          "id": 1729357609
        }
      ]
    },
    "sfomuseum:placetype": "instagram",
    "src:geom": "sfomuseum",
    "wof:belongsto": [
      1159160869,
      102527513,
      102191575,
      85633793,
      102087579,
      85922583,
      85688637
    ],
    "wof:country": "US",
    "wof:created": 1528188600,
    "wof:geomhash": "b6e33f47475d56bc8da457bc31afadc8",
    "wof:hierarchy": [
      {
        "building_id": 1159160869,
        "campus_id": 102527513,
        "continent_id": 102191575,
        "country_id": 85633793,
        "county_id": 102087579,
        "custom_id": 1763558763,
        "instagram_id": 1763558763,
        "locality_id": 85922583,
        "neighbourhood_id": -1,
        "region_id": 85688637
      }
    ],
    "wof:id": 1763558763,
    "wof:lastmodified": 1787777659,
    "wof:name": "The all-metal, twin-engine Boeing Model 247 was a revolutionary airplane when introduced in 1933...",
    "wof:parent_id": 1159160869,
    "wof:placetype": "custom",
    "wof:placetype_alt": [
      "instagram"
    ],
    "wof:repo": "sfomuseum-data-socialmedia-instagram",
    "wof:superseded_by": [],
    "wof:supersedes": []
  },
  "bbox": [
    -122.386166,
    37.616356,
    -122.386166,
    37.616356
  ],
  "geometry": {"type":"Point","coordinates":[-122.386166,37.616356]}
}
