{
  "id": 1729357429,
  "type": "Feature",
  "properties": {
    "date:cessation_lower": "2018-11-05",
    "date:cessation_upper": "2018-11-05",
    "date:inception_lower": "2018-11-05",
    "date:inception_upper": "2018-11-05",
    "edtf:cessation": "2018-11-04T20:18:22-08:00",
    "edtf:inception": "2018-11-04T20:18:22-08:00",
    "geom:area": 0,
    "geom:bbox": "-122.386166,37.616356,-122.386166,37.616356",
    "geom:latitude": 37.616356,
    "geom:longitude": -122.386166,
    "instagram:post": {
      "caption": {
        "body": "Every winter, hundreds of thousands of starlings migrate from northern Europe to the countryside near Rome in search of a warmer climate. As dusk falls, the birds take flight in dense cloud-like formations known as murmurations. In his series, \"Murmur\", artist Richard Barnes photographs European starlings as they coalesce into dark amorphous shapes that dance above Rome. Made over the course of two years, Barnes’ photographs evoke a sense of mystery in the seemingly choreographed movements of the migrating birds, whose humbling aerial displays remind us that many aspects of nature remain just outside the realm of human understanding. \"Murmur\" by Richard Barnes on display, pre-security, in Terminal 3. https://www.flysfo.com/museum/exhibitions/richard-barnes-murmur",
        "excerpt": "Every winter, hundreds of thousands of starlings migrate from northern Europe to the countryside near Rome in search of a warmer climate.",
        "hashtags": [
          "photography",
          "photographer",
          "murmur",
          "richardbarnes",
          "rome",
          "starlings",
          "starling",
          "birds",
          "migration",
          "murmurations"
        ],
        "users": []
      },
      "location": "",
      "media_id": "f018e4e0bef74e301559c3765767bf45",
      "path": "photos/201811/f018e4e0bef74e301559c3765767bf45.jpg",
      "perceptual_hash": "p:fba54c5ca572b10c",
      "taken": 1541362680,
      "taken_at": "Nov 4, 2018, 8:18 PM"
    },
    "millsfield:similar": {
      "google/siglip2-so400m-patch16-naflex": [
        {
          "distance": 0.05305337905883789,
          "id": 1729357433
        },
        {
          "distance": 0.14529109001159668,
          "id": 1729355023
        },
        {
          "distance": 0.15383177995681763,
          "id": 1729357433
        },
        {
          "distance": 0.170257568359375,
          "id": 1729357097
        },
        {
          "distance": 0.1704874038696289,
          "id": 1729359427
        },
        {
          "distance": 0.1919187307357788,
          "id": 1729361875
        },
        {
          "distance": 0.2004554271697998,
          "id": 1729357545
        },
        {
          "distance": 0.20724505186080933,
          "id": 1729357415
        },
        {
          "distance": 0.20817643404006958,
          "id": 1729358233
        },
        {
          "distance": 0.20817643404006958,
          "id": 1763558729
        }
      ]
    },
    "sfomuseum:placetype": "instagram",
    "src:geom": "sfomuseum",
    "wof:belongsto": [
      1159160869,
      102527513,
      102191575,
      85633793,
      102087579,
      85922583,
      85688637
    ],
    "wof:country": "US",
    "wof:created": 1541391502,
    "wof:geomhash": "b6e33f47475d56bc8da457bc31afadc8",
    "wof:hierarchy": [
      {
        "building_id": 1159160869,
        "campus_id": 102527513,
        "continent_id": 102191575,
        "country_id": 85633793,
        "county_id": 102087579,
        "custom_id": 1729357429,
        "instagram_id": 1729357429,
        "locality_id": 85922583,
        "neighbourhood_id": -1,
        "region_id": 85688637
      }
    ],
    "wof:id": 1729357429,
    "wof:lastmodified": 1787777631,
    "wof:name": "Every winter, hundreds of thousands of starlings migrate from northern Europe to the countryside near Rome in search of a warmer climate...",
    "wof:parent_id": 1159160869,
    "wof:placetype": "custom",
    "wof:placetype_alt": [
      "instagram"
    ],
    "wof:repo": "sfomuseum-data-socialmedia-instagram",
    "wof:superseded_by": [],
    "wof:supersedes": []
  },
  "bbox": [
    -122.386166,
    37.616356,
    -122.386166,
    37.616356
  ],
  "geometry": {"type":"Point","coordinates":[-122.386166,37.616356]}
}
