{
  "id": 1729357599,
  "type": "Feature",
  "properties": {
    "date:cessation_lower": "2018-10-05",
    "date:cessation_upper": "2018-10-05",
    "date:inception_lower": "2018-10-05",
    "date:inception_upper": "2018-10-05",
    "edtf:cessation": "2018-10-05T10:14:15-07:00",
    "edtf:inception": "2018-10-05T10:14:15-07:00",
    "geom:area": 0,
    "geom:bbox": "-122.386166,37.616356,-122.386166,37.616356",
    "geom:latitude": 37.616356,
    "geom:longitude": -122.386166,
    "instagram:post": {
      "caption": {
        "body": "#Onthisday in 1951, construction began on the new terminal building at San Francisco International Airport. The new terminal (now Terminal 2) was built to serve the international community in the coming jet age. ",
        "excerpt": "#Onthisday in 1951, construction began on the new terminal building at San Francisco International Airport.",
        "hashtags": [
          "SFOHistory",
          "avgeek",
          "aviationgeek",
          "aviation",
          "aviationhistory",
          "aviationlovers",
          "vintageaviation",
          "history",
          "aviationgeeks",
          "avgeeks",
          "airport"
        ],
        "users": []
      },
      "location": "",
      "media_id": "40ff3caacc108cc44f1856f85800bec7",
      "path": "photos/201810/40ff3caacc108cc44f1856f85800bec7.jpg",
      "perceptual_hash": "p:e2f7d85820a6d61e",
      "taken": 1538730840,
      "taken_at": "Oct 5, 2018, 9:14 AM"
    },
    "millsfield:similar": {
      "google/siglip2-so400m-patch16-naflex": [
        {
          "distance": 0.19424515962600708,
          "id": 1729355041
        },
        {
          "distance": 0.2011834979057312,
          "id": 1729355041
        },
        {
          "distance": 0.21526503562927246,
          "id": 1729360689
        },
        {
          "distance": 0.22059303522109985,
          "id": 1729360337
        },
        {
          "distance": 0.2238735556602478,
          "id": 1763559233
        },
        {
          "distance": 0.22517645359039307,
          "id": 1729361129
        },
        {
          "distance": 0.23183304071426392,
          "id": 1729360247
        },
        {
          "distance": 0.23234683275222778,
          "id": 1729357513
        },
        {
          "distance": 0.23275279998779297,
          "id": 1729361019
        },
        {
          "distance": 0.23820197582244873,
          "id": 1729361143
        }
      ]
    },
    "sfomuseum:placetype": "instagram",
    "src:geom": "sfomuseum",
    "wof:belongsto": [
      1159160869,
      102527513,
      102191575,
      85633793,
      102087579,
      85922583,
      85688637
    ],
    "wof:country": "US",
    "wof:created": 1538759655,
    "wof:geomhash": "b6e33f47475d56bc8da457bc31afadc8",
    "wof:hierarchy": [
      {
        "building_id": 1159160869,
        "campus_id": 102527513,
        "continent_id": 102191575,
        "country_id": 85633793,
        "county_id": 102087579,
        "custom_id": 1729357599,
        "instagram_id": 1729357599,
        "locality_id": 85922583,
        "neighbourhood_id": -1,
        "region_id": 85688637
      }
    ],
    "wof:id": 1729357599,
    "wof:lastmodified": 1787777632,
    "wof:name": "#Onthisday in 1951, construction began on the new terminal building at San Francisco International Airport...",
    "wof:parent_id": 1159160869,
    "wof:placetype": "custom",
    "wof:placetype_alt": [
      "instagram"
    ],
    "wof:repo": "sfomuseum-data-socialmedia-instagram",
    "wof:superseded_by": [],
    "wof:supersedes": []
  },
  "bbox": [
    -122.386166,
    37.616356,
    -122.386166,
    37.616356
  ],
  "geometry": {"type":"Point","coordinates":[-122.386166,37.616356]}
}
