{
  "id": 1729361749,
  "type": "Feature",
  "properties": {
    "date:cessation_lower": "2015-06-09",
    "date:cessation_upper": "2015-06-09",
    "date:inception_lower": "2015-06-09",
    "date:inception_upper": "2015-06-09",
    "edtf:cessation": "2015-06-09T08:06:00-07:00",
    "edtf:inception": "2015-06-09T08:06:00-07:00",
    "geom:area": 0,
    "geom:bbox": "-122.386166,37.616356,-122.386166,37.616356",
    "geom:latitude": 37.616356,
    "geom:longitude": -122.386166,
    "instagram:post": {
      "caption": {
        "body": "",
        "excerpt": "",
        "hashtags": [
          "AgeOfDeco",
          "ArtDeco"
        ],
        "users": []
      },
      "media_id": "95ab3e5006d1cce0e1e41141ed3246ec",
      "path": "media/other/11287782_872790152814732_425720514_n_17841494707062499.jpg",
      "perceptual_hash": "p:8d3253bc344338f7",
      "taken": 1433862360,
      "taken_at": "Jun 09, 2015 3:06 pm"
    },
    "millsfield:similar": {
      "google/siglip2-so400m-patch16-naflex": [
        {
          "distance": 0.31658095121383667,
          "id": 1729361769
        },
        {
          "distance": 0.3244470953941345,
          "id": 1729361769
        },
        {
          "distance": 0.3509281873703003,
          "id": 1880151593
        },
        {
          "distance": 0.35962486267089844,
          "id": 1729356465
        },
        {
          "distance": 0.3779422640800476,
          "id": 1729355055
        },
        {
          "distance": 0.3949882388114929,
          "id": 1729356457
        },
        {
          "distance": 0.3955409526824951,
          "id": 1729355107
        },
        {
          "distance": 0.3959541916847229,
          "id": 1880151103
        },
        {
          "distance": 0.39736270904541016,
          "id": 1729356469
        },
        {
          "distance": 0.4015297293663025,
          "id": 1880151783
        }
      ]
    },
    "sfomuseum:placetype": "instagram",
    "src:geom": "sfomuseum",
    "wof:belongsto": [
      1159160869,
      102527513,
      102191575,
      85633793,
      102087579,
      85922583,
      85688637
    ],
    "wof:country": "US",
    "wof:created": 1433862360,
    "wof:geomhash": "b6e33f47475d56bc8da457bc31afadc8",
    "wof:hierarchy": [
      {
        "building_id": 1159160869,
        "campus_id": 102527513,
        "continent_id": 102191575,
        "country_id": 85633793,
        "county_id": 102087579,
        "custom_id": 1729361749,
        "instagram_id": 1729361749,
        "locality_id": 85922583,
        "neighbourhood_id": -1,
        "region_id": 85688637
      }
    ],
    "wof:id": 1729361749,
    "wof:lastmodified": 1787777646,
    "wof:name": "..",
    "wof:parent_id": 1159160869,
    "wof:placetype": "custom",
    "wof:placetype_alt": [
      "instagram"
    ],
    "wof:repo": "sfomuseum-data-socialmedia-instagram",
    "wof:superseded_by": [],
    "wof:supersedes": []
  },
  "bbox": [
    -122.386166,
    37.616356,
    -122.386166,
    37.616356
  ],
  "geometry": {"type":"Point","coordinates":[-122.386166,37.616356]}
}
