{
  "id": 1729356051,
  "type": "Feature",
  "properties": {
    "date:cessation_lower": "2019-10-01",
    "date:cessation_upper": "2019-10-01",
    "date:inception_lower": "2019-10-01",
    "date:inception_upper": "2019-10-01",
    "edtf:cessation": "2019-09-30T18:26:42-07:00",
    "edtf:inception": "2019-09-30T18:26:42-07:00",
    "geom:area": 0,
    "geom:bbox": "-122.386166,37.616356,-122.386166,37.616356",
    "geom:latitude": 37.616356,
    "geom:longitude": -122.386166,
    "instagram:post": {
      "caption": {
        "body": "People have moved many species around the world to help control pest insects. This practice is called Classical Biological Control, or Biocontrol. The first modern day success story of biocontrol was the introduction of the Vedalia beetle (Rodolia cardinalis Mulsant, 1850), a species of ladybug, from Australia into California in 1888 to control cottony cushion scale, a major insect pest of oranges and other citrus trees. Another species, the convergent ladybug (Hippodamia convergens Guérin-Méneville, 1842), is collected in vast quantities in California and shipped around the world for pest control.  See “The Intriguing World of Insects” on display, pre-security, in the International Terminal. http://bit.ly/IntriguingInsects",
        "excerpt": "People have moved many species around the world to help control pest insects.",
        "hashtags": [
          "IntriguingInsects",
          "WorldofInsects",
          "insects",
          "Entomology",
          "ladybug"
        ],
        "users": [
          "essig_museum"
        ]
      },
      "location": "",
      "media_id": "89a0e7f5bb3356adc2478d28ed47369a",
      "path": "photos/201909/89a0e7f5bb3356adc2478d28ed47369a.jpg",
      "perceptual_hash": "p:9f1f33e11b440f4a",
      "taken": 1569864360,
      "taken_at": "Sep 30, 2019, 5:26 PM"
    },
    "millsfield:similar": {
      "google/siglip2-so400m-patch16-naflex": [
        {
          "distance": 0.19379961490631104,
          "id": 1729356041
        },
        {
          "distance": 0.2270418405532837,
          "id": 1729356569
        },
        {
          "distance": 0.2476232647895813,
          "id": 1729356041
        },
        {
          "distance": 0.2547599673271179,
          "id": 1729356297
        },
        {
          "distance": 0.25593990087509155,
          "id": 1729356287
        },
        {
          "distance": 0.25623828172683716,
          "id": 1729355917
        },
        {
          "distance": 0.264462947845459,
          "id": 1729356455
        },
        {
          "distance": 0.26672714948654175,
          "id": 1729355923
        },
        {
          "distance": 0.2765635848045349,
          "id": 1729356461
        },
        {
          "distance": 0.28199124336242676,
          "id": 1729356197
        }
      ]
    },
    "sfomuseum:placetype": "instagram",
    "src:geom": "sfomuseum",
    "wof:belongsto": [
      1159160869,
      102527513,
      102191575,
      85633793,
      102087579,
      85922583,
      85688637
    ],
    "wof:country": "US",
    "wof:created": 1569893202,
    "wof:geomhash": "b6e33f47475d56bc8da457bc31afadc8",
    "wof:hierarchy": [
      {
        "building_id": 1159160869,
        "campus_id": 102527513,
        "continent_id": 102191575,
        "country_id": 85633793,
        "county_id": 102087579,
        "custom_id": 1729356051,
        "instagram_id": 1729356051,
        "locality_id": 85922583,
        "neighbourhood_id": -1,
        "region_id": 85688637
      }
    ],
    "wof:id": 1729356051,
    "wof:lastmodified": 1787777628,
    "wof:name": "People have moved many species around the world to help control pest insects...",
    "wof:parent_id": 1159160869,
    "wof:placetype": "custom",
    "wof:placetype_alt": [
      "instagram"
    ],
    "wof:repo": "sfomuseum-data-socialmedia-instagram",
    "wof:superseded_by": [],
    "wof:supersedes": []
  },
  "bbox": [
    -122.386166,
    37.616356,
    -122.386166,
    37.616356
  ],
  "geometry": {"type":"Point","coordinates":[-122.386166,37.616356]}
}
