{
  "id": 1729357359,
  "type": "Feature",
  "properties": {
    "date:cessation_lower": "2018-11-16",
    "date:cessation_upper": "2018-11-16",
    "date:inception_lower": "2018-11-16",
    "date:inception_upper": "2018-11-16",
    "edtf:cessation": "2018-11-16T12:37:00-08:00",
    "edtf:inception": "2018-11-16T12:37:00-08:00",
    "geom:area": 0,
    "geom:bbox": "-122.386166,37.616356,-122.386166,37.616356",
    "geom:latitude": 37.616356,
    "geom:longitude": -122.386166,
    "instagram:post": {
      "caption": {
        "body": "Introduced to Europe from Japan in the 16th century, fans were an essential fashion accessory in the formal dress of a wealthy woman. They helped to cool a lady’s face and could be used as a subtle tool for flirting with suitors. Painted and lace-embellished fans were common around the turn of the 20th century, when French painter Adolphe Thomasse (1850­–1930) decorated fans with a menagerie of animal images, including cats, often for the famous fan-maker Duvelleroy of Paris.  A very special thank you to Sandy Lerner for making this exhibition possible. See \"Caticons: The Cat in Art\" is on display, pre-security, in the International Terminal. http://ow.ly/wU4t50jIvPN . . .",
        "excerpt": "Introduced to Europe from Japan in the 16th century, fans were an essential fashion accessory in the formal dress of a wealthy woman.",
        "hashtags": [
          "caticons",
          "catsofinstagram",
          "mewseum",
          "caticon",
          "cat",
          "cats",
          "fans",
          "fashion"
        ],
        "users": []
      },
      "media_id": "c3746e986f5298c6205830faa96c03b8",
      "path": "media/other/44705202_145848369728545_1375673376694331201_n_17986460239129401.jpg",
      "perceptual_hash": "p:e79098cdc21ecf38",
      "taken": 1542400620,
      "taken_at": "Nov 16, 2018 8:37 pm"
    },
    "millsfield:similar": {
      "google/siglip2-so400m-patch16-naflex": [
        {
          "distance": 0.2748757004737854,
          "id": 1729356661
        },
        {
          "distance": 0.27677762508392334,
          "id": 1880151529
        },
        {
          "distance": 0.3105204701423645,
          "id": 1880151529
        },
        {
          "distance": 0.3217589259147644,
          "id": 1729356661
        },
        {
          "distance": 0.32453328371047974,
          "id": 1729357129
        },
        {
          "distance": 0.3393615484237671,
          "id": 1729358591
        },
        {
          "distance": 0.35497230291366577,
          "id": 1729357129
        },
        {
          "distance": 0.36297333240509033,
          "id": 1729357787
        },
        {
          "distance": 0.37146079540252686,
          "id": 1763558749
        },
        {
          "distance": 0.37146079540252686,
          "id": 1729357833
        }
      ]
    },
    "sfomuseum:placetype": "instagram",
    "src:geom": "sfomuseum",
    "wof:belongsto": [
      1159160869,
      102527513,
      102191575,
      85633793,
      102087579,
      85922583,
      85688637
    ],
    "wof:country": "US",
    "wof:created": 1542400620,
    "wof:geomhash": "b6e33f47475d56bc8da457bc31afadc8",
    "wof:hierarchy": [
      {
        "building_id": 1159160869,
        "campus_id": 102527513,
        "continent_id": 102191575,
        "country_id": 85633793,
        "county_id": 102087579,
        "custom_id": 1729357359,
        "instagram_id": 1729357359,
        "locality_id": 85922583,
        "neighbourhood_id": -1,
        "region_id": 85688637
      }
    ],
    "wof:id": 1729357359,
    "wof:lastmodified": 1787777631,
    "wof:name": "Introduced to Europe from Japan in the 16th century, fans were an essential fashion accessory in the formal dress of a wealthy woman...",
    "wof:parent_id": 1159160869,
    "wof:placetype": "custom",
    "wof:placetype_alt": [
      "instagram"
    ],
    "wof:repo": "sfomuseum-data-socialmedia-instagram",
    "wof:superseded_by": [],
    "wof:supersedes": []
  },
  "bbox": [
    -122.386166,
    37.616356,
    -122.386166,
    37.616356
  ],
  "geometry": {"type":"Point","coordinates":[-122.386166,37.616356]}
}
