{
  "id": 1729357321,
  "type": "Feature",
  "properties": {
    "date:cessation_lower": "2018-11-27",
    "date:cessation_upper": "2018-11-27",
    "date:inception_lower": "2018-11-27",
    "date:inception_upper": "2018-11-27",
    "edtf:cessation": "2018-11-27T04:28:00-08:00",
    "edtf:inception": "2018-11-27T04:28:00-08:00",
    "geom:area": 0,
    "geom:bbox": "-122.386166,37.616356,-122.386166,37.616356",
    "geom:latitude": 37.616356,
    "geom:longitude": -122.386166,
    "instagram:post": {
      "caption": {
        "body": "\"When invited to exhibit at the inaugural \"Elements\" silver show in Edinburgh…my memories of the Periodic Table hung in my science classroom…sparked the idea to use them as the basis for my piece, executed with a mixture of precision and freedom that I hope characterizes all my work.\" - Karen Wallace (b. 1984)  Tumbler cup  2015 Edinburgh Britannia silver, parcel-gilt The Pearson Silver Collection L2018.1801.034  Special thanks to The Pearson Silver Collection. \"A Sterling Renaissance: British Silver Design 1957 to 2018\" is on display, pre-security, in the International Terminal. http://bit.ly/BritishSilver",
        "excerpt": "\"When invited to exhibit at the inaugural \"Elements\" silver show in Edinburgh…my memories of the Periodic Table hung in my science classroom…sparked the idea to use them as the basis for my piece, executed with a mixture of precision and freedom that I hope characterizes all my work.\"",
        "hashtags": [
          "BritishSilver",
          "silver",
          "sterling",
          "sterlingsilver",
          "silverdesign",
          "Edinburgh",
          "silversmith",
          "silversmithing",
          "KarenWallace",
          "tumbler",
          "Britanniasilver"
        ],
        "users": []
      },
      "media_id": "53052480d01f82ccbdb7117ed603e817",
      "path": "media/posts/201811/46313037_2209726805981560_4611854935793585182_n_17944054207200605.jpg",
      "perceptual_hash": "p:9f83c66ab98562ca",
      "taken": 1543321680,
      "taken_at": "Nov 27, 2018 12:28 pm"
    },
    "millsfield:similar": {
      "google/siglip2-so400m-patch16-naflex": [
        {
          "distance": 0.10541540384292603,
          "id": 1729356631
        },
        {
          "distance": 0.13789677619934082,
          "id": 1729357385
        },
        {
          "distance": 0.16993927955627441,
          "id": 1729356631
        },
        {
          "distance": 0.17199110984802246,
          "id": 1729356997
        },
        {
          "distance": 0.1729973554611206,
          "id": 1729357385
        },
        {
          "distance": 0.1781167984008789,
          "id": 1763558803
        },
        {
          "distance": 0.1781167984008789,
          "id": 1729357165
        },
        {
          "distance": 0.19017773866653442,
          "id": 1729357071
        },
        {
          "distance": 0.2092999815940857,
          "id": 1729357229
        },
        {
          "distance": 0.21453583240509033,
          "id": 1729356607
        }
      ]
    },
    "sfomuseum:placetype": "instagram",
    "src:geom": "sfomuseum",
    "wof:belongsto": [
      1159160869,
      102527513,
      102191575,
      85633793,
      102087579,
      85922583,
      85688637
    ],
    "wof:country": "US",
    "wof:created": 1543321680,
    "wof:geomhash": "b6e33f47475d56bc8da457bc31afadc8",
    "wof:hierarchy": [
      {
        "building_id": 1159160869,
        "campus_id": 102527513,
        "continent_id": 102191575,
        "country_id": 85633793,
        "county_id": 102087579,
        "custom_id": 1729357321,
        "instagram_id": 1729357321,
        "locality_id": 85922583,
        "neighbourhood_id": -1,
        "region_id": 85688637
      }
    ],
    "wof:id": 1729357321,
    "wof:lastmodified": 1787777631,
    "wof:name": "\"When invited to exhibit at the inaugural \"Elements\" silver show in Edinburgh…my memories of the Periodic Table hung in my science classroom…sparked the idea to use them as the basis for my piece, executed with a mixture of precision and freedom that I hope characterizes all my work.\"..",
    "wof:parent_id": 1159160869,
    "wof:placetype": "custom",
    "wof:placetype_alt": [
      "instagram"
    ],
    "wof:repo": "sfomuseum-data-socialmedia-instagram",
    "wof:superseded_by": [],
    "wof:supersedes": []
  },
  "bbox": [
    -122.386166,
    37.616356,
    -122.386166,
    37.616356
  ],
  "geometry": {"type":"Point","coordinates":[-122.386166,37.616356]}
}
