{
  "id": 1729357861,
  "type": "Feature",
  "properties": {
    "date:cessation_lower": "2018-08-03",
    "date:cessation_upper": "2018-08-03",
    "date:inception_lower": "2018-08-03",
    "date:inception_upper": "2018-08-03",
    "edtf:cessation": "2018-08-03T12:43:06-07:00",
    "edtf:inception": "2018-08-03T12:43:06-07:00",
    "geom:area": 0,
    "geom:bbox": "-122.386166,37.616356,-122.386166,37.616356",
    "geom:latitude": 37.616356,
    "geom:longitude": -122.386166,
    "instagram:post": {
      "caption": {
        "body": "Though born in Los Angeles, Isamu Noguchi attended elementary school in Japan. Like any other schoolchild in Japan, he learned origami and kirigami (the folding and cutting of paper). This early training gave him an irresistible compulsion to make three-dimensional sculpture from two-dimensional materials, including these metal sheet sculptures.  Thank you to The Isamu Noguchi Foundation and Garden Museum for their generous loan. See \"Isamu Noguchi: Inside and Out\" on display, pre-security, in the International Terminal. http://bit.ly/NoguchiSFO",
        "excerpt": "Though born in Los Angeles, Isamu Noguchi attended elementary school in Japan.",
        "hashtags": [
          "NoguchiSFO",
          "IsamuNoguchi",
          "noguchi",
          "sculpture",
          "art",
          "modernart",
          "steel",
          "design",
          "japan",
          "origami",
          "kirigami",
          "industrialdesign"
        ],
        "users": []
      },
      "location": "",
      "media_id": "5df7b97122580077c29b816d13a80ccf",
      "path": "photos/201808/5df7b97122580077c29b816d13a80ccf.jpg",
      "perceptual_hash": "p:ed17c3349e2896c9",
      "taken": 1533296580,
      "taken_at": "Aug 3, 2018, 11:43 AM"
    },
    "millsfield:similar": {
      "google/siglip2-so400m-patch16-naflex": [
        {
          "distance": 0.18043941259384155,
          "id": 1729358159
        },
        {
          "distance": 0.19374805688858032,
          "id": 1729358159
        },
        {
          "distance": 0.22851812839508057,
          "id": 1729358195
        },
        {
          "distance": 0.23931539058685303,
          "id": 1880150945
        },
        {
          "distance": 0.24155110120773315,
          "id": 1880150945
        },
        {
          "distance": 0.26162928342819214,
          "id": 1729358167
        },
        {
          "distance": 0.2799971103668213,
          "id": 1729358241
        },
        {
          "distance": 0.2800588607788086,
          "id": 1729358195
        },
        {
          "distance": 0.2805638313293457,
          "id": 1729358241
        },
        {
          "distance": 0.28422361612319946,
          "id": 1880151621
        }
      ]
    },
    "sfomuseum:placetype": "instagram",
    "src:geom": "sfomuseum",
    "wof:belongsto": [
      1159160869,
      102527513,
      102191575,
      85633793,
      102087579,
      85922583,
      85688637
    ],
    "wof:country": "US",
    "wof:created": 1533325386,
    "wof:geomhash": "b6e33f47475d56bc8da457bc31afadc8",
    "wof:hierarchy": [
      {
        "building_id": 1159160869,
        "campus_id": 102527513,
        "continent_id": 102191575,
        "country_id": 85633793,
        "county_id": 102087579,
        "custom_id": 1729357861,
        "instagram_id": 1729357861,
        "locality_id": 85922583,
        "neighbourhood_id": -1,
        "region_id": 85688637
      }
    ],
    "wof:id": 1729357861,
    "wof:lastmodified": 1787777632,
    "wof:name": "Though born in Los Angeles, Isamu Noguchi attended elementary school in Japan...",
    "wof:parent_id": 1159160869,
    "wof:placetype": "custom",
    "wof:placetype_alt": [
      "instagram"
    ],
    "wof:repo": "sfomuseum-data-socialmedia-instagram",
    "wof:superseded_by": [],
    "wof:supersedes": []
  },
  "bbox": [
    -122.386166,
    37.616356,
    -122.386166,
    37.616356
  ],
  "geometry": {"type":"Point","coordinates":[-122.386166,37.616356]}
}
