{
  "id": 1729357135,
  "type": "Feature",
  "properties": {
    "date:cessation_lower": "2019-01-04",
    "date:cessation_upper": "2019-01-04",
    "date:inception_lower": "2019-01-04",
    "date:inception_upper": "2019-01-04",
    "edtf:cessation": "2019-01-03T16:52:55-08:00",
    "edtf:inception": "2019-01-03T16:52:55-08:00",
    "geom:area": 0,
    "geom:bbox": "-122.386166,37.616356,-122.386166,37.616356",
    "geom:latitude": 37.616356,
    "geom:longitude": -122.386166,
    "instagram:post": {
      "caption": {
        "body": "Cleveland Chenier, the older brother of the \"King of Zydeco\" Clifton Chenier, played the rubboard in Clifton's zydeco band. The rubboard is a rhythm instrument made from a corrugated steel board. Although he was not the first to play a rubboard, his younger brother Clifton was the first to design this instrument to fit like a vest over his chest, a style which came to be emulated by other zydeco musicians who followed after him. Cleveland, considered the most innovative and accomplished rubboard player, beat and scraped the instrument with bottle openers—six on each hand—to create varied sounds. \"Down-Home Music: The Story of Arhoolie Records\" is on display, post-security, in Terminal 2. http://bit.ly/StoryofArhoolie",
        "excerpt": "Cleveland Chenier, the older brother of the \"King of Zydeco\" Clifton Chenier, played the rubboard in Clifton's zydeco band.",
        "hashtags": [
          "storyofarhoolie",
          "arhoolie",
          "arhoolierecords",
          "ChrisStrachwitz",
          "CliftonChenier",
          "ClevelandChenier",
          "rubboard",
          "zydeco",
          "music"
        ],
        "users": []
      },
      "location": "",
      "media_id": "6e57160199a82505b859c125d6ab1e5a",
      "path": "photos/201901/6e57160199a82505b859c125d6ab1e5a.jpg",
      "perceptual_hash": "p:aa2ad5652b4f0b3a",
      "taken": 1546534320,
      "taken_at": "Jan 3, 2019, 4:52 PM"
    },
    "millsfield:similar": {
      "google/siglip2-so400m-patch16-naflex": [
        {
          "distance": 0.00002300739288330078,
          "id": 1763558801
        },
        {
          "distance": 0.09843432903289795,
          "id": 1763558801
        },
        {
          "distance": 0.1758899688720703,
          "id": 1947424919
        },
        {
          "distance": 0.17983084917068481,
          "id": 1947425291
        },
        {
          "distance": 0.18342256546020508,
          "id": 1947425257
        },
        {
          "distance": 0.19026225805282593,
          "id": 1947425087
        },
        {
          "distance": 0.19874858856201172,
          "id": 1729355059
        },
        {
          "distance": 0.20084917545318604,
          "id": 1763559295
        },
        {
          "distance": 0.20480787754058838,
          "id": 1763558907
        },
        {
          "distance": 0.20769363641738892,
          "id": 1729357951
        }
      ]
    },
    "sfomuseum:placetype": "instagram",
    "src:geom": "sfomuseum",
    "wof:belongsto": [
      1159160869,
      102527513,
      102191575,
      85633793,
      102087579,
      85922583,
      85688637
    ],
    "wof:country": "US",
    "wof:created": 1546563175,
    "wof:geomhash": "b6e33f47475d56bc8da457bc31afadc8",
    "wof:hierarchy": [
      {
        "building_id": 1159160869,
        "campus_id": 102527513,
        "continent_id": 102191575,
        "country_id": 85633793,
        "county_id": 102087579,
        "custom_id": 1729357135,
        "instagram_id": 1729357135,
        "locality_id": 85922583,
        "neighbourhood_id": -1,
        "region_id": 85688637
      }
    ],
    "wof:id": 1729357135,
    "wof:lastmodified": 1787777630,
    "wof:name": "Cleveland Chenier, the older brother of the \"King of Zydeco\" Clifton Chenier, played the rubboard in Clifton's zydeco band...",
    "wof:parent_id": 1159160869,
    "wof:placetype": "custom",
    "wof:placetype_alt": [
      "instagram"
    ],
    "wof:repo": "sfomuseum-data-socialmedia-instagram",
    "wof:superseded_by": [],
    "wof:supersedes": []
  },
  "bbox": [
    -122.386166,
    37.616356,
    -122.386166,
    37.616356
  ],
  "geometry": {"type":"Point","coordinates":[-122.386166,37.616356]}
}
