{
  "id": 1729361773,
  "type": "Feature",
  "properties": {
    "date:cessation_lower": "2015-05-21",
    "date:cessation_upper": "2015-05-21",
    "date:inception_lower": "2015-05-21",
    "date:inception_upper": "2015-05-21",
    "edtf:cessation": "2015-05-21T09:09:00-07:00",
    "edtf:inception": "2015-05-21T09:09:00-07:00",
    "geom:area": 0,
    "geom:bbox": "-122.386166,37.616356,-122.386166,37.616356",
    "geom:latitude": 37.616356,
    "geom:longitude": -122.386166,
    "instagram:post": {
      "caption": {
        "body": "",
        "excerpt": "",
        "hashtags": [
          "ILoveYouCA",
          "GreatHornedOwl",
          "taxidermy",
          "BehindTheScenes"
        ],
        "users": []
      },
      "media_id": "9f081b6b2aa1ffa4f02d36cf3cf77d4e",
      "path": "media/other/11313369_854423384630955_520225872_n_17841607858062499.jpg",
      "perceptual_hash": "p:ba63965ccc9dc0b4",
      "taken": 1432224540,
      "taken_at": "May 21, 2015 4:09 pm"
    },
    "millsfield:similar": {
      "google/siglip2-so400m-patch16-naflex": [
        {
          "distance": 0.14467352628707886,
          "id": 1729361803
        },
        {
          "distance": 0.18021607398986816,
          "id": 1729361803
        },
        {
          "distance": 0.2536536455154419,
          "id": 1729361699
        },
        {
          "distance": 0.26212453842163086,
          "id": 1729361707
        },
        {
          "distance": 0.30415135622024536,
          "id": 1729359673
        },
        {
          "distance": 0.3075296878814697,
          "id": 1729361707
        },
        {
          "distance": 0.31899964809417725,
          "id": 1729361369
        },
        {
          "distance": 0.33136701583862305,
          "id": 1729359673
        },
        {
          "distance": 0.33486080169677734,
          "id": 1729361703
        },
        {
          "distance": 0.3348831534385681,
          "id": 1729358719
        }
      ]
    },
    "sfomuseum:placetype": "instagram",
    "src:geom": "sfomuseum",
    "wof:belongsto": [
      1159160869,
      102527513,
      102191575,
      85633793,
      102087579,
      85922583,
      85688637
    ],
    "wof:country": "US",
    "wof:created": 1432224540,
    "wof:geomhash": "b6e33f47475d56bc8da457bc31afadc8",
    "wof:hierarchy": [
      {
        "building_id": 1159160869,
        "campus_id": 102527513,
        "continent_id": 102191575,
        "country_id": 85633793,
        "county_id": 102087579,
        "custom_id": 1729361773,
        "instagram_id": 1729361773,
        "locality_id": 85922583,
        "neighbourhood_id": -1,
        "region_id": 85688637
      }
    ],
    "wof:id": 1729361773,
    "wof:lastmodified": 1787777646,
    "wof:name": "..",
    "wof:parent_id": 1159160869,
    "wof:placetype": "custom",
    "wof:placetype_alt": [
      "instagram"
    ],
    "wof:repo": "sfomuseum-data-socialmedia-instagram",
    "wof:superseded_by": [],
    "wof:supersedes": []
  },
  "bbox": [
    -122.386166,
    37.616356,
    -122.386166,
    37.616356
  ],
  "geometry": {"type":"Point","coordinates":[-122.386166,37.616356]}
}
