{
  "id": 1729360367,
  "type": "Feature",
  "properties": {
    "date:cessation_lower": "2016-09-06",
    "date:cessation_upper": "2016-09-06",
    "date:inception_lower": "2016-09-06",
    "date:inception_upper": "2016-09-06",
    "edtf:cessation": "2016-09-06T03:15:00-07:00",
    "edtf:inception": "2016-09-06T03:15:00-07:00",
    "geom:area": 0,
    "geom:bbox": "-122.386166,37.616356,-122.386166,37.616356",
    "geom:latitude": 37.616356,
    "geom:longitude": -122.386166,
    "instagram:post": {
      "caption": {
        "body": "A United Air Lines brochure from circa 1936 asks passengers \"So you're going to travel by air?\" It answers various passenger questions such as \"How does it feel to fly?\" United's answer, \"There is no sensation of great speed in a United plane even though your trip is unbelievably fast. The country seemingly unrolls smoothly, slowly under you. Your flight officers in their own compartment are kept constantly in touch with such mundane affairs as the weather by radio telephone. A directive radio beam marks the airway course; beacon lights point like giant fingers; you drift off to sleep feeling that you're touching shoulders with the stars!\" United Air Lines brochure  c. 1936 SFO Museum Collection 2000.055.017",
        "excerpt": "A United Air Lines brochure from circa 1936 asks passengers \"So you're going to travel by air?\"",
        "hashtags": [],
        "users": []
      },
      "media_id": "8786b955b79adba8eff3d42c78fc66c3",
      "path": "media/other/14280637_1598803307091783_660332775_n_17852198383117295.jpg",
      "perceptual_hash": "p:9c0d83c6bfe3832c",
      "taken": 1473156900,
      "taken_at": "Sep 06, 2016 10:15 am"
    },
    "millsfield:similar": {
      "google/siglip2-so400m-patch16-naflex": [
        {
          "distance": 0.2520558834075928,
          "id": 1729359217
        },
        {
          "distance": 0.25318580865859985,
          "id": 1729356715
        },
        {
          "distance": 0.2737438678741455,
          "id": 1729359281
        },
        {
          "distance": 0.2872241735458374,
          "id": 1729361533
        },
        {
          "distance": 0.2936817407608032,
          "id": 1729359659
        },
        {
          "distance": 0.2974196672439575,
          "id": 1763558689
        },
        {
          "distance": 0.2974196672439575,
          "id": 1729359221
        },
        {
          "distance": 0.2990097999572754,
          "id": 1729361315
        },
        {
          "distance": 0.30120599269866943,
          "id": 1729359281
        },
        {
          "distance": 0.30583322048187256,
          "id": 1729360043
        }
      ]
    },
    "sfomuseum:placetype": "instagram",
    "src:geom": "sfomuseum",
    "wof:belongsto": [
      1159160869,
      102527513,
      102191575,
      85633793,
      102087579,
      85922583,
      85688637
    ],
    "wof:country": "US",
    "wof:created": 1473156900,
    "wof:geomhash": "b6e33f47475d56bc8da457bc31afadc8",
    "wof:hierarchy": [
      {
        "building_id": 1159160869,
        "campus_id": 102527513,
        "continent_id": 102191575,
        "country_id": 85633793,
        "county_id": 102087579,
        "custom_id": 1729360367,
        "instagram_id": 1729360367,
        "locality_id": 85922583,
        "neighbourhood_id": -1,
        "region_id": 85688637
      }
    ],
    "wof:id": 1729360367,
    "wof:lastmodified": 1787777639,
    "wof:name": "A United Air Lines brochure from circa 1936 asks passengers \"So you're going to travel by air?\"..",
    "wof:parent_id": 1159160869,
    "wof:placetype": "custom",
    "wof:placetype_alt": [
      "instagram"
    ],
    "wof:repo": "sfomuseum-data-socialmedia-instagram",
    "wof:superseded_by": [],
    "wof:supersedes": []
  },
  "bbox": [
    -122.386166,
    37.616356,
    -122.386166,
    37.616356
  ],
  "geometry": {"type":"Point","coordinates":[-122.386166,37.616356]}
}
