{
  "id": 1729355863,
  "type": "Feature",
  "properties": {
    "date:cessation_lower": "2019-11-20",
    "date:cessation_upper": "2019-11-20",
    "date:inception_lower": "2019-11-20",
    "date:inception_upper": "2019-11-20",
    "edtf:cessation": "2019-11-20T10:15:00-08:00",
    "edtf:inception": "2019-11-20T10:15:00-08:00",
    "geom:area": 0,
    "geom:bbox": "-122.386166,37.616356,-122.386166,37.616356",
    "geom:latitude": 37.616356,
    "geom:longitude": -122.386166,
    "instagram:post": {
      "caption": {
        "body": "When introduced in 1949 by Pan American World Airways, the four-engine Boeing 377 Stratocruiser was considered one of the most luxurious long-range airliners. The aircraft was also very demanding to fly and maintain. It required a flight crew of five to operate and an exhaustive maintenance schedule. A Pan American Boeing 377 operations manual contained sections on cruise control, emergency procedures, operating procedures, performance, radio, systems, and design. “By the Book: Airliner Flight, Maintenance, and Training Manuals” has been extended until December. See the exhibition on display, pre-security, in the Aviation Museum and Library.  Image: Pan American World Airways Boeing 377 Stratocruiser cockpit simulator, c. 1949. Gift of the San Francisco Aeronautical Society. 2002.017.006.004 b",
        "excerpt": "When introduced in 1949 by Pan American World Airways, the four-engine Boeing 377 Stratocruiser was considered one of the most luxurious long-range airliners.",
        "hashtags": [
          "ByTheBook",
          "avgeek",
          "aircraftmanual",
          "manual",
          "propliner",
          "Boeing",
          "boeing377",
          "PanAm",
          "PanAmerican"
        ],
        "users": []
      },
      "media_id": "cb5783bf4978b5f8648c44d1ef4a652b",
      "path": "media/other/75000356_950659631985484_3793967097642043094_n_18114584302004409.jpg",
      "perceptual_hash": "p:cde433684063b35f",
      "taken": 1574273700,
      "taken_at": "Nov 20, 2019 6:15 pm"
    },
    "millsfield:similar": {
      "google/siglip2-so400m-patch16-naflex": [
        {
          "distance": 0.12537097930908203,
          "id": 1729356749
        },
        {
          "distance": 0.13439524173736572,
          "id": 1729359355
        },
        {
          "distance": 0.13738900423049927,
          "id": 1729356749
        },
        {
          "distance": 0.14076018333435059,
          "id": 1729360959
        },
        {
          "distance": 0.14112669229507446,
          "id": 1729361497
        },
        {
          "distance": 0.14373517036437988,
          "id": 1729356581
        },
        {
          "distance": 0.1567484736442566,
          "id": 1729361263
        },
        {
          "distance": 0.1650446653366089,
          "id": 1729357189
        },
        {
          "distance": 0.1718125343322754,
          "id": 1763558867
        },
        {
          "distance": 0.17260974645614624,
          "id": 1729356143
        }
      ]
    },
    "sfomuseum:placetype": "instagram",
    "src:geom": "sfomuseum",
    "wof:belongsto": [
      1159160869,
      102527513,
      102191575,
      85633793,
      102087579,
      85922583,
      85688637
    ],
    "wof:country": "US",
    "wof:created": 1574273700,
    "wof:geomhash": "b6e33f47475d56bc8da457bc31afadc8",
    "wof:hierarchy": [
      {
        "building_id": 1159160869,
        "campus_id": 102527513,
        "continent_id": 102191575,
        "country_id": 85633793,
        "county_id": 102087579,
        "custom_id": 1729355863,
        "instagram_id": 1729355863,
        "locality_id": 85922583,
        "neighbourhood_id": -1,
        "region_id": 85688637
      }
    ],
    "wof:id": 1729355863,
    "wof:lastmodified": 1787777627,
    "wof:name": "When introduced in 1949 by Pan American World Airways, the four-engine Boeing 377 Stratocruiser was considered one of the most luxurious long-range airliners...",
    "wof:parent_id": 1159160869,
    "wof:placetype": "custom",
    "wof:placetype_alt": [
      "instagram"
    ],
    "wof:repo": "sfomuseum-data-socialmedia-instagram",
    "wof:superseded_by": [],
    "wof:supersedes": []
  },
  "bbox": [
    -122.386166,
    37.616356,
    -122.386166,
    37.616356
  ],
  "geometry": {"type":"Point","coordinates":[-122.386166,37.616356]}
}
