{
  "id": 1729358387,
  "type": "Feature",
  "properties": {
    "date:cessation_lower": "2018-04-05",
    "date:cessation_upper": "2018-04-05",
    "date:inception_lower": "2018-04-05",
    "date:inception_upper": "2018-04-05",
    "edtf:cessation": "2018-04-05T05:10:00-07:00",
    "edtf:inception": "2018-04-05T05:10:00-07:00",
    "geom:area": 0,
    "geom:bbox": "-122.386166,37.616356,-122.386166,37.616356",
    "geom:latitude": 37.616356,
    "geom:longitude": -122.386166,
    "instagram:post": {
      "caption": {
        "body": "#OnThisDay in 1970, the first Boeing 747 widebody jumbojet operated by TWA (Trans World Airlines) departed from San Francisco International Airport for New York City. Just prior to the flight, an inaugural celebration was held to commemorate the momentous event. The Boeing 747-131, registration number N93104, was christened the \"City of San Francisco\" by diplomat and former child star, Shirley Temple Black.  Image:  Shirley Temple Black and Airport Director James K. Carr about to christen the first 747 at SFO \"City of San Francisco\", 1970. SFO Museum Collection. 2011.032.2238",
        "excerpt": "#OnThisDay in 1970, the first Boeing 747 widebody jumbojet operated by TWA (Trans World Airlines) departed from San Francisco International Airport for New York City.",
        "hashtags": [
          "SFOHistory",
          "ThrowbackThursday",
          "SFO",
          "747",
          "TWA",
          "jumbojet",
          "NYC",
          "avgeek",
          "avationgeek",
          "aviation",
          "aviationhistory",
          "vintageaviation",
          "history",
          "avhistory",
          "aviationgeeks",
          "avgeeks",
          "ShirleyTemple"
        ],
        "users": []
      },
      "media_id": "13e79e4bd0f4fb02f40e25d144886de4",
      "path": "media/other/29716932_869426366552312_6606306665056698368_n_17937007111042358.jpg",
      "perceptual_hash": "p:a9f452e9645235ba",
      "taken": 1522930200,
      "taken_at": "Apr 05, 2018 12:10 pm"
    },
    "millsfield:similar": {
      "google/siglip2-so400m-patch16-naflex": [
        {
          "distance": 0.033131957054138184,
          "id": 1729360859
        },
        {
          "distance": 0.13744664192199707,
          "id": 1880151027
        },
        {
          "distance": 0.19353735446929932,
          "id": 1729360859
        },
        {
          "distance": 0.2006012201309204,
          "id": 1729359947
        },
        {
          "distance": 0.22221755981445312,
          "id": 1729361255
        },
        {
          "distance": 0.22642534971237183,
          "id": 1729361577
        },
        {
          "distance": 0.2274433970451355,
          "id": 1729360429
        },
        {
          "distance": 0.2277313470840454,
          "id": 1729355251
        },
        {
          "distance": 0.23045730590820312,
          "id": 1729359591
        },
        {
          "distance": 0.23045730590820312,
          "id": 1763558659
        }
      ]
    },
    "sfomuseum:placetype": "instagram",
    "src:geom": "sfomuseum",
    "wof:belongsto": [
      1159160869,
      102527513,
      102191575,
      85633793,
      102087579,
      85922583,
      85688637
    ],
    "wof:country": "US",
    "wof:created": 1522930200,
    "wof:geomhash": "b6e33f47475d56bc8da457bc31afadc8",
    "wof:hierarchy": [
      {
        "building_id": 1159160869,
        "campus_id": 102527513,
        "continent_id": 102191575,
        "country_id": 85633793,
        "county_id": 102087579,
        "custom_id": 1729358387,
        "instagram_id": 1729358387,
        "locality_id": 85922583,
        "neighbourhood_id": -1,
        "region_id": 85688637
      }
    ],
    "wof:id": 1729358387,
    "wof:lastmodified": 1787777633,
    "wof:name": "#OnThisDay in 1970, the first Boeing 747 widebody jumbojet operated by TWA (Trans World Airlines) departed from San Francisco International Airport for New York City...",
    "wof:parent_id": 1159160869,
    "wof:placetype": "custom",
    "wof:placetype_alt": [
      "instagram"
    ],
    "wof:repo": "sfomuseum-data-socialmedia-instagram",
    "wof:superseded_by": [],
    "wof:supersedes": []
  },
  "bbox": [
    -122.386166,
    37.616356,
    -122.386166,
    37.616356
  ],
  "geometry": {"type":"Point","coordinates":[-122.386166,37.616356]}
}
