{
  "id": 1729362921,
  "type": "Feature",
  "properties": {
    "date:cessation_lower": "2012-08-30",
    "date:cessation_upper": "2012-08-30",
    "date:inception_lower": "2012-08-30",
    "date:inception_upper": "2012-08-30",
    "edtf:cessation": "2012-08-30T07:46:00-07:00",
    "edtf:inception": "2012-08-30T07:46:00-07:00",
    "geom:area": 0,
    "geom:bbox": "-122.386166,37.616356,-122.386166,37.616356",
    "geom:latitude": 37.616356,
    "geom:longitude": -122.386166,
    "instagram:post": {
      "caption": {
        "body": "One of our library's popular books!",
        "excerpt": "One of our library's popular books!",
        "hashtags": [],
        "users": []
      },
      "media_id": "d69da88ed3f7ed1c011a2f4778dda5d1",
      "path": "media/other/11192974_813655755397204_1033770697_n_17842266895062499.jpg",
      "perceptual_hash": "p:952966b778d062f2",
      "taken": 1346337960,
      "taken_at": "Aug 30, 2012 2:46 pm"
    },
    "millsfield:similar": {
      "google/siglip2-so400m-patch16-naflex": [
        {
          "distance": 0.3614919185638428,
          "id": 1729362597
        },
        {
          "distance": 0.36705589294433594,
          "id": 1729361695
        },
        {
          "distance": 0.37628448009490967,
          "id": 1729362639
        },
        {
          "distance": 0.37690573930740356,
          "id": 1729362567
        },
        {
          "distance": 0.3804628252983093,
          "id": 1729362619
        },
        {
          "distance": 0.3863592743873596,
          "id": 1729360261
        },
        {
          "distance": 0.38721251487731934,
          "id": 1729359743
        },
        {
          "distance": 0.3906920552253723,
          "id": 1729360253
        },
        {
          "distance": 0.39103221893310547,
          "id": 1729360211
        },
        {
          "distance": 0.3926578164100647,
          "id": 1729360365
        }
      ]
    },
    "sfomuseum:placetype": "instagram",
    "src:geom": "sfomuseum",
    "wof:belongsto": [
      1159160869,
      102527513,
      102191575,
      85633793,
      102087579,
      85922583,
      85688637
    ],
    "wof:country": "US",
    "wof:created": 1346337960,
    "wof:geomhash": "b6e33f47475d56bc8da457bc31afadc8",
    "wof:hierarchy": [
      {
        "building_id": 1159160869,
        "campus_id": 102527513,
        "continent_id": 102191575,
        "country_id": 85633793,
        "county_id": 102087579,
        "custom_id": 1729362921,
        "instagram_id": 1729362921,
        "locality_id": 85922583,
        "neighbourhood_id": -1,
        "region_id": 85688637
      }
    ],
    "wof:id": 1729362921,
    "wof:lastmodified": 1787777656,
    "wof:name": "One of our library's popular books!..",
    "wof:parent_id": 1159160869,
    "wof:placetype": "custom",
    "wof:placetype_alt": [
      "instagram"
    ],
    "wof:repo": "sfomuseum-data-socialmedia-instagram",
    "wof:superseded_by": [],
    "wof:supersedes": []
  },
  "bbox": [
    -122.386166,
    37.616356,
    -122.386166,
    37.616356
  ],
  "geometry": {"type":"Point","coordinates":[-122.386166,37.616356]}
}
