{
  "id": 1729360425,
  "type": "Feature",
  "properties": {
    "date:cessation_lower": "2016-08-18",
    "date:cessation_upper": "2016-08-18",
    "date:inception_lower": "2016-08-18",
    "date:inception_upper": "2016-08-18",
    "edtf:cessation": "2016-08-18T14:41:00-07:00",
    "edtf:inception": "2016-08-18T14:41:00-07:00",
    "geom:area": 0,
    "geom:bbox": "-122.386166,37.616356,-122.386166,37.616356",
    "geom:latitude": 37.616356,
    "geom:longitude": -122.386166,
    "instagram:post": {
      "caption": {
        "body": "",
        "excerpt": "",
        "hashtags": [
          "PanAm",
          "PaxEx"
        ],
        "users": []
      },
      "media_id": "a8239b7da1166558adbe9a5b6671fe34",
      "path": "media/other/14027202_591878727651281_142504213_n_17861736550058853.jpg",
      "perceptual_hash": "p:e93582da9871678d",
      "taken": 1471556460,
      "taken_at": "Aug 18, 2016 9:41 pm"
    },
    "millsfield:similar": {
      "google/siglip2-so400m-patch16-naflex": [
        {
          "distance": 0.25733256340026855,
          "id": 1763558899
        },
        {
          "distance": 0.26661890745162964,
          "id": 1729359659
        },
        {
          "distance": 0.311992347240448,
          "id": 1763558899
        },
        {
          "distance": 0.3206568956375122,
          "id": 1729358599
        },
        {
          "distance": 0.3215829133987427,
          "id": 1729356009
        },
        {
          "distance": 0.3238483667373657,
          "id": 1729359975
        },
        {
          "distance": 0.32528001070022583,
          "id": 1763558621
        },
        {
          "distance": 0.3261537551879883,
          "id": 1729359659
        },
        {
          "distance": 0.3314475417137146,
          "id": 1763559211
        },
        {
          "distance": 0.33315205574035645,
          "id": 1880150995
        }
      ]
    },
    "sfomuseum:placetype": "instagram",
    "src:geom": "sfomuseum",
    "wof:belongsto": [
      1159160869,
      102527513,
      102191575,
      85633793,
      102087579,
      85922583,
      85688637
    ],
    "wof:country": "US",
    "wof:created": 1471556460,
    "wof:geomhash": "b6e33f47475d56bc8da457bc31afadc8",
    "wof:hierarchy": [
      {
        "building_id": 1159160869,
        "campus_id": 102527513,
        "continent_id": 102191575,
        "country_id": 85633793,
        "county_id": 102087579,
        "custom_id": 1729360425,
        "instagram_id": 1729360425,
        "locality_id": 85922583,
        "neighbourhood_id": -1,
        "region_id": 85688637
      }
    ],
    "wof:id": 1729360425,
    "wof:lastmodified": 1787777640,
    "wof:name": "..",
    "wof:parent_id": 1159160869,
    "wof:placetype": "custom",
    "wof:placetype_alt": [
      "instagram"
    ],
    "wof:repo": "sfomuseum-data-socialmedia-instagram",
    "wof:superseded_by": [],
    "wof:supersedes": []
  },
  "bbox": [
    -122.386166,
    37.616356,
    -122.386166,
    37.616356
  ],
  "geometry": {"type":"Point","coordinates":[-122.386166,37.616356]}
}
