{
  "id": 1880151139,
  "type": "Feature",
  "properties": {
    "date:cessation_lower": "2023-02-07",
    "date:cessation_upper": "2023-02-07",
    "date:inception_lower": "2023-02-07",
    "date:inception_upper": "2023-02-07",
    "edtf:cessation": "2023-02-07T08:56:00-08:00",
    "edtf:inception": "2023-02-07T08:56:00-08:00",
    "geom:area": 0,
    "geom:bbox": "-122.386166,37.616356,-122.386166,37.616356",
    "geom:latitude": 37.616356,
    "geom:longitude": -122.386166,
    "instagram:post": {
      "caption": {
        "body": "New Blog Alert! Our History Program has reached its 100th interview! Our program began in 1997, with interviews of flying boat captains,  stewards and stewardesses, and other early commercial aviation figures who were living in the San Francisco Bay Area. Since then, the collection has grown to include the experiences of people of color, LGBTQ individuals, women working in nontraditional roles.  If you’ve worked in commercial aviation and have a story to tell, please contact us!  Read about the program and some of our favorite excerpts in our blog post: http://bit.ly/3wJ8jpT",
        "excerpt": "New Blog Alert!",
        "hashtags": [
          "blog",
          "avgeek",
          "oralhistory"
        ],
        "users": []
      },
      "media_id": "237e6efb4f848b4d57a5f45f7ec3076ff18140f5",
      "path": "media/posts/202302/329260763_542861860968089_3965226716614903782_n_17966829125185280.jpg",
      "perceptual_hash": "p:e51c52e3b54a8ccd",
      "taken": 1675788960,
      "taken_at": "Feb 07, 2023 4:56 pm"
    },
    "millsfield:similar": {
      "google/siglip2-so400m-patch16-naflex": [
        {
          "distance": 0.14697301387786865,
          "id": 1880151549
        },
        {
          "distance": 0.154852032661438,
          "id": 1880151549
        },
        {
          "distance": 0.18016088008880615,
          "id": 1729356847
        },
        {
          "distance": 0.19492793083190918,
          "id": 1729356847
        },
        {
          "distance": 0.20964360237121582,
          "id": 1729360363
        },
        {
          "distance": 0.2126467227935791,
          "id": 1763559519
        },
        {
          "distance": 0.21776419878005981,
          "id": 1729358111
        },
        {
          "distance": 0.21861237287521362,
          "id": 1763559661
        },
        {
          "distance": 0.22185951471328735,
          "id": 1763559519
        },
        {
          "distance": 0.2260608673095703,
          "id": 1729356061
        }
      ]
    },
    "sfomuseum:placetype": "instagram",
    "src:geom": "sfomuseum",
    "wof:belongsto": [
      1159160869,
      102527513,
      102191575,
      85633793,
      102087579,
      85922583,
      85688637
    ],
    "wof:country": "US",
    "wof:created": 1675788960,
    "wof:geomhash": "b6e33f47475d56bc8da457bc31afadc8",
    "wof:hierarchy": [
      {
        "building_id": 1159160869,
        "campus_id": 102527513,
        "continent_id": 102191575,
        "country_id": 85633793,
        "county_id": 102087579,
        "custom_id": 1880151139,
        "instagram_id": 1880151139,
        "locality_id": 85922583,
        "neighbourhood_id": -1,
        "region_id": 85688637
      }
    ],
    "wof:id": 1880151139,
    "wof:lastmodified": 1787777662,
    "wof:name": "New Blog Alert!..",
    "wof:parent_id": 1159160869,
    "wof:placetype": "custom",
    "wof:placetype_alt": [
      "instagram"
    ],
    "wof:repo": "sfomuseum-data-socialmedia-instagram",
    "wof:superseded_by": [],
    "wof:supersedes": []
  },
  "bbox": [
    -122.386166,
    37.616356,
    -122.386166,
    37.616356
  ],
  "geometry": {"type":"Point","coordinates":[-122.386166,37.616356]}
}
