{
  "id": 1729362491,
  "type": "Feature",
  "properties": {
    "date:cessation_lower": "2013-11-19",
    "date:cessation_upper": "2013-11-19",
    "date:inception_lower": "2013-11-19",
    "date:inception_upper": "2013-11-19",
    "edtf:cessation": "2013-11-19T02:39:00-08:00",
    "edtf:inception": "2013-11-19T02:39:00-08:00",
    "geom:area": 0,
    "geom:bbox": "-122.386166,37.616356,-122.386166,37.616356",
    "geom:latitude": 37.616356,
    "geom:longitude": -122.386166,
    "instagram:post": {
      "caption": {
        "body": "",
        "excerpt": "",
        "hashtags": [
          "plastics",
          "design",
          "telephones"
        ],
        "users": []
      },
      "media_id": "726b18435ca1066689f4770beb345eeb",
      "path": "media/other/1389872_525593734203600_2139792531_n_17842377106062499.jpg",
      "perceptual_hash": "p:90bc6a47c773159a",
      "taken": 1384857540,
      "taken_at": "Nov 19, 2013 10:39 am"
    },
    "millsfield:similar": {
      "google/siglip2-so400m-patch16-naflex": [
        {
          "distance": 0.21475517749786377,
          "id": 1729362517
        },
        {
          "distance": 0.216760516166687,
          "id": 1729362605
        },
        {
          "distance": 0.24565064907073975,
          "id": 1729362517
        },
        {
          "distance": 0.2539985775947571,
          "id": 1729362973
        },
        {
          "distance": 0.26633375883102417,
          "id": 1729362379
        },
        {
          "distance": 0.26667362451553345,
          "id": 1729362605
        },
        {
          "distance": 0.27041691541671753,
          "id": 1729358237
        },
        {
          "distance": 0.28072357177734375,
          "id": 1729358237
        },
        {
          "distance": 0.2883755564689636,
          "id": 1729361847
        },
        {
          "distance": 0.2915077209472656,
          "id": 1729362379
        }
      ]
    },
    "sfomuseum:placetype": "instagram",
    "src:geom": "sfomuseum",
    "wof:belongsto": [
      1159160869,
      102527513,
      102191575,
      85633793,
      102087579,
      85922583,
      85688637
    ],
    "wof:country": "US",
    "wof:created": 1384857540,
    "wof:geomhash": "b6e33f47475d56bc8da457bc31afadc8",
    "wof:hierarchy": [
      {
        "building_id": 1159160869,
        "campus_id": 102527513,
        "continent_id": 102191575,
        "country_id": 85633793,
        "county_id": 102087579,
        "custom_id": 1729362491,
        "instagram_id": 1729362491,
        "locality_id": 85922583,
        "neighbourhood_id": -1,
        "region_id": 85688637
      }
    ],
    "wof:id": 1729362491,
    "wof:lastmodified": 1787777647,
    "wof:name": "..",
    "wof:parent_id": 1159160869,
    "wof:placetype": "custom",
    "wof:placetype_alt": [
      "instagram"
    ],
    "wof:repo": "sfomuseum-data-socialmedia-instagram",
    "wof:superseded_by": [],
    "wof:supersedes": []
  },
  "bbox": [
    -122.386166,
    37.616356,
    -122.386166,
    37.616356
  ],
  "geometry": {"type":"Point","coordinates":[-122.386166,37.616356]}
}
