{
  "id": 1763559307,
  "type": "Feature",
  "properties": {
    "date:cessation_lower": "2021-11-24",
    "date:cessation_upper": "2021-11-24",
    "date:inception_lower": "2021-11-24",
    "date:inception_upper": "2021-11-24",
    "edtf:cessation": "2021-11-24T03:55:00-08:00",
    "edtf:inception": "2021-11-24T03:55:00-08:00",
    "geom:area": 0,
    "geom:bbox": "-122.386166,37.616356,-122.386166,37.616356",
    "geom:latitude": 37.616356,
    "geom:longitude": -122.386166,
    "instagram:post": {
      "caption": {
        "body": "Our newest gallery, the Kadish Gallery, is now open! Named after Ruth Kadish, SFO’s first female Airport Commissioner, Kadish was a champion of public art at SFO, and gave her full support to launch the SFO Museum and art programs. She was always thinking about how to make SFO a nicer place for passengers.  𝘍𝘪𝘳𝘴𝘵-𝘎𝘦𝘯𝘦𝘳𝘢𝘵𝘪𝘰𝘯: 𝘊𝘩𝘪𝘯𝘢 𝘋𝘳𝘦𝘢𝘮 𝘢𝘯𝘥 𝘚𝘶𝘣𝘶𝘳𝘣𝘢𝘯 𝘊𝘩𝘪𝘯𝘢𝘵𝘰𝘸𝘯 explores the complex identities and personal narratives belonging to the children of Chinese immigrants. The exhibition features works by Taiwanese American photographer Jessica Chou and Chinese Canadian photographer Teresa Eng, whose projects focus both inwards at the countries of their upbringing, and outwards towards the country of their ancestors.  𝘍𝘪𝘳𝘴𝘵-𝘎𝘦𝘯𝘦𝘳𝘢𝘵𝘪𝘰𝘯: 𝘊𝘩𝘪𝘯𝘢 𝘋𝘳𝘦𝘢𝘮 𝘢𝘯𝘥 𝘚𝘶𝘣𝘶𝘳𝘣𝘢𝘯 𝘊𝘩𝘪𝘯𝘢𝘵𝘰𝘸𝘯 is located in the secure connector between Terminals 2 and 3, until May 05, 2022. The exhibition is located post-security and online at: https://bit.ly/3CRxuXP Link in bio",
        "excerpt": "Our newest gallery, the Kadish Gallery, is now open!",
        "hashtags": [
          "TeresaEng",
          "JessicaChou",
          "KadishGallery",
          "photography"
        ],
        "users": [
          "teresaeng",
          "choutoo"
        ]
      },
      "media_id": "52a8e77e325320c479e43a879d4892e6320d7388",
      "path": "media/posts/202111/259585599_458640592519656_2264174381388244288_n_17949723658586363.jpg",
      "perceptual_hash": "p:a82c529f61166dd7",
      "taken": 1637754900,
      "taken_at": "Nov 24, 2021 11:55 am"
    },
    "millsfield:similar": {
      "google/siglip2-so400m-patch16-naflex": [
        {
          "distance": 0.3311142921447754,
          "id": 1729359123
        },
        {
          "distance": 0.3734034299850464,
          "id": 1729360055
        },
        {
          "distance": 0.37408125400543213,
          "id": 1729357285
        },
        {
          "distance": 0.3752082586288452,
          "id": 1763559193
        },
        {
          "distance": 0.37778759002685547,
          "id": 1947425011
        },
        {
          "distance": 0.37830090522766113,
          "id": 1763559271
        },
        {
          "distance": 0.3813338875770569,
          "id": 1729355515
        },
        {
          "distance": 0.3897465467453003,
          "id": 1947425011
        },
        {
          "distance": 0.3902149200439453,
          "id": 1729355797
        },
        {
          "distance": 0.3904879689216614,
          "id": 1729355483
        }
      ]
    },
    "sfomuseum:placetype": "instagram",
    "src:geom": "sfomuseum",
    "wof:belongsto": [
      1159160869,
      102527513,
      102191575,
      85633793,
      102087579,
      85922583,
      85688637
    ],
    "wof:country": "US",
    "wof:created": 1637754900,
    "wof:geomhash": "b6e33f47475d56bc8da457bc31afadc8",
    "wof:hierarchy": [
      {
        "building_id": 1159160869,
        "campus_id": 102527513,
        "continent_id": 102191575,
        "country_id": 85633793,
        "county_id": 102087579,
        "custom_id": 1763559307,
        "instagram_id": 1763559307,
        "locality_id": 85922583,
        "neighbourhood_id": -1,
        "region_id": 85688637
      }
    ],
    "wof:id": 1763559307,
    "wof:lastmodified": 1787777660,
    "wof:name": "Our newest gallery, the Kadish Gallery, is now open!..",
    "wof:parent_id": 1159160869,
    "wof:placetype": "custom",
    "wof:placetype_alt": [
      "instagram"
    ],
    "wof:repo": "sfomuseum-data-socialmedia-instagram",
    "wof:superseded_by": [],
    "wof:supersedes": []
  },
  "bbox": [
    -122.386166,
    37.616356,
    -122.386166,
    37.616356
  ],
  "geometry": {"type":"Point","coordinates":[-122.386166,37.616356]}
}
