{
  "id": 1729355921,
  "type": "Feature",
  "properties": {
    "date:cessation_lower": "2019-11-01",
    "date:cessation_upper": "2019-11-01",
    "date:inception_lower": "2019-11-01",
    "date:inception_upper": "2019-11-01",
    "edtf:cessation": "2019-10-31T17:58:44-07:00",
    "edtf:inception": "2019-10-31T17:58:44-07:00",
    "geom:area": 0,
    "geom:bbox": "-122.386166,37.616356,-122.386166,37.616356",
    "geom:latitude": 37.616356,
    "geom:longitude": -122.386166,
    "instagram:post": {
      "caption": {
        "body": "Bees, wasps, and ants all belong to the order Hymenoptera, meaning membranous wings. Most honey bees, yellowjacket wasps, and ants are social species. These insects live in societies with overlapping generations and complex visual and chemical communication systems. For example, honey bees do a “waggle dance” to communicate the distance, direction, and quality of nectar and pollen resources. Most bees, however, are solitary. They provision each egg with just enough pollen and nectar to grow to adulthood, and then fly away forever. When foraging among flowers, bees accidentally drop pollen, which pollinates the plant. Nearly 4,400 different species of bees inhabit North America, and more than 20,000 species of bees exist worldwide.  See “The Intriguing World of Insects” on display, pre-security, in the International Terminal. http://bit.ly/IntriguingInsects",
        "excerpt": "Bees, wasps, and ants all belong to the order Hymenoptera, meaning membranous wings.",
        "hashtags": [
          "IntriguingInsects",
          "WorldofInsects",
          "insects",
          "Entomology",
          "Berkeley",
          "UCBerkeley"
        ],
        "users": []
      },
      "location": "",
      "media_id": "1de113521d611a27b5432ada55067ad6",
      "path": "photos/201910/1de113521d611a27b5432ada55067ad6.jpg",
      "perceptual_hash": "p:a31e9c336bccb4c4",
      "taken": 1572541080,
      "taken_at": "Oct 31, 2019, 4:58 PM"
    },
    "millsfield:similar": {
      "google/siglip2-so400m-patch16-naflex": [
        {
          "distance": 0.23709636926651,
          "id": 1729356455
        },
        {
          "distance": 0.24333471059799194,
          "id": 1729356197
        },
        {
          "distance": 0.24363809823989868,
          "id": 1729356455
        },
        {
          "distance": 0.2534986734390259,
          "id": 1729356305
        },
        {
          "distance": 0.25772035121917725,
          "id": 1729355923
        },
        {
          "distance": 0.2723538279533386,
          "id": 1729356593
        },
        {
          "distance": 0.2728928327560425,
          "id": 1729356269
        },
        {
          "distance": 0.27343010902404785,
          "id": 1729356209
        },
        {
          "distance": 0.2772517800331116,
          "id": 1729356429
        },
        {
          "distance": 0.2809390425682068,
          "id": 1729356371
        }
      ]
    },
    "sfomuseum:placetype": "instagram",
    "src:geom": "sfomuseum",
    "wof:belongsto": [
      1159160869,
      102527513,
      102191575,
      85633793,
      102087579,
      85922583,
      85688637
    ],
    "wof:country": "US",
    "wof:created": 1572569924,
    "wof:geomhash": "b6e33f47475d56bc8da457bc31afadc8",
    "wof:hierarchy": [
      {
        "building_id": 1159160869,
        "campus_id": 102527513,
        "continent_id": 102191575,
        "country_id": 85633793,
        "county_id": 102087579,
        "custom_id": 1729355921,
        "instagram_id": 1729355921,
        "locality_id": 85922583,
        "neighbourhood_id": -1,
        "region_id": 85688637
      }
    ],
    "wof:id": 1729355921,
    "wof:lastmodified": 1787777627,
    "wof:name": "Bees, wasps, and ants all belong to the order Hymenoptera, meaning membranous wings...",
    "wof:parent_id": 1159160869,
    "wof:placetype": "custom",
    "wof:placetype_alt": [
      "instagram"
    ],
    "wof:repo": "sfomuseum-data-socialmedia-instagram",
    "wof:superseded_by": [],
    "wof:supersedes": []
  },
  "bbox": [
    -122.386166,
    37.616356,
    -122.386166,
    37.616356
  ],
  "geometry": {"type":"Point","coordinates":[-122.386166,37.616356]}
}
