{
  "id": 1763559067,
  "type": "Feature",
  "properties": {
    "date:cessation_lower": "2021-07-12",
    "date:cessation_upper": "2021-07-12",
    "date:inception_lower": "2021-07-12",
    "date:inception_upper": "2021-07-12",
    "edtf:cessation": "2021-07-12T09:07:00-07:00",
    "edtf:inception": "2021-07-12T09:07:00-07:00",
    "geom:area": 0,
    "geom:bbox": "-122.386166,37.616356,-122.386166,37.616356",
    "geom:latitude": 37.616356,
    "geom:longitude": -122.386166,
    "instagram:post": {
      "caption": {
        "body": "Visiting your hairstylist soon? Impress them with some trivia! Hooded dryers began to appear in salons during the 1930s. They were perfectly suited to the increasingly complicated hairstyles of the ensuing decades, which required women to visit salons on a weekly basis to have their hair “set.” In an attempt to mimic the salon experience at home, portable bonnet hair dryers, which had a shower-cap style headpiece attached to a hose and motor, debuted in the early 1950s.   See “Hair Style” on display, post-security in Harvey Milk Terminal 1 or online - link in bio.",
        "excerpt": "Visiting your hairstylist soon?",
        "hashtags": [
          "HairStyle",
          "hair",
          "salon"
        ],
        "users": []
      },
      "media_id": "c41f998d8f1631bcc1283a3fa5c35b073ac572c9",
      "path": "media/posts/202107/217583483_1284585785272530_6821563221365369963_n_17883158408377059.jpg",
      "perceptual_hash": "p:e54da22f2a626c6b",
      "taken": 1626106020,
      "taken_at": "Jul 12, 2021 4:07 pm"
    },
    "millsfield:similar": {
      "google/siglip2-so400m-patch16-naflex": [
        {
          "distance": 0.16586655378341675,
          "id": 1763559221
        },
        {
          "distance": 0.19437384605407715,
          "id": 1763558863
        },
        {
          "distance": 0.1972000002861023,
          "id": 1763558885
        },
        {
          "distance": 0.19943761825561523,
          "id": 1763559221
        },
        {
          "distance": 0.19984865188598633,
          "id": 1763559177
        },
        {
          "distance": 0.20635312795639038,
          "id": 1763558885
        },
        {
          "distance": 0.2256460189819336,
          "id": 1763559177
        },
        {
          "distance": 0.24057376384735107,
          "id": 1763558863
        },
        {
          "distance": 0.24659353494644165,
          "id": 1763559231
        },
        {
          "distance": 0.26125359535217285,
          "id": 1763559231
        }
      ]
    },
    "sfomuseum:placetype": "instagram",
    "src:geom": "sfomuseum",
    "wof:belongsto": [
      1159160869,
      102527513,
      102191575,
      85633793,
      102087579,
      85922583,
      85688637
    ],
    "wof:country": "US",
    "wof:created": 1626106020,
    "wof:geomhash": "b6e33f47475d56bc8da457bc31afadc8",
    "wof:hierarchy": [
      {
        "building_id": 1159160869,
        "campus_id": 102527513,
        "continent_id": 102191575,
        "country_id": 85633793,
        "county_id": 102087579,
        "custom_id": 1763559067,
        "instagram_id": 1763559067,
        "locality_id": 85922583,
        "neighbourhood_id": -1,
        "region_id": 85688637
      }
    ],
    "wof:id": 1763559067,
    "wof:lastmodified": 1787777660,
    "wof:name": "Visiting your hairstylist soon?..",
    "wof:parent_id": 1159160869,
    "wof:placetype": "custom",
    "wof:placetype_alt": [
      "instagram"
    ],
    "wof:repo": "sfomuseum-data-socialmedia-instagram",
    "wof:superseded_by": [],
    "wof:supersedes": []
  },
  "bbox": [
    -122.386166,
    37.616356,
    -122.386166,
    37.616356
  ],
  "geometry": {"type":"Point","coordinates":[-122.386166,37.616356]}
}
