{
  "id": 1729360361,
  "type": "Feature",
  "properties": {
    "date:cessation_lower": "2016-09-05",
    "date:cessation_upper": "2016-09-05",
    "date:inception_lower": "2016-09-05",
    "date:inception_upper": "2016-09-05",
    "edtf:cessation": "2016-09-05T11:02:00-07:00",
    "edtf:inception": "2016-09-05T11:02:00-07:00",
    "geom:area": 0,
    "geom:bbox": "-122.386166,37.616356,-122.386166,37.616356",
    "geom:latitude": 37.616356,
    "geom:longitude": -122.386166,
    "instagram:post": {
      "caption": {
        "body": "",
        "excerpt": "",
        "hashtags": [
          "OnThisDay",
          "SFOHistory"
        ],
        "users": []
      },
      "media_id": "9f122355fe4e5f3c1bfed57038c766b4",
      "path": "media/other/14156630_539731062818155_2061145780_n_17842134808191232.jpg",
      "perceptual_hash": "p:ffa082c97dab8464",
      "taken": 1473098520,
      "taken_at": "Sep 05, 2016 6:02 pm"
    },
    "millsfield:similar": {
      "google/siglip2-so400m-patch16-naflex": [
        {
          "distance": 0.22972452640533447,
          "id": 1729358771
        },
        {
          "distance": 0.23598051071166992,
          "id": 1729357649
        },
        {
          "distance": 0.23915284872055054,
          "id": 1729358771
        },
        {
          "distance": 0.24227255582809448,
          "id": 1729355035
        },
        {
          "distance": 0.25636476278305054,
          "id": 1763558843
        },
        {
          "distance": 0.2594786286354065,
          "id": 1729355293
        },
        {
          "distance": 0.2663767337799072,
          "id": 1729360705
        },
        {
          "distance": 0.26827579736709595,
          "id": 1729357855
        },
        {
          "distance": 0.27136558294296265,
          "id": 1729360111
        },
        {
          "distance": 0.27148497104644775,
          "id": 1729360705
        }
      ]
    },
    "sfomuseum:placetype": "instagram",
    "src:geom": "sfomuseum",
    "wof:belongsto": [
      1159160869,
      102527513,
      102191575,
      85633793,
      102087579,
      85922583,
      85688637
    ],
    "wof:country": "US",
    "wof:created": 1473098520,
    "wof:geomhash": "b6e33f47475d56bc8da457bc31afadc8",
    "wof:hierarchy": [
      {
        "building_id": 1159160869,
        "campus_id": 102527513,
        "continent_id": 102191575,
        "country_id": 85633793,
        "county_id": 102087579,
        "custom_id": 1729360361,
        "instagram_id": 1729360361,
        "locality_id": 85922583,
        "neighbourhood_id": -1,
        "region_id": 85688637
      }
    ],
    "wof:id": 1729360361,
    "wof:lastmodified": 1787777639,
    "wof:name": "..",
    "wof:parent_id": 1159160869,
    "wof:placetype": "custom",
    "wof:placetype_alt": [
      "instagram"
    ],
    "wof:repo": "sfomuseum-data-socialmedia-instagram",
    "wof:superseded_by": [],
    "wof:supersedes": []
  },
  "bbox": [
    -122.386166,
    37.616356,
    -122.386166,
    37.616356
  ],
  "geometry": {"type":"Point","coordinates":[-122.386166,37.616356]}
}
