{
  "id": 1729360573,
  "type": "Feature",
  "properties": {
    "date:cessation_lower": "2016-06-29",
    "date:cessation_upper": "2016-06-29",
    "date:inception_lower": "2016-06-29",
    "date:inception_upper": "2016-06-29",
    "edtf:cessation": "2016-06-29T11:39:00-07:00",
    "edtf:inception": "2016-06-29T11:39:00-07:00",
    "geom:area": 0,
    "geom:bbox": "-122.386166,37.616356,-122.386166,37.616356",
    "geom:latitude": 37.616356,
    "geom:longitude": -122.386166,
    "instagram:post": {
      "caption": {
        "body": "",
        "excerpt": "",
        "hashtags": [
          "PanAm",
          "FashionInFlight",
          "WomenInAviation"
        ],
        "users": []
      },
      "media_id": "70eeaf4e17839944d92fa314209dbd0e",
      "path": "media/other/13584157_154366088315018_256308332_n_17857506493054768.jpg",
      "perceptual_hash": "p:dae68710b4d0b96b",
      "taken": 1467225540,
      "taken_at": "Jun 29, 2016 6:39 pm"
    },
    "millsfield:similar": {
      "google/siglip2-so400m-patch16-naflex": [
        {
          "distance": 0.16959387063980103,
          "id": 1947425147
        },
        {
          "distance": 0.2343032956123352,
          "id": 1763559527
        },
        {
          "distance": 0.23435544967651367,
          "id": 1947425147
        },
        {
          "distance": 0.24039804935455322,
          "id": 1729359645
        },
        {
          "distance": 0.2415580153465271,
          "id": 1729357247
        },
        {
          "distance": 0.24402159452438354,
          "id": 1729360133
        },
        {
          "distance": 0.24422162771224976,
          "id": 1729361161
        },
        {
          "distance": 0.24422162771224976,
          "id": 1763558609
        },
        {
          "distance": 0.24702179431915283,
          "id": 1729361255
        },
        {
          "distance": 0.2578566074371338,
          "id": 1729355073
        }
      ]
    },
    "sfomuseum:placetype": "instagram",
    "src:geom": "sfomuseum",
    "wof:belongsto": [
      1159160869,
      102527513,
      102191575,
      85633793,
      102087579,
      85922583,
      85688637
    ],
    "wof:country": "US",
    "wof:created": 1467225540,
    "wof:geomhash": "b6e33f47475d56bc8da457bc31afadc8",
    "wof:hierarchy": [
      {
        "building_id": 1159160869,
        "campus_id": 102527513,
        "continent_id": 102191575,
        "country_id": 85633793,
        "county_id": 102087579,
        "custom_id": 1729360573,
        "instagram_id": 1729360573,
        "locality_id": 85922583,
        "neighbourhood_id": -1,
        "region_id": 85688637
      }
    ],
    "wof:id": 1729360573,
    "wof:lastmodified": 1787777640,
    "wof:name": "..",
    "wof:parent_id": 1159160869,
    "wof:placetype": "custom",
    "wof:placetype_alt": [
      "instagram"
    ],
    "wof:repo": "sfomuseum-data-socialmedia-instagram",
    "wof:superseded_by": [],
    "wof:supersedes": []
  },
  "bbox": [
    -122.386166,
    37.616356,
    -122.386166,
    37.616356
  ],
  "geometry": {"type":"Point","coordinates":[-122.386166,37.616356]}
}
