{
  "id": 1763558963,
  "type": "Feature",
  "properties": {
    "date:cessation_lower": "2020-12-15",
    "date:cessation_upper": "2020-12-15",
    "date:inception_lower": "2020-12-15",
    "date:inception_upper": "2020-12-15",
    "edtf:cessation": "2020-12-15T09:28:00-08:00",
    "edtf:inception": "2020-12-15T09:28:00-08:00",
    "geom:area": 0,
    "geom:bbox": "-122.386166,37.616356,-122.386166,37.616356",
    "geom:latitude": 37.616356,
    "geom:longitude": -122.386166,
    "instagram:post": {
      "caption": {
        "body": "#Onthisday in 2009, the Boeing 787 took off on its maiden flight. Named the Dreamliner, the aircraft has three variations, the 787-8, 787-9, and 787-10. With 992 aircraft in service with 69 airlines, the 787 flies over 1,900 routes all over the world. Have you ever flown on a 787?  Image: Boeing 787 Dreamliner model airplane, c. 2010. Gift of the McAfee family in memory of Robert E. McAfee. 2015.126.172 a b",
        "excerpt": "#Onthisday in 2009, the Boeing 787 took off on its maiden flight.",
        "hashtags": [],
        "users": []
      },
      "media_id": "022954d987a69866863efc4a41cb185d19be7a2a",
      "path": "media/other/131350839_303062497702047_7649076831227239280_n_17861361008253714.jpg",
      "perceptual_hash": "p:a61ab585496a9e37",
      "taken": 1608053280,
      "taken_at": "Dec 15, 2020 5:28 pm"
    },
    "millsfield:similar": {
      "google/siglip2-so400m-patch16-naflex": [
        {
          "distance": 0.026235103607177734,
          "id": 1763559313
        },
        {
          "distance": 0.07800477743148804,
          "id": 1763559313
        },
        {
          "distance": 0.10275429487228394,
          "id": 1729355709
        },
        {
          "distance": 0.13342446088790894,
          "id": 1763559403
        },
        {
          "distance": 0.136796772480011,
          "id": 1729355709
        },
        {
          "distance": 0.13742071390151978,
          "id": 1763559343
        },
        {
          "distance": 0.15288466215133667,
          "id": 1729359579
        },
        {
          "distance": 0.16057652235031128,
          "id": 1729356565
        },
        {
          "distance": 0.16281473636627197,
          "id": 1763559343
        },
        {
          "distance": 0.16567295789718628,
          "id": 1729358315
        }
      ]
    },
    "sfomuseum:placetype": "instagram",
    "src:geom": "sfomuseum",
    "wof:belongsto": [
      1159160869,
      102527513,
      102191575,
      85633793,
      102087579,
      85922583,
      85688637
    ],
    "wof:country": "US",
    "wof:created": 1608053280,
    "wof:geomhash": "b6e33f47475d56bc8da457bc31afadc8",
    "wof:hierarchy": [
      {
        "building_id": 1159160869,
        "campus_id": 102527513,
        "continent_id": 102191575,
        "country_id": 85633793,
        "county_id": 102087579,
        "custom_id": 1763558963,
        "instagram_id": 1763558963,
        "locality_id": 85922583,
        "neighbourhood_id": -1,
        "region_id": 85688637
      }
    ],
    "wof:id": 1763558963,
    "wof:lastmodified": 1787777660,
    "wof:name": "#Onthisday in 2009, the Boeing 787 took off on its maiden flight...",
    "wof:parent_id": 1159160869,
    "wof:placetype": "custom",
    "wof:placetype_alt": [
      "instagram"
    ],
    "wof:repo": "sfomuseum-data-socialmedia-instagram",
    "wof:superseded_by": [],
    "wof:supersedes": []
  },
  "bbox": [
    -122.386166,
    37.616356,
    -122.386166,
    37.616356
  ],
  "geometry": {"type":"Point","coordinates":[-122.386166,37.616356]}
}
