{
  "id": 1729361131,
  "type": "Feature",
  "properties": {
    "date:cessation_lower": "2016-01-27",
    "date:cessation_upper": "2016-01-27",
    "date:inception_lower": "2016-01-27",
    "date:inception_upper": "2016-01-27",
    "edtf:cessation": "2016-01-27T12:42:00-08:00",
    "edtf:inception": "2016-01-27T12:42:00-08:00",
    "geom:area": 0,
    "geom:bbox": "-122.386166,37.616356,-122.386166,37.616356",
    "geom:latitude": 37.616356,
    "geom:longitude": -122.386166,
    "instagram:post": {
      "caption": {
        "body": "",
        "excerpt": "",
        "hashtags": [
          "WomenInAviation"
        ],
        "users": []
      },
      "media_id": "d1ff49f3d1afc8e2b9c8c9cca205c902",
      "path": "media/other/12479500_1028180937242522_1882753883_n_17853991042057115.jpg",
      "perceptual_hash": "p:fedce8caa8258929",
      "taken": 1453927320,
      "taken_at": "Jan 27, 2016 8:42 pm"
    },
    "millsfield:similar": {
      "google/siglip2-so400m-patch16-naflex": [
        {
          "distance": 0.0021768808364868164,
          "id": 1729355259
        },
        {
          "distance": 0.14701414108276367,
          "id": 1729355259
        },
        {
          "distance": 0.16221797466278076,
          "id": 1729356563
        },
        {
          "distance": 0.172002911567688,
          "id": 1947425081
        },
        {
          "distance": 0.17406803369522095,
          "id": 1729355587
        },
        {
          "distance": 0.18503838777542114,
          "id": 1729359251
        },
        {
          "distance": 0.187366783618927,
          "id": 1729359841
        },
        {
          "distance": 0.19069766998291016,
          "id": 1947425081
        },
        {
          "distance": 0.19153010845184326,
          "id": 1729361245
        },
        {
          "distance": 0.19582760334014893,
          "id": 1729360843
        }
      ]
    },
    "sfomuseum:placetype": "instagram",
    "src:geom": "sfomuseum",
    "wof:belongsto": [
      1159160869,
      102527513,
      102191575,
      85633793,
      102087579,
      85922583,
      85688637
    ],
    "wof:country": "US",
    "wof:created": 1453927320,
    "wof:geomhash": "b6e33f47475d56bc8da457bc31afadc8",
    "wof:hierarchy": [
      {
        "building_id": 1159160869,
        "campus_id": 102527513,
        "continent_id": 102191575,
        "country_id": 85633793,
        "county_id": 102087579,
        "custom_id": 1729361131,
        "instagram_id": 1729361131,
        "locality_id": 85922583,
        "neighbourhood_id": -1,
        "region_id": 85688637
      }
    ],
    "wof:id": 1729361131,
    "wof:lastmodified": 1787777645,
    "wof:name": "..",
    "wof:parent_id": 1159160869,
    "wof:placetype": "custom",
    "wof:placetype_alt": [
      "instagram"
    ],
    "wof:repo": "sfomuseum-data-socialmedia-instagram",
    "wof:superseded_by": [],
    "wof:supersedes": []
  },
  "bbox": [
    -122.386166,
    37.616356,
    -122.386166,
    37.616356
  ],
  "geometry": {"type":"Point","coordinates":[-122.386166,37.616356]}
}
