{
  "id": 1729359479,
  "type": "Feature",
  "properties": {
    "date:cessation_lower": "2017-05-22",
    "date:cessation_upper": "2017-05-22",
    "date:inception_lower": "2017-05-22",
    "date:inception_upper": "2017-05-22",
    "edtf:cessation": "2017-05-22T11:26:00-07:00",
    "edtf:inception": "2017-05-22T11:26:00-07:00",
    "geom:area": 0,
    "geom:bbox": "-122.386166,37.616356,-122.386166,37.616356",
    "geom:latitude": 37.616356,
    "geom:longitude": -122.386166,
    "instagram:post": {
      "caption": {
        "body": "What did flight kitchens look like in the 1970s? These chefs are prepping over 100 meals for passengers in United's flight kitchen. Did you know that some of the first airline meals in the 1930s consisted of fried chicken in a paper box? Tasty indeed.  Image: United Air Lines flight kitchen, c. 1970, Gift of United Airlines Archive. 2005.015.034",
        "excerpt": "What did flight kitchens look like in the 1970s?",
        "hashtags": [
          "united",
          "airplanefood",
          "chefs",
          "cooking",
          "avgeek",
          "aviationhistory",
          "aviationtrivia"
        ],
        "users": []
      },
      "media_id": "4e37e97480f73a68cf164708cd152bca",
      "path": "media/posts/201705/18644772_416292072083440_2741361042444517376_n_17875628551064075.jpg",
      "perceptual_hash": "p:8f305aeea599594a",
      "taken": 1495477560,
      "taken_at": "May 22, 2017 6:26 pm"
    },
    "millsfield:similar": {
      "google/siglip2-so400m-patch16-naflex": [
        {
          "distance": 0.25393927097320557,
          "id": 1729361193
        },
        {
          "distance": 0.30895060300827026,
          "id": 1729356303
        },
        {
          "distance": 0.3093909025192261,
          "id": 1729361193
        },
        {
          "distance": 0.3108818531036377,
          "id": 1729359601
        },
        {
          "distance": 0.31740516424179077,
          "id": 1763558911
        },
        {
          "distance": 0.31994616985321045,
          "id": 1729360637
        },
        {
          "distance": 0.32052624225616455,
          "id": 1729359719
        },
        {
          "distance": 0.32315176725387573,
          "id": 1729357805
        },
        {
          "distance": 0.3255247473716736,
          "id": 1729356113
        },
        {
          "distance": 0.3257867693901062,
          "id": 1729358661
        }
      ]
    },
    "sfomuseum:placetype": "instagram",
    "src:geom": "sfomuseum",
    "wof:belongsto": [
      1159160869,
      102527513,
      102191575,
      85633793,
      102087579,
      85922583,
      85688637
    ],
    "wof:country": "US",
    "wof:created": 1495477560,
    "wof:geomhash": "b6e33f47475d56bc8da457bc31afadc8",
    "wof:hierarchy": [
      {
        "building_id": 1159160869,
        "campus_id": 102527513,
        "continent_id": 102191575,
        "country_id": 85633793,
        "county_id": 102087579,
        "custom_id": 1729359479,
        "instagram_id": 1729359479,
        "locality_id": 85922583,
        "neighbourhood_id": -1,
        "region_id": 85688637
      }
    ],
    "wof:id": 1729359479,
    "wof:lastmodified": 1787777636,
    "wof:name": "What did flight kitchens look like in the 1970s?..",
    "wof:parent_id": 1159160869,
    "wof:placetype": "custom",
    "wof:placetype_alt": [
      "instagram"
    ],
    "wof:repo": "sfomuseum-data-socialmedia-instagram",
    "wof:superseded_by": [],
    "wof:supersedes": []
  },
  "bbox": [
    -122.386166,
    37.616356,
    -122.386166,
    37.616356
  ],
  "geometry": {"type":"Point","coordinates":[-122.386166,37.616356]}
}
