{
  "id": 1729358507,
  "type": "Feature",
  "properties": {
    "date:cessation_lower": "2018-02-27",
    "date:cessation_upper": "2018-02-27",
    "date:inception_lower": "2018-02-27",
    "date:inception_upper": "2018-02-27",
    "edtf:cessation": "2018-02-27T09:31:00-08:00",
    "edtf:inception": "2018-02-27T09:31:00-08:00",
    "geom:area": 0,
    "geom:bbox": "-122.386166,37.616356,-122.386166,37.616356",
    "geom:latitude": 37.616356,
    "geom:longitude": -122.386166,
    "instagram:post": {
      "caption": {
        "body": "This is your last week to see \"Flying the Main Line: A History of United Airlines.\" Located post-security in Terminal 3, the exhibition showcases highlights from SFO Museum's collection. Over ninety years of commercial aviation history can be told through the stories of the four companies that merged into a single airline which became a preeminent U.S. carrier. What is your favorite memory of United?  See \"Flying the Main Line: A History of United Airlines\", on display, post-security, in Terminal 3. http://bit.ly/TheMainLine",
        "excerpt": "This is your last week to see \"Flying the Main Line: A History of United Airlines.\"",
        "hashtags": [
          "FlyingTheMainLine",
          "TheMainLine",
          "avgeek",
          "united",
          "aviationhistory",
          "unitedairlines",
          "aviationgeek",
          "aviation"
        ],
        "users": []
      },
      "media_id": "194e0199efc37a6f39b3427797058dba",
      "path": "media/other/27894358_152926058726924_591943027073744896_n_17929786309061874.jpg",
      "perceptual_hash": "p:85e8621e5bd3e2e2",
      "taken": 1519752660,
      "taken_at": "Feb 27, 2018 5:31 pm"
    },
    "millsfield:similar": {
      "google/siglip2-so400m-patch16-naflex": [
        {
          "distance": 0.18589287996292114,
          "id": 1729359367
        },
        {
          "distance": 0.22771477699279785,
          "id": 1729359367
        },
        {
          "distance": 0.26469773054122925,
          "id": 1880151563
        },
        {
          "distance": 0.26469773054122925,
          "id": 1880151575
        },
        {
          "distance": 0.289975106716156,
          "id": 1880151575
        },
        {
          "distance": 0.289975106716156,
          "id": 1880151563
        },
        {
          "distance": 0.29059040546417236,
          "id": 1880151571
        },
        {
          "distance": 0.2941834330558777,
          "id": 1880151571
        },
        {
          "distance": 0.30366045236587524,
          "id": 1729359167
        },
        {
          "distance": 0.315937876701355,
          "id": 1729355755
        }
      ]
    },
    "sfomuseum:placetype": "instagram",
    "src:geom": "sfomuseum",
    "wof:belongsto": [
      1159160869,
      102527513,
      102191575,
      85633793,
      102087579,
      85922583,
      85688637
    ],
    "wof:country": "US",
    "wof:created": 1519752660,
    "wof:geomhash": "b6e33f47475d56bc8da457bc31afadc8",
    "wof:hierarchy": [
      {
        "building_id": 1159160869,
        "campus_id": 102527513,
        "continent_id": 102191575,
        "country_id": 85633793,
        "county_id": 102087579,
        "custom_id": 1729358507,
        "instagram_id": 1729358507,
        "locality_id": 85922583,
        "neighbourhood_id": -1,
        "region_id": 85688637
      }
    ],
    "wof:id": 1729358507,
    "wof:lastmodified": 1787777633,
    "wof:name": "This is your last week to see \"Flying the Main Line: A History of United Airlines.\"..",
    "wof:parent_id": 1159160869,
    "wof:placetype": "custom",
    "wof:placetype_alt": [
      "instagram"
    ],
    "wof:repo": "sfomuseum-data-socialmedia-instagram",
    "wof:superseded_by": [],
    "wof:supersedes": []
  },
  "bbox": [
    -122.386166,
    37.616356,
    -122.386166,
    37.616356
  ],
  "geometry": {"type":"Point","coordinates":[-122.386166,37.616356]}
}
