{
  "id": 1880151319,
  "type": "Feature",
  "properties": {
    "date:cessation_lower": "2022-11-21",
    "date:cessation_upper": "2022-11-21",
    "date:inception_lower": "2022-11-21",
    "date:inception_upper": "2022-11-21",
    "edtf:cessation": "2022-11-21T00:26:00-08:00",
    "edtf:inception": "2022-11-21T00:26:00-08:00",
    "geom:area": 0,
    "geom:bbox": "-122.386166,37.616356,-122.386166,37.616356",
    "geom:latitude": 37.616356,
    "geom:longitude": -122.386166,
    "instagram:post": {
      "caption": {
        "body": "Our newest exhibition, “San Francisco Opera: A Centennial Celebration” is now on display!  San Francisco Opera has presented renowned operatic performances for one-hundred seasons, drawing international superstars, commissioning exciting new productions, and debuting legendary singers. One of the world’s most complex art forms, opera combines libretto, or the text of a long musical work, with vocal and instrumental music, acting, dance, costuming, wig making, makeup, set construction, prop making, lighting, and audio-visual work. San Francisco Opera debuted on September 26, 1923, with La Bohème by Italian composer Giacomo Puccini (1858–1924) at the Exposition Auditorium (now the Bill Graham Civic Auditorium).  Learn more about San Francisco Opera’s history in our exhibition “San Francisco Opera: A Centennial Celebration” on display, post-security, in Harvey Milk Terminal 1 and online at: https://bit.ly/SFOperaCentennial",
        "excerpt": "Our newest exhibition, “San Francisco Opera: A Centennial Celebration” is now on display!",
        "hashtags": [
          "SFOperaCentennial",
          "SFOpera",
          "Opera#SFHistory"
        ],
        "users": [
          "SFOpera"
        ]
      },
      "media_id": "361a9f5ac70e181b210c23372a759b92a9ce1dce",
      "path": "media/posts/202211/316412430_548276803975920_1188900207827022916_n_18206624962207749.jpg",
      "perceptual_hash": "p:ee3b593586689568",
      "taken": 1669019160,
      "taken_at": "Nov 21, 2022 8:26 am"
    },
    "millsfield:similar": {
      "google/siglip2-so400m-patch16-naflex": [
        {
          "distance": 0.27077341079711914,
          "id": 1880151371
        },
        {
          "distance": 0.3146408796310425,
          "id": 1880151371
        },
        {
          "distance": 0.317099928855896,
          "id": 1947425263
        },
        {
          "distance": 0.32854366302490234,
          "id": 1880151059
        },
        {
          "distance": 0.33348900079727173,
          "id": 1880151157
        },
        {
          "distance": 0.33865219354629517,
          "id": 1947425243
        },
        {
          "distance": 0.3441178798675537,
          "id": 1880151155
        },
        {
          "distance": 0.3457990884780884,
          "id": 1947425303
        },
        {
          "distance": 0.34748637676239014,
          "id": 1880151257
        },
        {
          "distance": 0.34919965267181396,
          "id": 1880151099
        }
      ]
    },
    "sfomuseum:placetype": "instagram",
    "src:geom": "sfomuseum",
    "wof:belongsto": [
      1159160869,
      102527513,
      102191575,
      85633793,
      102087579,
      85922583,
      85688637
    ],
    "wof:country": "US",
    "wof:created": 1669019160,
    "wof:geomhash": "b6e33f47475d56bc8da457bc31afadc8",
    "wof:hierarchy": [
      {
        "building_id": 1159160869,
        "campus_id": 102527513,
        "continent_id": 102191575,
        "country_id": 85633793,
        "county_id": 102087579,
        "custom_id": 1880151319,
        "instagram_id": 1880151319,
        "locality_id": 85922583,
        "neighbourhood_id": -1,
        "region_id": 85688637
      }
    ],
    "wof:id": 1880151319,
    "wof:lastmodified": 1787777662,
    "wof:name": "Our newest exhibition, “San Francisco Opera: A Centennial Celebration” is now on display!..",
    "wof:parent_id": 1159160869,
    "wof:placetype": "custom",
    "wof:placetype_alt": [
      "instagram"
    ],
    "wof:repo": "sfomuseum-data-socialmedia-instagram",
    "wof:superseded_by": [],
    "wof:supersedes": []
  },
  "bbox": [
    -122.386166,
    37.616356,
    -122.386166,
    37.616356
  ],
  "geometry": {"type":"Point","coordinates":[-122.386166,37.616356]}
}
