{
  "id": 1729362705,
  "type": "Feature",
  "properties": {
    "date:cessation_lower": "2013-05-10",
    "date:cessation_upper": "2013-05-10",
    "date:inception_lower": "2013-05-10",
    "date:inception_upper": "2013-05-10",
    "edtf:cessation": "2013-05-10T06:25:00-07:00",
    "edtf:inception": "2013-05-10T06:25:00-07:00",
    "geom:area": 0,
    "geom:bbox": "-122.386166,37.616356,-122.386166,37.616356",
    "geom:latitude": 37.616356,
    "geom:longitude": -122.386166,
    "instagram:post": {
      "caption": {
        "body": "",
        "excerpt": "",
        "hashtags": [
          "Lufthansa",
          "A380"
        ],
        "users": []
      },
      "media_id": "19a0f7aad4aac5de52f343bec95200fe",
      "path": "media/other/11263461_871477152918434_79339764_n_17842321291062499.jpg",
      "perceptual_hash": "p:b4134f2c58e33d6c",
      "taken": 1368192300,
      "taken_at": "May 10, 2013 1:25 pm"
    },
    "millsfield:similar": {
      "google/siglip2-so400m-patch16-naflex": [
        {
          "distance": 0.1916847825050354,
          "id": 1729362889
        },
        {
          "distance": 0.21820348501205444,
          "id": 1729362307
        },
        {
          "distance": 0.24655771255493164,
          "id": 1729362901
        },
        {
          "distance": 0.25212228298187256,
          "id": 1729362711
        },
        {
          "distance": 0.2528027892112732,
          "id": 1729362889
        },
        {
          "distance": 0.26341331005096436,
          "id": 1729362901
        },
        {
          "distance": 0.26504790782928467,
          "id": 1729362307
        },
        {
          "distance": 0.2651010751724243,
          "id": 1729362487
        },
        {
          "distance": 0.2737312316894531,
          "id": 1729362715
        },
        {
          "distance": 0.2755613327026367,
          "id": 1729362711
        }
      ]
    },
    "sfomuseum:placetype": "instagram",
    "src:geom": "sfomuseum",
    "wof:belongsto": [
      1159160869,
      102527513,
      102191575,
      85633793,
      102087579,
      85922583,
      85688637
    ],
    "wof:country": "US",
    "wof:created": 1368192300,
    "wof:geomhash": "b6e33f47475d56bc8da457bc31afadc8",
    "wof:hierarchy": [
      {
        "building_id": 1159160869,
        "campus_id": 102527513,
        "continent_id": 102191575,
        "country_id": 85633793,
        "county_id": 102087579,
        "custom_id": 1729362705,
        "instagram_id": 1729362705,
        "locality_id": 85922583,
        "neighbourhood_id": -1,
        "region_id": 85688637
      }
    ],
    "wof:id": 1729362705,
    "wof:lastmodified": 1787777647,
    "wof:name": "..",
    "wof:parent_id": 1159160869,
    "wof:placetype": "custom",
    "wof:placetype_alt": [
      "instagram"
    ],
    "wof:repo": "sfomuseum-data-socialmedia-instagram",
    "wof:superseded_by": [],
    "wof:supersedes": []
  },
  "bbox": [
    -122.386166,
    37.616356,
    -122.386166,
    37.616356
  ],
  "geometry": {"type":"Point","coordinates":[-122.386166,37.616356]}
}
