{
  "id": 1729358763,
  "type": "Feature",
  "properties": {
    "date:cessation_lower": "2017-12-29",
    "date:cessation_upper": "2017-12-29",
    "date:inception_lower": "2017-12-29",
    "date:inception_upper": "2017-12-29",
    "edtf:cessation": "2017-12-29T04:09:00-08:00",
    "edtf:inception": "2017-12-29T04:09:00-08:00",
    "geom:area": 0,
    "geom:bbox": "-122.386166,37.616356,-122.386166,37.616356",
    "geom:latitude": 37.616356,
    "geom:longitude": -122.386166,
    "instagram:post": {
      "caption": {
        "body": "For more than ninety years, United Airlines personnel have filled the dozens of positions needed to sustain the operations of a global organization. Pilots are outfitted with military style, two-piece suit uniforms and hats. Cuff ranks can designate captains, first officers, and other members of the flight crew. The hat badges and the wings worn on the jacket and shirt complete the outfit. Over the decades, insignia styles have evolved as aircraft and service modernized. The color and finish of United’s hat badges and wings have also changed over the years, but these insignia sets have always retained their classic aeronautical bearings.  See \"Flying the Main Line: A History of United Airlines\", on display, post-security, in Terminal 3. http://bit.ly/TheMainLine  Image: United Air Lines, Douglas DC-8, San Francisco International Airport (SFO), 1962. Gift of Walton F. Kemmerle. 2011.155.007",
        "excerpt": "For more than ninety years, United Airlines personnel have filled the dozens of positions needed to sustain the operations of a global organization.",
        "hashtags": [
          "FlyingTheMainLine",
          "TheMainLine",
          "avgeek",
          "united",
          "aviationhistory",
          "unitedairlines",
          "aviationgeek",
          "aviation",
          "pilot",
          "uniform",
          "crewlife",
          "hatbadges",
          "insignia"
        ],
        "users": []
      },
      "media_id": "a7fec590b8d8ed0cae514d03095798f0",
      "path": "media/other/25023141_183043658950363_5056993879853629440_n_17916445726003041.jpg",
      "perceptual_hash": "p:b4d0999da8726bcc",
      "taken": 1514549340,
      "taken_at": "Dec 29, 2017 12:09 pm"
    },
    "millsfield:similar": {
      "google/siglip2-so400m-patch16-naflex": [
        {
          "distance": 0.15104645490646362,
          "id": 1729358963
        },
        {
          "distance": 0.15482312440872192,
          "id": 1763559149
        },
        {
          "distance": 0.16035711765289307,
          "id": 1729361085
        },
        {
          "distance": 0.16153836250305176,
          "id": 1729356177
        },
        {
          "distance": 0.17311865091323853,
          "id": 1729357481
        },
        {
          "distance": 0.17942088842391968,
          "id": 1763559149
        },
        {
          "distance": 0.18206900358200073,
          "id": 1729356217
        },
        {
          "distance": 0.18335020542144775,
          "id": 1729361465
        },
        {
          "distance": 0.18409109115600586,
          "id": 1729359771
        },
        {
          "distance": 0.18583369255065918,
          "id": 1729356177
        }
      ]
    },
    "sfomuseum:placetype": "instagram",
    "src:geom": "sfomuseum",
    "wof:belongsto": [
      1159160869,
      102527513,
      102191575,
      85633793,
      102087579,
      85922583,
      85688637
    ],
    "wof:country": "US",
    "wof:created": 1514549340,
    "wof:geomhash": "b6e33f47475d56bc8da457bc31afadc8",
    "wof:hierarchy": [
      {
        "building_id": 1159160869,
        "campus_id": 102527513,
        "continent_id": 102191575,
        "country_id": 85633793,
        "county_id": 102087579,
        "custom_id": 1729358763,
        "instagram_id": 1729358763,
        "locality_id": 85922583,
        "neighbourhood_id": -1,
        "region_id": 85688637
      }
    ],
    "wof:id": 1729358763,
    "wof:lastmodified": 1787777634,
    "wof:name": "For more than ninety years, United Airlines personnel have filled the dozens of positions needed to sustain the operations of a global organization...",
    "wof:parent_id": 1159160869,
    "wof:placetype": "custom",
    "wof:placetype_alt": [
      "instagram"
    ],
    "wof:repo": "sfomuseum-data-socialmedia-instagram",
    "wof:superseded_by": [],
    "wof:supersedes": []
  },
  "bbox": [
    -122.386166,
    37.616356,
    -122.386166,
    37.616356
  ],
  "geometry": {"type":"Point","coordinates":[-122.386166,37.616356]}
}
