{
  "id": 1729359537,
  "type": "Feature",
  "properties": {
    "date:cessation_lower": "2017-05-05",
    "date:cessation_upper": "2017-05-05",
    "date:inception_lower": "2017-05-05",
    "date:inception_upper": "2017-05-05",
    "edtf:cessation": "2017-05-05T04:41:00-07:00",
    "edtf:inception": "2017-05-05T04:41:00-07:00",
    "geom:area": 0,
    "geom:bbox": "-122.386166,37.616356,-122.386166,37.616356",
    "geom:latitude": 37.616356,
    "geom:longitude": -122.386166,
    "instagram:post": {
      "caption": {
        "body": "There's a lot to see in this photo from 1967! The shadow of the old Bayshore Highway cutting across the Airport, the Tanforan Racetrack site (destroyed by a fire a few years earlier), Candlestick Park, and sparsely developed Oyster Point, Brisbane, and Marin. What else do you see?  Image:  San Francisco International Airport (SFO), aerial, 1967. SFO Museum Collection. 2011.032.1538",
        "excerpt": "There's a lot to see in this photo from 1967!",
        "hashtags": [
          "SFOHistory",
          "aviationhistory",
          "avgeek",
          "SFOat90",
          "SFHistory\n#notadrone",
          "aerialphotography"
        ],
        "users": []
      },
      "media_id": "0e95618ab0b6cd4a4d8e458f306c22c0",
      "path": "media/posts/201705/18251580_1404245499633870_3723485785182175232_n_17868176530110687.jpg",
      "perceptual_hash": "p:80ab90c7f45b7c5a",
      "taken": 1493984460,
      "taken_at": "May 05, 2017 11:41 am"
    },
    "millsfield:similar": {
      "google/siglip2-so400m-patch16-naflex": [
        {
          "distance": 0.06854575872421265,
          "id": 1880151041
        },
        {
          "distance": 0.12617748975753784,
          "id": 1729356131
        },
        {
          "distance": 0.1331135630607605,
          "id": 1763559173
        },
        {
          "distance": 0.13760721683502197,
          "id": 1880150909
        },
        {
          "distance": 0.15990197658538818,
          "id": 1880151041
        },
        {
          "distance": 0.17075103521347046,
          "id": 1763559173
        },
        {
          "distance": 0.1709839105606079,
          "id": 1729358135
        },
        {
          "distance": 0.17171376943588257,
          "id": 1729361317
        },
        {
          "distance": 0.17208117246627808,
          "id": 1729360235
        },
        {
          "distance": 0.1743602156639099,
          "id": 1729360929
        }
      ]
    },
    "sfomuseum:placetype": "instagram",
    "src:geom": "sfomuseum",
    "wof:belongsto": [
      1159160869,
      102527513,
      102191575,
      85633793,
      102087579,
      85922583,
      85688637
    ],
    "wof:country": "US",
    "wof:created": 1493984460,
    "wof:geomhash": "b6e33f47475d56bc8da457bc31afadc8",
    "wof:hierarchy": [
      {
        "building_id": 1159160869,
        "campus_id": 102527513,
        "continent_id": 102191575,
        "country_id": 85633793,
        "county_id": 102087579,
        "custom_id": 1729359537,
        "instagram_id": 1729359537,
        "locality_id": 85922583,
        "neighbourhood_id": -1,
        "region_id": 85688637
      }
    ],
    "wof:id": 1729359537,
    "wof:lastmodified": 1787777636,
    "wof:name": "There's a lot to see in this photo from 1967!..",
    "wof:parent_id": 1159160869,
    "wof:placetype": "custom",
    "wof:placetype_alt": [
      "instagram"
    ],
    "wof:repo": "sfomuseum-data-socialmedia-instagram",
    "wof:superseded_by": [],
    "wof:supersedes": []
  },
  "bbox": [
    -122.386166,
    37.616356,
    -122.386166,
    37.616356
  ],
  "geometry": {"type":"Point","coordinates":[-122.386166,37.616356]}
}
