{
  "id": 1729358979,
  "type": "Feature",
  "properties": {
    "date:cessation_lower": "2017-10-23",
    "date:cessation_upper": "2017-10-23",
    "date:inception_lower": "2017-10-23",
    "date:inception_upper": "2017-10-23",
    "edtf:cessation": "2017-10-23T11:14:00-07:00",
    "edtf:inception": "2017-10-23T11:14:00-07:00",
    "geom:area": 0,
    "geom:bbox": "-122.386166,37.616356,-122.386166,37.616356",
    "geom:latitude": 37.616356,
    "geom:longitude": -122.386166,
    "instagram:post": {
      "caption": {
        "body": "Will you be joining us this Saturday for our event in conjunction with the current exhibition, Aviation Evolutions: The Jim Lund 1:72 Scale Model Airplane Collection? This free lecture and tour will be held from 10:30am to 3:00pm in the Aviation Museum and Library located pre-security, in the International Terminal. For more information, check out our website: http://bit.ly/2zur8y3",
        "excerpt": "Will you be joining us this Saturday for our event in conjunction with the current exhibition, Aviation Evolutions: The Jim Lund 1:72 Scale Model Airplane Collection?",
        "hashtags": [
          "jimlund",
          "avgeek",
          "avationgeek",
          "aviation",
          "aviationhistory",
          "aviationlovers",
          "vintageaviation",
          "history",
          "avhistory",
          "aviationgeeks",
          "instaplane",
          "flying",
          "modelplane",
          "flight",
          "airline",
          "avgeeks",
          "aviation4u",
          "aviationdaily",
          "modelaircraft",
          "airplane",
          "aircraft",
          "AviationEvolutions"
        ],
        "users": []
      },
      "media_id": "7d7ca65bf34eb815689a1dbb4692c5f6",
      "path": "media/posts/201710/22794567_138774836850215_8612670482417713152_n_17899358509070326.jpg",
      "perceptual_hash": "p:cda11e436d96b24d",
      "taken": 1508782440,
      "taken_at": "Oct 23, 2017 6:14 pm"
    },
    "millsfield:similar": {
      "google/siglip2-so400m-patch16-naflex": [
        {
          "distance": 0.12773191928863525,
          "id": 1729358911
        },
        {
          "distance": 0.1660253405570984,
          "id": 1729358911
        },
        {
          "distance": 0.17075568437576294,
          "id": 1763558881
        },
        {
          "distance": 0.17580413818359375,
          "id": 1729357039
        },
        {
          "distance": 0.1768316626548767,
          "id": 1729357755
        },
        {
          "distance": 0.1771875023841858,
          "id": 1729358363
        },
        {
          "distance": 0.19006741046905518,
          "id": 1729357039
        },
        {
          "distance": 0.1970556378364563,
          "id": 1763558881
        },
        {
          "distance": 0.20169728994369507,
          "id": 1729357073
        },
        {
          "distance": 0.20376348495483398,
          "id": 1729357755
        }
      ]
    },
    "sfomuseum:placetype": "instagram",
    "src:geom": "sfomuseum",
    "wof:belongsto": [
      1159160869,
      102527513,
      102191575,
      85633793,
      102087579,
      85922583,
      85688637
    ],
    "wof:country": "US",
    "wof:created": 1508782440,
    "wof:geomhash": "b6e33f47475d56bc8da457bc31afadc8",
    "wof:hierarchy": [
      {
        "building_id": 1159160869,
        "campus_id": 102527513,
        "continent_id": 102191575,
        "country_id": 85633793,
        "county_id": 102087579,
        "custom_id": 1729358979,
        "instagram_id": 1729358979,
        "locality_id": 85922583,
        "neighbourhood_id": -1,
        "region_id": 85688637
      }
    ],
    "wof:id": 1729358979,
    "wof:lastmodified": 1787777634,
    "wof:name": "Will you be joining us this Saturday for our event in conjunction with the current exhibition, Aviation Evolutions: The Jim Lund 1:72 Scale Model Airplane Collection?..",
    "wof:parent_id": 1159160869,
    "wof:placetype": "custom",
    "wof:placetype_alt": [
      "instagram"
    ],
    "wof:repo": "sfomuseum-data-socialmedia-instagram",
    "wof:superseded_by": [],
    "wof:supersedes": []
  },
  "bbox": [
    -122.386166,
    37.616356,
    -122.386166,
    37.616356
  ],
  "geometry": {"type":"Point","coordinates":[-122.386166,37.616356]}
}
