{
  "id": 1729360095,
  "type": "Feature",
  "properties": {
    "date:cessation_lower": "2016-11-25",
    "date:cessation_upper": "2016-11-25",
    "date:inception_lower": "2016-11-25",
    "date:inception_upper": "2016-11-25",
    "edtf:cessation": "2016-11-25T02:47:00-08:00",
    "edtf:inception": "2016-11-25T02:47:00-08:00",
    "geom:area": 0,
    "geom:bbox": "-122.386166,37.616356,-122.386166,37.616356",
    "geom:latitude": 37.616356,
    "geom:longitude": -122.386166,
    "instagram:post": {
      "caption": {
        "body": "The Aviation Museum and Library is closed today. All other exhibitions around the airport are open everyday, twenty-four hours a day. See what's currently on display: http://bit.ly/SFOMuseum",
        "excerpt": "The Aviation Museum and Library is closed today.",
        "hashtags": [],
        "users": []
      },
      "media_id": "0e3e7947affeb22960dfee8da3486ded",
      "path": "media/posts/201611/15099587_1243736718981181_20191182424375296_n_17866652923012148.jpg",
      "perceptual_hash": "p:cbd4112f4e4cf0f4",
      "taken": 1480070820,
      "taken_at": "Nov 25, 2016 10:47 am"
    },
    "millsfield:similar": {
      "google/siglip2-so400m-patch16-naflex": [
        {
          "distance": 0.12986397743225098,
          "id": 1947424999
        },
        {
          "distance": 0.16711550951004028,
          "id": 1880151305
        },
        {
          "distance": 0.17302316427230835,
          "id": 1729360667
        },
        {
          "distance": 0.1786419153213501,
          "id": 1947425291
        },
        {
          "distance": 0.18540984392166138,
          "id": 1729361145
        },
        {
          "distance": 0.1884041428565979,
          "id": 1729355249
        },
        {
          "distance": 0.19028204679489136,
          "id": 1729360823
        },
        {
          "distance": 0.19061541557312012,
          "id": 1763558835
        },
        {
          "distance": 0.1958962082862854,
          "id": 1729355059
        },
        {
          "distance": 0.201604425907135,
          "id": 1880151187
        }
      ]
    },
    "sfomuseum:placetype": "instagram",
    "src:geom": "sfomuseum",
    "wof:belongsto": [
      1159160869,
      102527513,
      102191575,
      85633793,
      102087579,
      85922583,
      85688637
    ],
    "wof:country": "US",
    "wof:created": 1480070820,
    "wof:geomhash": "b6e33f47475d56bc8da457bc31afadc8",
    "wof:hierarchy": [
      {
        "building_id": 1159160869,
        "campus_id": 102527513,
        "continent_id": 102191575,
        "country_id": 85633793,
        "county_id": 102087579,
        "custom_id": 1729360095,
        "instagram_id": 1729360095,
        "locality_id": 85922583,
        "neighbourhood_id": -1,
        "region_id": 85688637
      }
    ],
    "wof:id": 1729360095,
    "wof:lastmodified": 1787777639,
    "wof:name": "The Aviation Museum and Library is closed today...",
    "wof:parent_id": 1159160869,
    "wof:placetype": "custom",
    "wof:placetype_alt": [
      "instagram"
    ],
    "wof:repo": "sfomuseum-data-socialmedia-instagram",
    "wof:superseded_by": [],
    "wof:supersedes": []
  },
  "bbox": [
    -122.386166,
    37.616356,
    -122.386166,
    37.616356
  ],
  "geometry": {"type":"Point","coordinates":[-122.386166,37.616356]}
}
