{
  "id": 1729361339,
  "type": "Feature",
  "properties": {
    "date:cessation_lower": "2015-11-24",
    "date:cessation_upper": "2015-11-24",
    "date:inception_lower": "2015-11-24",
    "date:inception_upper": "2015-11-24",
    "edtf:cessation": "2015-11-24T12:24:00-08:00",
    "edtf:inception": "2015-11-24T12:24:00-08:00",
    "geom:area": 0,
    "geom:bbox": "-122.386166,37.616356,-122.386166,37.616356",
    "geom:latitude": 37.616356,
    "geom:longitude": -122.386166,
    "instagram:post": {
      "caption": {
        "body": "",
        "excerpt": "",
        "hashtags": [
          "airportart"
        ],
        "users": [
          "sfacgalleries."
        ]
      },
      "media_id": "b8d40a563acd59186af37c32b42d240c",
      "path": "media/other/12301159_1493951250906655_942262774_n_17847763429003084.jpg",
      "perceptual_hash": "p:9c0be611d1b4e37c",
      "taken": 1448396640,
      "taken_at": "Nov 24, 2015 8:24 pm"
    },
    "millsfield:similar": {
      "google/siglip2-so400m-patch16-naflex": [
        {
          "distance": 0.21451443433761597,
          "id": 1880150939
        },
        {
          "distance": 0.22440004348754883,
          "id": 1729355475
        },
        {
          "distance": 0.23257839679718018,
          "id": 1880151137
        },
        {
          "distance": 0.23301184177398682,
          "id": 1729357871
        },
        {
          "distance": 0.23758435249328613,
          "id": 1729362959
        },
        {
          "distance": 0.23935532569885254,
          "id": 1880151713
        },
        {
          "distance": 0.24272894859313965,
          "id": 1763559039
        },
        {
          "distance": 0.2524535059928894,
          "id": 1880151621
        },
        {
          "distance": 0.2532527446746826,
          "id": 1880151553
        },
        {
          "distance": 0.25382375717163086,
          "id": 1729356755
        }
      ]
    },
    "sfomuseum:placetype": "instagram",
    "src:geom": "sfomuseum",
    "wof:belongsto": [
      1159160869,
      102527513,
      102191575,
      85633793,
      102087579,
      85922583,
      85688637
    ],
    "wof:country": "US",
    "wof:created": 1448396640,
    "wof:geomhash": "b6e33f47475d56bc8da457bc31afadc8",
    "wof:hierarchy": [
      {
        "building_id": 1159160869,
        "campus_id": 102527513,
        "continent_id": 102191575,
        "country_id": 85633793,
        "county_id": 102087579,
        "custom_id": 1729361339,
        "instagram_id": 1729361339,
        "locality_id": 85922583,
        "neighbourhood_id": -1,
        "region_id": 85688637
      }
    ],
    "wof:id": 1729361339,
    "wof:lastmodified": 1787777645,
    "wof:name": "..",
    "wof:parent_id": 1159160869,
    "wof:placetype": "custom",
    "wof:placetype_alt": [
      "instagram"
    ],
    "wof:repo": "sfomuseum-data-socialmedia-instagram",
    "wof:superseded_by": [],
    "wof:supersedes": []
  },
  "bbox": [
    -122.386166,
    37.616356,
    -122.386166,
    37.616356
  ],
  "geometry": {"type":"Point","coordinates":[-122.386166,37.616356]}
}
