{
  "id": 1729362407,
  "type": "Feature",
  "properties": {
    "date:cessation_lower": "2014-02-11",
    "date:cessation_upper": "2014-02-11",
    "date:inception_lower": "2014-02-11",
    "date:inception_upper": "2014-02-11",
    "edtf:cessation": "2014-02-11T08:07:00-08:00",
    "edtf:inception": "2014-02-11T08:07:00-08:00",
    "geom:area": 0,
    "geom:bbox": "-122.386166,37.616356,-122.386166,37.616356",
    "geom:latitude": 37.616356,
    "geom:longitude": -122.386166,
    "instagram:post": {
      "caption": {
        "body": "",
        "excerpt": "",
        "hashtags": [
          "JapaneseToys",
          "yokai",
          "eek"
        ],
        "users": []
      },
      "media_id": "59bc1bf2d79af0d6429dab51c93ae8c2",
      "path": "media/other/1740486_752479711430953_661925814_n_17842400437062499.jpg",
      "perceptual_hash": "p:d0b036cf6b234b74",
      "taken": 1392134820,
      "taken_at": "Feb 11, 2014 4:07 pm"
    },
    "millsfield:similar": {
      "google/siglip2-so400m-patch16-naflex": [
        {
          "distance": 0.22003275156021118,
          "id": 1729362333
        },
        {
          "distance": 0.22211617231369019,
          "id": 1729362449
        },
        {
          "distance": 0.24036401510238647,
          "id": 1729362355
        },
        {
          "distance": 0.24871593713760376,
          "id": 1729361909
        },
        {
          "distance": 0.2582284212112427,
          "id": 1729362449
        },
        {
          "distance": 0.28568893671035767,
          "id": 1729362345
        },
        {
          "distance": 0.29199308156967163,
          "id": 1729362355
        },
        {
          "distance": 0.2966029644012451,
          "id": 1729361909
        },
        {
          "distance": 0.3096957206726074,
          "id": 1729362387
        },
        {
          "distance": 0.31369656324386597,
          "id": 1729362387
        }
      ]
    },
    "sfomuseum:placetype": "instagram",
    "src:geom": "sfomuseum",
    "wof:belongsto": [
      1159160869,
      102527513,
      102191575,
      85633793,
      102087579,
      85922583,
      85688637
    ],
    "wof:country": "US",
    "wof:created": 1392134820,
    "wof:geomhash": "b6e33f47475d56bc8da457bc31afadc8",
    "wof:hierarchy": [
      {
        "building_id": 1159160869,
        "campus_id": 102527513,
        "continent_id": 102191575,
        "country_id": 85633793,
        "county_id": 102087579,
        "custom_id": 1729362407,
        "instagram_id": 1729362407,
        "locality_id": 85922583,
        "neighbourhood_id": -1,
        "region_id": 85688637
      }
    ],
    "wof:id": 1729362407,
    "wof:lastmodified": 1787777647,
    "wof:name": "..",
    "wof:parent_id": 1159160869,
    "wof:placetype": "custom",
    "wof:placetype_alt": [
      "instagram"
    ],
    "wof:repo": "sfomuseum-data-socialmedia-instagram",
    "wof:superseded_by": [],
    "wof:supersedes": []
  },
  "bbox": [
    -122.386166,
    37.616356,
    -122.386166,
    37.616356
  ],
  "geometry": {"type":"Point","coordinates":[-122.386166,37.616356]}
}
