{
  "id": 1947425201,
  "type": "Feature",
  "properties": {
    "date:cessation_lower": "2023-12-01",
    "date:cessation_upper": "2023-12-01",
    "date:inception_lower": "2023-12-01",
    "date:inception_upper": "2023-12-01",
    "edtf:cessation": "2023-12-01T09:12:00-08:00",
    "edtf:inception": "2023-12-01T09:12:00-08:00",
    "geom:area": 0,
    "geom:bbox": "-122.386166,37.616356,-122.386166,37.616356",
    "geom:latitude": 37.616356,
    "geom:longitude": -122.386166,
    "instagram:post": {
      "caption": {
        "body": "The Concorde was the first and only successful supersonic airliner to sustain regularly scheduled service. Developed as a joint endeavor between the governments of Great Britain and France, and the aerospace companies British Aircraft Corporation and Aerospatiale, the project encountered numerous delays due to the technical difficulty of flying at supersonic speeds. Designed by French engineer Pierre Satre (1909–80) and British engineer Sir Archibald Russell (1904–95), the aircraft featured a highly-swept delta wing and was one of only a few commercial aircraft to employ a design without a horizontal stabilizer on the tail. The Concorde was also one of the first airliners to have a fly-by-wire flight control system— manual flight controls replaced with an electronic interface and computer. The fuselage needed to withstand temperatures exceeding 260°F from the air friction produced at Mach 2 speeds, which caused the airframe to expand by nearly one foot.  See “Supersonic Transport: The First Generation” on display, pre-security, in the Aviation Museum and Library and online at: https://bit.ly/SSTFirstGeneration  #sstfirstgeneration   advertisements: Air France, Airbus; 1980s Gift of Thomas G. Dragges 2015.165.613  postcard: BAC Aerospatiale, Concorde;  Gift of Henk Harkema 2023.009.095",
        "excerpt": "The Concorde was the first and only successful supersonic airliner to sustain regularly scheduled service.",
        "hashtags": [],
        "users": []
      },
      "media_id": "5ff180919d36a90964d9b38b7e70b555d0d5c691",
      "path": "media/posts/202312/405363786_822030309933900_2732498115571215264_n_18311109658187358.jpg",
      "perceptual_hash": "p:a7c1389d6723dc68",
      "taken": 1701450720,
      "taken_at": "Dec 01, 2023 5:12 pm"
    },
    "millsfield:similar": {
      "google/siglip2-so400m-patch16-naflex": [
        {
          "distance": 0.1321420669555664,
          "id": 1880151179
        },
        {
          "distance": 0.1753280758857727,
          "id": 1880151049
        },
        {
          "distance": 0.17658233642578125,
          "id": 1947425187
        },
        {
          "distance": 0.18536722660064697,
          "id": 1729360547
        },
        {
          "distance": 0.18909364938735962,
          "id": 1880151175
        },
        {
          "distance": 0.1970897912979126,
          "id": 1880151179
        },
        {
          "distance": 0.2011515498161316,
          "id": 1880150965
        },
        {
          "distance": 0.20167577266693115,
          "id": 1880150963
        },
        {
          "distance": 0.21232134103775024,
          "id": 1880151121
        },
        {
          "distance": 0.2154809832572937,
          "id": 1880151685
        }
      ]
    },
    "sfomuseum:placetype": "instagram",
    "src:geom": "sfomuseum",
    "wof:belongsto": [
      1159160869,
      102527513,
      102191575,
      85633793,
      102087579,
      85922583,
      85688637
    ],
    "wof:country": "US",
    "wof:created": 1701450720,
    "wof:geomhash": "b6e33f47475d56bc8da457bc31afadc8",
    "wof:hierarchy": [
      {
        "building_id": 1159160869,
        "campus_id": 102527513,
        "continent_id": 102191575,
        "country_id": 85633793,
        "county_id": 102087579,
        "custom_id": 1947425201,
        "locality_id": 85922583,
        "neighbourhood_id": -1,
        "region_id": 85688637
      }
    ],
    "wof:id": 1947425201,
    "wof:lastmodified": 1787777664,
    "wof:name": "The Concorde was the first and only successful supersonic airliner to sustain regularly scheduled service...",
    "wof:parent_id": 1159160869,
    "wof:placetype": "custom",
    "wof:repo": "sfomuseum-data-socialmedia-instagram",
    "wof:superseded_by": [],
    "wof:supersedes": []
  },
  "bbox": [
    -122.386166,
    37.616356,
    -122.386166,
    37.616356
  ],
  "geometry": {"type":"Point","coordinates":[-122.386166,37.616356]}
}
