{
  "id": 1729357287,
  "type": "Feature",
  "properties": {
    "date:cessation_lower": "2018-12-03",
    "date:cessation_upper": "2018-12-03",
    "date:inception_lower": "2018-12-03",
    "date:inception_upper": "2018-12-03",
    "edtf:cessation": "2018-12-03T09:56:29-08:00",
    "edtf:inception": "2018-12-03T09:56:29-08:00",
    "geom:area": 0,
    "geom:bbox": "-122.386166,37.616356,-122.386166,37.616356",
    "geom:latitude": 37.616356,
    "geom:longitude": -122.386166,
    "instagram:post": {
      "caption": {
        "body": "NEW BLOG POST: Dear Eric, Mr. Staller, Your Emperor of Creative Genius.  We recently received this letter from the parents of a delighted young traveler, and share it with their permission. Read more on our blog:  http://bit.ly/2BJNsqB",
        "excerpt": "NEW BLOG POST: Dear Eric, Mr. Staller, Your Emperor of Creative Genius.",
        "hashtags": [],
        "users": []
      },
      "location": "San Francisco International Airport (SFO)",
      "media_id": "bb5094b3142ac5870b113e01498b6b97",
      "path": "photos/201812/bb5094b3142ac5870b113e01498b6b97.jpg",
      "perceptual_hash": "p:b435976a3287f20b",
      "taken": 1543830960,
      "taken_at": "Dec 3, 2018, 9:56 AM"
    },
    "millsfield:similar": {
      "google/siglip2-so400m-patch16-naflex": [
        {
          "distance": 0.01591205596923828,
          "id": 1763558783
        },
        {
          "distance": 0.09232300519943237,
          "id": 1763558783
        },
        {
          "distance": 0.3367561101913452,
          "id": 1947425167
        },
        {
          "distance": 0.33944475650787354,
          "id": 1763559685
        },
        {
          "distance": 0.34667110443115234,
          "id": 1729355705
        },
        {
          "distance": 0.35441601276397705,
          "id": 1729357715
        },
        {
          "distance": 0.3582632541656494,
          "id": 1947424987
        },
        {
          "distance": 0.3590307831764221,
          "id": 1729357715
        },
        {
          "distance": 0.3623567819595337,
          "id": 1729355785
        },
        {
          "distance": 0.3633894920349121,
          "id": 1947424919
        }
      ]
    },
    "sfomuseum:placetype": "instagram",
    "src:geom": "sfomuseum",
    "wof:belongsto": [
      1159160869,
      102527513,
      102191575,
      85633793,
      102087579,
      85922583,
      85688637
    ],
    "wof:country": "US",
    "wof:created": 1543859789,
    "wof:geomhash": "b6e33f47475d56bc8da457bc31afadc8",
    "wof:hierarchy": [
      {
        "building_id": 1159160869,
        "campus_id": 102527513,
        "continent_id": 102191575,
        "country_id": 85633793,
        "county_id": 102087579,
        "custom_id": 1729357287,
        "instagram_id": 1729357287,
        "locality_id": 85922583,
        "neighbourhood_id": -1,
        "region_id": 85688637
      }
    ],
    "wof:id": 1729357287,
    "wof:lastmodified": 1787777631,
    "wof:name": "NEW BLOG POST: Dear Eric, Mr. Staller, Your Emperor of Creative Genius...",
    "wof:parent_id": 1159160869,
    "wof:placetype": "custom",
    "wof:placetype_alt": [
      "instagram"
    ],
    "wof:repo": "sfomuseum-data-socialmedia-instagram",
    "wof:superseded_by": [],
    "wof:supersedes": []
  },
  "bbox": [
    -122.386166,
    37.616356,
    -122.386166,
    37.616356
  ],
  "geometry": {"type":"Point","coordinates":[-122.386166,37.616356]}
}
