{
  "id": 1729356961,
  "type": "Feature",
  "properties": {
    "date:cessation_lower": "2019-02-11",
    "date:cessation_upper": "2019-02-11",
    "date:inception_lower": "2019-02-11",
    "date:inception_upper": "2019-02-11",
    "edtf:cessation": "2019-02-11T02:44:00-08:00",
    "edtf:inception": "2019-02-11T02:44:00-08:00",
    "geom:area": 0,
    "geom:bbox": "-122.386166,37.616356,-122.386166,37.616356",
    "geom:latitude": 37.616356,
    "geom:longitude": -122.386166,
    "instagram:post": {
      "caption": {
        "body": "Don't have a cat to keep you up at night? This late 18th-early 19th century cat night light with its wide eyes can help!  A very special thank you to Sandy Lerner for making this exhibition possible. See \"Caticons: The Cat in Art\" is on display, pre-security, in the International Terminal. http://bit.ly/Caticons",
        "excerpt": "Don't have a cat to keep you up at night?",
        "hashtags": [
          "caticons",
          "catsofinstagram",
          "cats",
          "mewseum",
          "caticon",
          "cat",
          "ceramics",
          "nightlight"
        ],
        "users": []
      },
      "media_id": "9501f556a5c980a8af7344ed9a059f5b",
      "path": "media/other/50887394_408524069952965_7586088553089383573_n_18033192736038346.jpg",
      "perceptual_hash": "p:fac5847ac93e8649",
      "taken": 1549881840,
      "taken_at": "Feb 11, 2019 10:44 am"
    },
    "millsfield:similar": {
      "google/siglip2-so400m-patch16-naflex": [
        {
          "distance": 0.06376975774765015,
          "id": 1729357617
        },
        {
          "distance": 0.08015131950378418,
          "id": 1729357617
        },
        {
          "distance": 0.21774250268936157,
          "id": 1729357507
        },
        {
          "distance": 0.22746700048446655,
          "id": 1729357067
        },
        {
          "distance": 0.2288873791694641,
          "id": 1729357505
        },
        {
          "distance": 0.22971826791763306,
          "id": 1729357719
        },
        {
          "distance": 0.23024475574493408,
          "id": 1729358591
        },
        {
          "distance": 0.2394753098487854,
          "id": 1729356935
        },
        {
          "distance": 0.24184787273406982,
          "id": 1729358445
        },
        {
          "distance": 0.25093430280685425,
          "id": 1729358399
        }
      ]
    },
    "sfomuseum:placetype": "instagram",
    "src:geom": "sfomuseum",
    "wof:belongsto": [
      1159160869,
      102527513,
      102191575,
      85633793,
      102087579,
      85922583,
      85688637
    ],
    "wof:country": "US",
    "wof:created": 1549881840,
    "wof:geomhash": "b6e33f47475d56bc8da457bc31afadc8",
    "wof:hierarchy": [
      {
        "building_id": 1159160869,
        "campus_id": 102527513,
        "continent_id": 102191575,
        "country_id": 85633793,
        "county_id": 102087579,
        "custom_id": 1729356961,
        "instagram_id": 1729356961,
        "locality_id": 85922583,
        "neighbourhood_id": -1,
        "region_id": 85688637
      }
    ],
    "wof:id": 1729356961,
    "wof:lastmodified": 1787777629,
    "wof:name": "Don't have a cat to keep you up at night?..",
    "wof:parent_id": 1159160869,
    "wof:placetype": "custom",
    "wof:placetype_alt": [
      "instagram"
    ],
    "wof:repo": "sfomuseum-data-socialmedia-instagram",
    "wof:superseded_by": [],
    "wof:supersedes": []
  },
  "bbox": [
    -122.386166,
    37.616356,
    -122.386166,
    37.616356
  ],
  "geometry": {"type":"Point","coordinates":[-122.386166,37.616356]}
}
