{
  "id": 1763559115,
  "type": "Feature",
  "properties": {
    "date:cessation_lower": "2021-06-08",
    "date:cessation_upper": "2021-06-08",
    "date:inception_lower": "2021-06-08",
    "date:inception_upper": "2021-06-08",
    "edtf:cessation": "2021-06-08T09:13:00-07:00",
    "edtf:inception": "2021-06-08T09:13:00-07:00",
    "geom:area": 0,
    "geom:bbox": "-122.386166,37.616356,-122.386166,37.616356",
    "geom:latitude": 37.616356,
    "geom:longitude": -122.386166,
    "instagram:post": {
      "caption": {
        "body": "Beyond the view of the passenger hall of the 1937 Administration Building, were a restaurant, beverage room, and kitchen. The first successful restaurant in this building was started by David Rasmussen shortly after the Administration Building opened. As described in \"Men, Money and Mud\" a history of San Francisco International Airport written in 1954, Rasmussen \"arrived literally equipped with a bucket of 'spuds,' a pairing knife, a pound of hamburger, a pound of coffee, a set of dishes, and one match to light the stove. 'If the match had gone out,' he was to recall years later, 'I would have been out of business. I didn't have enough money to buy another.'\"",
        "excerpt": "Beyond the view of the passenger hall of the 1937 Administration Building, were a restaurant, beverage room, and kitchen.",
        "hashtags": [
          "SFOHistory",
          "airport",
          "1930s",
          "architecturaldrawing"
        ],
        "users": []
      },
      "media_id": "340e568ee8fbdf62cfebc32978e6e60c137bbef8",
      "path": "media/posts/202106/198366796_220022753093285_7958419818756362799_n_17901040589007692.jpg",
      "perceptual_hash": "p:d2fb24561d05a78b",
      "taken": 1623168780,
      "taken_at": "Jun 08, 2021 4:13 pm"
    },
    "millsfield:similar": {
      "google/siglip2-so400m-patch16-naflex": [
        {
          "distance": 0.351245641708374,
          "id": 1729360587
        },
        {
          "distance": 0.3516883850097656,
          "id": 1729361113
        },
        {
          "distance": 0.36104363203048706,
          "id": 1729357905
        },
        {
          "distance": 0.3693200349807739,
          "id": 1729359845
        },
        {
          "distance": 0.3699110746383667,
          "id": 1729359515
        },
        {
          "distance": 0.3728944659233093,
          "id": 1729357513
        },
        {
          "distance": 0.3738429546356201,
          "id": 1763559233
        },
        {
          "distance": 0.3790856599807739,
          "id": 1729359587
        },
        {
          "distance": 0.380670428276062,
          "id": 1729355797
        },
        {
          "distance": 0.38186097145080566,
          "id": 1763559233
        }
      ]
    },
    "sfomuseum:placetype": "instagram",
    "src:geom": "sfomuseum",
    "wof:belongsto": [
      1159160869,
      102527513,
      102191575,
      85633793,
      102087579,
      85922583,
      85688637
    ],
    "wof:country": "US",
    "wof:created": 1623168780,
    "wof:geomhash": "b6e33f47475d56bc8da457bc31afadc8",
    "wof:hierarchy": [
      {
        "building_id": 1159160869,
        "campus_id": 102527513,
        "continent_id": 102191575,
        "country_id": 85633793,
        "county_id": 102087579,
        "custom_id": 1763559115,
        "instagram_id": 1763559115,
        "locality_id": 85922583,
        "neighbourhood_id": -1,
        "region_id": 85688637
      }
    ],
    "wof:id": 1763559115,
    "wof:lastmodified": 1787777660,
    "wof:name": "Beyond the view of the passenger hall of the 1937 Administration Building, were a restaurant, beverage room, and kitchen...",
    "wof:parent_id": 1159160869,
    "wof:placetype": "custom",
    "wof:placetype_alt": [
      "instagram"
    ],
    "wof:repo": "sfomuseum-data-socialmedia-instagram",
    "wof:superseded_by": [],
    "wof:supersedes": []
  },
  "bbox": [
    -122.386166,
    37.616356,
    -122.386166,
    37.616356
  ],
  "geometry": {"type":"Point","coordinates":[-122.386166,37.616356]}
}
