{
  "id": 1729355853,
  "type": "Feature",
  "properties": {
    "date:cessation_lower": "2019-11-26",
    "date:cessation_upper": "2019-11-26",
    "date:inception_lower": "2019-11-26",
    "date:inception_upper": "2019-11-26",
    "edtf:cessation": "2019-11-26T10:55:57-08:00",
    "edtf:inception": "2019-11-26T10:55:57-08:00",
    "geom:area": 0,
    "geom:bbox": "-122.386166,37.616356,-122.386166,37.616356",
    "geom:latitude": 37.616356,
    "geom:longitude": -122.386166,
    "instagram:post": {
      "caption": {
        "body": "The pedestal displayed here exhibits both veneering and marquetry. A veneer consists of a very fine sheet of wood applied to the surface of furniture. During the Victorian Era, mechanization made it easier to slice valuable woods into thin sheets. Typically, costlier woods such as mahogany or walnut were applied to inferior woods. Wood veneers were also selected for their interesting grain patterns. Marquetry entails cutting wood veneers, in various colors and grain patterns, into decorative designs and adhering them to a piece of furniture or decorative art object. Materials such as mother-of-pearl, ivory, tortoise shell, and fine metals might also be applied. Marquetry first reached a high level of sophistication in France in the seventeenth and eighteenth centuries through the work of royal cabinet maker André-Charles Boulle (1642–1732). “The Style of Display: Victorian Pedestals” is on display pre-security in the International Terminal. http://bit.ly/VictorianPedestals",
        "excerpt": "The pedestal displayed here exhibits both veneering and marquetry.",
        "hashtags": [
          "VictorianPedestals",
          "victorian",
          "pedestals",
          "victorianfurniture",
          "victoriana",
          "design",
          "decorativeart",
          "interiorstyle"
        ],
        "users": []
      },
      "location": "",
      "media_id": "e3987885de2c9326e5efb038693e4f89",
      "path": "photos/201911/e3987885de2c9326e5efb038693e4f89.jpg",
      "perceptual_hash": "p:b0586c933dd2cf4c",
      "taken": 1574765700,
      "taken_at": "Nov 26, 2019, 10:55 AM"
    },
    "millsfield:similar": {
      "google/siglip2-so400m-patch16-naflex": [
        {
          "distance": 0.006421923637390137,
          "id": 1729356361
        },
        {
          "distance": 0.09921872615814209,
          "id": 1729356361
        },
        {
          "distance": 0.10409069061279297,
          "id": 1729356343
        },
        {
          "distance": 0.14637446403503418,
          "id": 1729356353
        },
        {
          "distance": 0.15012913942337036,
          "id": 1729355855
        },
        {
          "distance": 0.1539396047592163,
          "id": 1729356343
        },
        {
          "distance": 0.19158631563186646,
          "id": 1729355835
        },
        {
          "distance": 0.1925750970840454,
          "id": 1729356465
        },
        {
          "distance": 0.19402581453323364,
          "id": 1729355835
        },
        {
          "distance": 0.19521015882492065,
          "id": 1729356469
        }
      ]
    },
    "sfomuseum:placetype": "instagram",
    "src:geom": "sfomuseum",
    "wof:belongsto": [
      1159160869,
      102527513,
      102191575,
      85633793,
      102087579,
      85922583,
      85688637
    ],
    "wof:country": "US",
    "wof:created": 1574794557,
    "wof:geomhash": "b6e33f47475d56bc8da457bc31afadc8",
    "wof:hierarchy": [
      {
        "building_id": 1159160869,
        "campus_id": 102527513,
        "continent_id": 102191575,
        "country_id": 85633793,
        "county_id": 102087579,
        "custom_id": 1729355853,
        "instagram_id": 1729355853,
        "locality_id": 85922583,
        "neighbourhood_id": -1,
        "region_id": 85688637
      }
    ],
    "wof:id": 1729355853,
    "wof:lastmodified": 1787777627,
    "wof:name": "The pedestal displayed here exhibits both veneering and marquetry...",
    "wof:parent_id": 1159160869,
    "wof:placetype": "custom",
    "wof:placetype_alt": [
      "instagram"
    ],
    "wof:repo": "sfomuseum-data-socialmedia-instagram",
    "wof:superseded_by": [],
    "wof:supersedes": []
  },
  "bbox": [
    -122.386166,
    37.616356,
    -122.386166,
    37.616356
  ],
  "geometry": {"type":"Point","coordinates":[-122.386166,37.616356]}
}
