{
  "id": 1729362899,
  "type": "Feature",
  "properties": {
    "date:cessation_lower": "2012-09-17",
    "date:cessation_upper": "2012-09-17",
    "date:inception_lower": "2012-09-17",
    "date:inception_upper": "2012-09-17",
    "edtf:cessation": "2012-09-17T05:37:00-07:00",
    "edtf:inception": "2012-09-17T05:37:00-07:00",
    "geom:area": 0,
    "geom:bbox": "-122.386166,37.616356,-122.386166,37.616356",
    "geom:latitude": 37.616356,
    "geom:longitude": -122.386166,
    "instagram:post": {
      "caption": {
        "body": "As technology for planes developed in the 1st half of the 20th century, so did that of protective clothing for pilots!",
        "excerpt": "As technology for planes developed in the 1st half of the 20th century, so did that of protective clothing for pilots!",
        "hashtags": [],
        "users": []
      },
      "media_id": "ae83cde8ea886d53e98ced374d523c2c",
      "path": "media/other/11190212_1430283043942087_1399596637_n_17842025227062499.jpg",
      "perceptual_hash": "p:96b31f027ed10a3d",
      "taken": 1347885420,
      "taken_at": "Sep 17, 2012 12:37 pm"
    },
    "millsfield:similar": {
      "google/siglip2-so400m-patch16-naflex": [
        {
          "distance": 0.2128298282623291,
          "id": 1729362919
        },
        {
          "distance": 0.24293309450149536,
          "id": 1729362833
        },
        {
          "distance": 0.26629918813705444,
          "id": 1729362919
        },
        {
          "distance": 0.27467405796051025,
          "id": 1729362795
        },
        {
          "distance": 0.2804807424545288,
          "id": 1729361847
        },
        {
          "distance": 0.28073322772979736,
          "id": 1729362527
        },
        {
          "distance": 0.2815828323364258,
          "id": 1729360681
        },
        {
          "distance": 0.2832633852958679,
          "id": 1729362605
        },
        {
          "distance": 0.2911207675933838,
          "id": 1729362709
        },
        {
          "distance": 0.2950877547264099,
          "id": 1729362833
        }
      ]
    },
    "sfomuseum:placetype": "instagram",
    "src:geom": "sfomuseum",
    "wof:belongsto": [
      1159160869,
      102527513,
      102191575,
      85633793,
      102087579,
      85922583,
      85688637
    ],
    "wof:country": "US",
    "wof:created": 1347885420,
    "wof:geomhash": "b6e33f47475d56bc8da457bc31afadc8",
    "wof:hierarchy": [
      {
        "building_id": 1159160869,
        "campus_id": 102527513,
        "continent_id": 102191575,
        "country_id": 85633793,
        "county_id": 102087579,
        "custom_id": 1729362899,
        "instagram_id": 1729362899,
        "locality_id": 85922583,
        "neighbourhood_id": -1,
        "region_id": 85688637
      }
    ],
    "wof:id": 1729362899,
    "wof:lastmodified": 1787777656,
    "wof:name": "As technology for planes developed in the 1st half of the 20th century, so did that of protective clothing for pilots!..",
    "wof:parent_id": 1159160869,
    "wof:placetype": "custom",
    "wof:placetype_alt": [
      "instagram"
    ],
    "wof:repo": "sfomuseum-data-socialmedia-instagram",
    "wof:superseded_by": [],
    "wof:supersedes": []
  },
  "bbox": [
    -122.386166,
    37.616356,
    -122.386166,
    37.616356
  ],
  "geometry": {"type":"Point","coordinates":[-122.386166,37.616356]}
}
