{
  "id": 1763559079,
  "type": "Feature",
  "properties": {
    "date:cessation_lower": "2021-06-29",
    "date:cessation_upper": "2021-06-29",
    "date:inception_lower": "2021-06-29",
    "date:inception_upper": "2021-06-29",
    "edtf:cessation": "2021-06-29T09:22:00-07:00",
    "edtf:inception": "2021-06-29T09:22:00-07:00",
    "geom:area": 0,
    "geom:bbox": "-122.386166,37.616356,-122.386166,37.616356",
    "geom:latitude": 37.616356,
    "geom:longitude": -122.386166,
    "instagram:post": {
      "caption": {
        "body": "Trans World Airlines (TWA) took a subtle approach to their 1968 summer uniform. Designed by Dalton Apparel, it featured a short-sleeve, ivory dress with a lime green, brown, and navy, plaid-patterned skirt and necktie. Three jackets in lime green, brown, or navy were paired with the dress, allowing for a mix-and-match styling, along with a matching vinyl belt.   \"Flight Patterns\" is on display in a brand new gallery located post-security in Harvey Milk Terminal 1, as well as online \u003c-- See link in bio.",
        "excerpt": "Trans World Airlines (TWA) took a subtle approach to their 1968 summer uniform.",
        "hashtags": [
          "FlightPatterns",
          "avgeek",
          "airline",
          "airlineuniform",
          "1960s",
          "fashion",
          "twa"
        ],
        "users": []
      },
      "media_id": "282e7fe6e85ddcfb37970fd84435d6490d9cf041",
      "path": "media/posts/202106/209327749_359619345783660_1597569657618312514_n_17905092916987003.jpg",
      "perceptual_hash": "p:96686cbd6d939292",
      "taken": 1624983720,
      "taken_at": "Jun 29, 2021 4:22 pm"
    },
    "millsfield:similar": {
      "google/siglip2-so400m-patch16-naflex": [
        {
          "distance": 0.024472534656524658,
          "id": 1763559113
        },
        {
          "distance": 0.11270958185195923,
          "id": 1729360205
        },
        {
          "distance": 0.11964064836502075,
          "id": 1763559113
        },
        {
          "distance": 0.1360756754875183,
          "id": 1729360135
        },
        {
          "distance": 0.16217386722564697,
          "id": 1763559049
        },
        {
          "distance": 0.16352659463882446,
          "id": 1729359183
        },
        {
          "distance": 0.1679617166519165,
          "id": 1729360205
        },
        {
          "distance": 0.17639732360839844,
          "id": 1729361467
        },
        {
          "distance": 0.1880706548690796,
          "id": 1947425237
        },
        {
          "distance": 0.18808895349502563,
          "id": 1947425209
        }
      ]
    },
    "sfomuseum:placetype": "instagram",
    "src:geom": "sfomuseum",
    "wof:belongsto": [
      1159160869,
      102527513,
      102191575,
      85633793,
      102087579,
      85922583,
      85688637
    ],
    "wof:country": "US",
    "wof:created": 1624983720,
    "wof:geomhash": "b6e33f47475d56bc8da457bc31afadc8",
    "wof:hierarchy": [
      {
        "building_id": 1159160869,
        "campus_id": 102527513,
        "continent_id": 102191575,
        "country_id": 85633793,
        "county_id": 102087579,
        "custom_id": 1763559079,
        "instagram_id": 1763559079,
        "locality_id": 85922583,
        "neighbourhood_id": -1,
        "region_id": 85688637
      }
    ],
    "wof:id": 1763559079,
    "wof:lastmodified": 1787777660,
    "wof:name": "Trans World Airlines (TWA) took a subtle approach to their 1968 summer uniform...",
    "wof:parent_id": 1159160869,
    "wof:placetype": "custom",
    "wof:placetype_alt": [
      "instagram"
    ],
    "wof:repo": "sfomuseum-data-socialmedia-instagram",
    "wof:superseded_by": [],
    "wof:supersedes": []
  },
  "bbox": [
    -122.386166,
    37.616356,
    -122.386166,
    37.616356
  ],
  "geometry": {"type":"Point","coordinates":[-122.386166,37.616356]}
}
