{
  "id": 1880151733,
  "type": "Feature",
  "properties": {
    "date:cessation_lower": "2022-05-11",
    "date:cessation_upper": "2022-05-11",
    "date:inception_lower": "2022-05-11",
    "date:inception_upper": "2022-05-11",
    "edtf:cessation": "2022-05-11T02:55:00-07:00",
    "edtf:inception": "2022-05-11T02:55:00-07:00",
    "geom:area": 0,
    "geom:bbox": "-122.386166,37.616356,-122.386166,37.616356",
    "geom:latitude": 37.616356,
    "geom:longitude": -122.386166,
    "instagram:post": {
      "caption": {
        "body": "Happy 90th birthday to Valentino Garavani, who was born #onthisday in 1932 in Italy! Rome-based fashion designer Valentino brought his passion for color to TWA in 1971 with a uniform collection that included men’s wear and pants for women. With a business-like look, this plum polyester knit dress suit has signature buttons and scarf. It marks a transition in airline fashion as age limits were removed and the profession became a longer-term career.",
        "excerpt": "Happy 90th birthday to Valentino Garavani, who was born #onthisday in 1932 in Italy!",
        "hashtags": [
          "Valentino",
          "TWA",
          "AvGeek",
          "AviationHistory",
          "fashion"
        ],
        "users": []
      },
      "media_id": "bcda9b8c951e2230f1c1cb1823b1afb97b936a1e",
      "path": "media/posts/202205/280267126_309479204674086_2279454005614286895_n_17883664589606498.jpg",
      "perceptual_hash": "p:be85e196949a962d",
      "taken": 1652262900,
      "taken_at": "May 11, 2022 9:55 am"
    },
    "millsfield:similar": {
      "google/siglip2-so400m-patch16-naflex": [
        {
          "distance": 0.40067368745803833,
          "id": 1729355407
        },
        {
          "distance": 0.4271247386932373,
          "id": 1729355407
        },
        {
          "distance": 0.4276196360588074,
          "id": 1763559337
        },
        {
          "distance": 0.4294319152832031,
          "id": 1729359325
        },
        {
          "distance": 0.43469685316085815,
          "id": 1729360013
        },
        {
          "distance": 0.43552321195602417,
          "id": 1880151569
        },
        {
          "distance": 0.43762844800949097,
          "id": 1729359957
        },
        {
          "distance": 0.4430014491081238,
          "id": 1763559337
        },
        {
          "distance": 0.4447920322418213,
          "id": 1729360013
        },
        {
          "distance": 0.45017027854919434,
          "id": 1729355695
        }
      ]
    },
    "sfomuseum:placetype": "instagram",
    "src:geom": "sfomuseum",
    "wof:belongsto": [
      1159160869,
      102527513,
      102191575,
      85633793,
      102087579,
      85922583,
      85688637
    ],
    "wof:country": "US",
    "wof:created": 1652262900,
    "wof:geomhash": "b6e33f47475d56bc8da457bc31afadc8",
    "wof:hierarchy": [
      {
        "building_id": 1159160869,
        "campus_id": 102527513,
        "continent_id": 102191575,
        "country_id": 85633793,
        "county_id": 102087579,
        "custom_id": 1880151733,
        "instagram_id": 1880151733,
        "locality_id": 85922583,
        "neighbourhood_id": -1,
        "region_id": 85688637
      }
    ],
    "wof:id": 1880151733,
    "wof:lastmodified": 1787777663,
    "wof:name": "Happy 90th birthday to Valentino Garavani, who was born #onthisday in 1932 in Italy!..",
    "wof:parent_id": 1159160869,
    "wof:placetype": "custom",
    "wof:placetype_alt": [
      "instagram"
    ],
    "wof:repo": "sfomuseum-data-socialmedia-instagram",
    "wof:superseded_by": [],
    "wof:supersedes": []
  },
  "bbox": [
    -122.386166,
    37.616356,
    -122.386166,
    37.616356
  ],
  "geometry": {"type":"Point","coordinates":[-122.386166,37.616356]}
}
