{
  "id": 1729356895,
  "type": "Feature",
  "properties": {
    "date:cessation_lower": "2019-03-01",
    "date:cessation_upper": "2019-03-01",
    "date:inception_lower": "2019-03-01",
    "date:inception_upper": "2019-03-01",
    "edtf:cessation": "2019-02-28T17:47:20-08:00",
    "edtf:inception": "2019-02-28T17:47:20-08:00",
    "geom:area": 0,
    "geom:bbox": "-122.386166,37.616356,-122.386166,37.616356",
    "geom:latitude": 37.616356,
    "geom:longitude": -122.386166,
    "instagram:post": {
      "caption": {
        "body": "Terminal 2, previously known as the Central Terminal, opened in 1954. Here are views of the terminal from just before its opening, the 1980s, and 2012",
        "excerpt": "Terminal 2, previously known as the Central Terminal, opened in 1954.",
        "hashtags": [
          "ThrowbackThursday",
          "SFOHistory",
          "SFHistory",
          "avgeek",
          "airport",
          "airportarchitecture",
          "architecture"
        ],
        "users": []
      },
      "location": "",
      "media_id": "ab7b7c2e9eb5ef65bd03330a3167e8f2",
      "path": "photos/201902/ab7b7c2e9eb5ef65bd03330a3167e8f2.jpg",
      "perceptual_hash": "p:89f5362bc9d2252d",
      "taken": 1551376020,
      "taken_at": "Feb 28, 2019, 5:47 PM"
    },
    "millsfield:similar": {
      "google/siglip2-so400m-patch16-naflex": [
        {
          "distance": 0.17790096998214722,
          "id": 1729360689
        },
        {
          "distance": 0.18718254566192627,
          "id": 1729358903
        },
        {
          "distance": 0.1952378749847412,
          "id": 1729361261
        },
        {
          "distance": 0.19886547327041626,
          "id": 1729355207
        },
        {
          "distance": 0.20080333948135376,
          "id": 1729360111
        },
        {
          "distance": 0.20150023698806763,
          "id": 1729360077
        },
        {
          "distance": 0.21045494079589844,
          "id": 1729357547
        },
        {
          "distance": 0.2154790759086609,
          "id": 1729355161
        },
        {
          "distance": 0.21686434745788574,
          "id": 1729355041
        },
        {
          "distance": 0.21706390380859375,
          "id": 1729355207
        }
      ]
    },
    "sfomuseum:placetype": "instagram",
    "src:geom": "sfomuseum",
    "wof:belongsto": [
      1159160869,
      102527513,
      102191575,
      85633793,
      102087579,
      85922583,
      85688637
    ],
    "wof:country": "US",
    "wof:created": 1551404840,
    "wof:geomhash": "b6e33f47475d56bc8da457bc31afadc8",
    "wof:hierarchy": [
      {
        "building_id": 1159160869,
        "campus_id": 102527513,
        "continent_id": 102191575,
        "country_id": 85633793,
        "county_id": 102087579,
        "custom_id": 1729356895,
        "instagram_id": 1729356895,
        "locality_id": 85922583,
        "neighbourhood_id": -1,
        "region_id": 85688637
      }
    ],
    "wof:id": 1729356895,
    "wof:lastmodified": 1787777629,
    "wof:name": "Terminal 2, previously known as the Central Terminal, opened in 1954...",
    "wof:parent_id": 1159160869,
    "wof:placetype": "custom",
    "wof:placetype_alt": [
      "instagram"
    ],
    "wof:repo": "sfomuseum-data-socialmedia-instagram",
    "wof:superseded_by": [],
    "wof:supersedes": []
  },
  "bbox": [
    -122.386166,
    37.616356,
    -122.386166,
    37.616356
  ],
  "geometry": {"type":"Point","coordinates":[-122.386166,37.616356]}
}
