{
  "id": 1729355237,
  "type": "Feature",
  "properties": {
    "date:cessation_lower": "2020-05-19",
    "date:cessation_upper": "2020-05-19",
    "date:inception_lower": "2020-05-19",
    "date:inception_upper": "2020-05-19",
    "edtf:cessation": "2020-05-18T18:05:59-07:00",
    "edtf:inception": "2020-05-18T18:05:59-07:00",
    "geom:area": 0,
    "geom:bbox": "-122.386166,37.616356,-122.386166,37.616356",
    "geom:latitude": 37.616356,
    "geom:longitude": -122.386166,
    "instagram:post": {
      "caption": {
        "body": "",
        "excerpt": "",
        "hashtags": [
          "InternationalMuseumDay!",
          "MuseumFromHome"
        ],
        "users": []
      },
      "location": "",
      "media_id": "2385ce42ed8c605259e14114cf6efbdc",
      "path": "photos/202005/2385ce42ed8c605259e14114cf6efbdc.jpg",
      "perceptual_hash": "p:db98c2659f481997",
      "taken": 1589821500,
      "taken_at": "May 18, 2020, 5:05 PM"
    },
    "millsfield:similar": {
      "google/siglip2-so400m-patch16-naflex": [
        {
          "distance": 0.06415927410125732,
          "id": 1880150869
        },
        {
          "distance": 0.06464183330535889,
          "id": 1880150993
        },
        {
          "distance": 0.0892106294631958,
          "id": 1947425151
        },
        {
          "distance": 0.09453272819519043,
          "id": 1880151649
        },
        {
          "distance": 0.11524349451065063,
          "id": 1763559417
        },
        {
          "distance": 0.11715173721313477,
          "id": 1880151235
        },
        {
          "distance": 0.14083576202392578,
          "id": 1763558935
        },
        {
          "distance": 0.1456487774848938,
          "id": 1947425001
        },
        {
          "distance": 0.14670181274414062,
          "id": 1763559417
        },
        {
          "distance": 0.1537366509437561,
          "id": 1763558935
        }
      ]
    },
    "sfomuseum:placetype": "instagram",
    "src:geom": "sfomuseum",
    "wof:belongsto": [
      1159160869,
      102527513,
      102191575,
      85633793,
      102087579,
      85922583,
      85688637
    ],
    "wof:country": "US",
    "wof:created": 1589850359,
    "wof:geomhash": "b6e33f47475d56bc8da457bc31afadc8",
    "wof:hierarchy": [
      {
        "building_id": 1159160869,
        "campus_id": 102527513,
        "continent_id": 102191575,
        "country_id": 85633793,
        "county_id": 102087579,
        "custom_id": 1729355237,
        "instagram_id": 1729355237,
        "locality_id": 85922583,
        "neighbourhood_id": -1,
        "region_id": 85688637
      }
    ],
    "wof:id": 1729355237,
    "wof:lastmodified": 1787777621,
    "wof:name": "..",
    "wof:parent_id": 1159160869,
    "wof:placetype": "custom",
    "wof:placetype_alt": [
      "instagram"
    ],
    "wof:repo": "sfomuseum-data-socialmedia-instagram",
    "wof:superseded_by": [],
    "wof:supersedes": []
  },
  "bbox": [
    -122.386166,
    37.616356,
    -122.386166,
    37.616356
  ],
  "geometry": {"type":"Point","coordinates":[-122.386166,37.616356]}
}
