{
  "id": 1729361669,
  "type": "Feature",
  "properties": {
    "date:cessation_lower": "2015-07-24",
    "date:cessation_upper": "2015-07-24",
    "date:inception_lower": "2015-07-24",
    "date:inception_upper": "2015-07-24",
    "edtf:cessation": "2015-07-24T04:40:00-07:00",
    "edtf:inception": "2015-07-24T04:40:00-07:00",
    "geom:area": 0,
    "geom:bbox": "-122.386166,37.616356,-122.386166,37.616356",
    "geom:latitude": 37.616356,
    "geom:longitude": -122.386166,
    "instagram:post": {
      "caption": {
        "body": "",
        "excerpt": "",
        "hashtags": [
          "ClassicMonsters",
          "BehindTheScenes",
          "KirksMonsters"
        ],
        "users": [
          "kirkhammett"
        ]
      },
      "media_id": "1e385aaea35c060ca9d40c42103240ac",
      "path": "media/other/11356378_1603206809968119_1646265249_n_17842036525062499.jpg",
      "perceptual_hash": "p:cf29c360928ff0cb",
      "taken": 1437738000,
      "taken_at": "Jul 24, 2015 11:40 am"
    },
    "millsfield:similar": {
      "google/siglip2-so400m-patch16-naflex": [
        {
          "distance": 0.22098654508590698,
          "id": 1763558835
        },
        {
          "distance": 0.22583132982254028,
          "id": 1729355249
        },
        {
          "distance": 0.25070565938949585,
          "id": 1763558835
        },
        {
          "distance": 0.25542765855789185,
          "id": 1729361813
        },
        {
          "distance": 0.25751131772994995,
          "id": 1729362079
        },
        {
          "distance": 0.2589462995529175,
          "id": 1729361829
        },
        {
          "distance": 0.2594625949859619,
          "id": 1729355249
        },
        {
          "distance": 0.2668135166168213,
          "id": 1729355363
        },
        {
          "distance": 0.2671288847923279,
          "id": 1729355297
        },
        {
          "distance": 0.26819050312042236,
          "id": 1947425257
        }
      ]
    },
    "sfomuseum:placetype": "instagram",
    "src:geom": "sfomuseum",
    "wof:belongsto": [
      1159160869,
      102527513,
      102191575,
      85633793,
      102087579,
      85922583,
      85688637
    ],
    "wof:country": "US",
    "wof:created": 1437738000,
    "wof:geomhash": "b6e33f47475d56bc8da457bc31afadc8",
    "wof:hierarchy": [
      {
        "building_id": 1159160869,
        "campus_id": 102527513,
        "continent_id": 102191575,
        "country_id": 85633793,
        "county_id": 102087579,
        "custom_id": 1729361669,
        "instagram_id": 1729361669,
        "locality_id": 85922583,
        "neighbourhood_id": -1,
        "region_id": 85688637
      }
    ],
    "wof:id": 1729361669,
    "wof:lastmodified": 1787777646,
    "wof:name": "..",
    "wof:parent_id": 1159160869,
    "wof:placetype": "custom",
    "wof:placetype_alt": [
      "instagram"
    ],
    "wof:repo": "sfomuseum-data-socialmedia-instagram",
    "wof:superseded_by": [],
    "wof:supersedes": []
  },
  "bbox": [
    -122.386166,
    37.616356,
    -122.386166,
    37.616356
  ],
  "geometry": {"type":"Point","coordinates":[-122.386166,37.616356]}
}
