{
  "id": 1729359613,
  "type": "Feature",
  "properties": {
    "date:cessation_lower": "2017-04-14",
    "date:cessation_upper": "2017-04-14",
    "date:inception_lower": "2017-04-14",
    "date:inception_upper": "2017-04-14",
    "edtf:cessation": "2017-04-14T02:39:00-07:00",
    "edtf:inception": "2017-04-14T02:39:00-07:00",
    "geom:area": 0,
    "geom:bbox": "-122.386166,37.616356,-122.386166,37.616356",
    "geom:latitude": 37.616356,
    "geom:longitude": -122.386166,
    "instagram:post": {
      "caption": {
        "body": "The backwall panels of our upcoming Arts and Crafts exhibition are being painted as we speak! Special thanks to Bradbury \u0026 Bradbury Art Wallpapers for providing all of the wallpaper in this exhibition. See \"At Home with Arts \u0026 Crafts\" opening next week in the International Terminal. . ",
        "excerpt": "The backwall panels of our upcoming Arts and Crafts exhibition are being painted as we speak!",
        "hashtags": [
          "behindthescenes",
          "sneakpeek",
          "artsandcrafts",
          "arts",
          "crafts",
          "artscrafts",
          "bradburyandbradbury",
          "bradbury",
          "wallpaper",
          "pattern",
          "SFOArtsandCrafts"
        ],
        "users": []
      },
      "media_id": "233c783589a5091dd54a356e0f6abb19",
      "path": "media/posts/201704/17932246_280266955717575_196498602082697216_n_17853562117175332.jpg",
      "perceptual_hash": "p:f00d607072f6b6b5",
      "taken": 1492162740,
      "taken_at": "Apr 14, 2017 9:39 am"
    },
    "millsfield:similar": {
      "google/siglip2-so400m-patch16-naflex": [
        {
          "distance": 0.30563515424728394,
          "id": 1729356155
        },
        {
          "distance": 0.34396451711654663,
          "id": 1729356155
        },
        {
          "distance": 0.3504127264022827,
          "id": 1729359185
        },
        {
          "distance": 0.35454779863357544,
          "id": 1729355955
        },
        {
          "distance": 0.37054604291915894,
          "id": 1729355955
        },
        {
          "distance": 0.3973357081413269,
          "id": 1880151545
        },
        {
          "distance": 0.40116751194000244,
          "id": 1729359249
        },
        {
          "distance": 0.4030471444129944,
          "id": 1729357211
        },
        {
          "distance": 0.4072563648223877,
          "id": 1947424817
        },
        {
          "distance": 0.4073137640953064,
          "id": 1729362327
        }
      ]
    },
    "sfomuseum:placetype": "instagram",
    "src:geom": "sfomuseum",
    "wof:belongsto": [
      1159160869,
      102527513,
      102191575,
      85633793,
      102087579,
      85922583,
      85688637
    ],
    "wof:country": "US",
    "wof:created": 1492162740,
    "wof:geomhash": "b6e33f47475d56bc8da457bc31afadc8",
    "wof:hierarchy": [
      {
        "building_id": 1159160869,
        "campus_id": 102527513,
        "continent_id": 102191575,
        "country_id": 85633793,
        "county_id": 102087579,
        "custom_id": 1729359613,
        "instagram_id": 1729359613,
        "locality_id": 85922583,
        "neighbourhood_id": -1,
        "region_id": 85688637
      }
    ],
    "wof:id": 1729359613,
    "wof:lastmodified": 1787777636,
    "wof:name": "The backwall panels of our upcoming Arts and Crafts exhibition are being painted as we speak!..",
    "wof:parent_id": 1159160869,
    "wof:placetype": "custom",
    "wof:placetype_alt": [
      "instagram"
    ],
    "wof:repo": "sfomuseum-data-socialmedia-instagram",
    "wof:superseded_by": [],
    "wof:supersedes": []
  },
  "bbox": [
    -122.386166,
    37.616356,
    -122.386166,
    37.616356
  ],
  "geometry": {"type":"Point","coordinates":[-122.386166,37.616356]}
}
