{
  "id": 1729361015,
  "type": "Feature",
  "properties": {
    "date:cessation_lower": "2016-02-24",
    "date:cessation_upper": "2016-02-24",
    "date:inception_lower": "2016-02-24",
    "date:inception_upper": "2016-02-24",
    "edtf:cessation": "2016-02-24T10:11:00-08:00",
    "edtf:inception": "2016-02-24T10:11:00-08:00",
    "geom:area": 0,
    "geom:bbox": "-122.386166,37.616356,-122.386166,37.616356",
    "geom:latitude": 37.616356,
    "geom:longitude": -122.386166,
    "instagram:post": {
      "caption": {
        "body": "Flight attendant Ruby Reykalin is seen here conversing on the telephone at United Air Lines exhibit in Vacation Lands Building at Golden Gate International Exposition, Treasure Island, San Francisco. The United exhibit was one of three aviation exhibits at the Golden Gate International Exposition. #WomenInAviation  United Air Lines c. 1940 SFO Museum Collection Gift of Kathryn McGeorge 2011.194.016",
        "excerpt": "Flight attendant Ruby Reykalin is seen here conversing on the telephone at United Air Lines exhibit in Vacation Lands Building at Golden Gate International Exposition, Treasure Island, San Francisco.",
        "hashtags": [],
        "users": []
      },
      "media_id": "08c5bfa0174948eb4febbcfb86be6bf7",
      "path": "media/other/12783902_804995162980594_546506778_n_17847558826069008.jpg",
      "perceptual_hash": "p:e639d882f180967f",
      "taken": 1456337460,
      "taken_at": "Feb 24, 2016 6:11 pm"
    },
    "millsfield:similar": {
      "google/siglip2-so400m-patch16-naflex": [
        {
          "distance": 0.19264650344848633,
          "id": 1729356845
        },
        {
          "distance": 0.20106250047683716,
          "id": 1729357679
        },
        {
          "distance": 0.20512068271636963,
          "id": 1729359565
        },
        {
          "distance": 0.20739108324050903,
          "id": 1729359161
        },
        {
          "distance": 0.20764368772506714,
          "id": 1729357541
        },
        {
          "distance": 0.21027588844299316,
          "id": 1729360723
        },
        {
          "distance": 0.21115213632583618,
          "id": 1947425065
        },
        {
          "distance": 0.22094231843948364,
          "id": 1729361695
        },
        {
          "distance": 0.2239881157875061,
          "id": 1729359509
        },
        {
          "distance": 0.22498369216918945,
          "id": 1729356845
        }
      ]
    },
    "sfomuseum:placetype": "instagram",
    "src:geom": "sfomuseum",
    "wof:belongsto": [
      1159160869,
      102527513,
      102191575,
      85633793,
      102087579,
      85922583,
      85688637
    ],
    "wof:country": "US",
    "wof:created": 1456337460,
    "wof:geomhash": "b6e33f47475d56bc8da457bc31afadc8",
    "wof:hierarchy": [
      {
        "building_id": 1159160869,
        "campus_id": 102527513,
        "continent_id": 102191575,
        "country_id": 85633793,
        "county_id": 102087579,
        "custom_id": 1729361015,
        "instagram_id": 1729361015,
        "locality_id": 85922583,
        "neighbourhood_id": -1,
        "region_id": 85688637
      }
    ],
    "wof:id": 1729361015,
    "wof:lastmodified": 1787777641,
    "wof:name": "Flight attendant Ruby Reykalin is seen here conversing on the telephone at United Air Lines exhibit in Vacation Lands Building at Golden Gate International Exposition, Treasure Island, San Francisco...",
    "wof:parent_id": 1159160869,
    "wof:placetype": "custom",
    "wof:placetype_alt": [
      "instagram"
    ],
    "wof:repo": "sfomuseum-data-socialmedia-instagram",
    "wof:superseded_by": [],
    "wof:supersedes": []
  },
  "bbox": [
    -122.386166,
    37.616356,
    -122.386166,
    37.616356
  ],
  "geometry": {"type":"Point","coordinates":[-122.386166,37.616356]}
}
