{
  "id": 1880151609,
  "type": "Feature",
  "properties": {
    "date:cessation_lower": "2022-07-01",
    "date:cessation_upper": "2022-07-01",
    "date:inception_lower": "2022-07-01",
    "date:inception_upper": "2022-07-01",
    "edtf:cessation": "2022-07-01T03:57:00-07:00",
    "edtf:inception": "2022-07-01T03:57:00-07:00",
    "geom:area": 0,
    "geom:bbox": "-122.386166,37.616356,-122.386166,37.616356",
    "geom:latitude": 37.616356,
    "geom:longitude": -122.386166,
    "instagram:post": {
      "caption": {
        "body": "Did you know SFO has multiple kids’ spots to help your little ones expend excess energy, such as “Tree Town” in Harvey Milk Terminal 1. “Tree Town” is an interactive children’s play area honoring one of Northern California’s signature natural features, the oak tree.  “Tree Town” is located, post-security, in Harvey Milk Terminal 1, Boarding Area B, near Gate B19. https://bit.ly/3QyvZpI",
        "excerpt": "Did you know SFO has multiple kids’ spots to help your little ones expend excess energy, such as “Tree Town” in Harvey Milk Terminal 1.",
        "hashtags": [
          "KidsSpot",
          "airport",
          "play"
        ],
        "users": []
      },
      "media_id": "93b0734f5abbc8dcfd7d1df90562c9debd7c33d9",
      "path": "media/posts/202207/291449842_710824316884726_8081151141365848366_n_17969141590634472.jpg",
      "perceptual_hash": "p:ecc3c7ccdc705149",
      "taken": 1656673020,
      "taken_at": "Jul 01, 2022 10:57 am"
    },
    "millsfield:similar": {
      "google/siglip2-so400m-patch16-naflex": [
        {
          "distance": 0.23237377405166626,
          "id": 1880151553
        },
        {
          "distance": 0.24616390466690063,
          "id": 1729359753
        },
        {
          "distance": 0.24730205535888672,
          "id": 1729355475
        },
        {
          "distance": 0.2543346881866455,
          "id": 1729355461
        },
        {
          "distance": 0.25776439905166626,
          "id": 1729355461
        },
        {
          "distance": 0.26290231943130493,
          "id": 1763559127
        },
        {
          "distance": 0.2656629681587219,
          "id": 1729355475
        },
        {
          "distance": 0.2674279808998108,
          "id": 1729355465
        },
        {
          "distance": 0.26948636770248413,
          "id": 1880151553
        },
        {
          "distance": 0.27178698778152466,
          "id": 1729359753
        }
      ]
    },
    "sfomuseum:placetype": "instagram",
    "src:geom": "sfomuseum",
    "wof:belongsto": [
      1159160869,
      102527513,
      102191575,
      85633793,
      102087579,
      85922583,
      85688637
    ],
    "wof:country": "US",
    "wof:created": 1656673020,
    "wof:geomhash": "b6e33f47475d56bc8da457bc31afadc8",
    "wof:hierarchy": [
      {
        "building_id": 1159160869,
        "campus_id": 102527513,
        "continent_id": 102191575,
        "country_id": 85633793,
        "county_id": 102087579,
        "custom_id": 1880151609,
        "instagram_id": 1880151609,
        "locality_id": 85922583,
        "neighbourhood_id": -1,
        "region_id": 85688637
      }
    ],
    "wof:id": 1880151609,
    "wof:lastmodified": 1787777662,
    "wof:name": "Did you know SFO has multiple kids’ spots to help your little ones expend excess energy, such as “Tree Town” in Harvey Milk Terminal 1...",
    "wof:parent_id": 1159160869,
    "wof:placetype": "custom",
    "wof:placetype_alt": [
      "instagram"
    ],
    "wof:repo": "sfomuseum-data-socialmedia-instagram",
    "wof:superseded_by": [],
    "wof:supersedes": []
  },
  "bbox": [
    -122.386166,
    37.616356,
    -122.386166,
    37.616356
  ],
  "geometry": {"type":"Point","coordinates":[-122.386166,37.616356]}
}
