{
  "id": 1729362955,
  "type": "Feature",
  "properties": {
    "date:cessation_lower": "2012-07-17",
    "date:cessation_upper": "2012-07-17",
    "date:inception_lower": "2012-07-17",
    "date:inception_upper": "2012-07-17",
    "edtf:cessation": "2012-07-17T01:33:00-07:00",
    "edtf:inception": "2012-07-17T01:33:00-07:00",
    "geom:area": 0,
    "geom:bbox": "-122.386166,37.616356,-122.386166,37.616356",
    "geom:latitude": 37.616356,
    "geom:longitude": -122.386166,
    "instagram:post": {
      "caption": {
        "body": "Mountain bikes are on the move...",
        "excerpt": "Mountain bikes are on the move...",
        "hashtags": [],
        "users": []
      },
      "media_id": "d318fe98320d48efe6dd592d8153ad78",
      "path": "media/other/11191376_569735926501607_1898339098_n_17842258291062499.jpg",
      "perceptual_hash": "p:9ddac2c1c223655f",
      "taken": 1342513980,
      "taken_at": "Jul 17, 2012 8:33 am"
    },
    "millsfield:similar": {
      "google/siglip2-so400m-patch16-naflex": [
        {
          "distance": 0.16324299573898315,
          "id": 1729362801
        },
        {
          "distance": 0.21726644039154053,
          "id": 1729362801
        },
        {
          "distance": 0.22231334447860718,
          "id": 1729363051
        },
        {
          "distance": 0.24298232793807983,
          "id": 1729362815
        },
        {
          "distance": 0.2456400990486145,
          "id": 1729362737
        },
        {
          "distance": 0.25957274436950684,
          "id": 1729363051
        },
        {
          "distance": 0.26660871505737305,
          "id": 1729362941
        },
        {
          "distance": 0.2669587731361389,
          "id": 1729362743
        },
        {
          "distance": 0.26876896619796753,
          "id": 1729363019
        },
        {
          "distance": 0.27699047327041626,
          "id": 1729362949
        }
      ]
    },
    "sfomuseum:placetype": "instagram",
    "src:geom": "sfomuseum",
    "wof:belongsto": [
      1159160869,
      102527513,
      102191575,
      85633793,
      102087579,
      85922583,
      85688637
    ],
    "wof:country": "US",
    "wof:created": 1342513980,
    "wof:geomhash": "b6e33f47475d56bc8da457bc31afadc8",
    "wof:hierarchy": [
      {
        "building_id": 1159160869,
        "campus_id": 102527513,
        "continent_id": 102191575,
        "country_id": 85633793,
        "county_id": 102087579,
        "custom_id": 1729362955,
        "instagram_id": 1729362955,
        "locality_id": 85922583,
        "neighbourhood_id": -1,
        "region_id": 85688637
      }
    ],
    "wof:id": 1729362955,
    "wof:lastmodified": 1787777657,
    "wof:name": "Mountain bikes are on the move.....",
    "wof:parent_id": 1159160869,
    "wof:placetype": "custom",
    "wof:placetype_alt": [
      "instagram"
    ],
    "wof:repo": "sfomuseum-data-socialmedia-instagram",
    "wof:superseded_by": [],
    "wof:supersedes": []
  },
  "bbox": [
    -122.386166,
    37.616356,
    -122.386166,
    37.616356
  ],
  "geometry": {"type":"Point","coordinates":[-122.386166,37.616356]}
}
