{
  "id": 1729359987,
  "type": "Feature",
  "properties": {
    "date:cessation_lower": "2016-12-22",
    "date:cessation_upper": "2016-12-22",
    "date:inception_lower": "2016-12-22",
    "date:inception_upper": "2016-12-22",
    "edtf:cessation": "2016-12-22T02:16:00-08:00",
    "edtf:inception": "2016-12-22T02:16:00-08:00",
    "geom:area": 0,
    "geom:bbox": "-122.386166,37.616356,-122.386166,37.616356",
    "geom:latitude": 37.616356,
    "geom:longitude": -122.386166,
    "instagram:post": {
      "caption": {
        "body": "Before the jet bridge, passengers would board planes from ground level using rolling stairs regardless of the heat, rain, snow, or wind on the airfield. This photo from 1938 features passengers waiting just inside the newly completed 1937 passenger terminal building at SFO. Off in the distance, South San Francisco's classic Sign Hill was accompanied by another sign exhorting the population to “Enjoy Acme Beer.” #ThrowbackThursday #TBT #SFOHistory #SFHistory #BayAreaHistory  San Francisco Airport, Administration Building 1939 SFO Museum Collection 1997.52.078.002",
        "excerpt": "Before the jet bridge, passengers would board planes from ground level using rolling stairs regardless of the heat, rain, snow, or wind on the airfield.",
        "hashtags": [],
        "users": []
      },
      "media_id": "4998300311fda9b17f6de1a7e7c7562e",
      "path": "media/posts/201612/15624779_1124971857629742_6172308075291082752_n_17845815052185337.jpg",
      "perceptual_hash": "p:b8b8cec50381757e",
      "taken": 1482401760,
      "taken_at": "Dec 22, 2016 10:16 am"
    },
    "millsfield:similar": {
      "google/siglip2-so400m-patch16-naflex": [
        {
          "distance": 0.1923617720603943,
          "id": 1729359523
        },
        {
          "distance": 0.19261294603347778,
          "id": 1729361227
        },
        {
          "distance": 0.1971152424812317,
          "id": 1729360877
        },
        {
          "distance": 0.21052402257919312,
          "id": 1947425271
        },
        {
          "distance": 0.2106863260269165,
          "id": 1763559449
        },
        {
          "distance": 0.21460509300231934,
          "id": 1729357593
        },
        {
          "distance": 0.2152334451675415,
          "id": 1729361697
        },
        {
          "distance": 0.2251080870628357,
          "id": 1729361697
        },
        {
          "distance": 0.2260914444923401,
          "id": 1729361143
        },
        {
          "distance": 0.2272222638130188,
          "id": 1763559345
        }
      ]
    },
    "sfomuseum:placetype": "instagram",
    "src:geom": "sfomuseum",
    "wof:belongsto": [
      1159160869,
      102527513,
      102191575,
      85633793,
      102087579,
      85922583,
      85688637
    ],
    "wof:country": "US",
    "wof:created": 1482401760,
    "wof:geomhash": "b6e33f47475d56bc8da457bc31afadc8",
    "wof:hierarchy": [
      {
        "building_id": 1159160869,
        "campus_id": 102527513,
        "continent_id": 102191575,
        "country_id": 85633793,
        "county_id": 102087579,
        "custom_id": 1729359987,
        "instagram_id": 1729359987,
        "locality_id": 85922583,
        "neighbourhood_id": -1,
        "region_id": 85688637
      }
    ],
    "wof:id": 1729359987,
    "wof:lastmodified": 1787777638,
    "wof:name": "Before the jet bridge, passengers would board planes from ground level using rolling stairs regardless of the heat, rain, snow, or wind on the airfield...",
    "wof:parent_id": 1159160869,
    "wof:placetype": "custom",
    "wof:placetype_alt": [
      "instagram"
    ],
    "wof:repo": "sfomuseum-data-socialmedia-instagram",
    "wof:superseded_by": [],
    "wof:supersedes": []
  },
  "bbox": [
    -122.386166,
    37.616356,
    -122.386166,
    37.616356
  ],
  "geometry": {"type":"Point","coordinates":[-122.386166,37.616356]}
}
