{
  "id": 1880151325,
  "type": "Feature",
  "properties": {
    "date:cessation_lower": "2022-11-15",
    "date:cessation_upper": "2022-11-15",
    "date:inception_lower": "2022-11-15",
    "date:inception_upper": "2022-11-15",
    "edtf:cessation": "2022-11-15T03:11:00-08:00",
    "edtf:inception": "2022-11-15T03:11:00-08:00",
    "geom:area": 0,
    "geom:bbox": "-122.386166,37.616356,-122.386166,37.616356",
    "geom:latitude": 37.616356,
    "geom:longitude": -122.386166,
    "instagram:post": {
      "caption": {
        "body": "Happy birthday to the late Wayne Thiebaud, who passed last year at the age of 101. Thiebaud was born on this day in 1920 in Mesa, Arizona. In the early 1960s, Thiebaud was acclaimed as one of the defining practitioners of Pop Art and continues to be considered one of California’s most important and influential artists. In the late 1970s, the artist concentrated on a series of San Francisco cityscapes that became a signature theme. Created from a combination of direct observation and memory, these paintings present a dizzying perspective of San Francisco’s extraordinary topography.  See “18th Street Downgrade” by Wayne Thiebaud on display, pre-security in Terminal 3 and online at: https://bit.ly/3dnZUw2",
        "excerpt": "Happy birthday to the late Wayne Thiebaud, who passed last year at the age of 101.",
        "hashtags": [
          "WayneThiebaud",
          "SFAC",
          "publicart",
          "painting",
          "SanFrancisco"
        ],
        "users": []
      },
      "media_id": "e3ee145fac0d8d3eeb847a82bf33201fb75d8d2c",
      "path": "media/posts/202211/315639409_510610257674578_6178534482403799026_n_17942369531298312.jpg",
      "perceptual_hash": "p:d48d8b72bd1d422b",
      "taken": 1668510660,
      "taken_at": "Nov 15, 2022 11:11 am"
    },
    "millsfield:similar": {
      "google/siglip2-so400m-patch16-naflex": [
        {
          "distance": 0.14534991979599,
          "id": 1763559323
        },
        {
          "distance": 0.14733529090881348,
          "id": 1763559323
        },
        {
          "distance": 0.2038029432296753,
          "id": 1729361797
        },
        {
          "distance": 0.24317878484725952,
          "id": 1729356755
        },
        {
          "distance": 0.2504241466522217,
          "id": 1880151299
        },
        {
          "distance": 0.25409549474716187,
          "id": 1729361597
        },
        {
          "distance": 0.25657153129577637,
          "id": 1947424799
        },
        {
          "distance": 0.257160484790802,
          "id": 1880150939
        },
        {
          "distance": 0.25986164808273315,
          "id": 1947425185
        },
        {
          "distance": 0.2630155682563782,
          "id": 1729362959
        }
      ]
    },
    "sfomuseum:placetype": "instagram",
    "src:geom": "sfomuseum",
    "wof:belongsto": [
      1159160869,
      102527513,
      102191575,
      85633793,
      102087579,
      85922583,
      85688637
    ],
    "wof:country": "US",
    "wof:created": 1668510660,
    "wof:geomhash": "b6e33f47475d56bc8da457bc31afadc8",
    "wof:hierarchy": [
      {
        "building_id": 1159160869,
        "campus_id": 102527513,
        "continent_id": 102191575,
        "country_id": 85633793,
        "county_id": 102087579,
        "custom_id": 1880151325,
        "instagram_id": 1880151325,
        "locality_id": 85922583,
        "neighbourhood_id": -1,
        "region_id": 85688637
      }
    ],
    "wof:id": 1880151325,
    "wof:lastmodified": 1787777662,
    "wof:name": "Happy birthday to the late Wayne Thiebaud, who passed last year at the age of 101...",
    "wof:parent_id": 1159160869,
    "wof:placetype": "custom",
    "wof:placetype_alt": [
      "instagram"
    ],
    "wof:repo": "sfomuseum-data-socialmedia-instagram",
    "wof:superseded_by": [],
    "wof:supersedes": []
  },
  "bbox": [
    -122.386166,
    37.616356,
    -122.386166,
    37.616356
  ],
  "geometry": {"type":"Point","coordinates":[-122.386166,37.616356]}
}
