{
  "id": 1729357871,
  "type": "Feature",
  "properties": {
    "date:cessation_lower": "2018-07-27",
    "date:cessation_upper": "2018-07-27",
    "date:inception_lower": "2018-07-27",
    "date:inception_upper": "2018-07-27",
    "edtf:cessation": "2018-07-27T07:00:00-07:00",
    "edtf:inception": "2018-07-27T07:00:00-07:00",
    "geom:area": 0,
    "geom:bbox": "-122.386166,37.616356,-122.386166,37.616356",
    "geom:latitude": 37.616356,
    "geom:longitude": -122.386166,
    "instagram:post": {
      "caption": {
        "body": "\"Voyage\" is a glass panel installation that depicts an imaginary panoramic space in continuous flux. The artwork draws on the language of maps, inspired by information pertaining to San Francisco International Airport, such as (maps, plans, weather patterns and flight routes). The drawn and painted abstractions make physical locations visible while giving the viewer the opportunity to shape their own psychological and emotional connections that constitute place. \"Voyage\" by @valbritton is on display, pre-security, in the departures level of Terminal 2. http://bit.ly/2L9Zqw3",
        "excerpt": "\"Voyage\" is a glass panel installation that depicts an imaginary panoramic space in continuous flux.",
        "hashtags": [
          "voyage",
          "ValBritton",
          "glass",
          "maps",
          "plans",
          "weather",
          "weatherpatterns",
          "flights",
          "flightroutes",
          "airportart",
          "SFO",
          "publicart",
          "sfartscommission"
        ],
        "users": []
      },
      "media_id": "c8f3029124043d7f7b5f23946e200f2c",
      "path": "media/posts/201807/37366401_475781762901646_11979685990760448_n_17873013862257591.jpg",
      "perceptual_hash": "p:eaa54c4aa3a5ca67",
      "taken": 1532700000,
      "taken_at": "Jul 27, 2018 2:00 pm"
    },
    "millsfield:similar": {
      "google/siglip2-so400m-patch16-naflex": [
        {
          "distance": 0.12294548749923706,
          "id": 1729359429
        },
        {
          "distance": 0.14715486764907837,
          "id": 1947425185
        },
        {
          "distance": 0.150215744972229,
          "id": 1880151069
        },
        {
          "distance": 0.15340691804885864,
          "id": 1947425089
        },
        {
          "distance": 0.15773499011993408,
          "id": 1729357895
        },
        {
          "distance": 0.16110098361968994,
          "id": 1880151253
        },
        {
          "distance": 0.1677042841911316,
          "id": 1729355723
        },
        {
          "distance": 0.16919368505477905,
          "id": 1880151299
        },
        {
          "distance": 0.1710938811302185,
          "id": 1880150939
        },
        {
          "distance": 0.17130577564239502,
          "id": 1729355707
        }
      ]
    },
    "sfomuseum:placetype": "instagram",
    "src:geom": "sfomuseum",
    "wof:belongsto": [
      1159160869,
      102527513,
      102191575,
      85633793,
      102087579,
      85922583,
      85688637
    ],
    "wof:country": "US",
    "wof:created": 1532700000,
    "wof:geomhash": "b6e33f47475d56bc8da457bc31afadc8",
    "wof:hierarchy": [
      {
        "building_id": 1159160869,
        "campus_id": 102527513,
        "continent_id": 102191575,
        "country_id": 85633793,
        "county_id": 102087579,
        "custom_id": 1729357871,
        "instagram_id": 1729357871,
        "locality_id": 85922583,
        "neighbourhood_id": -1,
        "region_id": 85688637
      }
    ],
    "wof:id": 1729357871,
    "wof:lastmodified": 1787777632,
    "wof:name": "\"Voyage\" is a glass panel installation that depicts an imaginary panoramic space in continuous flux...",
    "wof:parent_id": 1159160869,
    "wof:placetype": "custom",
    "wof:placetype_alt": [
      "instagram"
    ],
    "wof:repo": "sfomuseum-data-socialmedia-instagram",
    "wof:superseded_by": [],
    "wof:supersedes": []
  },
  "bbox": [
    -122.386166,
    37.616356,
    -122.386166,
    37.616356
  ],
  "geometry": {"type":"Point","coordinates":[-122.386166,37.616356]}
}
