{
  "id": 1729359653,
  "type": "Feature",
  "properties": {
    "date:cessation_lower": "2017-04-03",
    "date:cessation_upper": "2017-04-03",
    "date:inception_lower": "2017-04-03",
    "date:inception_upper": "2017-04-03",
    "edtf:cessation": "2017-04-03T11:56:00-07:00",
    "edtf:inception": "2017-04-03T11:56:00-07:00",
    "geom:area": 0,
    "geom:bbox": "-122.386166,37.616356,-122.386166,37.616356",
    "geom:latitude": 37.616356,
    "geom:longitude": -122.386166,
    "instagram:post": {
      "caption": {
        "body": "Would you like to fly out west to your horse? Is it dude ranch time? In c. 1939, you could fly TWA to the \"Very Heart Of The Dude Ranch Country\". Image:  Transcontinental \u0026 Western Air (TWA) brochure, American West,  c. 1939. SFO Museum Collection. 2000.075.001",
        "excerpt": "Would you like to fly out west to your horse?",
        "hashtags": [
          "duderanch",
          "horse",
          "western",
          "westerns",
          "cowboy",
          "TWA",
          "vintage",
          "1930s",
          "1940s"
        ],
        "users": []
      },
      "media_id": "dcb13322576a67c8903b080ea69c074a",
      "path": "media/posts/201704/17595907_1054613821309341_8128433720320327680_n_17852873335165825.jpg",
      "perceptual_hash": "p:b133cc656598c6ce",
      "taken": 1491245760,
      "taken_at": "Apr 03, 2017 6:56 pm"
    },
    "millsfield:similar": {
      "google/siglip2-so400m-patch16-naflex": [
        {
          "distance": 0.2966422438621521,
          "id": 1729361455
        },
        {
          "distance": 0.3004438877105713,
          "id": 1729360029
        },
        {
          "distance": 0.3069831132888794,
          "id": 1729359039
        },
        {
          "distance": 0.30922234058380127,
          "id": 1729356329
        },
        {
          "distance": 0.31606364250183105,
          "id": 1763558689
        },
        {
          "distance": 0.31606364250183105,
          "id": 1729359221
        },
        {
          "distance": 0.3194742798805237,
          "id": 1729360855
        },
        {
          "distance": 0.3231423497200012,
          "id": 1729360029
        },
        {
          "distance": 0.32565903663635254,
          "id": 1729361455
        },
        {
          "distance": 0.3268817067146301,
          "id": 1729361167
        }
      ]
    },
    "sfomuseum:placetype": "instagram",
    "src:geom": "sfomuseum",
    "wof:belongsto": [
      1159160869,
      102527513,
      102191575,
      85633793,
      102087579,
      85922583,
      85688637
    ],
    "wof:country": "US",
    "wof:created": 1491245760,
    "wof:geomhash": "b6e33f47475d56bc8da457bc31afadc8",
    "wof:hierarchy": [
      {
        "building_id": 1159160869,
        "campus_id": 102527513,
        "continent_id": 102191575,
        "country_id": 85633793,
        "county_id": 102087579,
        "custom_id": 1729359653,
        "instagram_id": 1729359653,
        "locality_id": 85922583,
        "neighbourhood_id": -1,
        "region_id": 85688637
      }
    ],
    "wof:id": 1729359653,
    "wof:lastmodified": 1787777636,
    "wof:name": "Would you like to fly out west to your horse?..",
    "wof:parent_id": 1159160869,
    "wof:placetype": "custom",
    "wof:placetype_alt": [
      "instagram"
    ],
    "wof:repo": "sfomuseum-data-socialmedia-instagram",
    "wof:superseded_by": [],
    "wof:supersedes": []
  },
  "bbox": [
    -122.386166,
    37.616356,
    -122.386166,
    37.616356
  ],
  "geometry": {"type":"Point","coordinates":[-122.386166,37.616356]}
}
