{
  "id": 1729362291,
  "type": "Feature",
  "properties": {
    "date:cessation_lower": "2014-05-09",
    "date:cessation_upper": "2014-05-09",
    "date:inception_lower": "2014-05-09",
    "date:inception_upper": "2014-05-09",
    "edtf:cessation": "2014-05-09T07:12:00-07:00",
    "edtf:inception": "2014-05-09T07:12:00-07:00",
    "geom:area": 0,
    "geom:bbox": "-122.386166,37.616356,-122.386166,37.616356",
    "geom:latitude": 37.616356,
    "geom:longitude": -122.386166,
    "instagram:post": {
      "caption": {
        "body": "",
        "excerpt": "",
        "hashtags": [
          "JapaneseToys!",
          "deinstall"
        ],
        "users": []
      },
      "media_id": "982800f8c772172d19d2c4f11691ffbf",
      "path": "media/other/10254210_229477737251375_187902106_n_17842427548062499.jpg",
      "perceptual_hash": "p:ca683fdaa106b699",
      "taken": 1399644720,
      "taken_at": "May 09, 2014 2:12 pm"
    },
    "millsfield:similar": {
      "google/siglip2-so400m-patch16-naflex": [
        {
          "distance": 0.23530054092407227,
          "id": 1729362641
        },
        {
          "distance": 0.23666119575500488,
          "id": 1729362327
        },
        {
          "distance": 0.25213325023651123,
          "id": 1729362515
        },
        {
          "distance": 0.256408154964447,
          "id": 1729362327
        },
        {
          "distance": 0.25676774978637695,
          "id": 1729362743
        },
        {
          "distance": 0.25726306438446045,
          "id": 1729362571
        },
        {
          "distance": 0.260309636592865,
          "id": 1729362641
        },
        {
          "distance": 0.2654048204421997,
          "id": 1729363045
        },
        {
          "distance": 0.26581674814224243,
          "id": 1729361747
        },
        {
          "distance": 0.26925092935562134,
          "id": 1729362477
        }
      ]
    },
    "sfomuseum:placetype": "instagram",
    "src:geom": "sfomuseum",
    "wof:belongsto": [
      1159160869,
      102527513,
      102191575,
      85633793,
      102087579,
      85922583,
      85688637
    ],
    "wof:country": "US",
    "wof:created": 1399644720,
    "wof:geomhash": "b6e33f47475d56bc8da457bc31afadc8",
    "wof:hierarchy": [
      {
        "building_id": 1159160869,
        "campus_id": 102527513,
        "continent_id": 102191575,
        "country_id": 85633793,
        "county_id": 102087579,
        "custom_id": 1729362291,
        "instagram_id": 1729362291,
        "locality_id": 85922583,
        "neighbourhood_id": -1,
        "region_id": 85688637
      }
    ],
    "wof:id": 1729362291,
    "wof:lastmodified": 1787777646,
    "wof:name": "..",
    "wof:parent_id": 1159160869,
    "wof:placetype": "custom",
    "wof:placetype_alt": [
      "instagram"
    ],
    "wof:repo": "sfomuseum-data-socialmedia-instagram",
    "wof:superseded_by": [],
    "wof:supersedes": []
  },
  "bbox": [
    -122.386166,
    37.616356,
    -122.386166,
    37.616356
  ],
  "geometry": {"type":"Point","coordinates":[-122.386166,37.616356]}
}
