{
  "id": 1729358277,
  "type": "Feature",
  "properties": {
    "date:cessation_lower": "2018-05-04",
    "date:cessation_upper": "2018-05-04",
    "date:inception_lower": "2018-05-04",
    "date:inception_upper": "2018-05-04",
    "edtf:cessation": "2018-05-04T03:13:00-07:00",
    "edtf:inception": "2018-05-04T03:13:00-07:00",
    "geom:area": 0,
    "geom:bbox": "-122.386166,37.616356,-122.386166,37.616356",
    "geom:latitude": 37.616356,
    "geom:longitude": -122.386166,
    "instagram:post": {
      "caption": {
        "body": "Many amateur craftsmen created unique folk houses and other architectural buildings from the mid-1800s to the early-1900s. The one displayed here evokes something from a fairy tale. This fanciful house has decorative wooden shingles with an elaborate rooftop and entryway finials. The house's wooden front and back façades mimic bricks, while a small side addition appears to be a chapel attached to the house.  Folk house is courtesy of the collection of Ian Berke. See \"#AmericanFolkArt: An Enduring Legacy\", on display, pre-security, in the International Terminal. http://bit.ly/AmericanFolkArt",
        "excerpt": "Many amateur craftsmen created unique folk houses and other architectural buildings from the mid-1800s to the early-1900s.",
        "hashtags": [
          "AmericanFolkArt",
          "folkart",
          "american",
          "history",
          "americana",
          "antique",
          "vintage",
          "design",
          "folkarts",
          "architecture",
          "fairytale",
          "house"
        ],
        "users": []
      },
      "media_id": "936336053a8f595f57ab88cdf33d0f39",
      "path": "media/posts/201805/31163021_803488159860016_6572511981176094720_n_17923605787082035.jpg",
      "perceptual_hash": "p:fb95856a04ee5f80",
      "taken": 1525428780,
      "taken_at": "May 04, 2018 10:13 am"
    },
    "millsfield:similar": {
      "google/siglip2-so400m-patch16-naflex": [
        {
          "distance": 0.09311211109161377,
          "id": 1729358287
        },
        {
          "distance": 0.15331542491912842,
          "id": 1729358287
        },
        {
          "distance": 0.17578399181365967,
          "id": 1729358291
        },
        {
          "distance": 0.22414559125900269,
          "id": 1729358281
        },
        {
          "distance": 0.2598675489425659,
          "id": 1729358281
        },
        {
          "distance": 0.2606600522994995,
          "id": 1729358291
        },
        {
          "distance": 0.2655891180038452,
          "id": 1729358711
        },
        {
          "distance": 0.26884037256240845,
          "id": 1729357793
        },
        {
          "distance": 0.27810895442962646,
          "id": 1729358777
        },
        {
          "distance": 0.28124839067459106,
          "id": 1729358693
        }
      ]
    },
    "sfomuseum:placetype": "instagram",
    "src:geom": "sfomuseum",
    "wof:belongsto": [
      1159160869,
      102527513,
      102191575,
      85633793,
      102087579,
      85922583,
      85688637
    ],
    "wof:country": "US",
    "wof:created": 1525428780,
    "wof:geomhash": "b6e33f47475d56bc8da457bc31afadc8",
    "wof:hierarchy": [
      {
        "building_id": 1159160869,
        "campus_id": 102527513,
        "continent_id": 102191575,
        "country_id": 85633793,
        "county_id": 102087579,
        "custom_id": 1729358277,
        "instagram_id": 1729358277,
        "locality_id": 85922583,
        "neighbourhood_id": -1,
        "region_id": 85688637
      }
    ],
    "wof:id": 1729358277,
    "wof:lastmodified": 1787777633,
    "wof:name": "Many amateur craftsmen created unique folk houses and other architectural buildings from the mid-1800s to the early-1900s...",
    "wof:parent_id": 1159160869,
    "wof:placetype": "custom",
    "wof:placetype_alt": [
      "instagram"
    ],
    "wof:repo": "sfomuseum-data-socialmedia-instagram",
    "wof:superseded_by": [],
    "wof:supersedes": []
  },
  "bbox": [
    -122.386166,
    37.616356,
    -122.386166,
    37.616356
  ],
  "geometry": {"type":"Point","coordinates":[-122.386166,37.616356]}
}
