{
  "id": 1729356099,
  "type": "Feature",
  "properties": {
    "date:cessation_lower": "2019-09-13",
    "date:cessation_upper": "2019-09-13",
    "date:inception_lower": "2019-09-13",
    "date:inception_upper": "2019-09-13",
    "edtf:cessation": "2019-09-13T07:00:00-07:00",
    "edtf:inception": "2019-09-13T07:00:00-07:00",
    "geom:area": 0,
    "geom:bbox": "-122.386166,37.616356,-122.386166,37.616356",
    "geom:latitude": 37.616356,
    "geom:longitude": -122.386166,
    "instagram:post": {
      "caption": {
        "body": "Robert Bechtle’s early work was as a Bay Area figurative painter, but in the 1970s, he received national acclaim as a Photorealist. His use of ordinary subject matter, harsh lighting,and unstudied composition creates a sense of ironic distance typical of the genre, but Bechtle’s paintings also have a more personal quality. Shown here is Benton Street in San Francisco, one of the familiar local neighborhoods Bechtle frequently paints.  See “San Francisco Nova” by Robert Bechtle, on display, post- security in Terminal 3. http://bit.ly/2kgIzQ8",
        "excerpt": "Robert Bechtle’s early work was as a Bay Area figurative painter, but in the 1970s, he received national acclaim as a Photorealist.",
        "hashtags": [
          "sanfrancisco",
          "painting",
          "paxex",
          "publicart",
          "RobertBechtle"
        ],
        "users": []
      },
      "media_id": "0a847e56996d137e85b0b8ac54de060f",
      "path": "media/other/69474660_497464357744763_5590725776536623099_n_17844244333638919.jpg",
      "perceptual_hash": "p:d9f40a378d1bc60b",
      "taken": 1568383200,
      "taken_at": "Sep 13, 2019 2:00 pm"
    },
    "millsfield:similar": {
      "google/siglip2-so400m-patch16-naflex": [
        {
          "distance": 0.11187136173248291,
          "id": 1729355015
        },
        {
          "distance": 0.15088379383087158,
          "id": 1729355015
        },
        {
          "distance": 0.3275129795074463,
          "id": 1729359461
        },
        {
          "distance": 0.34811991453170776,
          "id": 1729356391
        },
        {
          "distance": 0.3526160717010498,
          "id": 1729360113
        },
        {
          "distance": 0.35298603773117065,
          "id": 1729358175
        },
        {
          "distance": 0.35813355445861816,
          "id": 1729361797
        },
        {
          "distance": 0.3581451177597046,
          "id": 1729359623
        },
        {
          "distance": 0.360695481300354,
          "id": 1729360057
        },
        {
          "distance": 0.3625803589820862,
          "id": 1729356393
        }
      ]
    },
    "sfomuseum:placetype": "instagram",
    "src:geom": "sfomuseum",
    "wof:belongsto": [
      1159160869,
      102527513,
      102191575,
      85633793,
      102087579,
      85922583,
      85688637
    ],
    "wof:country": "US",
    "wof:created": 1568383200,
    "wof:geomhash": "b6e33f47475d56bc8da457bc31afadc8",
    "wof:hierarchy": [
      {
        "building_id": 1159160869,
        "campus_id": 102527513,
        "continent_id": 102191575,
        "country_id": 85633793,
        "county_id": 102087579,
        "custom_id": 1729356099,
        "instagram_id": 1729356099,
        "locality_id": 85922583,
        "neighbourhood_id": -1,
        "region_id": 85688637
      }
    ],
    "wof:id": 1729356099,
    "wof:lastmodified": 1787777628,
    "wof:name": "Robert Bechtle’s early work was as a Bay Area figurative painter, but in the 1970s, he received national acclaim as a Photorealist...",
    "wof:parent_id": 1159160869,
    "wof:placetype": "custom",
    "wof:placetype_alt": [
      "instagram"
    ],
    "wof:repo": "sfomuseum-data-socialmedia-instagram",
    "wof:superseded_by": [],
    "wof:supersedes": []
  },
  "bbox": [
    -122.386166,
    37.616356,
    -122.386166,
    37.616356
  ],
  "geometry": {"type":"Point","coordinates":[-122.386166,37.616356]}
}
