{
  "id": 1729359839,
  "type": "Feature",
  "properties": {
    "date:cessation_lower": "2017-02-08",
    "date:cessation_upper": "2017-02-08",
    "date:inception_lower": "2017-02-08",
    "date:inception_upper": "2017-02-08",
    "edtf:cessation": "2017-02-08T10:13:00-08:00",
    "edtf:inception": "2017-02-08T10:13:00-08:00",
    "geom:area": 0,
    "geom:bbox": "-122.386166,37.616356,-122.386166,37.616356",
    "geom:latitude": 37.616356,
    "geom:longitude": -122.386166,
    "instagram:post": {
      "caption": {
        "body": "Ever wonder what flight attendant training encompassed in 1959? This photograph shows several flight attendants in an aircraft classroom testing the in-flight meal service. If you have any photos of your flight attendant training experiences, please share, we'd love to see them. #WomenInAviation  Image: United Air Lines training class, Susan F. Robbins,  1959, Gift of Eric Barclay, 2016.028.008",
        "excerpt": "Ever wonder what flight attendant training encompassed in 1959?",
        "hashtags": [],
        "users": []
      },
      "media_id": "9c42965c05bdc5b71e993637a2c3021d",
      "path": "media/posts/201702/16465820_1644102009231335_2927705319637254144_n_17849379328145841.jpg",
      "perceptual_hash": "p:ebaad2719d358198",
      "taken": 1486577580,
      "taken_at": "Feb 08, 2017 6:13 pm"
    },
    "millsfield:similar": {
      "google/siglip2-so400m-patch16-naflex": [
        {
          "distance": 0.2558295726776123,
          "id": 1729359047
        },
        {
          "distance": 0.26005202531814575,
          "id": 1729355605
        },
        {
          "distance": 0.2690039277076721,
          "id": 1729355321
        },
        {
          "distance": 0.2707630395889282,
          "id": 1729359047
        },
        {
          "distance": 0.27186304330825806,
          "id": 1763559125
        },
        {
          "distance": 0.277191698551178,
          "id": 1763559125
        },
        {
          "distance": 0.28009748458862305,
          "id": 1729359397
        },
        {
          "distance": 0.28050267696380615,
          "id": 1729357953
        },
        {
          "distance": 0.28260236978530884,
          "id": 1729355351
        },
        {
          "distance": 0.2837715744972229,
          "id": 1729355113
        }
      ]
    },
    "sfomuseum:placetype": "instagram",
    "src:geom": "sfomuseum",
    "wof:belongsto": [
      1159160869,
      102527513,
      102191575,
      85633793,
      102087579,
      85922583,
      85688637
    ],
    "wof:country": "US",
    "wof:created": 1486577580,
    "wof:geomhash": "b6e33f47475d56bc8da457bc31afadc8",
    "wof:hierarchy": [
      {
        "building_id": 1159160869,
        "campus_id": 102527513,
        "continent_id": 102191575,
        "country_id": 85633793,
        "county_id": 102087579,
        "custom_id": 1729359839,
        "instagram_id": 1729359839,
        "locality_id": 85922583,
        "neighbourhood_id": -1,
        "region_id": 85688637
      }
    ],
    "wof:id": 1729359839,
    "wof:lastmodified": 1787777637,
    "wof:name": "Ever wonder what flight attendant training encompassed in 1959?..",
    "wof:parent_id": 1159160869,
    "wof:placetype": "custom",
    "wof:placetype_alt": [
      "instagram"
    ],
    "wof:repo": "sfomuseum-data-socialmedia-instagram",
    "wof:superseded_by": [],
    "wof:supersedes": []
  },
  "bbox": [
    -122.386166,
    37.616356,
    -122.386166,
    37.616356
  ],
  "geometry": {"type":"Point","coordinates":[-122.386166,37.616356]}
}
