{
  "id": 1763559013,
  "type": "Feature",
  "properties": {
    "date:cessation_lower": "2020-10-29",
    "date:cessation_upper": "2020-10-29",
    "date:inception_lower": "2020-10-29",
    "date:inception_upper": "2020-10-29",
    "edtf:cessation": "2020-10-29T08:36:00-07:00",
    "edtf:inception": "2020-10-29T08:36:00-07:00",
    "geom:area": 0,
    "geom:bbox": "-122.386166,37.616356,-122.386166,37.616356",
    "geom:latitude": 37.616356,
    "geom:longitude": -122.386166,
    "instagram:post": {
      "caption": {
        "body": "In honor of our 40th anniversary, every week this year we are highlighting one of our past exhibitions. In 2014, we presented “Doors: Entryways to World Cultures from the Fowler Museum at UCLA.” The exhibition featured house, ceremonial, tomb, granary, and palace doors dating from the nineteenth to early twentieth centuries from countries such as Nigeria, Mali, Senegal, Iran, Indonesia, Taiwan, and Suriname. Do you remember this exhibition? https://bit.ly/379tshf",
        "excerpt": "In honor of our 40th anniversary, every week this year we are highlighting one of our past exhibitions.",
        "hashtags": [
          "TBTSFOM",
          "MuseumFromHome",
          "doors"
        ],
        "users": []
      },
      "media_id": "31b339f379b5ffea3ca8747082935493f963b0de",
      "path": "media/posts/202010/122741802_373387970681976_5971801474189908972_n_18167357932009795.jpg",
      "perceptual_hash": "p:a0aa3e766b68b4e8",
      "taken": 1603985760,
      "taken_at": "Oct 29, 2020 3:36 pm"
    },
    "millsfield:similar": {
      "google/siglip2-so400m-patch16-naflex": [
        {
          "distance": 0.22926956415176392,
          "id": 1729362369
        },
        {
          "distance": 0.24370139837265015,
          "id": 1729362369
        },
        {
          "distance": 0.2785431742668152,
          "id": 1729362381
        },
        {
          "distance": 0.2808554768562317,
          "id": 1729360245
        },
        {
          "distance": 0.28171730041503906,
          "id": 1947425167
        },
        {
          "distance": 0.29162174463272095,
          "id": 1763559523
        },
        {
          "distance": 0.2982715964317322,
          "id": 1729360245
        },
        {
          "distance": 0.3029956817626953,
          "id": 1729355545
        },
        {
          "distance": 0.30304378271102905,
          "id": 1947424921
        },
        {
          "distance": 0.3036688566207886,
          "id": 1947424955
        }
      ]
    },
    "sfomuseum:placetype": "instagram",
    "src:geom": "sfomuseum",
    "wof:belongsto": [
      1159160869,
      102527513,
      102191575,
      85633793,
      102087579,
      85922583,
      85688637
    ],
    "wof:country": "US",
    "wof:created": 1603985760,
    "wof:geomhash": "b6e33f47475d56bc8da457bc31afadc8",
    "wof:hierarchy": [
      {
        "building_id": 1159160869,
        "campus_id": 102527513,
        "continent_id": 102191575,
        "country_id": 85633793,
        "county_id": 102087579,
        "custom_id": 1763559013,
        "instagram_id": 1763559013,
        "locality_id": 85922583,
        "neighbourhood_id": -1,
        "region_id": 85688637
      }
    ],
    "wof:id": 1763559013,
    "wof:lastmodified": 1787777660,
    "wof:name": "In honor of our 40th anniversary, every week this year we are highlighting one of our past exhibitions...",
    "wof:parent_id": 1159160869,
    "wof:placetype": "custom",
    "wof:placetype_alt": [
      "instagram"
    ],
    "wof:repo": "sfomuseum-data-socialmedia-instagram",
    "wof:superseded_by": [],
    "wof:supersedes": []
  },
  "bbox": [
    -122.386166,
    37.616356,
    -122.386166,
    37.616356
  ],
  "geometry": {"type":"Point","coordinates":[-122.386166,37.616356]}
}
