{
  "id": 1729357841,
  "type": "Feature",
  "properties": {
    "date:cessation_lower": "2018-07-31",
    "date:cessation_upper": "2018-07-31",
    "date:inception_lower": "2018-07-31",
    "date:inception_upper": "2018-07-31",
    "edtf:cessation": "2018-07-31T06:13:00-07:00",
    "edtf:inception": "2018-07-31T06:13:00-07:00",
    "geom:area": 0,
    "geom:bbox": "-122.386166,37.616356,-122.386166,37.616356",
    "geom:latitude": 37.616356,
    "geom:longitude": -122.386166,
    "instagram:post": {
      "caption": {
        "body": "#Onthisday in 1931, Century Pacific Air Lines began service from San Francisco to San Diego, via Oakland, Fresno, Bakersfield, and Los Angeles. Flying a bright red, ten-passenger Stinson Tri-Motor, Century Pacific Air Lines offered fares below railway fees. This photo was taken at San Francisco Airport, shortly after service began.  Image: San Francisco Airport, Century Pacific Stinson SM-6000-B tri-motor NC10840 at Mills Field, 1931. SFO Museum Collection. 2011.032.0103",
        "excerpt": "#Onthisday in 1931, Century Pacific Air Lines began service from San Francisco to San Diego, via Oakland, Fresno, Bakersfield, and Los Angeles.",
        "hashtags": [
          "avgeek",
          "SFHistory",
          "SFOHistory",
          "CenturyPacificAirLines",
          "Stinson",
          "Trimotor",
          "avationgeek",
          "aviation",
          "aviationhistory"
        ],
        "users": []
      },
      "media_id": "e1ce8b81c6b2a6327cd02cc06962a423",
      "path": "media/other/37202932_396163180911531_2527959566503641088_n_17966691058028884.jpg",
      "perceptual_hash": "p:efcb96a061451e3a",
      "taken": 1533042780,
      "taken_at": "Jul 31, 2018 1:13 pm"
    },
    "millsfield:similar": {
      "google/siglip2-so400m-patch16-naflex": [
        {
          "distance": 0.07470834255218506,
          "id": 1729360561
        },
        {
          "distance": 0.09391617774963379,
          "id": 1729356091
        },
        {
          "distance": 0.09614616632461548,
          "id": 1729360319
        },
        {
          "distance": 0.0990520715713501,
          "id": 1729361029
        },
        {
          "distance": 0.0991315245628357,
          "id": 1880151445
        },
        {
          "distance": 0.10917311906814575,
          "id": 1729361029
        },
        {
          "distance": 0.11099374294281006,
          "id": 1880151387
        },
        {
          "distance": 0.11571919918060303,
          "id": 1880151189
        },
        {
          "distance": 0.11746543645858765,
          "id": 1729358701
        },
        {
          "distance": 0.12278085947036743,
          "id": 1729357075
        }
      ]
    },
    "sfomuseum:placetype": "instagram",
    "src:geom": "sfomuseum",
    "wof:belongsto": [
      1159160869,
      102527513,
      102191575,
      85633793,
      102087579,
      85922583,
      85688637
    ],
    "wof:country": "US",
    "wof:created": 1533042780,
    "wof:geomhash": "b6e33f47475d56bc8da457bc31afadc8",
    "wof:hierarchy": [
      {
        "building_id": 1159160869,
        "campus_id": 102527513,
        "continent_id": 102191575,
        "country_id": 85633793,
        "county_id": 102087579,
        "custom_id": 1729357841,
        "instagram_id": 1729357841,
        "locality_id": 85922583,
        "neighbourhood_id": -1,
        "region_id": 85688637
      }
    ],
    "wof:id": 1729357841,
    "wof:lastmodified": 1787777632,
    "wof:name": "#Onthisday in 1931, Century Pacific Air Lines began service from San Francisco to San Diego, via Oakland, Fresno, Bakersfield, and Los Angeles...",
    "wof:parent_id": 1159160869,
    "wof:placetype": "custom",
    "wof:placetype_alt": [
      "instagram"
    ],
    "wof:repo": "sfomuseum-data-socialmedia-instagram",
    "wof:superseded_by": [],
    "wof:supersedes": []
  },
  "bbox": [
    -122.386166,
    37.616356,
    -122.386166,
    37.616356
  ],
  "geometry": {"type":"Point","coordinates":[-122.386166,37.616356]}
}
