{
  "id": 1729363053,
  "type": "Feature",
  "properties": {
    "date:cessation_lower": "2012-02-28",
    "date:cessation_upper": "2012-02-28",
    "date:inception_lower": "2012-02-28",
    "date:inception_upper": "2012-02-28",
    "edtf:cessation": "2012-02-28T04:37:00-08:00",
    "edtf:inception": "2012-02-28T04:37:00-08:00",
    "geom:area": 0,
    "geom:bbox": "-122.386166,37.616356,-122.386166,37.616356",
    "geom:latitude": 37.616356,
    "geom:longitude": -122.386166,
    "instagram:post": {
      "caption": {
        "body": "Light conservation in preparation for our upcoming T3 exhibit, Sewing in the Machine Age",
        "excerpt": "Light conservation in preparation for our upcoming T3 exhibit, Sewing in the Machine Age",
        "hashtags": [],
        "users": []
      },
      "media_id": "784bf6f087afc6d349da59ebe207f3c4",
      "path": "media/other/11084845_1140316659319231_1083497038_n_17842245379062499.jpg",
      "perceptual_hash": "p:9f95d113a64ce934",
      "taken": 1330432620,
      "taken_at": "Feb 28, 2012 12:37 pm"
    },
    "millsfield:similar": {
      "google/siglip2-so400m-patch16-naflex": [
        {
          "distance": 0.2468990683555603,
          "id": 1729362981
        },
        {
          "distance": 0.2807554006576538,
          "id": 1729362981
        },
        {
          "distance": 0.30096757411956787,
          "id": 1729362929
        },
        {
          "distance": 0.30822235345840454,
          "id": 1729362929
        },
        {
          "distance": 0.31285780668258667,
          "id": 1729362631
        },
        {
          "distance": 0.3193836212158203,
          "id": 1729358845
        },
        {
          "distance": 0.32073938846588135,
          "id": 1729356601
        },
        {
          "distance": 0.3210172653198242,
          "id": 1729357315
        },
        {
          "distance": 0.3276522159576416,
          "id": 1729363031
        },
        {
          "distance": 0.328447163105011,
          "id": 1729362973
        }
      ]
    },
    "sfomuseum:placetype": "instagram",
    "src:geom": "sfomuseum",
    "wof:belongsto": [
      1159160869,
      102527513,
      102191575,
      85633793,
      102087579,
      85922583,
      85688637
    ],
    "wof:country": "US",
    "wof:created": 1330432620,
    "wof:geomhash": "b6e33f47475d56bc8da457bc31afadc8",
    "wof:hierarchy": [
      {
        "building_id": 1159160869,
        "campus_id": 102527513,
        "continent_id": 102191575,
        "country_id": 85633793,
        "county_id": 102087579,
        "custom_id": 1729363053,
        "instagram_id": 1729363053,
        "locality_id": 85922583,
        "neighbourhood_id": -1,
        "region_id": 85688637
      }
    ],
    "wof:id": 1729363053,
    "wof:lastmodified": 1787777658,
    "wof:name": "Light conservation in preparation for our upcoming T3 exhibit, Sewing in the Machine Age..",
    "wof:parent_id": 1159160869,
    "wof:placetype": "custom",
    "wof:placetype_alt": [
      "instagram"
    ],
    "wof:repo": "sfomuseum-data-socialmedia-instagram",
    "wof:superseded_by": [],
    "wof:supersedes": []
  },
  "bbox": [
    -122.386166,
    37.616356,
    -122.386166,
    37.616356
  ],
  "geometry": {"type":"Point","coordinates":[-122.386166,37.616356]}
}
