{
  "id": 1729362503,
  "type": "Feature",
  "properties": {
    "date:cessation_lower": "2013-10-16",
    "date:cessation_upper": "2013-10-16",
    "date:inception_lower": "2013-10-16",
    "date:inception_upper": "2013-10-16",
    "edtf:cessation": "2013-10-16T07:22:00-07:00",
    "edtf:inception": "2013-10-16T07:22:00-07:00",
    "geom:area": 0,
    "geom:bbox": "-122.386166,37.616356,-122.386166,37.616356",
    "geom:latitude": 37.616356,
    "geom:longitude": -122.386166,
    "instagram:post": {
      "caption": {
        "body": "",
        "excerpt": "",
        "hashtags": [
          "americascup"
        ],
        "users": []
      },
      "media_id": "6d7bf50bae010e1ba8477cf707e510f7",
      "path": "media/other/11417348_113647172302824_1219003587_n_17842368226062499.jpg",
      "perceptual_hash": "p:adc0f238db25ca33",
      "taken": 1381933320,
      "taken_at": "Oct 16, 2013 2:22 pm"
    },
    "millsfield:similar": {
      "google/siglip2-so400m-patch16-naflex": [
        {
          "distance": 0.3043385148048401,
          "id": 1729362983
        },
        {
          "distance": 0.31692689657211304,
          "id": 1729362551
        },
        {
          "distance": 0.3228875398635864,
          "id": 1729363021
        },
        {
          "distance": 0.324176549911499,
          "id": 1729362977
        },
        {
          "distance": 0.3382132053375244,
          "id": 1729363021
        },
        {
          "distance": 0.3483230471611023,
          "id": 1729355973
        },
        {
          "distance": 0.34925997257232666,
          "id": 1729362983
        },
        {
          "distance": 0.3495326638221741,
          "id": 1729362551
        },
        {
          "distance": 0.35062462091445923,
          "id": 1729362977
        },
        {
          "distance": 0.3570002317428589,
          "id": 1729361811
        }
      ]
    },
    "sfomuseum:placetype": "instagram",
    "src:geom": "sfomuseum",
    "wof:belongsto": [
      1159160869,
      102527513,
      102191575,
      85633793,
      102087579,
      85922583,
      85688637
    ],
    "wof:country": "US",
    "wof:created": 1381933320,
    "wof:geomhash": "b6e33f47475d56bc8da457bc31afadc8",
    "wof:hierarchy": [
      {
        "building_id": 1159160869,
        "campus_id": 102527513,
        "continent_id": 102191575,
        "country_id": 85633793,
        "county_id": 102087579,
        "custom_id": 1729362503,
        "instagram_id": 1729362503,
        "locality_id": 85922583,
        "neighbourhood_id": -1,
        "region_id": 85688637
      }
    ],
    "wof:id": 1729362503,
    "wof:lastmodified": 1787777647,
    "wof:name": "..",
    "wof:parent_id": 1159160869,
    "wof:placetype": "custom",
    "wof:placetype_alt": [
      "instagram"
    ],
    "wof:repo": "sfomuseum-data-socialmedia-instagram",
    "wof:superseded_by": [],
    "wof:supersedes": []
  },
  "bbox": [
    -122.386166,
    37.616356,
    -122.386166,
    37.616356
  ],
  "geometry": {"type":"Point","coordinates":[-122.386166,37.616356]}
}
