{
  "id": 1729361785,
  "type": "Feature",
  "properties": {
    "date:cessation_lower": "2015-05-14",
    "date:cessation_upper": "2015-05-14",
    "date:inception_lower": "2015-05-14",
    "date:inception_upper": "2015-05-14",
    "edtf:cessation": "2015-05-14T06:29:00-07:00",
    "edtf:inception": "2015-05-14T06:29:00-07:00",
    "geom:area": 0,
    "geom:bbox": "-122.386166,37.616356,-122.386166,37.616356",
    "geom:latitude": 37.616356,
    "geom:longitude": -122.386166,
    "instagram:post": {
      "caption": {
        "body": "",
        "excerpt": "",
        "hashtags": [
          "KirksMonsters",
          "ClassicMonsters",
          "monsters"
        ],
        "users": [
          "KirkHammett"
        ]
      },
      "media_id": "4117383e8cce08c689ffa231709fb076",
      "path": "media/other/11263513_643019392467016_77017505_n_17841610270062499.jpg",
      "perceptual_hash": "p:e3bf4c03e3646703",
      "taken": 1431610140,
      "taken_at": "May 14, 2015 1:29 pm"
    },
    "millsfield:similar": {
      "google/siglip2-so400m-patch16-naflex": [
        {
          "distance": 0.27140289545059204,
          "id": 1729361813
        },
        {
          "distance": 0.29297131299972534,
          "id": 1729361669
        },
        {
          "distance": 0.2988918423652649,
          "id": 1729361321
        },
        {
          "distance": 0.3127897381782532,
          "id": 1729361669
        },
        {
          "distance": 0.3162480592727661,
          "id": 1729361813
        },
        {
          "distance": 0.3240419030189514,
          "id": 1729361321
        },
        {
          "distance": 0.3286558985710144,
          "id": 1729361789
        },
        {
          "distance": 0.3309212923049927,
          "id": 1729361829
        },
        {
          "distance": 0.3376702666282654,
          "id": 1729361649
        },
        {
          "distance": 0.3495817184448242,
          "id": 1729362053
        }
      ]
    },
    "sfomuseum:placetype": "instagram",
    "src:geom": "sfomuseum",
    "wof:belongsto": [
      1159160869,
      102527513,
      102191575,
      85633793,
      102087579,
      85922583,
      85688637
    ],
    "wof:country": "US",
    "wof:created": 1431610140,
    "wof:geomhash": "b6e33f47475d56bc8da457bc31afadc8",
    "wof:hierarchy": [
      {
        "building_id": 1159160869,
        "campus_id": 102527513,
        "continent_id": 102191575,
        "country_id": 85633793,
        "county_id": 102087579,
        "custom_id": 1729361785,
        "instagram_id": 1729361785,
        "locality_id": 85922583,
        "neighbourhood_id": -1,
        "region_id": 85688637
      }
    ],
    "wof:id": 1729361785,
    "wof:lastmodified": 1787777646,
    "wof:name": "..",
    "wof:parent_id": 1159160869,
    "wof:placetype": "custom",
    "wof:placetype_alt": [
      "instagram"
    ],
    "wof:repo": "sfomuseum-data-socialmedia-instagram",
    "wof:superseded_by": [],
    "wof:supersedes": []
  },
  "bbox": [
    -122.386166,
    37.616356,
    -122.386166,
    37.616356
  ],
  "geometry": {"type":"Point","coordinates":[-122.386166,37.616356]}
}
