{
  "id": 1729357635,
  "type": "Feature",
  "properties": {
    "date:cessation_lower": "2018-09-23",
    "date:cessation_upper": "2018-09-23",
    "date:inception_lower": "2018-09-23",
    "date:inception_upper": "2018-09-23",
    "edtf:cessation": "2018-09-23T09:29:00-07:00",
    "edtf:inception": "2018-09-23T09:29:00-07:00",
    "geom:area": 0,
    "geom:bbox": "-122.386166,37.616356,-122.386166,37.616356",
    "geom:latitude": 37.616356,
    "geom:longitude": -122.386166,
    "instagram:post": {
      "caption": {
        "body": "Need some design inspiration or nostalgic for the golden age of aviation? Our online database has a great selection of aviation advertisements from the 1920s to the 1980s. http://bit.ly/2ekE1Ct  Image: Panagra (Pan American-Grace Airways), Everfast, Holiday magazine advertisement, 1953. Gift of Barnaby Conrad III. 2001.038.164.071 a b",
        "excerpt": "Need some design inspiration or nostalgic for the golden age of aviation?",
        "hashtags": [
          "graphicdesign",
          "graphic",
          "nostalgia",
          "avgeek",
          "aviation",
          "database",
          "advertisements",
          "avgeek",
          "panam",
          "paa",
          "panagra",
          "aviationgeek",
          "aviation",
          "aviationhistory"
        ],
        "users": []
      },
      "media_id": "cf162fa94cb7befe4d78c49af57365ed",
      "path": "media/other/41977760_238462417015192_486744129658855296_n_17957015650142302.jpg",
      "perceptual_hash": "p:da25be46e0db3524",
      "taken": 1537720140,
      "taken_at": "Sep 23, 2018 4:29 pm"
    },
    "millsfield:similar": {
      "google/siglip2-so400m-patch16-naflex": [
        {
          "distance": 0.004531681537628174,
          "id": 1729360119
        },
        {
          "distance": 0.08842402696609497,
          "id": 1729360119
        },
        {
          "distance": 0.28366535902023315,
          "id": 1880150923
        },
        {
          "distance": 0.2909756302833557,
          "id": 1729358575
        },
        {
          "distance": 0.29215288162231445,
          "id": 1729360479
        },
        {
          "distance": 0.2973541021347046,
          "id": 1729356715
        },
        {
          "distance": 0.29902786016464233,
          "id": 1729359833
        },
        {
          "distance": 0.2990320920944214,
          "id": 1880150923
        },
        {
          "distance": 0.300412654876709,
          "id": 1729358691
        },
        {
          "distance": 0.30083250999450684,
          "id": 1729361045
        }
      ]
    },
    "sfomuseum:placetype": "instagram",
    "src:geom": "sfomuseum",
    "wof:belongsto": [
      1159160869,
      102527513,
      102191575,
      85633793,
      102087579,
      85922583,
      85688637
    ],
    "wof:country": "US",
    "wof:created": 1537720140,
    "wof:geomhash": "b6e33f47475d56bc8da457bc31afadc8",
    "wof:hierarchy": [
      {
        "building_id": 1159160869,
        "campus_id": 102527513,
        "continent_id": 102191575,
        "country_id": 85633793,
        "county_id": 102087579,
        "custom_id": 1729357635,
        "instagram_id": 1729357635,
        "locality_id": 85922583,
        "neighbourhood_id": -1,
        "region_id": 85688637
      }
    ],
    "wof:id": 1729357635,
    "wof:lastmodified": 1787777632,
    "wof:name": "Need some design inspiration or nostalgic for the golden age of aviation?..",
    "wof:parent_id": 1159160869,
    "wof:placetype": "custom",
    "wof:placetype_alt": [
      "instagram"
    ],
    "wof:repo": "sfomuseum-data-socialmedia-instagram",
    "wof:superseded_by": [],
    "wof:supersedes": []
  },
  "bbox": [
    -122.386166,
    37.616356,
    -122.386166,
    37.616356
  ],
  "geometry": {"type":"Point","coordinates":[-122.386166,37.616356]}
}
