{
  "id": 1729362021,
  "type": "Feature",
  "properties": {
    "date:cessation_lower": "2014-12-05",
    "date:cessation_upper": "2014-12-05",
    "date:inception_lower": "2014-12-05",
    "date:inception_upper": "2014-12-05",
    "edtf:cessation": "2014-12-05T08:20:00-08:00",
    "edtf:inception": "2014-12-05T08:20:00-08:00",
    "geom:area": 0,
    "geom:bbox": "-122.386166,37.616356,-122.386166,37.616356",
    "geom:latitude": 37.616356,
    "geom:longitude": -122.386166,
    "instagram:post": {
      "caption": {
        "body": "Rock out and stay groovy this weekend! [image above]  The Chamber Brothers 1967 Artist: Victor Moscoso Matrix, San Francisco Courtesy of Vance Carpenter",
        "excerpt": "Rock out and stay groovy this weekend!",
        "hashtags": [],
        "users": []
      },
      "media_id": "1b94b86e43969cc95b33eb073f26e35a",
      "path": "media/other/10848142_908381889179794_1794268335_n_17842500313062499.jpg",
      "perceptual_hash": "p:cc3d72c41cd9d166",
      "taken": 1417796400,
      "taken_at": "Dec 05, 2014 4:20 pm"
    },
    "millsfield:similar": {
      "google/siglip2-so400m-patch16-naflex": [
        {
          "distance": 0.2606440782546997,
          "id": 1729362019
        },
        {
          "distance": 0.2776194214820862,
          "id": 1729361885
        },
        {
          "distance": 0.28855133056640625,
          "id": 1729359681
        },
        {
          "distance": 0.289303183555603,
          "id": 1729362047
        },
        {
          "distance": 0.2896565794944763,
          "id": 1729361675
        },
        {
          "distance": 0.2991832494735718,
          "id": 1729362181
        },
        {
          "distance": 0.30157333612442017,
          "id": 1729361969
        },
        {
          "distance": 0.3017505407333374,
          "id": 1729362115
        },
        {
          "distance": 0.3031306862831116,
          "id": 1729362169
        },
        {
          "distance": 0.3067038655281067,
          "id": 1729357097
        }
      ]
    },
    "sfomuseum:placetype": "instagram",
    "src:geom": "sfomuseum",
    "wof:belongsto": [
      1159160869,
      102527513,
      102191575,
      85633793,
      102087579,
      85922583,
      85688637
    ],
    "wof:country": "US",
    "wof:created": 1417796400,
    "wof:geomhash": "b6e33f47475d56bc8da457bc31afadc8",
    "wof:hierarchy": [
      {
        "building_id": 1159160869,
        "campus_id": 102527513,
        "continent_id": 102191575,
        "country_id": 85633793,
        "county_id": 102087579,
        "custom_id": 1729362021,
        "instagram_id": 1729362021,
        "locality_id": 85922583,
        "neighbourhood_id": -1,
        "region_id": 85688637
      }
    ],
    "wof:id": 1729362021,
    "wof:lastmodified": 1787777646,
    "wof:name": "Rock out and stay groovy this weekend!..",
    "wof:parent_id": 1159160869,
    "wof:placetype": "custom",
    "wof:placetype_alt": [
      "instagram"
    ],
    "wof:repo": "sfomuseum-data-socialmedia-instagram",
    "wof:superseded_by": [],
    "wof:supersedes": []
  },
  "bbox": [
    -122.386166,
    37.616356,
    -122.386166,
    37.616356
  ],
  "geometry": {"type":"Point","coordinates":[-122.386166,37.616356]}
}
