{
  "id": 1729361485,
  "type": "Feature",
  "properties": {
    "date:cessation_lower": "2015-10-02",
    "date:cessation_upper": "2015-10-02",
    "date:inception_lower": "2015-10-02",
    "date:inception_upper": "2015-10-02",
    "edtf:cessation": "2015-10-02T11:13:00-07:00",
    "edtf:inception": "2015-10-02T11:13:00-07:00",
    "geom:area": 0,
    "geom:bbox": "-122.386166,37.616356,-122.386166,37.616356",
    "geom:latitude": 37.616356,
    "geom:longitude": -122.386166,
    "instagram:post": {
      "caption": {
        "body": "Travel posters endeavor to showcase a destination’s most interesting attractions. As the Transamerica Pyramid was completed in 1972, it is featured in this Pan American poster from the 1980s as one of San Francisco’s newer landmarks. The Transamerica building, once the tallest building in the San Francisco skyline, was built in its distinctive triangular shape to allow sunlight to shine on the street below.",
        "excerpt": "Travel posters endeavor to showcase a destination’s most interesting attractions.",
        "hashtags": [],
        "users": []
      },
      "media_id": "f191146ece5df0c670dbf5bf1f5ada5a",
      "path": "media/other/12080511_1653772058213657_1266018475_n_17843994181062499.jpg",
      "perceptual_hash": "p:ea33916c9769929c",
      "taken": 1443809580,
      "taken_at": "Oct 02, 2015 6:13 pm"
    },
    "millsfield:similar": {
      "google/siglip2-so400m-patch16-naflex": [
        {
          "distance": 0.22013187408447266,
          "id": 1763559487
        },
        {
          "distance": 0.22230082750320435,
          "id": 1763559327
        },
        {
          "distance": 0.2390325665473938,
          "id": 1729361531
        },
        {
          "distance": 0.2502029538154602,
          "id": 1947425117
        },
        {
          "distance": 0.2625150680541992,
          "id": 1729357473
        },
        {
          "distance": 0.26273268461227417,
          "id": 1947424925
        },
        {
          "distance": 0.2700387239456177,
          "id": 1763559487
        },
        {
          "distance": 0.2711639404296875,
          "id": 1729359455
        },
        {
          "distance": 0.2724608778953552,
          "id": 1763559327
        },
        {
          "distance": 0.2801792025566101,
          "id": 1729355323
        }
      ]
    },
    "sfomuseum:placetype": "instagram",
    "src:geom": "sfomuseum",
    "wof:belongsto": [
      1159160869,
      102527513,
      102191575,
      85633793,
      102087579,
      85922583,
      85688637
    ],
    "wof:country": "US",
    "wof:created": 1443809580,
    "wof:geomhash": "b6e33f47475d56bc8da457bc31afadc8",
    "wof:hierarchy": [
      {
        "building_id": 1159160869,
        "campus_id": 102527513,
        "continent_id": 102191575,
        "country_id": 85633793,
        "county_id": 102087579,
        "custom_id": 1729361485,
        "instagram_id": 1729361485,
        "locality_id": 85922583,
        "neighbourhood_id": -1,
        "region_id": 85688637
      }
    ],
    "wof:id": 1729361485,
    "wof:lastmodified": 1787777645,
    "wof:name": "Travel posters endeavor to showcase a destination’s most interesting attractions...",
    "wof:parent_id": 1159160869,
    "wof:placetype": "custom",
    "wof:placetype_alt": [
      "instagram"
    ],
    "wof:repo": "sfomuseum-data-socialmedia-instagram",
    "wof:superseded_by": [],
    "wof:supersedes": []
  },
  "bbox": [
    -122.386166,
    37.616356,
    -122.386166,
    37.616356
  ],
  "geometry": {"type":"Point","coordinates":[-122.386166,37.616356]}
}
