{
  "id": 1947425001,
  "type": "Feature",
  "properties": {
    "date:cessation_lower": "2024-05-22",
    "date:cessation_upper": "2024-05-22",
    "date:inception_lower": "2024-05-22",
    "date:inception_upper": "2024-05-22",
    "edtf:cessation": "2024-05-22T08:51:00-07:00",
    "edtf:inception": "2024-05-22T08:51:00-07:00",
    "geom:area": 0,
    "geom:bbox": "-122.386166,37.616356,-122.386166,37.616356",
    "geom:latitude": 37.616356,
    "geom:longitude": -122.386166,
    "instagram:post": {
      "caption": {
        "body": "Harvey Milk Day, organized by the Harvey Milk Foundation (@harveymilkfoundation), is celebrated each year on May 22 on Harvey Milk’s birthday. Milk was the first openly gay elected official in the state of California. Elected to the San Francisco Board of Supervisors, Milk represented District 5, which included Castro Street. Milk campaigned for gay rights and along San Francisco Mayor George Moscone helped pass a city ordinance authored by Milk that banned discrimination based on sexual orientation in employment and housing. Milk and Moscone were assassinated in 1978 by former Board of Supervisors member Dan White.  Learn more about Harvey Milk's life and legacy in our exhibition, \"Messenger of Hope,\" which is on view pre-security in Harvey Milk Terminal 1. Not traveling? The exhibition catalog is available to read online! https://bit.ly/HMT1Exhibit  📸:  Supervisor Harvey Milk and Mayor George Moscone at City Hall March 29, 1978 Photograph by Efren Convento Ramirez (1941–2017) Collection of Efren Ramirez; Courtesy of the GLBT Historical Society R2019.0202.007  Harvey Milk watches while Mayor George Moscone signs the citywide anti-discrimination ordinance March 29, 1978 Photograph by Efren Convento Ramirez (1941–2017) Collection of Efren Ramirez; Courtesy of the GLBT Historical Society R2019.0202.012",
        "excerpt": "Harvey Milk Day, organized by the Harvey Milk Foundation (@harveymilkfoundation), is celebrated each year on May 22 on Harvey Milk’s birthday.",
        "hashtags": [
          "HarveyMilkDay"
        ],
        "users": []
      },
      "media_id": "f4a6e2a3b6ce1e6c31c028ccef76b9dcd3bb2eea",
      "path": "media/posts/202405/445838878_467596189067897_7323767013832455000_n_18051126628598484.jpg",
      "perceptual_hash": "p:add04ae79946bf40",
      "taken": 1716393060,
      "taken_at": "May 22, 2024 3:51 pm"
    },
    "millsfield:similar": {
      "google/siglip2-so400m-patch16-naflex": [
        {
          "distance": 0.12098824977874756,
          "id": 1763559571
        },
        {
          "distance": 0.13768911361694336,
          "id": 1763559571
        },
        {
          "distance": 0.14560681581497192,
          "id": 1729355237
        },
        {
          "distance": 0.14592903852462769,
          "id": 1880151415
        },
        {
          "distance": 0.16149556636810303,
          "id": 1880151415
        },
        {
          "distance": 0.18010592460632324,
          "id": 1880151649
        },
        {
          "distance": 0.18388432264328003,
          "id": 1763558935
        },
        {
          "distance": 0.19022893905639648,
          "id": 1763559417
        },
        {
          "distance": 0.19446665048599243,
          "id": 1880151235
        },
        {
          "distance": 0.19618332386016846,
          "id": 1880150993
        }
      ]
    },
    "sfomuseum:placetype": "instagram",
    "src:geom": "sfomuseum",
    "wof:belongsto": [
      1159160869,
      102527513,
      102191575,
      85633793,
      102087579,
      85922583,
      85688637
    ],
    "wof:country": "US",
    "wof:created": 1716393060,
    "wof:geomhash": "b6e33f47475d56bc8da457bc31afadc8",
    "wof:hierarchy": [
      {
        "building_id": 1159160869,
        "campus_id": 102527513,
        "continent_id": 102191575,
        "country_id": 85633793,
        "county_id": 102087579,
        "custom_id": 1947425001,
        "locality_id": 85922583,
        "neighbourhood_id": -1,
        "region_id": 85688637
      }
    ],
    "wof:id": 1947425001,
    "wof:lastmodified": 1787777664,
    "wof:name": "Harvey Milk Day, organized by the Harvey Milk Foundation (@harveymilkfoundation), is celebrated each year on May 22 on Harvey Milk’s birthday...",
    "wof:parent_id": 1159160869,
    "wof:placetype": "custom",
    "wof:repo": "sfomuseum-data-socialmedia-instagram",
    "wof:superseded_by": [],
    "wof:supersedes": []
  },
  "bbox": [
    -122.386166,
    37.616356,
    -122.386166,
    37.616356
  ],
  "geometry": {"type":"Point","coordinates":[-122.386166,37.616356]}
}
