{
  "id": 1729363019,
  "type": "Feature",
  "properties": {
    "date:cessation_lower": "2012-04-27",
    "date:cessation_upper": "2012-04-27",
    "date:inception_lower": "2012-04-27",
    "date:inception_upper": "2012-04-27",
    "edtf:cessation": "2012-04-27T07:49:00-07:00",
    "edtf:inception": "2012-04-27T07:49:00-07:00",
    "geom:area": 0,
    "geom:bbox": "-122.386166,37.616356,-122.386166,37.616356",
    "geom:latitude": 37.616356,
    "geom:longitude": -122.386166,
    "instagram:post": {
      "caption": {
        "body": "How to stand a bike up for photography? Fishing line, tubing, \u0026 lots of care!",
        "excerpt": "How to stand a bike up for photography?",
        "hashtags": [],
        "users": []
      },
      "media_id": "926c9343819f27f6e8e78904af120b8c",
      "path": "media/other/11190978_444397325728050_1189530528_n_17842248610062499.jpg",
      "perceptual_hash": "p:9730c301ceeb4de6",
      "taken": 1335538140,
      "taken_at": "Apr 27, 2012 2:49 pm"
    },
    "millsfield:similar": {
      "google/siglip2-so400m-patch16-naflex": [
        {
          "distance": 0.2235935926437378,
          "id": 1729363049
        },
        {
          "distance": 0.22384339570999146,
          "id": 1729362801
        },
        {
          "distance": 0.24322795867919922,
          "id": 1729363049
        },
        {
          "distance": 0.26804596185684204,
          "id": 1729362955
        },
        {
          "distance": 0.2687159776687622,
          "id": 1729362815
        },
        {
          "distance": 0.2725980877876282,
          "id": 1729362955
        },
        {
          "distance": 0.27863097190856934,
          "id": 1729362815
        },
        {
          "distance": 0.2794709801673889,
          "id": 1729362801
        },
        {
          "distance": 0.2871623635292053,
          "id": 1729362853
        },
        {
          "distance": 0.28872859477996826,
          "id": 1729362925
        }
      ]
    },
    "sfomuseum:placetype": "instagram",
    "src:geom": "sfomuseum",
    "wof:belongsto": [
      1159160869,
      102527513,
      102191575,
      85633793,
      102087579,
      85922583,
      85688637
    ],
    "wof:country": "US",
    "wof:created": 1335538140,
    "wof:geomhash": "b6e33f47475d56bc8da457bc31afadc8",
    "wof:hierarchy": [
      {
        "building_id": 1159160869,
        "campus_id": 102527513,
        "continent_id": 102191575,
        "country_id": 85633793,
        "county_id": 102087579,
        "custom_id": 1729363019,
        "instagram_id": 1729363019,
        "locality_id": 85922583,
        "neighbourhood_id": -1,
        "region_id": 85688637
      }
    ],
    "wof:id": 1729363019,
    "wof:lastmodified": 1787777657,
    "wof:name": "How to stand a bike up for photography?..",
    "wof:parent_id": 1159160869,
    "wof:placetype": "custom",
    "wof:placetype_alt": [
      "instagram"
    ],
    "wof:repo": "sfomuseum-data-socialmedia-instagram",
    "wof:superseded_by": [],
    "wof:supersedes": []
  },
  "bbox": [
    -122.386166,
    37.616356,
    -122.386166,
    37.616356
  ],
  "geometry": {"type":"Point","coordinates":[-122.386166,37.616356]}
}
