{
  "id": 1729358225,
  "type": "Feature",
  "properties": {
    "date:cessation_lower": "2018-05-15",
    "date:cessation_upper": "2018-05-15",
    "date:inception_lower": "2018-05-15",
    "date:inception_upper": "2018-05-15",
    "edtf:cessation": "2018-05-15T09:12:00-07:00",
    "edtf:inception": "2018-05-15T09:12:00-07:00",
    "geom:area": 0,
    "geom:bbox": "-122.386166,37.616356,-122.386166,37.616356",
    "geom:latitude": 37.616356,
    "geom:longitude": -122.386166,
    "instagram:post": {
      "caption": {
        "body": "#OnThisDay in 1930, the first female cabin crewmember, Ellen Church, started her first shift for Boeing Air Transport (BAT). Hired by BAT at its San Francisco office, she pioneered the “stewardess” profession by selecting seven more women for hire. During the 1930s, stewardesses hired by airlines were required to be trained nurses and unmarried. Their jobs included weighing passengers and luggage, loading and unloading bags, helping to fuel airplanes, and occasionally pushing the airplane into hangars.  Image: United Air Lines, Ellen Church, first stewardess, 1930. Gift of United Airlines Archives. 1999.047.311",
        "excerpt": "#OnThisDay in 1930, the first female cabin crewmember, Ellen Church, started her first shift for Boeing Air Transport (BAT).",
        "hashtags": [
          "EllenChurch",
          "Boeing",
          "BoeingAirTransport",
          "BAT",
          "flightattendant",
          "crewlife",
          "stewardess",
          "avgeek",
          "avationgeek",
          "aviation",
          "aviationhistory",
          "vintageaviation",
          "history",
          "avhistory",
          "aviationgeeks",
          "avgeeks"
        ],
        "users": []
      },
      "media_id": "b9bf677080dab1b173862d08426ccd49",
      "path": "media/other/32077556_239009569980537_4187333285258461184_n_17931738133107905.jpg",
      "perceptual_hash": "p:b4b64d49728e4c6b",
      "taken": 1526400720,
      "taken_at": "May 15, 2018 4:12 pm"
    },
    "millsfield:similar": {
      "google/siglip2-so400m-patch16-naflex": [
        {
          "distance": 0.05064624547958374,
          "id": 1880151765
        },
        {
          "distance": 0.05096644163131714,
          "id": 1729359503
        },
        {
          "distance": 0.10840541124343872,
          "id": 1729357679
        },
        {
          "distance": 0.1385853886604309,
          "id": 1729358463
        },
        {
          "distance": 0.15322458744049072,
          "id": 1729359503
        },
        {
          "distance": 0.1615799069404602,
          "id": 1880151765
        },
        {
          "distance": 0.16473746299743652,
          "id": 1729357679
        },
        {
          "distance": 0.17473089694976807,
          "id": 1729361355
        },
        {
          "distance": 0.19062471389770508,
          "id": 1729360785
        },
        {
          "distance": 0.20878976583480835,
          "id": 1729355471
        }
      ]
    },
    "sfomuseum:placetype": "instagram",
    "src:geom": "sfomuseum",
    "wof:belongsto": [
      1159160869,
      102527513,
      102191575,
      85633793,
      102087579,
      85922583,
      85688637
    ],
    "wof:country": "US",
    "wof:created": 1526400720,
    "wof:geomhash": "b6e33f47475d56bc8da457bc31afadc8",
    "wof:hierarchy": [
      {
        "building_id": 1159160869,
        "campus_id": 102527513,
        "continent_id": 102191575,
        "country_id": 85633793,
        "county_id": 102087579,
        "custom_id": 1729358225,
        "instagram_id": 1729358225,
        "locality_id": 85922583,
        "neighbourhood_id": -1,
        "region_id": 85688637
      }
    ],
    "wof:id": 1729358225,
    "wof:lastmodified": 1787777633,
    "wof:name": "#OnThisDay in 1930, the first female cabin crewmember, Ellen Church, started her first shift for Boeing Air Transport (BAT)...",
    "wof:parent_id": 1159160869,
    "wof:placetype": "custom",
    "wof:placetype_alt": [
      "instagram"
    ],
    "wof:repo": "sfomuseum-data-socialmedia-instagram",
    "wof:superseded_by": [],
    "wof:supersedes": []
  },
  "bbox": [
    -122.386166,
    37.616356,
    -122.386166,
    37.616356
  ],
  "geometry": {"type":"Point","coordinates":[-122.386166,37.616356]}
}
