{
  "id": 1880151761,
  "type": "Feature",
  "properties": {
    "date:cessation_lower": "2022-05-02",
    "date:cessation_upper": "2022-05-02",
    "date:inception_lower": "2022-05-02",
    "date:inception_upper": "2022-05-02",
    "edtf:cessation": "2022-05-02T08:37:00-07:00",
    "edtf:inception": "2022-05-02T08:37:00-07:00",
    "geom:area": 0,
    "geom:bbox": "-122.386166,37.616356,-122.386166,37.616356",
    "geom:latitude": 37.616356,
    "geom:longitude": -122.386166,
    "instagram:post": {
      "caption": {
        "body": "What will you eat your inflight meal on? Browse through over three hundred serving dishes on our collection website! https://bit.ly/3L320SU",
        "excerpt": "What will you eat your inflight meal on?",
        "hashtags": [
          "avgeek",
          "aviationhistory",
          "collections",
          "dishes"
        ],
        "users": []
      },
      "media_id": "2af202e823d63f9bd1309d7b10723ab293a3b109",
      "path": "media/posts/202205/279826374_1341965082962024_7935200677173424059_n_17916482738320364.jpg",
      "perceptual_hash": "p:d4986ac3e54f943c",
      "taken": 1651505820,
      "taken_at": "May 02, 2022 3:37 pm"
    },
    "millsfield:similar": {
      "google/siglip2-so400m-patch16-naflex": [
        {
          "distance": 0.3014978766441345,
          "id": 1729360511
        },
        {
          "distance": 0.3162294030189514,
          "id": 1729357193
        },
        {
          "distance": 0.3261083960533142,
          "id": 1729360511
        },
        {
          "distance": 0.37530094385147095,
          "id": 1729359141
        },
        {
          "distance": 0.3791160583496094,
          "id": 1729357193
        },
        {
          "distance": 0.3882158398628235,
          "id": 1729360451
        },
        {
          "distance": 0.39136266708374023,
          "id": 1729362239
        },
        {
          "distance": 0.39287739992141724,
          "id": 1729357399
        },
        {
          "distance": 0.4000939726829529,
          "id": 1729359141
        },
        {
          "distance": 0.403822660446167,
          "id": 1729361191
        }
      ]
    },
    "sfomuseum:placetype": "instagram",
    "src:geom": "sfomuseum",
    "wof:belongsto": [
      1159160869,
      102527513,
      102191575,
      85633793,
      102087579,
      85922583,
      85688637
    ],
    "wof:country": "US",
    "wof:created": 1651505820,
    "wof:geomhash": "b6e33f47475d56bc8da457bc31afadc8",
    "wof:hierarchy": [
      {
        "building_id": 1159160869,
        "campus_id": 102527513,
        "continent_id": 102191575,
        "country_id": 85633793,
        "county_id": 102087579,
        "custom_id": 1880151761,
        "instagram_id": 1880151761,
        "locality_id": 85922583,
        "neighbourhood_id": -1,
        "region_id": 85688637
      }
    ],
    "wof:id": 1880151761,
    "wof:lastmodified": 1787777663,
    "wof:name": "What will you eat your inflight meal on?..",
    "wof:parent_id": 1159160869,
    "wof:placetype": "custom",
    "wof:placetype_alt": [
      "instagram"
    ],
    "wof:repo": "sfomuseum-data-socialmedia-instagram",
    "wof:superseded_by": [],
    "wof:supersedes": []
  },
  "bbox": [
    -122.386166,
    37.616356,
    -122.386166,
    37.616356
  ],
  "geometry": {"type":"Point","coordinates":[-122.386166,37.616356]}
}
