{
  "id": 1729358767,
  "type": "Feature",
  "properties": {
    "date:cessation_lower": "2017-12-29",
    "date:cessation_upper": "2017-12-29",
    "date:inception_lower": "2017-12-29",
    "date:inception_upper": "2017-12-29",
    "edtf:cessation": "2017-12-28T17:16:49-08:00",
    "edtf:inception": "2017-12-28T17:16:49-08:00",
    "geom:area": 0,
    "geom:bbox": "-122.386166,37.616356,-122.386166,37.616356",
    "geom:latitude": 37.616356,
    "geom:longitude": -122.386166,
    "instagram:post": {
      "caption": {
        "body": "In the 1890s, the cost of a new, full-size typewriter was more than the average American earned in one month. Index typewriters were a simpler and more affordable alternative. Available at a fraction of the price and manufactured in a variety of designs, they were the earliest portable writing machines. The innovative wheel-index Victor typewriter printed from type attached to the ends of strips arranged in a daisy-wheel pattern, much like the IBM Wheelwriter a century later.  Learn more about typewriters in our exhibition, \"The Typewriter: An Innovation in Writing\", post-security, in Terminal 2. http://bit.ly/Thetypewriter",
        "excerpt": "In the 1890s, the cost of a new, full-size typewriter was more than the average American earned in one month.",
        "hashtags": [
          "thetypewriter",
          "typewriter",
          "typewriters",
          "industrialdesign",
          "QWERTY",
          "keyboard",
          "keyboards",
          "design",
          "innovation",
          "type",
          "typer",
          "typing",
          "typist",
          "oldschool",
          "instagood",
          "writer",
          "writing",
          "vintagetypewriter",
          "vintage",
          "analog",
          "antique",
          "typewritten",
          "typed",
          "typewriting",
          "oldtypewriters",
          "typewritersofinstagram"
        ],
        "users": []
      },
      "location": "",
      "media_id": "f939bdd56c2574e91dcd5f82c71b74f9",
      "path": "photos/201712/f939bdd56c2574e91dcd5f82c71b74f9.jpg",
      "perceptual_hash": "p:f48b85f617ca2865",
      "taken": 1514481360,
      "taken_at": "Dec 28, 2017, 5:16 PM"
    },
    "millsfield:similar": {
      "google/siglip2-so400m-patch16-naflex": [
        {
          "distance": 0.004951119422912598,
          "id": 1729359181
        },
        {
          "distance": 0.08440560102462769,
          "id": 1729359181
        },
        {
          "distance": 0.1422857642173767,
          "id": 1729358989
        },
        {
          "distance": 0.1545516848564148,
          "id": 1729359125
        },
        {
          "distance": 0.15493780374526978,
          "id": 1729358983
        },
        {
          "distance": 0.16552692651748657,
          "id": 1729359317
        },
        {
          "distance": 0.17972660064697266,
          "id": 1729359179
        },
        {
          "distance": 0.1810985803604126,
          "id": 1729359439
        },
        {
          "distance": 0.18338382244110107,
          "id": 1729359001
        },
        {
          "distance": 0.18396931886672974,
          "id": 1729358773
        }
      ]
    },
    "sfomuseum:placetype": "instagram",
    "src:geom": "sfomuseum",
    "wof:belongsto": [
      1159160869,
      102527513,
      102191575,
      85633793,
      102087579,
      85922583,
      85688637
    ],
    "wof:country": "US",
    "wof:created": 1514510209,
    "wof:geomhash": "b6e33f47475d56bc8da457bc31afadc8",
    "wof:hierarchy": [
      {
        "building_id": 1159160869,
        "campus_id": 102527513,
        "continent_id": 102191575,
        "country_id": 85633793,
        "county_id": 102087579,
        "custom_id": 1729358767,
        "instagram_id": 1729358767,
        "locality_id": 85922583,
        "neighbourhood_id": -1,
        "region_id": 85688637
      }
    ],
    "wof:id": 1729358767,
    "wof:lastmodified": 1787777634,
    "wof:name": "In the 1890s, the cost of a new, full-size typewriter was more than the average American earned in one month...",
    "wof:parent_id": 1159160869,
    "wof:placetype": "custom",
    "wof:placetype_alt": [
      "instagram"
    ],
    "wof:repo": "sfomuseum-data-socialmedia-instagram",
    "wof:superseded_by": [],
    "wof:supersedes": []
  },
  "bbox": [
    -122.386166,
    37.616356,
    -122.386166,
    37.616356
  ],
  "geometry": {"type":"Point","coordinates":[-122.386166,37.616356]}
}
