{
  "id": 1729358249,
  "type": "Feature",
  "properties": {
    "date:cessation_lower": "2018-05-09",
    "date:cessation_upper": "2018-05-09",
    "date:inception_lower": "2018-05-09",
    "date:inception_upper": "2018-05-09",
    "edtf:cessation": "2018-05-09T11:02:00-07:00",
    "edtf:inception": "2018-05-09T11:02:00-07:00",
    "geom:area": 0,
    "geom:bbox": "-122.386166,37.616356,-122.386166,37.616356",
    "geom:latitude": 37.616356,
    "geom:longitude": -122.386166,
    "instagram:post": {
      "caption": {
        "body": "A stock certificate is a legal document printed on paper that represents equity ownership in a company. With ornate borders and usually bearing an illustration that is related to the company's business, such as an airplane, they are printed on bond paper from a finely engraved metal plate. When a stock is redeemed a perforated cancellation mark is made and it then becomes null and void as a financial instrument. Today, stocks are issued electronically and this has increasingly made stock certificates items of interest to collectors. This area of collecting is called scripophily, a combination of the English word \"scrip\" meaning ownership right and the Greek word \"philos\" meaning love. ",
        "excerpt": "A stock certificate is a legal document printed on paper that represents equity ownership in a company.",
        "hashtags": [
          "Scripophily",
          "PanAm",
          "PanAmerican",
          "PAA",
          "stocks",
          "avgeek",
          "avationgeek",
          "aviation",
          "aviationhistory",
          "vintageaviation",
          "history",
          "avhistory",
          "aviationgeeks",
          "avgeeks"
        ],
        "users": []
      },
      "media_id": "3ffe4c139e9dc7bc5f21f34df19c486b",
      "path": "media/other/31175924_2079643515644621_973835524575854592_n_17919670921136498.jpg",
      "perceptual_hash": "p:e646593966789366",
      "taken": 1525888920,
      "taken_at": "May 09, 2018 6:02 pm"
    },
    "millsfield:similar": {
      "google/siglip2-so400m-patch16-naflex": [
        {
          "distance": 0.2987602949142456,
          "id": 1729358697
        },
        {
          "distance": 0.31236034631729126,
          "id": 1729357783
        },
        {
          "distance": 0.31328409910202026,
          "id": 1729356803
        },
        {
          "distance": 0.3219996690750122,
          "id": 1729359473
        },
        {
          "distance": 0.32437169551849365,
          "id": 1729359861
        },
        {
          "distance": 0.32655519247055054,
          "id": 1729358587
        },
        {
          "distance": 0.32767802476882935,
          "id": 1729358795
        },
        {
          "distance": 0.3277813196182251,
          "id": 1729359887
        },
        {
          "distance": 0.329989492893219,
          "id": 1729357921
        },
        {
          "distance": 0.33339035511016846,
          "id": 1729358147
        }
      ]
    },
    "sfomuseum:placetype": "instagram",
    "src:geom": "sfomuseum",
    "wof:belongsto": [
      1159160869,
      102527513,
      102191575,
      85633793,
      102087579,
      85922583,
      85688637
    ],
    "wof:country": "US",
    "wof:created": 1525888920,
    "wof:geomhash": "b6e33f47475d56bc8da457bc31afadc8",
    "wof:hierarchy": [
      {
        "building_id": 1159160869,
        "campus_id": 102527513,
        "continent_id": 102191575,
        "country_id": 85633793,
        "county_id": 102087579,
        "custom_id": 1729358249,
        "instagram_id": 1729358249,
        "locality_id": 85922583,
        "neighbourhood_id": -1,
        "region_id": 85688637
      }
    ],
    "wof:id": 1729358249,
    "wof:lastmodified": 1787777633,
    "wof:name": "A stock certificate is a legal document printed on paper that represents equity ownership in a company...",
    "wof:parent_id": 1159160869,
    "wof:placetype": "custom",
    "wof:placetype_alt": [
      "instagram"
    ],
    "wof:repo": "sfomuseum-data-socialmedia-instagram",
    "wof:superseded_by": [],
    "wof:supersedes": []
  },
  "bbox": [
    -122.386166,
    37.616356,
    -122.386166,
    37.616356
  ],
  "geometry": {"type":"Point","coordinates":[-122.386166,37.616356]}
}
