{
  "id": 1729358669,
  "type": "Feature",
  "properties": {
    "date:cessation_lower": "2018-01-20",
    "date:cessation_upper": "2018-01-20",
    "date:inception_lower": "2018-01-20",
    "date:inception_upper": "2018-01-20",
    "edtf:cessation": "2018-01-20T14:28:13-08:00",
    "edtf:inception": "2018-01-20T14:28:13-08:00",
    "geom:area": 0,
    "geom:bbox": "-122.386166,37.616356,-122.386166,37.616356",
    "geom:latitude": 37.616356,
    "geom:longitude": -122.386166,
    "instagram:post": {
      "caption": {
        "body": "Autonomous craft organizations provide artisans with a market for their goods and offer strength in numbers to their collective membership. In Chiapas, the more progressive weaving cooperatives also promote solidarity by creating a space for members of different communities to socialize and discuss current problems and issues. In 1996, the founding members of Jolom Mayaetik fought to form their new cooperative for pressing reasons, including declining wages, rising costs of living, and mismanagement of government-run cooperatives they previously worked for. Frustrated with exclusion from local government and marginal political representation outside of their communities, Jolom weavers also sought sociopolitical empowerment. Today, Jolom Mayaetik holds educational courses, lobbies for political inclusion, and lectures locally and internationally to promote the rights of women and indigenous people in Mexico.  Learn more about \"Empowering Threads: Textiles of Jolom Mayaetik\" on display, pre-security, in the International Terminal. http://bit.ly/EmpoweringThreads",
        "excerpt": "Autonomous craft organizations provide artisans with a market for their goods and offer strength in numbers to their collective membership.",
        "hashtags": [
          "EmpoweringThreads",
          "mayantextiles",
          "textile",
          "textiles",
          "mayan",
          "mexico",
          "mexican",
          "mexicanhistory",
          "mayanhistory",
          "JolomMayaetik",
          "weavers",
          "weaving",
          "blouses",
          "huipiles",
          "looms",
          "backstraploom",
          "mayanculture",
          "handwoven",
          "sewing",
          "cooperativa",
          "artesanaschiapanecas",
          "chiapas",
          "cojinesartesanales",
          "artesanias",
          "empoweringwomen"
        ],
        "users": []
      },
      "location": "",
      "media_id": "9d1b116aad30aeed5e2bdc3e8955ed2b",
      "path": "photos/201801/9d1b116aad30aeed5e2bdc3e8955ed2b.jpg",
      "perceptual_hash": "p:b84dc33097324f7a",
      "taken": 1516458480,
      "taken_at": "Jan 20, 2018, 2:28 PM"
    },
    "millsfield:similar": {
      "google/siglip2-so400m-patch16-naflex": [
        {
          "distance": 0.07182884216308594,
          "id": 1729358741
        },
        {
          "distance": 0.08827954530715942,
          "id": 1729358539
        },
        {
          "distance": 0.1121709942817688,
          "id": 1729358745
        },
        {
          "distance": 0.11219888925552368,
          "id": 1729358967
        },
        {
          "distance": 0.11317527294158936,
          "id": 1729358579
        },
        {
          "distance": 0.11947095394134521,
          "id": 1729358741
        },
        {
          "distance": 0.13444209098815918,
          "id": 1729358915
        },
        {
          "distance": 0.13711315393447876,
          "id": 1729358745
        },
        {
          "distance": 0.15186196565628052,
          "id": 1729358539
        },
        {
          "distance": 0.15762966871261597,
          "id": 1729358967
        }
      ]
    },
    "sfomuseum:placetype": "instagram",
    "src:geom": "sfomuseum",
    "wof:belongsto": [
      1159160869,
      102527513,
      102191575,
      85633793,
      102087579,
      85922583,
      85688637
    ],
    "wof:country": "US",
    "wof:created": 1516487293,
    "wof:geomhash": "b6e33f47475d56bc8da457bc31afadc8",
    "wof:hierarchy": [
      {
        "building_id": 1159160869,
        "campus_id": 102527513,
        "continent_id": 102191575,
        "country_id": 85633793,
        "county_id": 102087579,
        "custom_id": 1729358669,
        "instagram_id": 1729358669,
        "locality_id": 85922583,
        "neighbourhood_id": -1,
        "region_id": 85688637
      }
    ],
    "wof:id": 1729358669,
    "wof:lastmodified": 1787777634,
    "wof:name": "Autonomous craft organizations provide artisans with a market for their goods and offer strength in numbers to their collective membership...",
    "wof:parent_id": 1159160869,
    "wof:placetype": "custom",
    "wof:placetype_alt": [
      "instagram"
    ],
    "wof:repo": "sfomuseum-data-socialmedia-instagram",
    "wof:superseded_by": [],
    "wof:supersedes": []
  },
  "bbox": [
    -122.386166,
    37.616356,
    -122.386166,
    37.616356
  ],
  "geometry": {"type":"Point","coordinates":[-122.386166,37.616356]}
}
