{
  "id": 1729362783,
  "type": "Feature",
  "properties": {
    "date:cessation_lower": "2013-03-04",
    "date:cessation_upper": "2013-03-04",
    "date:inception_lower": "2013-03-04",
    "date:inception_upper": "2013-03-04",
    "edtf:cessation": "2013-03-04T05:44:00-08:00",
    "edtf:inception": "2013-03-04T05:44:00-08:00",
    "geom:area": 0,
    "geom:bbox": "-122.386166,37.616356,-122.386166,37.616356",
    "geom:latitude": 37.616356,
    "geom:longitude": -122.386166,
    "instagram:post": {
      "caption": {
        "body": "Diving into our upcoming T3 exhibit, featuring Recology's Artist in Residence program!",
        "excerpt": "Diving into our upcoming T3 exhibit, featuring Recology's Artist in Residence program!",
        "hashtags": [],
        "users": []
      },
      "media_id": "fdb07d9c7ba1aed10efb477cda577714",
      "path": "media/other/11252384_1096318320381960_1006716759_n_17842305502062499.jpg",
      "perceptual_hash": "p:95a5d795624a5e54",
      "taken": 1362404640,
      "taken_at": "Mar 04, 2013 1:44 pm"
    },
    "millsfield:similar": {
      "google/siglip2-so400m-patch16-naflex": [
        {
          "distance": 0.27217620611190796,
          "id": 1729355457
        },
        {
          "distance": 0.28192734718322754,
          "id": 1729355457
        },
        {
          "distance": 0.355737566947937,
          "id": 1729362273
        },
        {
          "distance": 0.38237541913986206,
          "id": 1729362489
        },
        {
          "distance": 0.3874506950378418,
          "id": 1729362693
        },
        {
          "distance": 0.3887665867805481,
          "id": 1729362505
        },
        {
          "distance": 0.3915802240371704,
          "id": 1729362473
        },
        {
          "distance": 0.39169567823410034,
          "id": 1729362851
        },
        {
          "distance": 0.39263391494750977,
          "id": 1729362507
        },
        {
          "distance": 0.39652085304260254,
          "id": 1729362531
        }
      ]
    },
    "sfomuseum:placetype": "instagram",
    "src:geom": "sfomuseum",
    "wof:belongsto": [
      1159160869,
      102527513,
      102191575,
      85633793,
      102087579,
      85922583,
      85688637
    ],
    "wof:country": "US",
    "wof:created": 1362404640,
    "wof:geomhash": "b6e33f47475d56bc8da457bc31afadc8",
    "wof:hierarchy": [
      {
        "building_id": 1159160869,
        "campus_id": 102527513,
        "continent_id": 102191575,
        "country_id": 85633793,
        "county_id": 102087579,
        "custom_id": 1729362783,
        "instagram_id": 1729362783,
        "locality_id": 85922583,
        "neighbourhood_id": -1,
        "region_id": 85688637
      }
    ],
    "wof:id": 1729362783,
    "wof:lastmodified": 1787777647,
    "wof:name": "Diving into our upcoming T3 exhibit, featuring Recology's Artist in Residence program!..",
    "wof:parent_id": 1159160869,
    "wof:placetype": "custom",
    "wof:placetype_alt": [
      "instagram"
    ],
    "wof:repo": "sfomuseum-data-socialmedia-instagram",
    "wof:superseded_by": [],
    "wof:supersedes": []
  },
  "bbox": [
    -122.386166,
    37.616356,
    -122.386166,
    37.616356
  ],
  "geometry": {"type":"Point","coordinates":[-122.386166,37.616356]}
}
