{
  "id": 1729357303,
  "type": "Feature",
  "properties": {
    "date:cessation_lower": "2018-11-28",
    "date:cessation_upper": "2018-11-28",
    "date:inception_lower": "2018-11-28",
    "date:inception_upper": "2018-11-28",
    "edtf:cessation": "2018-11-28T09:31:00-08:00",
    "edtf:inception": "2018-11-28T09:31:00-08:00",
    "geom:area": 0,
    "geom:bbox": "-122.386166,37.616356,-122.386166,37.616356",
    "geom:latitude": 37.616356,
    "geom:longitude": -122.386166,
    "instagram:post": {
      "caption": {
        "body": "#Crewlife photographs are well represented in our collection. Pan American World Airways flight attendant Evelyn David donated photos of her adventures, including her travel to Melbourne, Australia, during the 1956 Summer Olympic Games. Where has been your favorite travel destination?  Image: Pan American World Airways, Melbourne, 1956 Summer Olympics, 1956. Gift of Evelyn R. David. 2012.144.141",
        "excerpt": "#Crewlife photographs are well represented in our collection.",
        "hashtags": [
          "PAA",
          "panamerican",
          "flightattendant",
          "FA",
          "olympic",
          "travel",
          "summerolympics"
        ],
        "users": []
      },
      "media_id": "463c4209c7b9653fc5231589b877b14e",
      "path": "media/posts/201811/44926394_120482425629787_1731205003531102573_n_17981789560082149.jpg",
      "perceptual_hash": "p:8cf7f32c0cc4b325",
      "taken": 1543426260,
      "taken_at": "Nov 28, 2018 5:31 pm"
    },
    "millsfield:similar": {
      "google/siglip2-so400m-patch16-naflex": [
        {
          "distance": 0.21676158905029297,
          "id": 1729357319
        },
        {
          "distance": 0.2504487633705139,
          "id": 1729357319
        },
        {
          "distance": 0.2545362114906311,
          "id": 1880151797
        },
        {
          "distance": 0.2649097442626953,
          "id": 1729361805
        },
        {
          "distance": 0.2659321427345276,
          "id": 1729356843
        },
        {
          "distance": 0.27421849966049194,
          "id": 1729356843
        },
        {
          "distance": 0.28122544288635254,
          "id": 1729359149
        },
        {
          "distance": 0.2820752263069153,
          "id": 1729358329
        },
        {
          "distance": 0.28721004724502563,
          "id": 1729361443
        },
        {
          "distance": 0.2883269786834717,
          "id": 1729361443
        }
      ]
    },
    "sfomuseum:placetype": "instagram",
    "src:geom": "sfomuseum",
    "wof:belongsto": [
      1159160869,
      102527513,
      102191575,
      85633793,
      102087579,
      85922583,
      85688637
    ],
    "wof:country": "US",
    "wof:created": 1543426260,
    "wof:geomhash": "b6e33f47475d56bc8da457bc31afadc8",
    "wof:hierarchy": [
      {
        "building_id": 1159160869,
        "campus_id": 102527513,
        "continent_id": 102191575,
        "country_id": 85633793,
        "county_id": 102087579,
        "custom_id": 1729357303,
        "instagram_id": 1729357303,
        "locality_id": 85922583,
        "neighbourhood_id": -1,
        "region_id": 85688637
      }
    ],
    "wof:id": 1729357303,
    "wof:lastmodified": 1787777631,
    "wof:name": "#Crewlife photographs are well represented in our collection...",
    "wof:parent_id": 1159160869,
    "wof:placetype": "custom",
    "wof:placetype_alt": [
      "instagram"
    ],
    "wof:repo": "sfomuseum-data-socialmedia-instagram",
    "wof:superseded_by": [],
    "wof:supersedes": []
  },
  "bbox": [
    -122.386166,
    37.616356,
    -122.386166,
    37.616356
  ],
  "geometry": {"type":"Point","coordinates":[-122.386166,37.616356]}
}
