{
  "id": 1729360147,
  "type": "Feature",
  "properties": {
    "date:cessation_lower": "2016-11-03",
    "date:cessation_upper": "2016-11-03",
    "date:inception_lower": "2016-11-03",
    "date:inception_upper": "2016-11-03",
    "edtf:cessation": "2016-11-03T11:47:00-07:00",
    "edtf:inception": "2016-11-03T11:47:00-07:00",
    "geom:area": 0,
    "geom:bbox": "-122.386166,37.616356,-122.386166,37.616356",
    "geom:latitude": 37.616356,
    "geom:longitude": -122.386166,
    "instagram:post": {
      "caption": {
        "body": "",
        "excerpt": "",
        "hashtags": [
          "SFOHistory",
          "SFO",
          "AviationHistory",
          "SFOMuseum",
          "TBT",
          "throwbackthursday"
        ],
        "users": []
      },
      "media_id": "333d2a01078ed768e2b8d1b847c3423d",
      "path": "media/posts/201611/14723529_320080135042491_4350804731296219136_n_17844107077172515.jpg",
      "perceptual_hash": "p:ebc59c33d292e158",
      "taken": 1478198820,
      "taken_at": "Nov 03, 2016 6:47 pm"
    },
    "millsfield:similar": {
      "google/siglip2-so400m-patch16-naflex": [
        {
          "distance": 0.21782785654067993,
          "id": 1729360617
        },
        {
          "distance": 0.2200300097465515,
          "id": 1880151727
        },
        {
          "distance": 0.22852110862731934,
          "id": 1763558869
        },
        {
          "distance": 0.24625617265701294,
          "id": 1880151063
        },
        {
          "distance": 0.2518197298049927,
          "id": 1729360617
        },
        {
          "distance": 0.25781118869781494,
          "id": 1729360457
        },
        {
          "distance": 0.2596254348754883,
          "id": 1729355665
        },
        {
          "distance": 0.2638413906097412,
          "id": 1729355115
        },
        {
          "distance": 0.26974278688430786,
          "id": 1947424911
        },
        {
          "distance": 0.27051764726638794,
          "id": 1729358283
        }
      ]
    },
    "sfomuseum:placetype": "instagram",
    "src:geom": "sfomuseum",
    "wof:belongsto": [
      1159160869,
      102527513,
      102191575,
      85633793,
      102087579,
      85922583,
      85688637
    ],
    "wof:country": "US",
    "wof:created": 1478198820,
    "wof:geomhash": "b6e33f47475d56bc8da457bc31afadc8",
    "wof:hierarchy": [
      {
        "building_id": 1159160869,
        "campus_id": 102527513,
        "continent_id": 102191575,
        "country_id": 85633793,
        "county_id": 102087579,
        "custom_id": 1729360147,
        "instagram_id": 1729360147,
        "locality_id": 85922583,
        "neighbourhood_id": -1,
        "region_id": 85688637
      }
    ],
    "wof:id": 1729360147,
    "wof:lastmodified": 1787777639,
    "wof:name": "..",
    "wof:parent_id": 1159160869,
    "wof:placetype": "custom",
    "wof:placetype_alt": [
      "instagram"
    ],
    "wof:repo": "sfomuseum-data-socialmedia-instagram",
    "wof:superseded_by": [],
    "wof:supersedes": []
  },
  "bbox": [
    -122.386166,
    37.616356,
    -122.386166,
    37.616356
  ],
  "geometry": {"type":"Point","coordinates":[-122.386166,37.616356]}
}
