{
  "id": 1729360199,
  "type": "Feature",
  "properties": {
    "date:cessation_lower": "2016-10-24",
    "date:cessation_upper": "2016-10-24",
    "date:inception_lower": "2016-10-24",
    "date:inception_upper": "2016-10-24",
    "edtf:cessation": "2016-10-24T02:04:00-07:00",
    "edtf:inception": "2016-10-24T02:04:00-07:00",
    "geom:area": 0,
    "geom:bbox": "-122.386166,37.616356,-122.386166,37.616356",
    "geom:latitude": 37.616356,
    "geom:longitude": -122.386166,
    "instagram:post": {
      "caption": {
        "body": "",
        "excerpt": "",
        "hashtags": [
          "onthisday",
          "SFOHistory",
          "SpanishColonialRevival",
          "architecture",
          "TDiH"
        ],
        "users": []
      },
      "media_id": "2f2f2fbc78823df9bf54442ee650b4b1",
      "path": "media/other/14677196_1253310851376694_6992812494305624064_n_17843574376182451.jpg",
      "perceptual_hash": "p:f2c3b1af8f844c58",
      "taken": 1477299840,
      "taken_at": "Oct 24, 2016 9:04 am"
    },
    "millsfield:similar": {
      "google/siglip2-so400m-patch16-naflex": [
        {
          "distance": 0.11736011505126953,
          "id": 1880151097
        },
        {
          "distance": 0.1576436161994934,
          "id": 1729357513
        },
        {
          "distance": 0.1728789210319519,
          "id": 1729357513
        },
        {
          "distance": 0.17669391632080078,
          "id": 1729360191
        },
        {
          "distance": 0.1846333146095276,
          "id": 1729358981
        },
        {
          "distance": 0.19670450687408447,
          "id": 1880151449
        },
        {
          "distance": 0.2041245698928833,
          "id": 1880151097
        },
        {
          "distance": 0.2045961618423462,
          "id": 1729361261
        },
        {
          "distance": 0.20563262701034546,
          "id": 1729361525
        },
        {
          "distance": 0.20678138732910156,
          "id": 1947425253
        }
      ]
    },
    "sfomuseum:placetype": "instagram",
    "src:geom": "sfomuseum",
    "wof:belongsto": [
      1159160869,
      102527513,
      102191575,
      85633793,
      102087579,
      85922583,
      85688637
    ],
    "wof:country": "US",
    "wof:created": 1477299840,
    "wof:geomhash": "b6e33f47475d56bc8da457bc31afadc8",
    "wof:hierarchy": [
      {
        "building_id": 1159160869,
        "campus_id": 102527513,
        "continent_id": 102191575,
        "country_id": 85633793,
        "county_id": 102087579,
        "custom_id": 1729360199,
        "instagram_id": 1729360199,
        "locality_id": 85922583,
        "neighbourhood_id": -1,
        "region_id": 85688637
      }
    ],
    "wof:id": 1729360199,
    "wof:lastmodified": 1787777639,
    "wof:name": "..",
    "wof:parent_id": 1159160869,
    "wof:placetype": "custom",
    "wof:placetype_alt": [
      "instagram"
    ],
    "wof:repo": "sfomuseum-data-socialmedia-instagram",
    "wof:superseded_by": [],
    "wof:supersedes": []
  },
  "bbox": [
    -122.386166,
    37.616356,
    -122.386166,
    37.616356
  ],
  "geometry": {"type":"Point","coordinates":[-122.386166,37.616356]}
}
