{
  "id": 1729358787,
  "type": "Feature",
  "properties": {
    "date:cessation_lower": "2017-12-28",
    "date:cessation_upper": "2017-12-28",
    "date:inception_lower": "2017-12-28",
    "date:inception_upper": "2017-12-28",
    "edtf:cessation": "2017-12-27T17:16:04-08:00",
    "edtf:inception": "2017-12-27T17:16:04-08:00",
    "geom:area": 0,
    "geom:bbox": "-122.386166,37.616356,-122.386166,37.616356",
    "geom:latitude": 37.616356,
    "geom:longitude": -122.386166,
    "instagram:post": {
      "caption": {
        "body": "European immigrants from Germanic-speaking parts of Europe began settling in southeastern Pennsylvania in the late seventeenth century. In Europe, most of these industrious immigrants were peasants, artisans, and small farmers. Although agriculture served as the major industry, many people worked as farmer-craftsmen in the new world. Because Pennsylvania Germans lived in isolated, rural communities, they maintained strong cultural traditions for over two hundred years. During this time, Pennsylvania German folk art flourished.  Woodworking, carving, and whittling were commonly practiced by males in Pennsylvania Germans communities prior to the Industrial Revolution. Men often made items of furniture for their homes, such as this chair, which is embellished with a heart—a beloved Pennsylvania German motif.  Stool courtesy of the collection of the Landis Valley Village and Farm Museum, Pennsylvania Historical and Museum Commission. See \"#AmericanFolkArt: An Enduring Legacy\", on display, pre-security, in the International Terminal. http://bit.ly/AmericanFolkArt",
        "excerpt": "European immigrants from Germanic-speaking parts of Europe began settling in southeastern Pennsylvania in the late seventeenth century.",
        "hashtags": [
          "AmericanFolkArt",
          "folkart",
          "PennsylvaniaGerman",
          "PennsylvaniaGermanfolkart",
          "Pennsylvania",
          "american",
          "history",
          "americana",
          "folkartfun",
          "antique",
          "vintage",
          "antiquefolkart",
          "vintagefolkart",
          "design",
          "folkartdesign",
          "folkarts",
          "furniture",
          "woodworking"
        ],
        "users": []
      },
      "location": "",
      "media_id": "eefff247e01a922add81dea99f0a87f6",
      "path": "photos/201712/eefff247e01a922add81dea99f0a87f6.jpg",
      "perceptual_hash": "p:e897c29298cf3669",
      "taken": 1514394960,
      "taken_at": "Dec 27, 2017, 5:16 PM"
    },
    "millsfield:similar": {
      "google/siglip2-so400m-patch16-naflex": [
        {
          "distance": 0.1345081925392151,
          "id": 1729358769
        },
        {
          "distance": 0.16754573583602905,
          "id": 1729358769
        },
        {
          "distance": 0.18384158611297607,
          "id": 1729358777
        },
        {
          "distance": 0.23348242044448853,
          "id": 1729358777
        },
        {
          "distance": 0.3047751188278198,
          "id": 1729358281
        },
        {
          "distance": 0.31825709342956543,
          "id": 1729362347
        },
        {
          "distance": 0.322335422039032,
          "id": 1729356369
        },
        {
          "distance": 0.33199477195739746,
          "id": 1729358277
        },
        {
          "distance": 0.33419495820999146,
          "id": 1729360303
        },
        {
          "distance": 0.3388407826423645,
          "id": 1729356353
        }
      ]
    },
    "sfomuseum:placetype": "instagram",
    "src:geom": "sfomuseum",
    "wof:belongsto": [
      1159160869,
      102527513,
      102191575,
      85633793,
      102087579,
      85922583,
      85688637
    ],
    "wof:country": "US",
    "wof:created": 1514423764,
    "wof:geomhash": "b6e33f47475d56bc8da457bc31afadc8",
    "wof:hierarchy": [
      {
        "building_id": 1159160869,
        "campus_id": 102527513,
        "continent_id": 102191575,
        "country_id": 85633793,
        "county_id": 102087579,
        "custom_id": 1729358787,
        "instagram_id": 1729358787,
        "locality_id": 85922583,
        "neighbourhood_id": -1,
        "region_id": 85688637
      }
    ],
    "wof:id": 1729358787,
    "wof:lastmodified": 1787777634,
    "wof:name": "European immigrants from Germanic-speaking parts of Europe began settling in southeastern Pennsylvania in the late seventeenth century...",
    "wof:parent_id": 1159160869,
    "wof:placetype": "custom",
    "wof:placetype_alt": [
      "instagram"
    ],
    "wof:repo": "sfomuseum-data-socialmedia-instagram",
    "wof:superseded_by": [],
    "wof:supersedes": []
  },
  "bbox": [
    -122.386166,
    37.616356,
    -122.386166,
    37.616356
  ],
  "geometry": {"type":"Point","coordinates":[-122.386166,37.616356]}
}
