{
  "id": 1729361497,
  "type": "Feature",
  "properties": {
    "date:cessation_lower": "2015-09-30",
    "date:cessation_upper": "2015-09-30",
    "date:inception_lower": "2015-09-30",
    "date:inception_upper": "2015-09-30",
    "edtf:cessation": "2015-09-30T03:07:00-07:00",
    "edtf:inception": "2015-09-30T03:07:00-07:00",
    "geom:area": 0,
    "geom:bbox": "-122.386166,37.616356,-122.386166,37.616356",
    "geom:latitude": 37.616356,
    "geom:longitude": -122.386166,
    "instagram:post": {
      "caption": {
        "body": "The adventurous nature of the first scheduled air service from the San Francisco Bay Area to Hong Kong is captured in our China Clipper exhibition. The daring flight crews of Pan American Airways pioneered international commercial aviation by surveying the routes and operating magnificent flying boats to Asia. They flew over thousands of miles of open water, from San Francisco to Hong Kong, finding the tiny island bases along the way needed for refueling and overnighting using traditional and newly invented navigational technology. This operational model became the world's first reliable over-ocean air service in fixed-wing aircraft. China Clipper is on display pre-security in the Aviation Museum and Library. The Aviation Museum and Library is open from 10:00am to 4:30pm Sunday to Friday.",
        "excerpt": "The adventurous nature of the first scheduled air service from the San Francisco Bay Area to Hong Kong is captured in our China Clipper exhibition.",
        "hashtags": [],
        "users": []
      },
      "media_id": "d59479fe03bf29c4e11fb4a9fc89c3d2",
      "path": "media/other/11249720_545455352273882_1750499325_n_17843967532062499.jpg",
      "perceptual_hash": "p:b7f31c0c63e384c6",
      "taken": 1443607620,
      "taken_at": "Sep 30, 2015 10:07 am"
    },
    "millsfield:similar": {
      "google/siglip2-so400m-patch16-naflex": [
        {
          "distance": 0.10283505916595459,
          "id": 1729356581
        },
        {
          "distance": 0.1143847107887268,
          "id": 1729356749
        },
        {
          "distance": 0.13591086864471436,
          "id": 1729356749
        },
        {
          "distance": 0.14127880334854126,
          "id": 1729355863
        },
        {
          "distance": 0.14997869729995728,
          "id": 1729361263
        },
        {
          "distance": 0.15915119647979736,
          "id": 1729356581
        },
        {
          "distance": 0.17020153999328613,
          "id": 1729359355
        },
        {
          "distance": 0.1709786057472229,
          "id": 1729360959
        },
        {
          "distance": 0.1801624894142151,
          "id": 1729361263
        },
        {
          "distance": 0.18589478731155396,
          "id": 1729357189
        }
      ]
    },
    "sfomuseum:placetype": "instagram",
    "src:geom": "sfomuseum",
    "wof:belongsto": [
      1159160869,
      102527513,
      102191575,
      85633793,
      102087579,
      85922583,
      85688637
    ],
    "wof:country": "US",
    "wof:created": 1443607620,
    "wof:geomhash": "b6e33f47475d56bc8da457bc31afadc8",
    "wof:hierarchy": [
      {
        "building_id": 1159160869,
        "campus_id": 102527513,
        "continent_id": 102191575,
        "country_id": 85633793,
        "county_id": 102087579,
        "custom_id": 1729361497,
        "instagram_id": 1729361497,
        "locality_id": 85922583,
        "neighbourhood_id": -1,
        "region_id": 85688637
      }
    ],
    "wof:id": 1729361497,
    "wof:lastmodified": 1787777645,
    "wof:name": "The adventurous nature of the first scheduled air service from the San Francisco Bay Area to Hong Kong is captured in our China Clipper exhibition...",
    "wof:parent_id": 1159160869,
    "wof:placetype": "custom",
    "wof:placetype_alt": [
      "instagram"
    ],
    "wof:repo": "sfomuseum-data-socialmedia-instagram",
    "wof:superseded_by": [],
    "wof:supersedes": []
  },
  "bbox": [
    -122.386166,
    37.616356,
    -122.386166,
    37.616356
  ],
  "geometry": {"type":"Point","coordinates":[-122.386166,37.616356]}
}
