{
  "id": 1729361495,
  "type": "Feature",
  "properties": {
    "date:cessation_lower": "2015-10-01",
    "date:cessation_upper": "2015-10-01",
    "date:inception_lower": "2015-10-01",
    "date:inception_upper": "2015-10-01",
    "edtf:cessation": "2015-10-01T03:03:00-07:00",
    "edtf:inception": "2015-10-01T03:03:00-07:00",
    "geom:area": 0,
    "geom:bbox": "-122.386166,37.616356,-122.386166,37.616356",
    "geom:latitude": 37.616356,
    "geom:longitude": -122.386166,
    "instagram:post": {
      "caption": {
        "body": "",
        "excerpt": "",
        "hashtags": [
          "TBT",
          "ThrowbackThursday",
          "avgeek",
          "aviationhistory"
        ],
        "users": []
      },
      "media_id": "2c02ad87e38cedeae44efab17759265f",
      "path": "media/other/11262613_502946079865965_32097694_n_17843978248062499.jpg",
      "perceptual_hash": "p:aa6bc594379764e0",
      "taken": 1443693780,
      "taken_at": "Oct 01, 2015 10:03 am"
    },
    "millsfield:similar": {
      "google/siglip2-so400m-patch16-naflex": [
        {
          "distance": 0.1607304811477661,
          "id": 1729361489
        },
        {
          "distance": 0.17732477188110352,
          "id": 1880151121
        },
        {
          "distance": 0.1923435926437378,
          "id": 1729355755
        },
        {
          "distance": 0.19627124071121216,
          "id": 1880151121
        },
        {
          "distance": 0.20043081045150757,
          "id": 1763558827
        },
        {
          "distance": 0.2051306962966919,
          "id": 1947424843
        },
        {
          "distance": 0.20792096853256226,
          "id": 1729361489
        },
        {
          "distance": 0.21563273668289185,
          "id": 1729358313
        },
        {
          "distance": 0.21902143955230713,
          "id": 1947425009
        },
        {
          "distance": 0.21902143955230713,
          "id": 1947425027
        }
      ]
    },
    "sfomuseum:placetype": "instagram",
    "src:geom": "sfomuseum",
    "wof:belongsto": [
      1159160869,
      102527513,
      102191575,
      85633793,
      102087579,
      85922583,
      85688637
    ],
    "wof:country": "US",
    "wof:created": 1443693780,
    "wof:geomhash": "b6e33f47475d56bc8da457bc31afadc8",
    "wof:hierarchy": [
      {
        "building_id": 1159160869,
        "campus_id": 102527513,
        "continent_id": 102191575,
        "country_id": 85633793,
        "county_id": 102087579,
        "custom_id": 1729361495,
        "instagram_id": 1729361495,
        "locality_id": 85922583,
        "neighbourhood_id": -1,
        "region_id": 85688637
      }
    ],
    "wof:id": 1729361495,
    "wof:lastmodified": 1787777645,
    "wof:name": "..",
    "wof:parent_id": 1159160869,
    "wof:placetype": "custom",
    "wof:placetype_alt": [
      "instagram"
    ],
    "wof:repo": "sfomuseum-data-socialmedia-instagram",
    "wof:superseded_by": [],
    "wof:supersedes": []
  },
  "bbox": [
    -122.386166,
    37.616356,
    -122.386166,
    37.616356
  ],
  "geometry": {"type":"Point","coordinates":[-122.386166,37.616356]}
}
