{
  "id": 1729363061,
  "type": "Feature",
  "properties": {
    "date:cessation_lower": "2012-03-23",
    "date:cessation_upper": "2012-03-23",
    "date:inception_lower": "2012-03-23",
    "date:inception_upper": "2012-03-23",
    "edtf:cessation": "2012-03-23T07:35:00-07:00",
    "edtf:inception": "2012-03-23T07:35:00-07:00",
    "geom:area": 0,
    "geom:bbox": "-122.386166,37.616356,-122.386166,37.616356",
    "geom:latitude": 37.616356,
    "geom:longitude": -122.386166,
    "instagram:post": {
      "caption": {
        "body": "Models from The Nut Tree Restaurant \u0026 Airfield Model Aircraft Collection, on view in T3",
        "excerpt": "Models from The Nut Tree Restaurant \u0026 Airfield Model Aircraft Collection, on view in T3",
        "hashtags": [],
        "users": []
      },
      "media_id": "835f49af0ec8ffb6c6f8f220acca43a8",
      "path": "media/other/11186967_930203827024755_527154102_n_17842246093062499.jpg",
      "perceptual_hash": "p:84e09f964e6b329e",
      "taken": 1332513300,
      "taken_at": "Mar 23, 2012 2:35 pm"
    },
    "millsfield:similar": {
      "google/siglip2-so400m-patch16-naflex": [
        {
          "distance": 0.17864322662353516,
          "id": 1729362461
        },
        {
          "distance": 0.19725650548934937,
          "id": 1729362655
        },
        {
          "distance": 0.20267772674560547,
          "id": 1729362655
        },
        {
          "distance": 0.21083158254623413,
          "id": 1729361433
        },
        {
          "distance": 0.2115456461906433,
          "id": 1729362997
        },
        {
          "distance": 0.21438372135162354,
          "id": 1729362041
        },
        {
          "distance": 0.21600383520126343,
          "id": 1729359253
        },
        {
          "distance": 0.22163784503936768,
          "id": 1729362229
        },
        {
          "distance": 0.22185814380645752,
          "id": 1729362817
        },
        {
          "distance": 0.2220238447189331,
          "id": 1729362461
        }
      ]
    },
    "sfomuseum:placetype": "instagram",
    "src:geom": "sfomuseum",
    "wof:belongsto": [
      1159160869,
      102527513,
      102191575,
      85633793,
      102087579,
      85922583,
      85688637
    ],
    "wof:country": "US",
    "wof:created": 1332513300,
    "wof:geomhash": "b6e33f47475d56bc8da457bc31afadc8",
    "wof:hierarchy": [
      {
        "building_id": 1159160869,
        "campus_id": 102527513,
        "continent_id": 102191575,
        "country_id": 85633793,
        "county_id": 102087579,
        "custom_id": 1729363061,
        "instagram_id": 1729363061,
        "locality_id": 85922583,
        "neighbourhood_id": -1,
        "region_id": 85688637
      }
    ],
    "wof:id": 1729363061,
    "wof:lastmodified": 1787777658,
    "wof:name": "Models from The Nut Tree Restaurant \u0026 Airfield Model Aircraft Collection, on view in T3..",
    "wof:parent_id": 1159160869,
    "wof:placetype": "custom",
    "wof:placetype_alt": [
      "instagram"
    ],
    "wof:repo": "sfomuseum-data-socialmedia-instagram",
    "wof:superseded_by": [],
    "wof:supersedes": []
  },
  "bbox": [
    -122.386166,
    37.616356,
    -122.386166,
    37.616356
  ],
  "geometry": {"type":"Point","coordinates":[-122.386166,37.616356]}
}
