{
  "id": 1729359503,
  "type": "Feature",
  "properties": {
    "date:cessation_lower": "2017-05-15",
    "date:cessation_upper": "2017-05-15",
    "date:inception_lower": "2017-05-15",
    "date:inception_upper": "2017-05-15",
    "edtf:cessation": "2017-05-15T11:46:00-07:00",
    "edtf:inception": "2017-05-15T11:46:00-07:00",
    "geom:area": 0,
    "geom:bbox": "-122.386166,37.616356,-122.386166,37.616356",
    "geom:latitude": 37.616356,
    "geom:longitude": -122.386166,
    "instagram:post": {
      "caption": {
        "body": "#OnThisDay, the first female cabin crewmember, Ellen Church, worked her first flight for Boeing Air Transport(BAT). Hired by BAT at its San Francisco office in 1930, she pioneered the “stewardess” profession by selecting seven more women for hire. During the 1930s, stewardesses at many airlines were required to be trained nurses and unmarried, and in the 1940s, airlines sought “young, petite, and attractive” applicants. Their jobs included weighing passengers and luggage, loading and unloading bags, helping to fuel airplanes, and occasionally pushing them airplane into hangars.  Image:  United Air Lines, Ellen Church, first stewardess, 1930. Gift of United Airlines Archives. 1999.047.311",
        "excerpt": "#OnThisDay, the first female cabin crewmember, Ellen Church, worked her first flight for Boeing Air Transport(BAT).",
        "hashtags": [
          "EllenChurch",
          "nurses",
          "flightattendant",
          "avgeek",
          "aviationhistory",
          "sfhistory",
          "boeing",
          "united"
        ],
        "users": []
      },
      "media_id": "467abdce1033cf4a4a4d307cdef784c4",
      "path": "media/posts/201705/18444126_361744474222431_394248753340481536_n_17880379471025130.jpg",
      "perceptual_hash": "p:b4b64d4973847d64",
      "taken": 1494873960,
      "taken_at": "May 15, 2017 6:46 pm"
    },
    "millsfield:similar": {
      "google/siglip2-so400m-patch16-naflex": [
        {
          "distance": 0.0026166439056396484,
          "id": 1880151765
        },
        {
          "distance": 0.05078643560409546,
          "id": 1729358225
        },
        {
          "distance": 0.13658756017684937,
          "id": 1729357679
        },
        {
          "distance": 0.14829480648040771,
          "id": 1729361355
        },
        {
          "distance": 0.15002578496932983,
          "id": 1880151765
        },
        {
          "distance": 0.15474069118499756,
          "id": 1729358463
        },
        {
          "distance": 0.16756391525268555,
          "id": 1729358225
        },
        {
          "distance": 0.1728774905204773,
          "id": 1729357679
        },
        {
          "distance": 0.17727571725845337,
          "id": 1729359823
        },
        {
          "distance": 0.19327688217163086,
          "id": 1729360723
        }
      ]
    },
    "sfomuseum:placetype": "instagram",
    "src:geom": "sfomuseum",
    "wof:belongsto": [
      1159160869,
      102527513,
      102191575,
      85633793,
      102087579,
      85922583,
      85688637
    ],
    "wof:country": "US",
    "wof:created": 1494873960,
    "wof:geomhash": "b6e33f47475d56bc8da457bc31afadc8",
    "wof:hierarchy": [
      {
        "building_id": 1159160869,
        "campus_id": 102527513,
        "continent_id": 102191575,
        "country_id": 85633793,
        "county_id": 102087579,
        "custom_id": 1729359503,
        "instagram_id": 1729359503,
        "locality_id": 85922583,
        "neighbourhood_id": -1,
        "region_id": 85688637
      }
    ],
    "wof:id": 1729359503,
    "wof:lastmodified": 1787777636,
    "wof:name": "#OnThisDay, the first female cabin crewmember, Ellen Church, worked her first flight for Boeing Air Transport(BAT)...",
    "wof:parent_id": 1159160869,
    "wof:placetype": "custom",
    "wof:placetype_alt": [
      "instagram"
    ],
    "wof:repo": "sfomuseum-data-socialmedia-instagram",
    "wof:superseded_by": [],
    "wof:supersedes": []
  },
  "bbox": [
    -122.386166,
    37.616356,
    -122.386166,
    37.616356
  ],
  "geometry": {"type":"Point","coordinates":[-122.386166,37.616356]}
}
