{
  "id": 1729356173,
  "type": "Feature",
  "properties": {
    "date:cessation_lower": "2019-08-23",
    "date:cessation_upper": "2019-08-23",
    "date:inception_lower": "2019-08-23",
    "date:inception_upper": "2019-08-23",
    "edtf:cessation": "2019-08-23T01:39:00-07:00",
    "edtf:inception": "2019-08-23T01:39:00-07:00",
    "geom:area": 0,
    "geom:bbox": "-122.386166,37.616356,-122.386166,37.616356",
    "geom:latitude": 37.616356,
    "geom:longitude": -122.386166,
    "instagram:post": {
      "caption": {
        "body": "On August 22, 1938, Pan American Airways signed a ten-year lease with San Francisco for a base at Treasure Island. In 1935, Pan Am inaugurated the world’s first transoceanic service in fixed-wing aircraft with service to Asia from its base at Alameda on San Francisco Bay. The airline’s fleet of flying boats, such as the famous China Clipper, put the San Francisco Bay Area at the leading edge of long-range commercial aviation.  Image: Pan American Airways, Boeing 314, 01/1939. Gift of Reid W. Dennis. 2010.244.001",
        "excerpt": "On August 22, 1938, Pan American Airways signed a ten-year lease with San Francisco for a base at Treasure Island.",
        "hashtags": [
          "PanAm",
          "PanAmerican",
          "museum",
          "avgeek",
          "SFhistory"
        ],
        "users": []
      },
      "media_id": "be92ae4faa1d18e883649be100abba82",
      "path": "media/other/68726137_389012521805263_664828950025876220_n_18094676503047309.jpg",
      "perceptual_hash": "p:978479a3867cb1e2",
      "taken": 1566549540,
      "taken_at": "Aug 23, 2019 8:39 am"
    },
    "millsfield:similar": {
      "google/siglip2-so400m-patch16-naflex": [
        {
          "distance": 0.01074206829071045,
          "id": 1947425309
        },
        {
          "distance": 0.037711143493652344,
          "id": 1729361177
        },
        {
          "distance": 0.07777589559555054,
          "id": 1729356989
        },
        {
          "distance": 0.0810505747795105,
          "id": 1763558797
        },
        {
          "distance": 0.09214425086975098,
          "id": 1729355993
        },
        {
          "distance": 0.0947413444519043,
          "id": 1729359597
        },
        {
          "distance": 0.10682904720306396,
          "id": 1729361163
        },
        {
          "distance": 0.11166512966156006,
          "id": 1947425309
        },
        {
          "distance": 0.1177288293838501,
          "id": 1729356989
        },
        {
          "distance": 0.1210748553276062,
          "id": 1729361177
        }
      ]
    },
    "sfomuseum:placetype": "instagram",
    "src:geom": "sfomuseum",
    "wof:belongsto": [
      1159160869,
      102527513,
      102191575,
      85633793,
      102087579,
      85922583,
      85688637
    ],
    "wof:country": "US",
    "wof:created": 1566549540,
    "wof:geomhash": "b6e33f47475d56bc8da457bc31afadc8",
    "wof:hierarchy": [
      {
        "building_id": 1159160869,
        "campus_id": 102527513,
        "continent_id": 102191575,
        "country_id": 85633793,
        "county_id": 102087579,
        "custom_id": 1729356173,
        "instagram_id": 1729356173,
        "locality_id": 85922583,
        "neighbourhood_id": -1,
        "region_id": 85688637
      }
    ],
    "wof:id": 1729356173,
    "wof:lastmodified": 1787777628,
    "wof:name": "On August 22, 1938, Pan American Airways signed a ten-year lease with San Francisco for a base at Treasure Island...",
    "wof:parent_id": 1159160869,
    "wof:placetype": "custom",
    "wof:placetype_alt": [
      "instagram"
    ],
    "wof:repo": "sfomuseum-data-socialmedia-instagram",
    "wof:superseded_by": [],
    "wof:supersedes": []
  },
  "bbox": [
    -122.386166,
    37.616356,
    -122.386166,
    37.616356
  ],
  "geometry": {"type":"Point","coordinates":[-122.386166,37.616356]}
}
