{
  "id": 1880151209,
  "type": "Feature",
  "properties": {
    "date:cessation_lower": "2023-01-04",
    "date:cessation_upper": "2023-01-04",
    "date:inception_lower": "2023-01-04",
    "date:inception_upper": "2023-01-04",
    "edtf:cessation": "2023-01-04T09:16:00-08:00",
    "edtf:inception": "2023-01-04T09:16:00-08:00",
    "geom:area": 0,
    "geom:bbox": "-122.386166,37.616356,-122.386166,37.616356",
    "geom:latitude": 37.616356,
    "geom:longitude": -122.386166,
    "instagram:post": {
      "caption": {
        "body": "We are saddened to hear about the recent passing of Dame Vivienne Westwood. The iconic fashion designer was 81. A major influence in British punk fashion, Dame Westwood created London street fashion in the seventies. Her unique style was showcased in Virgin Atlantic's current uniform, which was introduced in 2014. In the airline's signature red, the exquisitely tailored suit recalls 1940s couture with a nipped-waist jacket and a darted pencil skirt. A high collar and asymmetric frilled jacquard blouse completed this forward-looking design.",
        "excerpt": "We are saddened to hear about the recent passing of Dame Vivienne Westwood.",
        "hashtags": [
          "vivianwestwood",
          "virginatlantic",
          "flightattendantuniform"
        ],
        "users": []
      },
      "media_id": "877735d94772144b0505d8a17bc7ecbd8e40138d",
      "path": "media/posts/202301/323358329_202140952290147_3623426262482013965_n_18058171255337628.jpg",
      "perceptual_hash": "p:eb9c8c4fcc303c63",
      "taken": 1672852560,
      "taken_at": "Jan 04, 2023 5:16 pm"
    },
    "millsfield:similar": {
      "google/siglip2-so400m-patch16-naflex": [
        {
          "distance": 0.2271047830581665,
          "id": 1763559499
        },
        {
          "distance": 0.2520190477371216,
          "id": 1729361467
        },
        {
          "distance": 0.26223576068878174,
          "id": 1729359625
        },
        {
          "distance": 0.2724621295928955,
          "id": 1729359139
        },
        {
          "distance": 0.280933141708374,
          "id": 1763559499
        },
        {
          "distance": 0.3177475333213806,
          "id": 1763559147
        },
        {
          "distance": 0.3271902799606323,
          "id": 1763559643
        },
        {
          "distance": 0.32814645767211914,
          "id": 1729360313
        },
        {
          "distance": 0.32876360416412354,
          "id": 1729356405
        },
        {
          "distance": 0.3307937979698181,
          "id": 1729359625
        }
      ]
    },
    "sfomuseum:placetype": "instagram",
    "src:geom": "sfomuseum",
    "wof:belongsto": [
      1159160869,
      102527513,
      102191575,
      85633793,
      102087579,
      85922583,
      85688637
    ],
    "wof:country": "US",
    "wof:created": 1672852560,
    "wof:geomhash": "b6e33f47475d56bc8da457bc31afadc8",
    "wof:hierarchy": [
      {
        "building_id": 1159160869,
        "campus_id": 102527513,
        "continent_id": 102191575,
        "country_id": 85633793,
        "county_id": 102087579,
        "custom_id": 1880151209,
        "instagram_id": 1880151209,
        "locality_id": 85922583,
        "neighbourhood_id": -1,
        "region_id": 85688637
      }
    ],
    "wof:id": 1880151209,
    "wof:lastmodified": 1787777662,
    "wof:name": "We are saddened to hear about the recent passing of Dame Vivienne Westwood...",
    "wof:parent_id": 1159160869,
    "wof:placetype": "custom",
    "wof:placetype_alt": [
      "instagram"
    ],
    "wof:repo": "sfomuseum-data-socialmedia-instagram",
    "wof:superseded_by": [],
    "wof:supersedes": []
  },
  "bbox": [
    -122.386166,
    37.616356,
    -122.386166,
    37.616356
  ],
  "geometry": {"type":"Point","coordinates":[-122.386166,37.616356]}
}
