{
  "id": 1729356599,
  "type": "Feature",
  "properties": {
    "date:cessation_lower": "2019-05-13",
    "date:cessation_upper": "2019-05-13",
    "date:inception_lower": "2019-05-13",
    "date:inception_upper": "2019-05-13",
    "edtf:cessation": "2019-05-13T02:51:00-07:00",
    "edtf:inception": "2019-05-13T02:51:00-07:00",
    "geom:area": 0,
    "geom:bbox": "-122.386166,37.616356,-122.386166,37.616356",
    "geom:latitude": 37.616356,
    "geom:longitude": -122.386166,
    "instagram:post": {
      "caption": {
        "body": "Greenleaf TK-8 is a Title 1 Oakland public school grounded in diverse community relationships. Art allows Greenleaf students a means to communicate through creative expression. The use of color, form, light, medium, and their own imagination expands their knowledge of the diversity of creative methods to communicate ideas. Honing their skills in visual art and engaging in collaborative projects, such as this poster project which focuses on themes of social justice and environmental awareness, Greenleaf students build their artistic vocabulary and visual literacy. The pieces on view in this exhibition were made by students in the eighth grade and represent the breadth and diversity of artistic vision, expression, and technique of the larger Greenleaf community. “Social Justice Posters” by the students of Greenleaf TK-8 is on display pre-security in Terminal 1. http://bit.ly/2E2YCYc",
        "excerpt": "Greenleaf TK-8 is a Title 1 Oakland public school grounded in diverse community relationships.",
        "hashtags": [
          "childrensart",
          "studentart",
          "Greenleaf",
          "Oakland",
          "socialjustice",
          "poster"
        ],
        "users": []
      },
      "media_id": "d2eefc3f6bd2950cd2aa192d329d8730",
      "path": "media/other/58986772_813026352392763_5006702870515570099_n_18055246111072260.jpg",
      "perceptual_hash": "p:bf46c6c1c9a59169",
      "taken": 1557741060,
      "taken_at": "May 13, 2019 9:51 am"
    },
    "millsfield:similar": {
      "google/siglip2-so400m-patch16-naflex": [
        {
          "distance": 0.3841264843940735,
          "id": 1729357777
        },
        {
          "distance": 0.40051448345184326,
          "id": 1729360993
        },
        {
          "distance": 0.4128572940826416,
          "id": 1729357777
        },
        {
          "distance": 0.41755956411361694,
          "id": 1729360153
        },
        {
          "distance": 0.41759347915649414,
          "id": 1729360993
        },
        {
          "distance": 0.421209454536438,
          "id": 1729362863
        },
        {
          "distance": 0.4275916814804077,
          "id": 1729360153
        },
        {
          "distance": 0.4281959533691406,
          "id": 1729355397
        },
        {
          "distance": 0.4301333427429199,
          "id": 1729362001
        },
        {
          "distance": 0.43245041370391846,
          "id": 1763559197
        }
      ]
    },
    "sfomuseum:placetype": "instagram",
    "src:geom": "sfomuseum",
    "wof:belongsto": [
      1159160869,
      102527513,
      102191575,
      85633793,
      102087579,
      85922583,
      85688637
    ],
    "wof:country": "US",
    "wof:created": 1557741060,
    "wof:geomhash": "b6e33f47475d56bc8da457bc31afadc8",
    "wof:hierarchy": [
      {
        "building_id": 1159160869,
        "campus_id": 102527513,
        "continent_id": 102191575,
        "country_id": 85633793,
        "county_id": 102087579,
        "custom_id": 1729356599,
        "instagram_id": 1729356599,
        "locality_id": 85922583,
        "neighbourhood_id": -1,
        "region_id": 85688637
      }
    ],
    "wof:id": 1729356599,
    "wof:lastmodified": 1787777629,
    "wof:name": "Greenleaf TK-8 is a Title 1 Oakland public school grounded in diverse community relationships...",
    "wof:parent_id": 1159160869,
    "wof:placetype": "custom",
    "wof:placetype_alt": [
      "instagram"
    ],
    "wof:repo": "sfomuseum-data-socialmedia-instagram",
    "wof:superseded_by": [],
    "wof:supersedes": []
  },
  "bbox": [
    -122.386166,
    37.616356,
    -122.386166,
    37.616356
  ],
  "geometry": {"type":"Point","coordinates":[-122.386166,37.616356]}
}
