{
  "id": 1763559463,
  "type": "Feature",
  "properties": {
    "date:cessation_lower": "2021-08-13",
    "date:cessation_upper": "2021-08-13",
    "date:inception_lower": "2021-08-13",
    "date:inception_upper": "2021-08-13",
    "edtf:cessation": "2021-08-13T08:58:00-07:00",
    "edtf:inception": "2021-08-13T08:58:00-07:00",
    "geom:area": 0,
    "geom:bbox": "-122.386166,37.616356,-122.386166,37.616356",
    "geom:latitude": 37.616356,
    "geom:longitude": -122.386166,
    "instagram:post": {
      "caption": {
        "body": "Effie (1889–1966) and Avis (1863–1958) Hotchkiss were the first women to ride across the United States on a motorcycle. On May 2, 1915, with mother Avis in the sidecar of a new Harley-Davidson 11-F, they departed Brooklyn, New York, for San Francisco to see the Panama-Pacific International Exposition. Effie and Avis Hotchkiss returned to New York two months later after a remarkable 9,000-mile journey.  “Early American Motorcycles” is on view pre-security in the International Terminal Main Hall and online - link in bio. https://bit.ly/EarlyMotorcycles",
        "excerpt": "Effie (1889–1966) and Avis (1863–1958) Hotchkiss were the first women to ride across the United States on a motorcycle.",
        "hashtags": [
          "EarlyAmericanMotorcycles",
          "motorcycle",
          "vintagemotorcycle",
          "womenwhoride"
        ],
        "users": []
      },
      "media_id": "8c9981f1ea75eb07b239532a4e9723785dfeffe2",
      "path": "media/posts/202108/236615912_157990453032103_4367722215546436519_n_18142857052200366.jpg",
      "perceptual_hash": "p:df0e8545a50db5b4",
      "taken": 1628870280,
      "taken_at": "Aug 13, 2021 3:58 pm"
    },
    "millsfield:similar": {
      "google/siglip2-so400m-patch16-naflex": [
        {
          "distance": 0.07449203729629517,
          "id": 1763559433
        },
        {
          "distance": 0.07755571603775024,
          "id": 1763559205
        },
        {
          "distance": 0.10964375734329224,
          "id": 1763559205
        },
        {
          "distance": 0.11686486005783081,
          "id": 1763559227
        },
        {
          "distance": 0.12484800815582275,
          "id": 1763559433
        },
        {
          "distance": 0.13049936294555664,
          "id": 1763559227
        },
        {
          "distance": 0.13461542129516602,
          "id": 1763559245
        },
        {
          "distance": 0.15792393684387207,
          "id": 1763559157
        },
        {
          "distance": 0.17724955081939697,
          "id": 1763559245
        },
        {
          "distance": 0.20444506406784058,
          "id": 1763559157
        }
      ]
    },
    "sfomuseum:placetype": "instagram",
    "src:geom": "sfomuseum",
    "wof:belongsto": [
      1159160869,
      102527513,
      102191575,
      85633793,
      102087579,
      85922583,
      85688637
    ],
    "wof:country": "US",
    "wof:created": 1628870280,
    "wof:geomhash": "b6e33f47475d56bc8da457bc31afadc8",
    "wof:hierarchy": [
      {
        "building_id": 1159160869,
        "campus_id": 102527513,
        "continent_id": 102191575,
        "country_id": 85633793,
        "county_id": 102087579,
        "custom_id": 1763559463,
        "instagram_id": 1763559463,
        "locality_id": 85922583,
        "neighbourhood_id": -1,
        "region_id": 85688637
      }
    ],
    "wof:id": 1763559463,
    "wof:lastmodified": 1787777660,
    "wof:name": "Effie (1889–1966) and Avis (1863–1958) Hotchkiss were the first women to ride across the United States on a motorcycle...",
    "wof:parent_id": 1159160869,
    "wof:placetype": "custom",
    "wof:placetype_alt": [
      "instagram"
    ],
    "wof:repo": "sfomuseum-data-socialmedia-instagram",
    "wof:superseded_by": [],
    "wof:supersedes": []
  },
  "bbox": [
    -122.386166,
    37.616356,
    -122.386166,
    37.616356
  ],
  "geometry": {"type":"Point","coordinates":[-122.386166,37.616356]}
}
