{
  "id": 1729361413,
  "type": "Feature",
  "properties": {
    "date:cessation_lower": "2015-10-28",
    "date:cessation_upper": "2015-10-28",
    "date:inception_lower": "2015-10-28",
    "date:inception_upper": "2015-10-28",
    "edtf:cessation": "2015-10-28T03:42:00-07:00",
    "edtf:inception": "2015-10-28T03:42:00-07:00",
    "geom:area": 0,
    "geom:bbox": "-122.386166,37.616356,-122.386166,37.616356",
    "geom:latitude": 37.616356,
    "geom:longitude": -122.386166,
    "instagram:post": {
      "caption": {
        "body": "",
        "excerpt": "",
        "hashtags": [
          "OnThisDay",
          "AVGeek"
        ],
        "users": []
      },
      "media_id": "894e8c298d47f8a20b2a7beecfe30100",
      "path": "media/other/12093342_158339074518972_2132013246_n_17844636085062499.jpg",
      "perceptual_hash": "p:b792487f60169f83",
      "taken": 1446028920,
      "taken_at": "Oct 28, 2015 10:42 am"
    },
    "millsfield:similar": {
      "google/siglip2-so400m-patch16-naflex": [
        {
          "distance": 0.18634945154190063,
          "id": 1729360541
        },
        {
          "distance": 0.1877974271774292,
          "id": 1729361735
        },
        {
          "distance": 0.19142812490463257,
          "id": 1763558959
        },
        {
          "distance": 0.1938449740409851,
          "id": 1729361153
        },
        {
          "distance": 0.19725024700164795,
          "id": 1729361465
        },
        {
          "distance": 0.19907879829406738,
          "id": 1729355743
        },
        {
          "distance": 0.20112097263336182,
          "id": 1729360259
        },
        {
          "distance": 0.2043699026107788,
          "id": 1729361577
        },
        {
          "distance": 0.2044026255607605,
          "id": 1880151167
        },
        {
          "distance": 0.20579493045806885,
          "id": 1763559367
        }
      ]
    },
    "sfomuseum:placetype": "instagram",
    "src:geom": "sfomuseum",
    "wof:belongsto": [
      1159160869,
      102527513,
      102191575,
      85633793,
      102087579,
      85922583,
      85688637
    ],
    "wof:country": "US",
    "wof:created": 1446028920,
    "wof:geomhash": "b6e33f47475d56bc8da457bc31afadc8",
    "wof:hierarchy": [
      {
        "building_id": 1159160869,
        "campus_id": 102527513,
        "continent_id": 102191575,
        "country_id": 85633793,
        "county_id": 102087579,
        "custom_id": 1729361413,
        "instagram_id": 1729361413,
        "locality_id": 85922583,
        "neighbourhood_id": -1,
        "region_id": 85688637
      }
    ],
    "wof:id": 1729361413,
    "wof:lastmodified": 1787777645,
    "wof:name": "..",
    "wof:parent_id": 1159160869,
    "wof:placetype": "custom",
    "wof:placetype_alt": [
      "instagram"
    ],
    "wof:repo": "sfomuseum-data-socialmedia-instagram",
    "wof:superseded_by": [],
    "wof:supersedes": []
  },
  "bbox": [
    -122.386166,
    37.616356,
    -122.386166,
    37.616356
  ],
  "geometry": {"type":"Point","coordinates":[-122.386166,37.616356]}
}
